AXFMFLYMASTER LIVETRACK
HFDTE210926
HFFXA010
HFPLTPILOT:Ben Pedersen Wedlock
HFGTYGLIDERTYPE:Niviuk Iceapeak X-one / Ozone Submarine
HFCIDCOMPETITIONID:561
HFDTM100GPSDATUM:WGS-1984
HFRFWFIRMWAREVERSION:lt.flymaster.net bsGetPilotTrack
B2013573838058N11203630WA0267002670
B2013583838058N11203630WA0267002670
B2013593838059N11203632WA0267002670
B2014003838058N11203634WA0267002670
B2014013838058N11203637WA0267002670
B2014023838056N11203640WA0266902669
B2014033838055N11203644WA0266902669
B2014043838053N11203648WA0266802668
B2014053838052N11203651WA0266802668
B2014063838051N11203655WA0266702667
B2014073838050N11203659WA0266602666
B2014083838050N11203664WA0266502665
B2014093838050N11203669WA0266302663
B2014103838049N11203674WA0266102661
B2014113838048N11203679WA0266002660
B2014123838048N11203684WA0265802658
B2014133838047N11203689WA0265802658
B2014143838046N11203694WA0265802658
B2014153838045N11203698WA0265702657
B2014163838044N11203703WA0265702657
B2014173838043N11203708WA0265502655
B2014183838043N11203713WA0265402654
B2014193838043N11203719WA0265502655
B2014203838042N11203724WA0265402654
B2014213838042N11203730WA0265302653
B2014223838041N11203736WA0265202652
B2014233838040N11203742WA0265102651
B2014243838038N11203749WA0265102651
B2014253838038N11203757WA0265002650
B2014263838038N11203764WA0265002650
B2014273838038N11203772WA0264802648
B2014283838038N11203780WA0264702647
B2014293838038N11203786WA0264802648
B2014303838039N11203792WA0264902649
B2014313838039N11203796WA0264902649
B2014323838040N11203801WA0264802648
B2014333838041N11203806WA0264502645
B2014343838042N11203811WA0263902639
B2014353838042N11203818WA0263502635
B2014363838041N11203824WA0263202632
B2014373838039N11203830WA0262902629
B2014383838035N11203835WA0262602626
B2014393838031N11203839WA0262402624
B2014403838027N11203842WA0262202622
B2014413838024N11203845WA0262002620
B2014423838021N11203849WA0261802618
B2014433838017N11203852WA0261402614
B2014443838013N11203856WA0260902609
B2014453838008N11203860WA0260402604
B2014463838003N11203863WA0260002600
B2014473837998N11203867WA0260002600
B2014483837992N11203869WA0260102601
B2014493837987N11203871WA0260102601
B2014503837982N11203871WA0260302603
B2014513837976N11203871WA0260102601
B2014523837971N11203871WA0260302603
B2014533837967N11203872WA0260202602
B2014543837962N11203873WA0260302603
B2014553837957N11203875WA0260202602
B2014563837952N11203876WA0260002600
B2014573837946N11203877WA0259802598
B2014583837940N11203877WA0259802598
B2014593837935N11203876WA0259802598
B2015003837931N11203875WA0259802598
B2015013837927N11203874WA0259702597
B2015023837922N11203874WA0259702597
B2015033837918N11203874WA0259702597
B2015043837913N11203874WA0259602596
B2015053837909N11203873WA0259702597
B2015063837904N11203871WA0259702597
B2015073837900N11203868WA0259802598
B2015083837895N11203864WA0259802598
B2015093837891N11203861WA0259702597
B2015103837886N11203859WA0259702597
B2015113837882N11203860WA0259702597
B2015123837878N11203862WA0259602596
B2015133837875N11203867WA0259502595
B2015143837874N11203872WA0259502595
B2015153837875N11203877WA0259402594
B2015163837878N11203881WA0259302593
B2015173837884N11203883WA0259202592
B2015183837890N11203883WA0259102591
B2015193837897N11203880WA0259302593
B2015203837902N11203874WA0259602596
B2015213837908N11203867WA0259702597
B2015223837913N11203861WA0259702597
B2015233837918N11203857WA0259602596
B2015243837924N11203855WA0259702597
B2015253837930N11203856WA0259602596
B2015263837936N11203859WA0259502595
B2015273837939N11203864WA0259502595
B2015283837942N11203868WA0259602596
B2015293837942N11203873WA0259502595
B2015303837940N11203876WA0259402594
B2015313837936N11203879WA0259302593
B2015323837932N11203881WA0259402594
B2015333837927N11203883WA0259602596
B2015343837922N11203884WA0259602596
B2015353837917N11203884WA0259702597
B2015363837912N11203884WA0259702597
B2015373837907N11203882WA0259702597
B2015383837902N11203879WA0259702597
B2015393837897N11203874WA0259802598
B2015403837893N11203869WA0259802598
B2015413837889N11203863WA0259802598
B2015423837884N11203858WA0259702597
B2015433837879N11203853WA0259702597
B2015443837874N11203850WA0259702597
B2015453837869N11203847WA0259702597
B2015463837865N11203844WA0259702597
B2015473837860N11203839WA0259602596
B2015483837856N11203833WA0259702597
B2015493837853N11203826WA0259702597
B2015503837851N11203819WA0259502595
B2015513837849N11203814WA0259902599
B2015523837846N11203811WA0260502605
B2015533837842N11203811WA0260702607
B2015543837838N11203813WA0260702607
B2015553837834N11203817WA0260602606
B2015563837831N11203823WA0260702607
B2015573837831N11203830WA0260902609
B2015583837835N11203837WA0260802608
B2015593837840N11203842WA0260702607
B2016003837845N11203846WA0260702607
B2016013837848N11203850WA0260902609
B2016023837850N11203854WA0261202612
B2016033837851N11203858WA0261302613
B2016043837851N11203863WA0261402614
B2016053837852N11203868WA0261402614
B2016063837852N11203875WA0261402614
B2016073837851N11203882WA0261302613
B2016083837850N11203888WA0261402614
B2016093837849N11203894WA0261402614
B2016103837848N11203900WA0261402614
B2016113837846N11203904WA0261502615
B2016123837844N11203906WA0261502615
B2016133837839N11203906WA0261402614
B2016143837835N11203903WA0261202612
B2016153837831N11203897WA0261002610
B2016163837829N11203890WA0260902609
B2016173837829N11203882WA0260902609
B2016183837832N11203874WA0260902609
B2016193837837N11203867WA0260802608
B2016203837843N11203863WA0260802608
B2016213837849N11203863WA0260902609
B2016223837854N11203864WA0260902609
B2016233837859N11203866WA0261002610
B2016243837863N11203868WA0261002610
B2016253837868N11203871WA0260902609
B2016263837874N11203874WA0260702607
B2016273837881N11203877WA0260502605
B2016283837888N11203879WA0260302603
B2016293837895N11203879WA0260202602
B2016303837902N11203877WA0260202602
B2016313837908N11203874WA0260102601
B2016323837914N11203870WA0260002600
B2016333837921N11203867WA0259902599
B2016343837928N11203863WA0259902599
B2016353837935N11203860WA0260002600
B2016363837941N11203858WA0259902599
B2016373837948N11203856WA0259802598
B2016383837955N11203853WA0259602596
B2016393837962N11203850WA0259502595
B2016403837969N11203847WA0259402594
B2016413837976N11203844WA0259302593
B2016423837982N11203842WA0259202592
B2016433837988N11203840WA0259102591
B2016443837993N11203840WA0259102591
B2016453837998N11203843WA0259002590
B2016463838002N11203847WA0259102591
B2016473838003N11203852WA0259002590
B2016483838003N11203858WA0258902589
B2016493838000N11203862WA0258702587
B2016503837996N11203864WA0258602586
B2016513837991N11203864WA0258602586
B2016523837987N11203861WA0258602586
B2016533837983N11203857WA0258602586
B2016543837979N11203853WA0258602586
B2016553837975N11203849WA0258602586
B2016563837971N11203848WA0258502585
B2016573837966N11203850WA0258402584
B2016583837961N11203853WA0258102581
B2016593837957N11203855WA0258002580
B2017003837953N11203856WA0258002580
B2017013837949N11203854WA0257902579
B2017023837944N11203851WA0257802578
B2017033837940N11203847WA0257702577
B2017043837934N11203843WA0257602576
B2017053837929N11203840WA0257502575
B2017063837923N11203836WA0257502575
B2017073837918N11203833WA0257402574
B2017083837913N11203830WA0257402574
B2017093837909N11203827WA0257302573
B2017103837905N11203822WA0257202572
B2017113837900N11203817WA0257102571
B2017123837896N11203811WA0257102571
B2017133837892N11203805WA0257102571
B2017143837888N11203800WA0257102571
B2017153837883N11203796WA0257102571
B2017163837878N11203793WA0257102571
B2017173837873N11203790WA0257202572
B2017183837868N11203787WA0257202572
B2017193837864N11203784WA0257002570
B2017203837861N11203779WA0256902569
B2017213837859N11203774WA0256802568
B2017223837857N11203769WA0256802568
B2017233837855N11203765WA0256802568
B2017243837852N11203762WA0256802568
B2017253837849N11203759WA0256802568
B2017263837846N11203756WA0256702567
B2017273837844N11203754WA0256502565
B2017283837840N11203755WA0256402564
B2017293837836N11203759WA0256402564
B2017303837834N11203764WA0256302563
B2017313837833N11203769WA0256402564
B2017323837832N11203774WA0256302563
B2017333837835N11203778WA0256402564
B2017343837838N11203781WA0256402564
B2017353837842N11203784WA0256302563
B2017363837846N11203787WA0256202562
B2017373837850N11203790WA0256202562
B2017383837855N11203792WA0256302563
B2017393837860N11203793WA0256302563
B2017403837865N11203792WA0256302563
B2017413837871N11203792WA0256202562
B2017423837877N11203795WA0256202562
B2017433837882N11203800WA0256402564
B2017443837885N11203807WA0256502565
B2017453837885N11203813WA0256502565
B2017463837884N11203819WA0256602566
B2017473837882N11203822WA0256702567
B2017483837878N11203823WA0256702567
B2017493837874N11203823WA0256502565
B2017503837869N11203824WA0256402564
B2017513837865N11203826WA0256302563
B2017523837861N11203828WA0256302563
B2017533837858N11203832WA0256202562
B2017543837856N11203836WA0256102561
B2017553837855N11203841WA0256002560
B2017563837854N11203848WA0255802558
B2017573837854N11203856WA0255702557
B2017583837855N11203864WA0255502555
B2017593837858N11203871WA0255402554
B2018003837861N11203877WA0255202552
B2018013837865N11203882WA0255102551
B2018023837868N11203887WA0255002550
B2018033837871N11203892WA0254802548
B2018043837874N11203898WA0254702547
B2018053837876N11203903WA0254502545
B2018063837879N11203909WA0254502545
B2018073837881N11203915WA0254402544
B2018083837884N11203920WA0254202542
B2018093837887N11203927WA0254102541
B2018103837889N11203933WA0254002540
B2018113837892N11203939WA0253802538
B2018123837895N11203945WA0253702537
B2018133837897N11203951WA0253602536
B2018143837899N11203958WA0253602536
B2018153837901N11203965WA0253602536
B2018163837901N11203971WA0253502535
B2018173837901N11203976WA0253502535
B2018183837901N11203982WA0253302533
B2018193837901N11203988WA0253302533
B2018203837900N11203995WA0253202532
B2018213837898N11204001WA0253102531
B2018223837897N11204007WA0253002530
B2018233837895N11204013WA0253002530
B2018243837894N11204017WA0253002530
B2018253837893N11204020WA0253002530
B2018263837891N11204024WA0253102531
B2018273837889N11204029WA0253002530
B2018283837887N11204034WA0253102531
B2018293837885N11204040WA0253002530
B2018303837883N11204046WA0253002530
B2018313837882N11204051WA0253002530
B2018323837882N11204057WA0252902529
B2018333837880N11204064WA0252902529
B2018343837879N11204071WA0252802528
B2018353837877N11204077WA0252802528
B2018363837875N11204083WA0252802528
B2018373837872N11204089WA0252902529
B2018383837870N11204095WA0252902529
B2018393837868N11204101WA0252902529
B2018403837866N11204108WA0253002530
B2018413837864N11204114WA0252902529
B2018423837862N11204121WA0252902529
B2018433837860N11204128WA0252902529
B2018443837858N11204135WA0252802528
B2018453837855N11204143WA0252802528
B2018463837851N11204149WA0253002530
B2018473837847N11204155WA0253202532
B2018483837844N11204160WA0253502535
B2018493837843N11204164WA0253802538
B2018503837843N11204168WA0254102541
B2018513837844N11204172WA0254102541
B2018523837845N11204176WA0254002540
B2018533837846N11204182WA0253802538
B2018543837847N11204189WA0253502535
B2018553837848N11204197WA0253302533
B2018563837850N11204204WA0253202532
B2018573837851N11204211WA0253202532
B2018583837854N11204217WA0253102531
B2018593837856N11204222WA0253102531
B2019003837860N11204228WA0252902529
B2019013837863N11204235WA0252702527
B2019023837866N11204242WA0252702527
B2019033837868N11204248WA0252802528
B2019043837869N11204254WA0253002530
B2019053837868N11204260WA0253102531
B2019063837866N11204265WA0252902529
B2019073837864N11204271WA0252902529
B2019083837861N11204276WA0252902529
B2019093837858N11204282WA0252902529
B2019103837856N11204288WA0252902529
B2019113837854N11204295WA0252902529
B2019123837853N11204301WA0252802528
B2019133837850N11204308WA0252802528
B2019143837847N11204314WA0252802528
B2019153837843N11204319WA0252802528
B2019163837840N11204325WA0252902529
B2019173837837N11204331WA0252802528
B2019183837834N11204338WA0252802528
B2019193837832N11204345WA0252702527
B2019203837829N11204352WA0252702527
B2019213837827N11204358WA0252602526
B2019223837824N11204364WA0252502525
B2019233837820N11204370WA0252402524
B2019243837817N11204377WA0252202522
B2019253837814N11204384WA0252102521
B2019263837812N11204390WA0252102521
B2019273837810N11204397WA0252002520
B2019283837808N11204403WA0252002520
B2019293837806N11204409WA0251802518
B2019303837804N11204416WA0251702517
B2019313837801N11204423WA0251502515
B2019323837796N11204430WA0251402514
B2019333837793N11204435WA0251302513
B2019343837789N11204441WA0251202512
B2019353837785N11204446WA0251102511
B2019363837782N11204452WA0251102511
B2019373837780N11204458WA0250902509
B2019383837778N11204465WA0250702507
B2019393837776N11204472WA0250502505
B2019403837773N11204480WA0250302503
B2019413837770N11204487WA0250202502
B2019423837766N11204494WA0250102501
B2019433837764N11204500WA0249902499
B2019443837761N11204506WA0249802498
B2019453837759N11204514WA0249502495
B2019463837757N11204522WA0249302493
B2019473837755N11204530WA0249102491
B2019483837752N11204539WA0248902489
B2019493837750N11204546WA0248802488
B2019503837748N11204554WA0248702487
B2019513837746N11204561WA0248702487
B2019523837744N11204568WA0248602486
B2019533837741N11204576WA0248502485
B2019543837739N11204583WA0248302483
B2019553837736N11204591WA0248202482
B2019563837733N11204600WA0248002480
B2019573837730N11204608WA0247802478
B2019583837727N11204617WA0247702477
B2019593837724N11204624WA0247702477
B2020003837721N11204631WA0247802478
B2020013837719N11204637WA0247802478
B2020023837716N11204642WA0247902479
B2020033837714N11204647WA0247902479
B2020043837711N11204651WA0247802478
B2020053837707N11204656WA0247802478
B2020063837703N11204659WA0247802478
B2020073837700N11204663WA0247802478
B2020083837697N11204668WA0247802478
B2020093837695N11204674WA0247602476
B2020103837694N11204680WA0247402474
B2020113837694N11204688WA0247202472
B2020123837695N11204694WA0247202472
B2020133837697N11204698WA0247302473
B2020143837700N11204702WA0247302473
B2020153837704N11204704WA0247102471
B2020163837709N11204706WA0247102471
B2020173837715N11204706WA0247002470
B2020183837720N11204705WA0246902469
B2020193837725N11204703WA0246802468
B2020203837731N11204700WA0246802468
B2020213837736N11204698WA0246602466
B2020223837742N11204696WA0246602466
B2020233837748N11204696WA0246502465
B2020243837754N11204695WA0246502465
B2020253837760N11204695WA0246502465
B2020263837766N11204693WA0246602466
B2020273837771N11204692WA0246602466
B2020283837776N11204692WA0246602466
B2020293837780N11204694WA0246502465
B2020303837784N11204697WA0246502465
B2020313837786N11204703WA0246402464
B2020323837786N11204708WA0246202462
B2020333837784N11204712WA0246302463
B2020343837781N11204715WA0246302463
B2020353837778N11204717WA0246302463
B2020363837774N11204717WA0246302463
B2020373837770N11204716WA0246302463
B2020383837766N11204714WA0246302463
B2020393837761N11204711WA0246102461
B2020403837756N11204707WA0246002460
B2020413837750N11204703WA0245802458
B2020423837745N11204699WA0245802458
B2020433837739N11204697WA0245802458
B2020443837734N11204697WA0245902459
B2020453837729N11204698WA0245902459
B2020463837725N11204700WA0245902459
B2020473837721N11204703WA0245902459
B2020483837718N11204708WA0245702457
B2020493837715N11204712WA0245602456
B2020503837712N11204718WA0245502455
B2020513837710N11204723WA0245502455
B2020523837709N11204729WA0245502455
B2020533837707N11204734WA0245402454
B2020543837705N11204740WA0245402454
B2020553837703N11204745WA0245402454
B2020563837701N11204750WA0245402454
B2020573837700N11204755WA0245302453
B2020583837698N11204760WA0245302453
B2020593837695N11204765WA0245302453
B2021003837692N11204771WA0245202452
B2021013837688N11204776WA0245202452
B2021023837686N11204782WA0245202452
B2021033837683N11204789WA0245102451
B2021043837681N11204795WA0245102451
B2021053837678N11204801WA0245002450
B2021063837676N11204807WA0245002450
B2021073837672N11204812WA0244902449
B2021083837669N11204818WA0244902449
B2021093837666N11204823WA0244802448
B2021103837664N11204829WA0244802448
B2021113837662N11204836WA0244802448
B2021123837661N11204841WA0244802448
B2021133837661N11204847WA0244902449
B2021143837660N11204852WA0245002450
B2021153837660N11204857WA0245002450
B2021163837660N11204862WA0245102451
B2021173837658N11204866WA0245102451
B2021183837655N11204869WA0244902449
B2021193837650N11204870WA0244502445
B2021203837644N11204869WA0244202442
B2021213837639N11204866WA0244202442
B2021223837635N11204861WA0244202442
B2021233837632N11204854WA0244202442
B2021243837630N11204845WA0244102441
B2021253837628N11204837WA0244202442
B2021263837629N11204829WA0244402444
B2021273837631N11204822WA0244502445
B2021283837634N11204816WA0244502445
B2021293837639N11204813WA0244502445
B2021303837645N11204812WA0244502445
B2021313837650N11204813WA0244502445
B2021323837654N11204816WA0244602446
B2021333837657N11204821WA0244702447
B2021343837658N11204827WA0244802448
B2021353837658N11204833WA0244802448
B2021363837656N11204839WA0244802448
B2021373837654N11204843WA0244802448
B2021383837653N11204847WA0244802448
B2021393837651N11204851WA0244702447
B2021403837648N11204857WA0244702447
B2021413837646N11204863WA0244602446
B2021423837645N11204869WA0244602446
B2021433837643N11204874WA0244602446
B2021443837641N11204879WA0244702447
B2021453837640N11204884WA0244702447
B2021463837638N11204889WA0244602446
B2021473837635N11204894WA0244502445
B2021483837633N11204900WA0244502445
B2021493837630N11204905WA0244402444
B2021503837627N11204911WA0244402444
B2021513837626N11204916WA0244502445
B2021523837624N11204921WA0244502445
B2021533837623N11204925WA0244502445
B2021543837621N11204930WA0244502445
B2021553837619N11204936WA0244502445
B2021563837618N11204942WA0244502445
B2021573837618N11204948WA0244402444
B2021583837619N11204954WA0244402444
B2021593837622N11204960WA0244402444
B2022003837624N11204966WA0244402444
B2022013837627N11204972WA0244202442
B2022023837629N11204980WA0244202442
B2022033837629N11204988WA0244102441
B2022043837629N11204995WA0244202442
B2022053837628N11205002WA0244302443
B2022063837627N11205008WA0244402444
B2022073837626N11205014WA0244502445
B2022083837622N11205020WA0244502445
B2022093837617N11205027WA0244402444
B2022103837611N11205031WA0244402444
B2022113837605N11205033WA0244802448
B2022123837600N11205032WA0245102451
B2022133837596N11205029WA0245202452
B2022143837592N11205024WA0245402454
B2022153837590N11205016WA0245402454
B2022163837589N11205009WA0245402454
B2022173837589N11205001WA0245502455
B2022183837591N11204994WA0245702457
B2022193837595N11204989WA0245802458
B2022203837600N11204986WA0245902459
B2022213837605N11204984WA0245902459
B2022223837610N11204985WA0246002460
B2022233837613N11204988WA0246202462
B2022243837616N11204992WA0246502465
B2022253837618N11204997WA0246502465
B2022263837617N11205004WA0246502465
B2022273837616N11205011WA0246302463
B2022283837614N11205018WA0246302463
B2022293837610N11205024WA0246302463
B2022303837605N11205027WA0246402464
B2022313837600N11205027WA0246402464
B2022323837595N11205026WA0246502465
B2022333837591N11205021WA0246702467
B2022343837588N11205015WA0246702467
B2022353837587N11205008WA0246802468
B2022363837586N11205001WA0246802468
B2022373837587N11204994WA0246902469
B2022383837589N11204988WA0246902469
B2022393837592N11204982WA0247002470
B2022403837595N11204977WA0247002470
B2022413837599N11204973WA0247102471
B2022423837604N11204971WA0247202472
B2022433837607N11204971WA0247202472
B2022443837611N11204972WA0247302473
B2022453837614N11204975WA0247202472
B2022463837617N11204981WA0247202472
B2022473837618N11204989WA0247202472
B2022483837618N11204996WA0247102471
B2022493837617N11205004WA0247102471
B2022503837616N11205010WA0247102471
B2022513837616N11205016WA0247202472
B2022523837614N11205021WA0247202472
B2022533837612N11205026WA0247102471
B2022543837609N11205031WA0247002470
B2022553837605N11205035WA0246902469
B2022563837600N11205039WA0246902469
B2022573837595N11205041WA0247102471
B2022583837590N11205041WA0247302473
B2022593837585N11205039WA0247502475
B2023003837581N11205036WA0247502475
B2023013837576N11205031WA0247602476
B2023023837573N11205024WA0247602476
B2023033837572N11205017WA0247602476
B2023043837572N11205010WA0247602476
B2023053837574N11205002WA0247502475
B2023063837577N11204995WA0247502475
B2023073837581N11204988WA0247502475
B2023083837586N11204982WA0247502475
B2023093837592N11204977WA0247502475
B2023103837599N11204975WA0247502475
B2023113837604N11204975WA0247502475
B2023123837609N11204978WA0247502475
B2023133837612N11204982WA0247402474
B2023143837614N11204987WA0247302473
B2023153837615N11204994WA0247102471
B2023163837616N11205002WA0246902469
B2023173837615N11205010WA0246902469
B2023183837613N11205017WA0246802468
B2023193837611N11205022WA0246902469
B2023203837609N11205027WA0246902469
B2023213837608N11205032WA0246902469
B2023223837606N11205036WA0247002470
B2023233837605N11205041WA0246902469
B2023243837602N11205044WA0246802468
B2023253837597N11205045WA0246602466
B2023263837591N11205043WA0246502465
B2023273837586N11205040WA0246502465
B2023283837583N11205034WA0246802468
B2023293837581N11205026WA0247002470
B2023303837580N11205018WA0247002470
B2023313837582N11205011WA0247102471
B2023323837586N11205005WA0247202472
B2023333837591N11205001WA0247302473
B2023343837596N11205000WA0247402474
B2023353837602N11205004WA0247402474
B2023363837605N11205010WA0247602476
B2023373837605N11205016WA0247602476
B2023383837604N11205022WA0247702477
B2023393837601N11205026WA0247802478
B2023403837596N11205027WA0247902479
B2023413837592N11205026WA0248002480
B2023423837587N11205023WA0248002480
B2023433837582N11205018WA0248002480
B2023443837579N11205011WA0248002480
B2023453837578N11205002WA0248102481
B2023463837580N11204995WA0248302483
B2023473837583N11204989WA0248402484
B2023483837587N11204985WA0248602486
B2023493837593N11204984WA0248702487
B2023503837600N11204985WA0248602486
B2023513837606N11204988WA0248502485
B2023523837611N11204993WA0248402484
B2023533837614N11204999WA0248502485
B2023543837614N11205005WA0248402484
B2023553837613N11205011WA0248402484
B2023563837610N11205016WA0248502485
B2023573837607N11205021WA0248502485
B2023583837603N11205024WA0248502485
B2023593837598N11205025WA0248602486
B2024003837593N11205024WA0248602486
B2024013837587N11205021WA0248702487
B2024023837584N11205016WA0248802488
B2024033837581N11205010WA0248902489
B2024043837580N11205005WA0249002490
B2024053837580N11204998WA0249102491
B2024063837583N11204991WA0249102491
B2024073837586N11204985WA0249102491
B2024083837591N11204980WA0249202492
B2024093837597N11204978WA0249202492
B2024103837603N11204979WA0249302493
B2024113837609N11204982WA0249302493
B2024123837614N11204987WA0249202492
B2024133837617N11204993WA0249202492
B2024143837619N11205000WA0249202492
B2024153837618N11205007WA0249202492
B2024163837617N11205013WA0249202492
B2024173837614N11205018WA0249202492
B2024183837610N11205021WA0249202492
B2024193837606N11205024WA0249102491
B2024203837600N11205024WA0249102491
B2024213837595N11205021WA0249002490
B2024223837590N11205017WA0249002490
B2024233837587N11205011WA0249002490
B2024243837585N11205004WA0249002490
B2024253837585N11204996WA0249002490
B2024263837587N11204990WA0249202492
B2024273837590N11204985WA0249402494
B2024283837593N11204982WA0249502495
B2024293837597N11204979WA0249602496
B2024303837602N11204976WA0249602496
B2024313837608N11204974WA0249502495
B2024323837614N11204972WA0249502495
B2024333837620N11204973WA0249602496
B2024343837625N11204976WA0249602496
B2024353837628N11204982WA0249402494
B2024363837630N11204989WA0249102491
B2024373837630N11204996WA0249002490
B2024383837628N11205002WA0249002490
B2024393837625N11205007WA0249202492
B2024403837622N11205011WA0249102491
B2024413837617N11205015WA0249002490
B2024423837612N11205018WA0248902489
B2024433837606N11205021WA0248802488
B2024443837600N11205024WA0248802488
B2024453837594N11205025WA0248902489
B2024463837588N11205027WA0248902489
B2024473837582N11205028WA0248802488
B2024483837576N11205030WA0248802488
B2024493837570N11205030WA0248802488
B2024503837564N11205029WA0248702487
B2024513837559N11205026WA0248702487
B2024523837554N11205021WA0248702487
B2024533837551N11205015WA0248702487
B2024543837549N11205009WA0248702487
B2024553837549N11205004WA0248802488
B2024563837549N11204998WA0248802488
B2024573837551N11204993WA0248802488
B2024583837555N11204989WA0248702487
B2024593837559N11204985WA0248702487
B2025003837564N11204984WA0248702487
B2025013837569N11204985WA0248702487
B2025023837574N11204987WA0248802488
B2025033837577N11204990WA0248902489
B2025043837581N11204995WA0249002490
B2025053837584N11205000WA0249002490
B2025063837586N11205006WA0249102491
B2025073837586N11205012WA0249002490
B2025083837585N11205018WA0249002490
B2025093837581N11205024WA0249002490
B2025103837577N11205028WA0248902489
B2025113837572N11205031WA0248802488
B2025123837566N11205032WA0248802488
B2025133837560N11205030WA0248802488
B2025143837555N11205027WA0248702487
B2025153837552N11205022WA0248702487
B2025163837549N11205016WA0248702487
B2025173837548N11205011WA0248702487
B2025183837548N11205005WA0248602486
B2025193837549N11205000WA0248602486
B2025203837551N11204994WA0248602486
B2025213837553N11204989WA0248502485
B2025223837556N11204984WA0248502485
B2025233837560N11204981WA0248502485
B2025243837565N11204978WA0248502485
B2025253837570N11204975WA0248402484
B2025263837575N11204971WA0248402484
B2025273837579N11204967WA0248402484
B2025283837584N11204965WA0248502485
B2025293837588N11204964WA0248502485
B2025303837593N11204965WA0248502485
B2025313837598N11204967WA0248302483
B2025323837602N11204972WA0248202482
B2025333837605N11204976WA0248302483
B2025343837606N11204982WA0248302483
B2025353837605N11204987WA0248202482
B2025363837602N11204992WA0248102481
B2025373837599N11204996WA0248102481
B2025383837594N11204999WA0248002480
B2025393837590N11205000WA0247902479
B2025403837585N11204999WA0247802478
B2025413837579N11204997WA0247702477
B2025423837574N11204993WA0247502475
B2025433837570N11204987WA0247402474
B2025443837568N11204979WA0247302473
B2025453837567N11204971WA0247202472
B2025463837566N11204962WA0247202472
B2025473837566N11204955WA0247202472
B2025483837564N11204948WA0247402474
B2025493837563N11204942WA0247402474
B2025503837561N11204937WA0247402474
B2025513837560N11204931WA0247402474
B2025523837559N11204923WA0247302473
B2025533837559N11204916WA0247102471
B2025543837558N11204908WA0247102471
B2025553837557N11204900WA0247202472
B2025563837556N11204893WA0247302473
B2025573837553N11204887WA0247202472
B2025583837551N11204880WA0247202472
B2025593837548N11204873WA0247302473
B2026003837547N11204866WA0247302473
B2026013837547N11204859WA0247402474
B2026023837549N11204853WA0247402474
B2026033837554N11204849WA0247402474
B2026043837560N11204847WA0247202472
B2026053837565N11204849WA0247302473
B2026063837570N11204852WA0247402474
B2026073837573N11204856WA0247502475
B2026083837575N11204862WA0247602476
B2026093837576N11204869WA0247602476
B2026103837575N11204876WA0247602476
B2026113837573N11204883WA0247602476
B2026123837569N11204888WA0247602476
B2026133837564N11204892WA0247602476
B2026143837558N11204893WA0247702477
B2026153837552N11204892WA0247802478
B2026163837547N11204890WA0247902479
B2026173837542N11204886WA0247902479
B2026183837539N11204878WA0247902479
B2026193837537N11204871WA0247902479
B2026203837538N11204864WA0248002480
B2026213837541N11204858WA0248002480
B2026223837545N11204852WA0248002480
B2026233837549N11204847WA0248102481
B2026243837553N11204843WA0248102481
B2026253837557N11204839WA0248302483
B2026263837560N11204837WA0248402484
B2026273837563N11204837WA0248402484
B2026283837567N11204839WA0248302483
B2026293837570N11204844WA0248102481
B2026303837571N11204850WA0248102481
B2026313837570N11204856WA0248202482
B2026323837568N11204861WA0248202482
B2026333837564N11204866WA0248202482
B2026343837559N11204868WA0248202482
B2026353837552N11204868WA0248102481
B2026363837546N11204865WA0248002480
B2026373837541N11204861WA0248002480
B2026383837538N11204854WA0248002480
B2026393837536N11204847WA0248002480
B2026403837536N11204840WA0248002480
B2026413837537N11204833WA0248002480
B2026423837538N11204826WA0248102481
B2026433837540N11204820WA0248102481
B2026443837543N11204815WA0248102481
B2026453837548N11204812WA0248102481
B2026463837553N11204811WA0248002480
B2026473837558N11204812WA0248002480
B2026483837562N11204815WA0248002480
B2026493837566N11204818WA0248002480
B2026503837569N11204822WA0248002480
B2026513837572N11204827WA0248002480
B2026523837573N11204834WA0248002480
B2026533837572N11204840WA0248002480
B2026543837569N11204846WA0247902479
B2026553837564N11204851WA0247902479
B2026563837558N11204852WA0247902479
B2026573837552N11204850WA0247902479
B2026583837547N11204847WA0248002480
B2026593837542N11204842WA0248002480
B2027003837539N11204836WA0248002480
B2027013837536N11204829WA0247902479
B2027023837535N11204821WA0248002480
B2027033837536N11204814WA0248102481
B2027043837537N11204808WA0248102481
B2027053837539N11204801WA0248202482
B2027063837542N11204794WA0248202482
B2027073837544N11204787WA0248202482
B2027083837547N11204782WA0248202482
B2027093837551N11204778WA0248302483
B2027103837556N11204777WA0248302483
B2027113837561N11204780WA0248202482
B2027123837565N11204784WA0248102481
B2027133837568N11204789WA0248102481
B2027143837569N11204795WA0248102481
B2027153837570N11204800WA0248002480
B2027163837570N11204806WA0248002480
B2027173837568N11204812WA0247902479
B2027183837565N11204817WA0247902479
B2027193837560N11204822WA0247702477
B2027203837555N11204824WA0247602476
B2027213837548N11204825WA0247502475
B2027223837542N11204823WA0247502475
B2027233837537N11204818WA0247502475
B2027243837533N11204811WA0247402474
B2027253837530N11204803WA0247402474
B2027263837528N11204794WA0247402474
B2027273837526N11204786WA0247602476
B2027283837525N11204778WA0247702477
B2027293837525N11204770WA0247702477
B2027303837525N11204763WA0247702477
B2027313837528N11204757WA0247702477
B2027323837531N11204752WA0247802478
B2027333837536N11204750WA0247802478
B2027343837541N11204750WA0247702477
B2027353837546N11204752WA0247702477
B2027363837548N11204757WA0247802478
B2027373837547N11204763WA0247802478
B2027383837545N11204769WA0247802478
B2027393837542N11204775WA0247602476
B2027403837537N11204780WA0247602476
B2027413837531N11204783WA0247602476
B2027423837524N11204783WA0247502475
B2027433837518N11204781WA0247502475
B2027443837512N11204776WA0247602476
B2027453837508N11204771WA0247702477
B2027463837505N11204764WA0247802478
B2027473837504N11204758WA0247802478
B2027483837505N11204750WA0247902479
B2027493837509N11204744WA0247902479
B2027503837514N11204740WA0248002480
B2027513837519N11204740WA0248202482
B2027523837523N11204741WA0248402484
B2027533837526N11204745WA0248602486
B2027543837527N11204749WA0248702487
B2027553837527N11204754WA0248702487
B2027563837526N11204761WA0248702487
B2027573837523N11204768WA0248602486
B2027583837519N11204773WA0248602486
B2027593837512N11204774WA0248702487
B2028003837506N11204771WA0248602486
B2028013837501N11204766WA0248502485
B2028023837497N11204759WA0248602486
B2028033837496N11204750WA0248802488
B2028043837497N11204743WA0248902489
B2028053837499N11204736WA0249102491
B2028063837501N11204729WA0249302493
B2028073837505N11204724WA0249302493
B2028083837509N11204719WA0249402494
B2028093837513N11204716WA0249502495
B2028103837517N11204714WA0249602496
B2028113837522N11204713WA0249702497
B2028123837526N11204713WA0249702497
B2028133837530N11204715WA0249702497
B2028143837534N11204718WA0249702497
B2028153837536N11204723WA0249702497
B2028163837538N11204728WA0249702497
B2028173837538N11204735WA0249602496
B2028183837538N11204742WA0249502495
B2028193837536N11204750WA0249402494
B2028203837534N11204758WA0249402494
B2028213837533N11204766WA0249302493
B2028223837532N11204775WA0249302493
B2028233837531N11204783WA0249202492
B2028243837530N11204791WA0249202492
B2028253837529N11204798WA0249202492
B2028263837528N11204806WA0249202492
B2028273837527N11204814WA0249102491
B2028283837526N11204822WA0249002490
B2028293837526N11204830WA0248902489
B2028303837526N11204837WA0248902489
B2028313837526N11204844WA0249002490
B2028323837526N11204849WA0249202492
B2028333837525N11204854WA0249402494
B2028343837525N11204857WA0249502495
B2028353837525N11204862WA0249602496
B2028363837525N11204868WA0249602496
B2028373837525N11204874WA0249602496
B2028383837526N11204881WA0249802498
B2028393837527N11204887WA0250002500
B2028403837528N11204893WA0250202502
B2028413837529N11204899WA0250402504
B2028423837530N11204904WA0250502505
B2028433837531N11204908WA0250702507
B2028443837531N11204912WA0250802508
B2028453837532N11204916WA0250902509
B2028463837533N11204922WA0250802508
B2028473837535N11204929WA0250602506
B2028483837538N11204936WA0250602506
B2028493837540N11204943WA0250702507
B2028503837543N11204950WA0250802508
B2028513837544N11204956WA0250802508
B2028523837546N11204963WA0250602506
B2028533837547N11204969WA0250502505
B2028543837550N11204976WA0250302503
B2028553837553N11204984WA0250102501
B2028563837555N11204992WA0249902499
B2028573837557N11205000WA0249902499
B2028583837559N11205009WA0249802498
B2028593837561N11205018WA0249802498
B2029003837563N11205027WA0249902499
B2029013837566N11205035WA0250102501
B2029023837569N11205042WA0250402504
B2029033837571N11205049WA0250502505
B2029043837574N11205056WA0250602506
B2029053837576N11205064WA0250702507
B2029063837579N11205070WA0250702507
B2029073837582N11205077WA0250802508
B2029083837584N11205083WA0250802508
B2029093837585N11205089WA0250702507
B2029103837587N11205096WA0250602506
B2029113837588N11205103WA0250602506
B2029123837589N11205110WA0250702507
B2029133837590N11205116WA0250802508
B2029143837591N11205123WA0250902509
B2029153837592N11205130WA0250902509
B2029163837593N11205136WA0251002510
B2029173837593N11205142WA0251002510
B2029183837594N11205148WA0251102511
B2029193837595N11205154WA0251202512
B2029203837595N11205160WA0251202512
B2029213837595N11205167WA0251202512
B2029223837594N11205174WA0251302513
B2029233837594N11205180WA0251402514
B2029243837593N11205185WA0251502515
B2029253837592N11205190WA0251602516
B2029263837590N11205195WA0251702517
B2029273837589N11205200WA0251802518
B2029283837586N11205205WA0251902519
B2029293837581N11205208WA0252102521
B2029303837576N11205209WA0252302523
B2029313837570N11205209WA0252502525
B2029323837565N11205205WA0252602526
B2029333837560N11205200WA0252702527
B2029343837557N11205192WA0252802528
B2029353837556N11205184WA0252802528
B2029363837556N11205174WA0252902529
B2029373837559N11205166WA0253002530
B2029383837562N11205159WA0253202532
B2029393837567N11205154WA0253302533
B2029403837572N11205151WA0253302533
B2029413837578N11205150WA0253302533
B2029423837584N11205151WA0253402534
B2029433837589N11205153WA0253402534
B2029443837593N11205157WA0253502535
B2029453837595N11205162WA0253602536
B2029463837597N11205167WA0253702537
B2029473837598N11205174WA0253602536
B2029483837599N11205182WA0253602536
B2029493837599N11205190WA0253602536
B2029503837598N11205197WA0253602536
B2029513837597N11205203WA0253702537
B2029523837596N11205207WA0253802538
B2029533837596N11205211WA0253902539
B2029543837596N11205216WA0253902539
B2029553837597N11205222WA0253902539
B2029563837598N11205229WA0253902539
B2029573837598N11205235WA0253902539
B2029583837597N11205242WA0253902539
B2029593837597N11205249WA0253902539
B2030003837595N11205255WA0254002540
B2030013837594N11205260WA0254002540
B2030023837592N11205265WA0254002540
B2030033837589N11205268WA0254102541
B2030043837586N11205270WA0254102541
B2030053837583N11205270WA0254102541
B2030063837580N11205269WA0254102541
B2030073837576N11205267WA0254002540
B2030083837573N11205264WA0253902539
B2030093837569N11205260WA0253802538
B2030103837565N11205258WA0253702537
B2030113837562N11205257WA0253802538
B2030123837560N11205258WA0253902539
B2030133837559N11205259WA0253902539
B2030143837559N11205263WA0253802538
B2030153837557N11205266WA0253602536
B2030163837555N11205270WA0253402534
B2030173837552N11205274WA0253202532
B2030183837550N11205278WA0253002530
B2030193837548N11205282WA0253002530
B2030203837547N11205288WA0253102531
B2030213837547N11205292WA0253202532
B2030223837547N11205297WA0253302533
B2030233837547N11205301WA0253302533
B2030243837546N11205307WA0253302533
B2030253837544N11205314WA0253302533
B2030263837543N11205321WA0253402534
B2030273837542N11205327WA0253502535
B2030283837541N11205332WA0253602536
B2030293837541N11205336WA0253702537
B2030303837540N11205342WA0253702537
B2030313837539N11205348WA0253702537
B2030323837539N11205355WA0253702537
B2030333837538N11205362WA0253702537
B2030343837538N11205368WA0253702537
B2030353837538N11205374WA0253802538
B2030363837537N11205380WA0253902539
B2030373837535N11205384WA0253902539
B2030383837533N11205388WA0253902539
B2030393837529N11205389WA0253902539
B2030403837524N11205389WA0253502535
B2030413837519N11205387WA0253302533
B2030423837515N11205383WA0253302533
B2030433837512N11205377WA0253302533
B2030443837511N11205370WA0253402534
B2030453837510N11205363WA0253302533
B2030463837511N11205355WA0253302533
B2030473837512N11205347WA0253302533
B2030483837513N11205338WA0253302533
B2030493837514N11205330WA0253402534
B2030503837516N11205322WA0253402534
B2030513837519N11205316WA0253502535
B2030523837523N11205310WA0253502535
B2030533837529N11205306WA0253502535
B2030543837536N11205305WA0253602536
B2030553837542N11205306WA0253802538
B2030563837547N11205309WA0254202542
B2030573837550N11205314WA0254302543
B2030583837552N11205321WA0254302543
B2030593837552N11205328WA0254402544
B2031003837551N11205334WA0254502545
B2031013837549N11205338WA0254702547
B2031023837546N11205341WA0254802548
B2031033837542N11205342WA0254802548
B2031043837537N11205342WA0254802548
B2031053837533N11205340WA0254702547
B2031063837528N11205337WA0254702547
B2031073837523N11205333WA0254702547
B2031083837519N11205329WA0254802548
B2031093837515N11205324WA0254802548
B2031103837512N11205317WA0254902549
B2031113837510N11205310WA0254902549
B2031123837509N11205302WA0254902549
B2031133837512N11205293WA0255002550
B2031143837515N11205286WA0255102551
B2031153837521N11205281WA0255102551
B2031163837526N11205279WA0255302553
B2031173837532N11205280WA0255402554
B2031183837537N11205283WA0255402554
B2031193837540N11205289WA0255502555
B2031203837541N11205296WA0255602556
B2031213837540N11205303WA0255602556
B2031223837537N11205309WA0255702557
B2031233837534N11205313WA0255802558
B2031243837530N11205315WA0255902559
B2031253837526N11205315WA0256002560
B2031263837522N11205312WA0256102561
B2031273837519N11205308WA0256002560
B2031283837516N11205301WA0256002560
B2031293837515N11205294WA0256002560
B2031303837515N11205286WA0256102561
B2031313837516N11205278WA0256302563
B2031323837519N11205272WA0256402564
B2031333837524N11205268WA0256502565
B2031343837530N11205266WA0256602566
B2031353837535N11205267WA0256702567
B2031363837540N11205270WA0256902569
B2031373837543N11205276WA0257002570
B2031383837545N11205282WA0257102571
B2031393837544N11205288WA0257202572
B2031403837542N11205294WA0257202572
B2031413837539N11205298WA0257302573
B2031423837536N11205300WA0257302573
B2031433837531N11205300WA0257302573
B2031443837526N11205298WA0257302573
B2031453837522N11205294WA0257302573
B2031463837519N11205288WA0257302573
B2031473837518N11205281WA0257402574
B2031483837518N11205273WA0257402574
B2031493837517N11205265WA0257502575
B2031503837516N11205257WA0257502575
B2031513837515N11205250WA0257602576
B2031523837514N11205242WA0258002580
B2031533837513N11205235WA0258202582
B2031543837512N11205229WA0258202582
B2031553837511N11205222WA0258202582
B2031563837509N11205213WA0258102581
B2031573837505N11205205WA0258002580
B2031583837501N11205197WA0257902579
B2031593837497N11205190WA0257902579
B2032003837493N11205182WA0258002580
B2032013837491N11205174WA0258102581
B2032023837491N11205165WA0258202582
B2032033837494N11205155WA0258302583
B2032043837497N11205146WA0258602586
B2032053837501N11205140WA0258702587
B2032063837507N11205136WA0258902589
B2032073837512N11205134WA0259002590
B2032083837517N11205133WA0259002590
B2032093837521N11205135WA0259202592
B2032103837524N11205138WA0259302593
B2032113837525N11205141WA0259402594
B2032123837525N11205145WA0259402594
B2032133837523N11205148WA0259502595
B2032143837521N11205151WA0259602596
B2032153837518N11205152WA0259702597
B2032163837513N11205150WA0259702597
B2032173837508N11205147WA0259702597
B2032183837503N11205142WA0259702597
B2032193837499N11205135WA0259702597
B2032203837496N11205128WA0259802598
B2032213837494N11205119WA0260002600
B2032223837495N11205110WA0260102601
B2032233837497N11205101WA0260102601
B2032243837502N11205092WA0260102601
B2032253837508N11205084WA0260202602
B2032263837515N11205078WA0260302603
B2032273837522N11205074WA0260302603
B2032283837528N11205073WA0260402604
B2032293837533N11205074WA0260502605
B2032303837537N11205077WA0260602606
B2032313837540N11205079WA0260702607
B2032323837542N11205081WA0260802608
B2032333837543N11205083WA0260902609
B2032343837542N11205085WA0261102611
B2032353837540N11205087WA0261202612
B2032363837536N11205087WA0261302613
B2032373837532N11205085WA0261502615
B2032383837527N11205082WA0261702617
B2032393837523N11205078WA0261902619
B2032403837520N11205073WA0262102621
B2032413837516N11205068WA0262102621
B2032423837512N11205062WA0262202622
B2032433837508N11205056WA0262302623
B2032443837504N11205048WA0262302623
B2032453837502N11205040WA0262402624
B2032463837501N11205031WA0262402624
B2032473837503N11205021WA0262402624
B2032483837506N11205010WA0262402624
B2032493837512N11205001WA0262302623
B2032503837520N11204996WA0262302623
B2032513837529N11204993WA0262102621
B2032523837536N11204993WA0261902619
B2032533837541N11204995WA0262002620
B2032543837544N11204998WA0262002620
B2032553837545N11205002WA0262002620
B2032563837545N11205005WA0262002620
B2032573837545N11205008WA0262002620
B2032583837545N11205010WA0262102621
B2032593837545N11205013WA0262202622
B2033003837545N11205015WA0262202622
B2033013837545N11205019WA0262202622
B2033023837543N11205023WA0262302623
B2033033837542N11205027WA0262302623
B2033043837540N11205030WA0262502625
B2033053837538N11205033WA0262602626
B2033063837537N11205037WA0262802628
B2033073837536N11205041WA0263002630
B2033083837535N11205045WA0263102631
B2033093837534N11205050WA0263302633
B2033103837533N11205055WA0263402634
B2033113837533N11205060WA0263602636
B2033123837533N11205064WA0263702637
B2033133837533N11205068WA0263902639
B2033143837534N11205071WA0264002640
B2033153837535N11205075WA0264002640
B2033163837536N11205079WA0264102641
B2033173837537N11205084WA0264102641
B2033183837538N11205089WA0264002640
B2033193837541N11205095WA0264002640
B2033203837544N11205100WA0264002640
B2033213837546N11205105WA0264102641
B2033223837549N11205109WA0264202642
B2033233837550N11205114WA0264202642
B2033243837551N11205118WA0264302643
B2033253837550N11205122WA0264302643
B2033263837547N11205124WA0264302643
B2033273837545N11205124WA0264402644
B2033283837542N11205124WA0264602646
B2033293837542N11205124WA0264702647
B2033303837541N11205125WA0264702647
B2033313837541N11205127WA0264702647
B2033323837541N11205130WA0264502645
B2033333837540N11205134WA0264202642
B2033343837539N11205138WA0264202642
B2033353837540N11205142WA0264302643
B2033363837541N11205145WA0264402644
B2033373837543N11205149WA0264402644
B2033383837546N11205153WA0264402644
B2033393837548N11205158WA0264302643
B2033403837551N11205163WA0264302643
B2033413837552N11205169WA0264302643
B2033423837553N11205174WA0264302643
B2033433837555N11205179WA0264302643
B2033443837556N11205185WA0264302643
B2033453837558N11205191WA0264302643
B2033463837559N11205197WA0264302643
B2033473837561N11205203WA0264302643
B2033483837562N11205208WA0264402644
B2033493837564N11205213WA0264502645
B2033503837567N11205217WA0264602646
B2033513837570N11205221WA0264602646
B2033523837574N11205225WA0264602646
B2033533837578N11205230WA0264402644
B2033543837581N11205236WA0264302643
B2033553837585N11205242WA0264202642
B2033563837588N11205247WA0264102641
B2033573837590N11205252WA0264102641
B2033583837593N11205257WA0264002640
B2033593837596N11205261WA0264002640
B2034003837599N11205267WA0263802638
B2034013837602N11205273WA0263702637
B2034023837604N11205279WA0263602636
B2034033837606N11205284WA0263502635
B2034043837608N11205289WA0263502635
B2034053837609N11205294WA0263502635
B2034063837611N11205300WA0263302633
B2034073837612N11205305WA0263202632
B2034083837614N11205311WA0263002630
B2034093837616N11205316WA0262902629
B2034103837618N11205320WA0262802628
B2034113837619N11205324WA0262602626
B2034123837621N11205328WA0262402624
B2034133837622N11205332WA0262202622
B2034143837624N11205336WA0261902619
B2034153837626N11205341WA0261602616
B2034163837628N11205347WA0261202612
B2034173837631N11205352WA0261002610
B2034183837632N11205356WA0260802608
B2034193837632N11205360WA0260502605
B2034203837632N11205364WA0260102601
B2034213837632N11205369WA0259702597
B2034223837633N11205374WA0259502595
B2034233837634N11205379WA0259302593
B2034243837635N11205384WA0259202592
B2034253837636N11205387WA0259102591
B2034263837635N11205390WA0259002590
B2034273837635N11205394WA0258702587
B2034283837634N11205398WA0258502585
B2034293837633N11205403WA0258202582
B2034303837632N11205408WA0258002580
B2034313837631N11205413WA0257902579
B2034323837629N11205418WA0257802578
B2034333837628N11205423WA0257802578
B2034343837626N11205427WA0257702577
B2034353837626N11205432WA0257602576
B2034363837625N11205437WA0257402574
B2034373837624N11205442WA0257302573
B2034383837624N11205447WA0257302573
B2034393837623N11205451WA0257402574
B2034403837623N11205455WA0257502575
B2034413837623N11205459WA0257502575
B2034423837622N11205463WA0257402574
B2034433837621N11205468WA0257302573
B2034443837620N11205473WA0257202572
B2034453837619N11205478WA0257102571
B2034463837619N11205483WA0257102571
B2034473837618N11205489WA0257102571
B2034483837617N11205494WA0257102571
B2034493837615N11205500WA0257102571
B2034503837614N11205505WA0257202572
B2034513837612N11205508WA0257502575
B2034523837610N11205510WA0257802578
B2034533837608N11205512WA0258102581
B2034543837608N11205514WA0258302583
B2034553837608N11205517WA0258302583
B2034563837608N11205522WA0258202582
B2034573837608N11205526WA0258202582
B2034583837607N11205530WA0258302583
B2034593837606N11205534WA0258502585
B2035003837604N11205537WA0258602586
B2035013837602N11205541WA0258602586
B2035023837600N11205546WA0258502585
B2035033837598N11205552WA0258302583
B2035043837596N11205557WA0258302583
B2035053837595N11205563WA0258402584
B2035063837594N11205567WA0258402584
B2035073837592N11205571WA0258402584
B2035083837591N11205576WA0258402584
B2035093837589N11205581WA0258302583
B2035103837588N11205587WA0258202582
B2035113837586N11205593WA0258102581
B2035123837585N11205598WA0258102581
B2035133837584N11205603WA0258202582
B2035143837582N11205607WA0258202582
B2035153837580N11205612WA0258202582
B2035163837578N11205616WA0258102581
B2035173837575N11205621WA0258002580
B2035183837574N11205625WA0257902579
B2035193837573N11205629WA0257902579
B2035203837573N11205633WA0257702577
B2035213837572N11205638WA0257402574
B2035223837571N11205643WA0256902569
B2035233837570N11205649WA0256502565
B2035243837568N11205656WA0256102561
B2035253837567N11205662WA0255902559
B2035263837565N11205668WA0255802558
B2035273837563N11205674WA0255702557
B2035283837561N11205680WA0255602556
B2035293837559N11205686WA0255502555
B2035303837557N11205692WA0255402554
B2035313837554N11205699WA0255302553
B2035323837553N11205705WA0255402554
B2035333837553N11205711WA0255502555
B2035343837554N11205715WA0255702557
B2035353837554N11205719WA0255802558
B2035363837555N11205723WA0255702557
B2035373837556N11205728WA0255502555
B2035383837556N11205735WA0255202552
B2035393837557N11205742WA0255002550
B2035403837558N11205750WA0254902549
B2035413837559N11205758WA0254802548
B2035423837559N11205764WA0254902549
B2035433837558N11205769WA0255002550
B2035443837557N11205775WA0255002550
B2035453837556N11205781WA0255002550
B2035463837555N11205787WA0254902549
B2035473837555N11205793WA0254902549
B2035483837556N11205799WA0254802548
B2035493837556N11205805WA0254702547
B2035503837557N11205812WA0254602546
B2035513837558N11205818WA0254502545
B2035523837559N11205824WA0254502545
B2035533837560N11205830WA0254602546
B2035543837561N11205835WA0254602546
B2035553837563N11205841WA0254702547
B2035563837563N11205847WA0254702547
B2035573837564N11205853WA0254802548
B2035583837565N11205859WA0254902549
B2035593837567N11205865WA0255102551
B2036003837569N11205870WA0255002550
B2036013837571N11205875WA0254802548
B2036023837572N11205880WA0254502545
B2036033837573N11205887WA0254102541
B2036043837574N11205894WA0253802538
B2036053837575N11205902WA0253402534
B2036063837576N11205910WA0253102531
B2036073837578N11205918WA0252802528
B2036083837579N11205925WA0252502525
B2036093837579N11205931WA0252202522
B2036103837578N11205937WA0252002520
B2036113837578N11205943WA0251902519
B2036123837580N11205949WA0251702517
B2036133837582N11205955WA0251402514
B2036143837584N11205961WA0251002510
B2036153837586N11205966WA0250802508
B2036163837587N11205970WA0250802508
B2036173837589N11205973WA0250902509
B2036183837590N11205975WA0250902509
B2036193837592N11205977WA0250802508
B2036203837593N11205980WA0250602506
B2036213837594N11205984WA0250402504
B2036223837595N11205989WA0250102501
B2036233837596N11205994WA0250102501
B2036243837597N11205998WA0250102501
B2036253837597N11206001WA0250202502
B2036263837598N11206004WA0250302503
B2036273837599N11206007WA0250202502
B2036283837601N11206010WA0250102501
B2036293837603N11206014WA0249902499
B2036303837604N11206018WA0249602496
B2036313837604N11206023WA0249302493
B2036323837603N11206028WA0249002490
B2036333837602N11206032WA0248702487
B2036343837601N11206035WA0248602486
B2036353837600N11206039WA0248302483
B2036363837599N11206043WA0248002480
B2036373837597N11206048WA0247802478
B2036383837595N11206053WA0247802478
B2036393837594N11206056WA0248002480
B2036403837593N11206058WA0248202482
B2036413837593N11206059WA0248402484
B2036423837592N11206060WA0248402484
B2036433837592N11206063WA0248302483
B2036443837591N11206066WA0248002480
B2036453837589N11206071WA0247702477
B2036463837588N11206075WA0247502475
B2036473837587N11206079WA0247302473
B2036483837586N11206082WA0247202472
B2036493837584N11206085WA0247002470
B2036503837583N11206088WA0246702467
B2036513837581N11206091WA0246502465
B2036523837578N11206095WA0246202462
B2036533837576N11206098WA0246002460
B2036543837573N11206100WA0245802458
B2036553837572N11206102WA0245602456
B2036563837571N11206103WA0245502455
B2036573837571N11206104WA0245202452
B2036583837570N11206105WA0244902449
B2036593837569N11206107WA0244502445
B2037003837569N11206110WA0243902439
B2037013837567N11206114WA0243402434
B2037023837566N11206117WA0243002430
B2037033837565N11206120WA0242602426
B2037043837564N11206122WA0242302423
B2037053837562N11206124WA0241902419
B2037063837560N11206127WA0241402414
B2037073837558N11206130WA0240902409
B2037083837556N11206134WA0240402404
B2037093837555N11206138WA0240102401
B2037103837554N11206142WA0239802398
B2037113837553N11206146WA0239502395
B2037123837551N11206149WA0239102391
B2037133837548N11206152WA0238702387
B2037143837545N11206155WA0238402384
B2037153837542N11206159WA0237902379
B2037163837539N11206162WA0237602376
B2037173837536N11206166WA0237202372
B2037183837534N11206169WA0237002370
B2037193837532N11206173WA0236802368
B2037203837530N11206175WA0236702367
B2037213837528N11206178WA0236602366
B2037223837526N11206180WA0236402364
B2037233837523N11206183WA0236202362
B2037243837522N11206186WA0236002360
B2037253837520N11206190WA0235802358
B2037263837518N11206192WA0235602356
B2037273837516N11206195WA0235302353
B2037283837514N11206198WA0235102351
B2037293837511N11206200WA0234702347
B2037303837509N11206202WA0234402344
B2037313837507N11206205WA0234102341
B2037323837505N11206208WA0233702337
B2037333837503N11206211WA0233402334
B2037343837501N11206214WA0233102331
B2037353837498N11206218WA0232902329
B2037363837496N11206221WA0232802328
B2037373837495N11206223WA0232702327
B2037383837493N11206225WA0232502325
B2037393837491N11206226WA0232202322
B2037403837490N11206228WA0231802318
B2037413837488N11206232WA0231402314
B2037423837486N11206236WA0231002310
B2037433837484N11206240WA0230702307
B2037443837482N11206243WA0230402304
B2037453837480N11206246WA0230202302
B2037463837477N11206248WA0229902299
B2037473837474N11206250WA0229402294
B2037483837470N11206253WA0229002290
B2037493837467N11206257WA0228602286
B2037503837465N11206261WA0228302283
B2037513837463N11206265WA0228102281
B2037523837461N11206267WA0228102281
B2037533837459N11206268WA0228202282
B2037543837458N11206269WA0228202282
B2037553837456N11206269WA0228102281
B2037563837454N11206271WA0227902279
B2037573837452N11206273WA0227502275
B2037583837449N11206276WA0227102271
B2037593837446N11206278WA0226802268
B2038003837442N11206280WA0226702267
B2038013837439N11206282WA0226602266
B2038023837436N11206285WA0226402264
B2038033837434N11206289WA0226502265
B2038043837433N11206292WA0226502265
B2038053837432N11206295WA0226602266
B2038063837431N11206297WA0226502265
B2038073837429N11206300WA0226302263
B2038083837427N11206304WA0226102261
B2038093837425N11206309WA0225902259
B2038103837424N11206314WA0225802258
B2038113837422N11206318WA0225802258
B2038123837421N11206322WA0225702257
B2038133837420N11206325WA0225602256
B2038143837418N11206329WA0225402254
B2038153837415N11206332WA0225102251
B2038163837413N11206336WA0224902249
B2038173837411N11206340WA0224602246
B2038183837408N11206343WA0224502245
B2038193837405N11206347WA0224402244
B2038203837402N11206350WA0224202242
B2038213837399N11206354WA0223902239
B2038223837396N11206358WA0223602236
B2038233837392N11206363WA0223302233
B2038243837389N11206368WA0223002230
B2038253837385N11206374WA0222802228
B2038263837382N11206379WA0222602226
B2038273837380N11206383WA0222402224
B2038283837377N11206387WA0222202222
B2038293837373N11206392WA0221902219
B2038303837369N11206397WA0221502215
B2038313837365N11206402WA0221102211
B2038323837362N11206407WA0220902209
B2038333837358N11206411WA0220702207
B2038343837354N11206416WA0220402204
B2038353837351N11206420WA0220202202
B2038363837348N11206424WA0219802198
B2038373837345N11206428WA0219402194
B2038383837341N11206432WA0218802188
B2038393837336N11206436WA0218302183
B2038403837332N11206441WA0217802178
B2038413837327N11206446WA0217402174
B2038423837323N11206451WA0217002170
B2038433837319N11206457WA0216702167
B2038443837315N11206462WA0216402164
B2038453837311N11206468WA0216102161
B2038463837306N11206473WA0215802158
B2038473837302N11206477WA0215702157
B2038483837298N11206481WA0215502155
B2038493837293N11206486WA0215202152
B2038503837288N11206490WA0215002150
B2038513837282N11206496WA0214702147
B2038523837278N11206502WA0214302143
B2038533837273N11206508WA0214102141
B2038543837269N11206513WA0213902139
B2038553837265N11206518WA0213702137
B2038563837261N11206523WA0213602136
B2038573837256N11206528WA0213302133
B2038583837252N11206534WA0213002130
B2038593837247N11206540WA0212602126
B2039003837241N11206546WA0212202122
B2039013837235N11206551WA0212002120
B2039023837230N11206555WA0211902119
B2039033837226N11206559WA0211902119
B2039043837223N11206562WA0211802118
B2039053837219N11206567WA0211602116
B2039063837216N11206571WA0211202112
B2039073837211N11206577WA0210802108
B2039083837207N11206582WA0210402104
B2039093837202N11206587WA0210102101
B2039103837196N11206591WA0209802098
B2039113837191N11206594WA0209602096
B2039123837186N11206597WA0209502095
B2039133837181N11206600WA0209202092
B2039143837176N11206604WA0209002090
B2039153837172N11206608WA0208702087
B2039163837169N11206613WA0208302083
B2039173837166N11206617WA0208002080
B2039183837162N11206621WA0207602076
B2039193837159N11206625WA0207302073
B2039203837154N11206628WA0207002070
B2039213837150N11206632WA0206602066
B2039223837146N11206636WA0206302063
B2039233837142N11206640WA0206002060
B2039243837140N11206645WA0205702057
B2039253837137N11206650WA0205302053
B2039263837133N11206655WA0205102051
B2039273837130N11206659WA0205002050
B2039283837126N11206664WA0204902049
B2039293837123N11206668WA0204702047
B2039303837120N11206673WA0204502045
B2039313837117N11206677WA0204202042
B2039323837113N11206682WA0203902039
B2039333837109N11206686WA0203502035
B2039343837104N11206690WA0203202032
B2039353837100N11206694WA0202802028
B2039363837096N11206699WA0202402024
B2039373837093N11206704WA0201902019
B2039383837089N11206710WA0201102011
B2039393837083N11206717WA0200502005
B2039403837077N11206723WA0200002000
B2039413837072N11206728WA0199901999
B2039423837069N11206733WA0199801998
B2039433837067N11206738WA0199701997
B2039443837065N11206743WA0199401994
B2039453837062N11206749WA0199101991
B2039463837059N11206754WA0198801988
B2039473837055N11206759WA0198601986
B2039483837052N11206764WA0198401984
B2039493837049N11206769WA0198201982
B2039503837047N11206774WA0198001980
B2039513837046N11206779WA0197801978
B2039523837044N11206785WA0197501975
B2039533837042N11206791WA0197101971
B2039543837040N11206797WA0196701967
B2039553837038N11206803WA0196401964
B2039563837036N11206808WA0196201962
B2039573837034N11206814WA0196001960
B2039583837033N11206820WA0195701957
B2039593837031N11206826WA0195401954
B2040003837030N11206833WA0195001950
B2040013837028N11206840WA0194701947
B2040023837025N11206846WA0194301943
B2040033837023N11206852WA0193901939
B2040043837020N11206859WA0193601936
B2040053837016N11206865WA0193101931
B2040063837014N11206872WA0192901929
B2040073837012N11206879WA0192701927
B2040083837010N11206884WA0192601926
B2040093837009N11206889WA0192501925
B2040103837009N11206894WA0192401924
B2040113837007N11206900WA0192401924
B2040123837003N11206905WA0192201922
B2040133836999N11206909WA0192101921
B2040143836995N11206913WA0191901919
B2040153836993N11206917WA0191801918
B2040163836990N11206922WA0191701917
B2040173836989N11206928WA0191501915
B2040183836989N11206935WA0191301913
B2040193836987N11206942WA0191301913
B2040203836985N11206948WA0191301913
B2040213836982N11206954WA0191301913
B2040223836980N11206960WA0191301913
B2040233836978N11206966WA0191201912
B2040243836977N11206972WA0191101911
B2040253836978N11206979WA0191001910
B2040263836980N11206985WA0190901909
B2040273836983N11206991WA0190801908
B2040283836988N11206994WA0190701907
B2040293836992N11206994WA0190701907
B2040303836997N11206990WA0190801908
B2040313836998N11206983WA0191201912
B2040323836999N11206975WA0191301913
B2040333836997N11206968WA0191501915
B2040343836995N11206962WA0191601916
B2040353836991N11206956WA0191601916
B2040363836988N11206950WA0191501915
B2040373836984N11206945WA0191501915
B2040383836979N11206940WA0191501915
B2040393836973N11206936WA0191401914
B2040403836966N11206932WA0191301913
B2040413836960N11206929WA0191301913
B2040423836954N11206926WA0191401914
B2040433836948N11206924WA0191501915
B2040443836942N11206922WA0191701917
B2040453836937N11206921WA0191701917
B2040463836932N11206922WA0191801918
B2040473836927N11206924WA0191701917
B2040483836921N11206927WA0191601916
B2040493836916N11206931WA0191501915
B2040503836911N11206936WA0191401914
B2040513836908N11206941WA0191501915
B2040523836906N11206946WA0191601916
B2040533836904N11206952WA0191501915
B2040543836904N11206958WA0191601916
B2040553836905N11206964WA0191501915
B2040563836906N11206971WA0191501915
B2040573836907N11206978WA0191501915
B2040583836907N11206984WA0191501915
B2040593836907N11206990WA0191601916
B2041003836908N11206996WA0191501915
B2041013836908N11207002WA0191601916
B2041023836908N11207008WA0191601916
B2041033836909N11207014WA0191601916
B2041043836909N11207020WA0191601916
B2041053836909N11207026WA0191501915
B2041063836909N11207032WA0191501915
B2041073836910N11207037WA0191601916
B2041083836912N11207041WA0191601916
B2041093836916N11207044WA0191601916
B2041103836922N11207044WA0191401914
B2041113836928N11207040WA0191301913
B2041123836931N11207032WA0191801918
B2041133836930N11207023WA0191801918
B2041143836922N11207017WA0191801918
B2041153836913N11207016WA0191401914
B2041163836906N11207021WA0191401914
B2041173836902N11207029WA0191601916
B2041183836904N11207036WA0191701917
B2041193836910N11207040WA0191501915
B2041203836916N11207037WA0191601916
B2041213836920N11207031WA0191601916
B2041223836921N11207021WA0191701917
B2041233836917N11207013WA0191601916
B2041243836910N11207008WA0191901919
B2041253836903N11207009WA0192001920
B2041263836898N11207013WA0192101921
B2041273836895N11207019WA0192301923
B2041283836897N11207024WA0192201922
B2041293836901N11207029WA0191901919
B2041303836906N11207031WA0191901919
B2041313836911N11207031WA0191901919
B2041323836915N11207030WA0191901919
B2041333836920N11207027WA0191801918
B2041343836924N11207024WA0191801918
B2041353836929N11207020WA0191801918
B2041363836932N11207016WA0191901919
B2041373836935N11207011WA0191901919
B2041383836936N11207004WA0191901919
B2041393836936N11206995WA0191701917
B2041403836933N11206986WA0191501915
B2041413836929N11206978WA0191501915
B2041423836924N11206973WA0191801918
B2041433836918N11206970WA0192001920
B2041443836911N11206970WA0191901919
B2041453836905N11206973WA0191801918
B2041463836900N11206976WA0191801918
B2041473836896N11206981WA0191901919
B2041483836894N11206987WA0191901919
B2041493836894N11206994WA0191901919
B2041503836896N11207001WA0191801918
B2041513836900N11207005WA0191801918
B2041523836904N11207006WA0191901919
B2041533836908N11207005WA0191901919
B2041543836911N11207002WA0191901919
B2041553836914N11206997WA0191901919
B2041563836917N11206991WA0191801918
B2041573836920N11206984WA0191801918
B2041583836921N11206976WA0191901919
B2041593836921N11206969WA0191901919
B2042003836919N11206961WA0191801918
B2042013836913N11206954WA0191501915
B2042023836906N11206950WA0191201912
B2042033836898N11206953WA0191101911
B2042043836893N11206959WA0191201912
B2042053836892N11206966WA0191101911
B2042063836895N11206972WA0191001910
B2042073836902N11206975WA0191001910
B2042083836908N11206971WA0191201912
B2042093836910N11206962WA0191301913
B2042103836911N11206952WA0191201912
B2042113836907N11206944WA0191101911
B2042123836898N11206939WA0191101911
B2042133836889N11206940WA0190801908
B2042143836882N11206946WA0190701907
B2042153836879N11206955WA0190701907
B2042163836880N11206963WA0190601906
B2042173836887N11206967WA0190501905
B2042183836893N11206964WA0190601906
B2042193836896N11206956WA0190601906
B2042203836895N11206946WA0190401904
B2042213836890N11206938WA0190301903
B2042223836881N11206935WA0190301903
B2042233836872N11206938WA0190301903
B2042243836867N11206944WA0190301903
B2042253836864N11206952WA0190201902
B2042263836864N11206958WA0190201902
B2042273836865N11206963WA0190201902
B2042283836867N11206967WA0190201902
B2042293836869N11206972WA0190201902
B2042303836871N11206977WA0190101901
B2042313836874N11206983WA0190001900
B2042323836875N11206989WA0190001900
B2042333836878N11206994WA0189901899
B2042343836881N11206998WA0189801898
B2042353836885N11207001WA0189801898
B2042363836889N11207003WA0189601896
B2042373836893N11207006WA0189501895
B2042383836897N11207009WA0189401894
B2042393836902N11207010WA0189301893
B2042403836907N11207010WA0189201892
B2042413836912N11207009WA0189101891
B2042423836917N11207010WA0189101891
B2042433836922N11207012WA0189001890
B2042443836925N11207017WA0189001890
B2042453836926N11207023WA0189001890
B2042463836927N11207030WA0189001890
B2042473836927N11207037WA0189001890
B2042483836928N11207044WA0188901889
B2042493836928N11207051WA0188901889
B2042503836929N11207057WA0188801888
B2042513836929N11207065WA0188801888
B2042523836929N11207071WA0188701887
B2042533836930N11207077WA0188701887
B2042543836931N11207082WA0188701887
B2042553836934N11207085WA0188601886
B2042563836938N11207086WA0188401884
B2042573836941N11207087WA0188401884
B2042583836945N11207086WA0188201882
B2042593836949N11207085WA0188201882
B2043003836953N11207085WA0188201882
B2043013836957N11207085WA0188201882
B2043023836961N11207086WA0188101881
B2043033836965N11207087WA0188101881
B2043043836969N11207088WA0188101881
B2043053836974N11207087WA0188001880
B2043063836979N11207084WA0188001880
B2043073836982N11207079WA0188101881
B2043083836984N11207072WA0188201882
B2043093836983N11207065WA0188201882
B2043103836982N11207057WA0188201882
B2043113836979N11207050WA0188201882
B2043123836976N11207043WA0188301883
B2043133836973N11207038WA0188301883
B2043143836970N11207033WA0188401884
B2043153836965N11207029WA0188601886
B2043163836960N11207025WA0188501885
B2043173836956N11207020WA0188501885
B2043183836953N11207014WA0188501885
B2043193836952N11207007WA0188501885
B2043203836952N11207000WA0188501885
B2043213836953N11206994WA0188701887
B2043223836955N11206989WA0188701887
B2043233836958N11206986WA0188801888
B2043243836960N11206983WA0188901889
B2043253836964N11206981WA0188801888
B2043263836969N11206980WA0188901889
B2043273836972N11206982WA0188801888
B2043283836975N11206984WA0188801888
B2043293836977N11206988WA0188701887
B2043303836979N11206992WA0188701887
B2043313836982N11206997WA0188601886
B2043323836985N11207002WA0188501885
B2043333836989N11207007WA0188401884
B2043343836992N11207012WA0188401884
B2043353836995N11207017WA0188401884
B2043363836999N11207021WA0188401884
B2043373837002N11207024WA0188501885
B2043383837005N11207025WA0188401884
B2043393837008N11207027WA0188401884
B2043403837010N11207029WA0188401884
B2043413837013N11207031WA0188301883
B2043423837017N11207035WA0188101881
B2043433837021N11207038WA0188101881
B2043443837024N11207042WA0188101881
B2043453837026N11207045WA0188101881
B2043463837028N11207049WA0188001880
B2043473837032N11207053WA0188001880
B2043483837035N11207057WA0187901879
B2043493837040N11207058WA0187901879
B2043503837044N11207056WA0187801878
B2043513837047N11207050WA0187801878
B2043523837046N11207040WA0187601876
B2043533837041N11207032WA0187201872
B2043543837033N11207028WA0187101871
B2043553837024N11207032WA0187001870
B2043563837019N11207039WA0187201872
B2043573837018N11207047WA0187101871
B2043583837023N11207053WA0186801868
B2043593837028N11207053WA0186901869
B2044003837033N11207050WA0187001870
B2044013837035N11207043WA0187101871
B2044023837034N11207034WA0186901869
B2044033837028N11207027WA0186801868
B2044043837020N11207025WA0186701867
B2044053837012N11207027WA0186701867
B2044063837006N11207033WA0186401864
B2044073837003N11207040WA0186501865
B2044083837002N11207046WA0186301863
B2044093837006N11207050WA0186101861
B2044103837011N11207050WA0186001860
B2044113837015N11207047WA0186101861
B2044123837017N11207041WA0186101861
B2044133837017N11207034WA0186201862
B2044143837015N11207025WA0186001860
B2044153837010N11207018WA0186001860
B2044163837002N11207014WA0186001860
B2044173836995N11207014WA0185801858
B2044183836988N11207017WA0185801858
B2044193836983N11207022WA0185701857
B2044203836979N11207027WA0185701857
B2044213836977N11207033WA0185601856
B2044223836976N11207040WA0185601856
B2044233836976N11207045WA0185401854
B2044243836977N11207051WA0185301853
B2044253836979N11207055WA0185201852
B2044263836983N11207057WA0185101851
B2044273836986N11207058WA0185001850
B2044283836988N11207059WA0185001850
B2044293836989N11207060WA0185001850
B2044303836990N11207061WA0185101851
B2044313836992N11207063WA0185101851
B2044323836994N11207067WA0185001850
B2044333836996N11207070WA0185001850
B2044343836999N11207073WA0184901849
B2044353837002N11207077WA0184901849
B2044363837005N11207080WA0184801848
B2044373837006N11207082WA0184801848
B2044383837008N11207084WA0184901849
B2044393837009N11207084WA0184901849
B2044403837011N11207085WA0184801848
B2044413837012N11207087WA0184801848
B2044423837013N11207090WA0184701847
B2044433837013N11207095WA0184601846
B2044443837012N11207099WA0184601846
B2044453837011N11207103WA0184701847
B2044463837010N11207107WA0184701847
B2044473837011N11207112WA0184601846
B2044483837013N11207114WA0184501845
B2044493837016N11207116WA0184301843
B2044503837021N11207115WA0184101841
B2044513837025N11207114WA0184001840
B2044523837029N11207113WA0184001840
B2044533837033N11207112WA0184001840
B2044543837037N11207112WA0184001840
B2044553837040N11207111WA0184001840
B2044563837045N11207108WA0184001840
B2044573837050N11207102WA0183901839
B2044583837054N11207094WA0184001840
B2044593837055N11207086WA0184001840
B2045003837055N11207080WA0184001840
B2045013837053N11207075WA0184201842
B2045023837052N11207070WA0184301843
B2045033837051N11207064WA0184201842
B2045043837050N11207056WA0184001840
B2045053837048N11207046WA0183801838
B2045063837046N11207037WA0183701837
B2045073837043N11207028WA0183601836
B2045083837040N11207020WA0183701837
B2045093837036N11207012WA0183801838
B2045103837031N11207005WA0183801838
B2045113837026N11207000WA0183801838
B2045123837020N11206995WA0183901839
B2045133837014N11206991WA0183801838
B2045143837007N11206987WA0183701837
B2045153837000N11206984WA0183701837
B2045163836994N11206981WA0183701837
B2045173836989N11206979WA0183901839
B2045183836985N11206977WA0184001840
B2045193836980N11206975WA0184101841
B2045203836974N11206973WA0184201842
B2045213836967N11206973WA0184201842
B2045223836961N11206973WA0184301843
B2045233836954N11206973WA0184401844
B2045243836948N11206974WA0184401844
B2045253836942N11206977WA0184501845
B2045263836938N11206981WA0184601846
B2045273836936N11206987WA0184601846
B2045283836934N11206994WA0184601846
B2045293836934N11207000WA0184601846
B2045303836933N11207005WA0184701847
B2045313836933N11207010WA0184801848
B2045323836932N11207015WA0184901849
B2045333836931N11207021WA0184901849
B2045343836931N11207027WA0184901849
B2045353836931N11207033WA0184901849
B2045363836934N11207038WA0184801848
B2045373836938N11207042WA0184701847
B2045383836943N11207042WA0184801848
B2045393836947N11207040WA0185101851
B2045403836948N11207034WA0185401854
B2045413836947N11207027WA0185801858
B2045423836943N11207020WA0185901859
B2045433836936N11207016WA0186201862
B2045443836929N11207015WA0186101861
B2045453836922N11207017WA0186401864
B2045463836917N11207023WA0186601866
B2045473836914N11207030WA0186701867
B2045483836912N11207037WA0186801868
B2045493836910N11207043WA0186901869
B2045503836908N11207050WA0187001870
B2045513836906N11207056WA0187201872
B2045523836904N11207062WA0187201872
B2045533836903N11207069WA0187301873
B2045543836901N11207075WA0187401874
B2045553836900N11207081WA0187501875
B2045563836899N11207087WA0187701877
B2045573836900N11207094WA0187801878
B2045583836901N11207100WA0187901879
B2045593836902N11207106WA0187901879
B2046003836904N11207112WA0188001880
B2046013836905N11207118WA0188101881
B2046023836905N11207123WA0188101881
B2046033836904N11207129WA0188201882
B2046043836904N11207135WA0188201882
B2046053836902N11207141WA0188301883
B2046063836901N11207147WA0188301883
B2046073836900N11207153WA0188301883
B2046083836898N11207157WA0188501885
B2046093836896N11207162WA0188601886
B2046103836894N11207168WA0188501885
B2046113836893N11207174WA0188501885
B2046123836892N11207181WA0188501885
B2046133836892N11207187WA0188601886
B2046143836892N11207192WA0188601886
B2046153836892N11207198WA0188701887
B2046163836893N11207202WA0188801888
B2046173836894N11207207WA0188901889
B2046183836896N11207212WA0188901889
B2046193836897N11207217WA0188901889
B2046203836898N11207222WA0188901889
B2046213836898N11207226WA0189001890
B2046223836898N11207231WA0189001890
B2046233836900N11207235WA0188901889
B2046243836904N11207236WA0188701887
B2046253836909N11207235WA0188301883
B2046263836912N11207226WA0188001880
B2046273836913N11207215WA0187901879
B2046283836904N11207207WA0188001880
B2046293836895N11207206WA0187701877
B2046303836888N11207210WA0187301873
B2046313836886N11207218WA0187401874
B2046323836887N11207223WA0187701877
B2046333836895N11207224WA0187501875
B2046343836898N11207218WA0188001880
B2046353836899N11207207WA0187801878
B2046363836897N11207197WA0187301873
B2046373836889N11207189WA0187301873
B2046383836881N11207188WA0187101871
B2046393836874N11207190WA0186801868
B2046403836869N11207196WA0186601866
B2046413836868N11207203WA0186501865
B2046423836869N11207209WA0186101861
B2046433836872N11207211WA0185901859
B2046443836875N11207213WA0185601856
B2046453836879N11207213WA0185401854
B2046463836883N11207213WA0185201852
B2046473836886N11207215WA0185201852
B2046483836887N11207220WA0185101851
B2046493836886N11207226WA0184901849
B2046503836882N11207230WA0184601846
B2046513836874N11207233WA0184301843
B2046523836867N11207231WA0184301843
B2046533836861N11207226WA0184101841
B2046543836859N11207216WA0184201842
B2046553836859N11207207WA0184001840
B2046563836860N11207201WA0183901839
B2046573836864N11207197WA0183801838
B2046583836869N11207196WA0183701837
B2046593836872N11207197WA0183401834
B2047003836875N11207200WA0183101831
B2047013836877N11207204WA0182901829
B2047023836879N11207207WA0182801828
B2047033836881N11207209WA0182501825
B2047043836886N11207210WA0182201822
B2047053836891N11207208WA0181801818
B2047063836895N11207204WA0181601816
B2047073836898N11207198WA0181301813
B2047083836901N11207192WA0181101811
B2047093836904N11207186WA0180901809
B2047103836907N11207179WA0180501805
B2047113836911N11207173WA0180101801
B2047123836915N11207167WA0179701797
B2047133836919N11207162WA0179301793
B2047143836923N11207158WA0179101791
B2047153836926N11207153WA0178901789
B2047163836930N11207147WA0178501785
B2047173836934N11207142WA0178201782
B2047183836938N11207136WA0178001780
B2047193836942N11207130WA0177801778
B2047203836945N11207125WA0177601776
B2047213836948N11207119WA0177401774
B2047223836952N11207114WA0177201772
B2047233836956N11207109WA0177001770
B2047243836960N11207104WA0176601766
B2047253836965N11207101WA0176301763
B2047263836970N11207097WA0176101761
B2047273836974N11207093WA0175901759
B2047283836979N11207089WA0175601756
B2047293836983N11207084WA0175301753
B2047303836987N11207080WA0175101751
B2047313836992N11207075WA0174901749
B2047323836996N11207069WA0174601746
B2047333837001N11207063WA0174301743
B2047343837005N11207057WA0174101741
B2047353837009N11207050WA0174001740
B2047363837012N11207044WA0173701737
B2047373837015N11207038WA0173501735
B2047383837019N11207032WA0173201732
B2047393837024N11207028WA0173001730
B2047403837028N11207023WA0173201732
B2047413837032N11207019WA0173001730
B2047423837036N11207014WA0172801728
B2047433837040N11207009WA0172701727
B2047443837045N11207004WA0172401724
B2047453837049N11207000WA0172301723
B2047463837053N11206997WA0172001720
B2047473837057N11206994WA0171701717
B2047483837060N11206993WA0171501715
B2047493837064N11206993WA0171301713
B2047503837067N11206992WA0171101711
B2047513837071N11206991WA0170901709
B2047523837076N11206989WA0170701707
B2047533837081N11206987WA0170601706
B2047543837085N11206984WA0170201702
B2047553837090N11206980WA0170001700
B2047563837094N11206976WA0169901699
B2047573837098N11206970WA0169801698
B2047583837102N11206964WA0169701697
B2047593837105N11206959WA0169601696
B2048003837109N11206954WA0169401694
B2048013837114N11206952WA0169301693
B2048023837120N11206952WA0169201692
B2048033837125N11206954WA0169101691
B2048043837129N11206959WA0169101691
B2048053837132N11206964WA0169301693
B2048063837133N11206971WA0169201692
B2048073837133N11206976WA0169101691
B2048083837133N11206980WA0169101691
B2048093837134N11206983WA0169001690
B2048103837134N11206985WA0168901689
B2048113837134N11206987WA0168801688
B2048123837134N11206988WA0168601686
B2048133837134N11206988WA0168601686
B2048143837134N11206988WA0168601686
B2048153837134N11206988WA0168501685
B2048163837134N11206988WA0168501685
B2048173837134N11206988WA0168501685
B2048183837134N11206987WA0168401684
B2048193837134N11206988WA0168401684
B2048203837134N11206987WA0168401684
B2048213837134N11206987WA0168401684
B2048223837134N11206987WA0168401684
B2048233837134N11206987WA0168301683
B2048243837134N11206987WA0168301683
B2048253837134N11206987WA0168301683
B2048263837134N11206987WA0168301683
B2048273837134N11206987WA0168201682
B2048283837134N11206987WA0168201682
B2048293837134N11206986WA0168201682
B2048303837135N11206986WA0168201682
B2048313837135N11206987WA0168201682
