AXFMFLYMASTER LIVETRACK
HFDTE210926
HFFXA010
HFPLTPILOT:Pete Thompson
HFGTYGLIDERTYPE:Ozone Enzo 3 / Gin Gliders GR5
HFCIDCOMPETITIONID:1985
HFDTM100GPSDATUM:WGS-1984
HFRFWFIRMWAREVERSION:lt.flymaster.net bsGetPilotTrack
B2002153838050N11203635WA0267302673
B2002163838050N11203637WA0267302673
B2002173838050N11203638WA0267302673
B2002183838050N11203640WA0267202672
B2002193838049N11203643WA0267202672
B2002203838048N11203646WA0267102671
B2002213838048N11203649WA0267402674
B2002223838048N11203650WA0267602676
B2002233838049N11203651WA0267702677
B2002243838050N11203653WA0267702677
B2002253838051N11203655WA0267702677
B2002263838051N11203658WA0267602676
B2002273838051N11203661WA0267602676
B2002283838050N11203664WA0267602676
B2002293838048N11203667WA0267602676
B2002303838047N11203671WA0267602676
B2002313838047N11203675WA0267702677
B2002323838047N11203679WA0267702677
B2002333838047N11203683WA0267602676
B2002343838047N11203688WA0267502675
B2002353838046N11203693WA0267302673
B2002363838045N11203699WA0267002670
B2002373838043N11203705WA0267002670
B2002383838042N11203709WA0266902669
B2002393838041N11203713WA0266902669
B2002403838039N11203717WA0266902669
B2002413838038N11203721WA0266802668
B2002423838035N11203724WA0266602666
B2002433838032N11203728WA0266502665
B2002443838029N11203731WA0266502665
B2002453838027N11203733WA0266502665
B2002463838023N11203735WA0266302663
B2002473838020N11203738WA0266202662
B2002483838017N11203740WA0266002660
B2002493838013N11203742WA0265902659
B2002503838009N11203745WA0265802658
B2002513838005N11203747WA0265702657
B2002523838002N11203749WA0265602656
B2002533837998N11203750WA0265602656
B2002543837995N11203751WA0265602656
B2002553837992N11203752WA0265702657
B2002563837990N11203752WA0265702657
B2002573837987N11203753WA0265402654
B2002583837984N11203754WA0265202652
B2002593837979N11203755WA0264902649
B2003003837975N11203757WA0264602646
B2003013837970N11203758WA0264402644
B2003023837966N11203759WA0264302643
B2003033837963N11203759WA0264202642
B2003043837959N11203761WA0264002640
B2003053837956N11203763WA0263802638
B2003063837952N11203767WA0263502635
B2003073837949N11203773WA0263202632
B2003083837947N11203780WA0262902629
B2003093837945N11203788WA0262802628
B2003103837944N11203795WA0262702627
B2003113837944N11203801WA0262702627
B2003123837943N11203806WA0262702627
B2003133837942N11203813WA0262502625
B2003143837942N11203820WA0262402624
B2003153837942N11203828WA0262102621
B2003163837943N11203836WA0262002620
B2003173837944N11203843WA0261902619
B2003183837944N11203850WA0261802618
B2003193837943N11203857WA0261502615
B2003203837943N11203865WA0261202612
B2003213837943N11203872WA0260902609
B2003223837945N11203880WA0260602606
B2003233837947N11203887WA0260502605
B2003243837949N11203894WA0260402604
B2003253837951N11203901WA0260202602
B2003263837953N11203909WA0260002600
B2003273837956N11203918WA0259902599
B2003283837959N11203927WA0259802598
B2003293837961N11203935WA0259802598
B2003303837962N11203943WA0260002600
B2003313837961N11203949WA0260102601
B2003323837960N11203955WA0260102601
B2003333837956N11203961WA0260002600
B2003343837952N11203967WA0259902599
B2003353837947N11203970WA0259802598
B2003363837942N11203972WA0259902599
B2003373837937N11203972WA0260002600
B2003383837933N11203969WA0260102601
B2003393837930N11203965WA0260202602
B2003403837929N11203959WA0260102601
B2003413837929N11203953WA0260002600
B2003423837931N11203945WA0259902599
B2003433837935N11203938WA0259702597
B2003443837941N11203933WA0259502595
B2003453837948N11203929WA0259502595
B2003463837955N11203927WA0259502595
B2003473837962N11203927WA0259702597
B2003483837968N11203929WA0259802598
B2003493837973N11203931WA0259902599
B2003503837979N11203934WA0259902599
B2003513837984N11203938WA0259902599
B2003523837988N11203944WA0259802598
B2003533837990N11203952WA0259802598
B2003543837990N11203959WA0259702597
B2003553837989N11203967WA0259502595
B2003563837986N11203975WA0259402594
B2003573837984N11203982WA0259402594
B2003583837981N11203988WA0259502595
B2003593837979N11203993WA0259602596
B2004003837975N11203998WA0259702597
B2004013837970N11204002WA0259702597
B2004023837965N11204005WA0259702597
B2004033837961N11204007WA0259802598
B2004043837957N11204006WA0260002600
B2004053837954N11204002WA0260002600
B2004063837952N11203996WA0259902599
B2004073837951N11203989WA0259802598
B2004083837951N11203981WA0259702597
B2004093837953N11203974WA0259702597
B2004103837957N11203967WA0259602596
B2004113837962N11203962WA0259602596
B2004123837967N11203959WA0259602596
B2004133837974N11203958WA0259502595
B2004143837981N11203959WA0259302593
B2004153837987N11203963WA0259302593
B2004163837993N11203968WA0259302593
B2004173837997N11203974WA0259402594
B2004183838000N11203980WA0259402594
B2004193838002N11203987WA0259302593
B2004203838003N11203995WA0259202592
B2004213838003N11204003WA0259102591
B2004223838003N11204011WA0259002590
B2004233838003N11204019WA0259002590
B2004243838002N11204026WA0259102591
B2004253838001N11204033WA0259202592
B2004263838001N11204040WA0259402594
B2004273838001N11204046WA0259502595
B2004283838000N11204052WA0259602596
B2004293838000N11204059WA0259502595
B2004303837999N11204066WA0259402594
B2004313837996N11204073WA0259302593
B2004323837993N11204078WA0259302593
B2004333837988N11204083WA0259202592
B2004343837984N11204085WA0259202592
B2004353837979N11204086WA0259202592
B2004363837975N11204084WA0259202592
B2004373837971N11204081WA0259202592
B2004383837967N11204078WA0259202592
B2004393837963N11204073WA0259302593
B2004403837960N11204068WA0259302593
B2004413837958N11204062WA0259302593
B2004423837956N11204055WA0259402594
B2004433837956N11204047WA0259502595
B2004443837956N11204040WA0259602596
B2004453837957N11204034WA0259702597
B2004463837957N11204028WA0259702597
B2004473837957N11204022WA0259602596
B2004483837956N11204015WA0259402594
B2004493837955N11204007WA0259202592
B2004503837954N11204000WA0259202592
B2004513837952N11203993WA0259202592
B2004523837951N11203988WA0259402594
B2004533837951N11203984WA0259602596
B2004543837949N11203979WA0259602596
B2004553837948N11203973WA0259502595
B2004563837946N11203966WA0259402594
B2004573837943N11203958WA0259202592
B2004583837940N11203950WA0258902589
B2004593837938N11203941WA0258802588
B2005003837936N11203933WA0258802588
B2005013837934N11203925WA0258802588
B2005023837932N11203918WA0258802588
B2005033837930N11203911WA0258802588
B2005043837928N11203903WA0258802588
B2005053837925N11203896WA0258702587
B2005063837922N11203888WA0258602586
B2005073837920N11203880WA0258502585
B2005083837917N11203871WA0258402584
B2005093837915N11203863WA0258402584
B2005103837912N11203856WA0258302583
B2005113837910N11203848WA0258202582
B2005123837907N11203840WA0258102581
B2005133837904N11203833WA0258002580
B2005143837900N11203827WA0257902579
B2005153837896N11203820WA0257802578
B2005163837892N11203814WA0257702577
B2005173837887N11203808WA0257602576
B2005183837883N11203802WA0257502575
B2005193837878N11203797WA0257502575
B2005203837874N11203791WA0257502575
B2005213837870N11203787WA0257502575
B2005223837866N11203782WA0257402574
B2005233837862N11203777WA0257302573
B2005243837858N11203772WA0257202572
B2005253837853N11203767WA0257102571
B2005263837849N11203763WA0257102571
B2005273837845N11203760WA0257202572
B2005283837841N11203757WA0257302573
B2005293837838N11203753WA0257202572
B2005303837834N11203748WA0257102571
B2005313837831N11203743WA0257002570
B2005323837827N11203737WA0256802568
B2005333837824N11203732WA0256802568
B2005343837821N11203727WA0256902569
B2005353837818N11203723WA0256902569
B2005363837814N11203719WA0256802568
B2005373837810N11203716WA0256702567
B2005383837805N11203713WA0256502565
B2005393837800N11203710WA0256402564
B2005403837796N11203707WA0256402564
B2005413837791N11203703WA0256402564
B2005423837787N11203700WA0256402564
B2005433837783N11203697WA0256302563
B2005443837779N11203693WA0256202562
B2005453837774N11203690WA0256102561
B2005463837769N11203687WA0255902559
B2005473837764N11203684WA0255802558
B2005483837758N11203681WA0255702557
B2005493837753N11203678WA0255602556
B2005503837748N11203675WA0255402554
B2005513837743N11203672WA0255302553
B2005523837737N11203669WA0255202552
B2005533837731N11203667WA0255102551
B2005543837724N11203667WA0255002550
B2005553837718N11203667WA0254902549
B2005563837712N11203668WA0255102551
B2005573837707N11203669WA0255302553
B2005583837702N11203669WA0255602556
B2005593837698N11203668WA0255802558
B2006003837693N11203665WA0255902559
B2006013837688N11203660WA0255702557
B2006023837682N11203655WA0255702557
B2006033837677N11203650WA0255902559
B2006043837672N11203648WA0256102561
B2006053837668N11203648WA0256202562
B2006063837663N11203651WA0256102561
B2006073837659N11203655WA0256102561
B2006083837654N11203660WA0256002560
B2006093837651N11203663WA0256202562
B2006103837648N11203667WA0256302563
B2006113837646N11203671WA0256202562
B2006123837645N11203675WA0256002560
B2006133837643N11203681WA0255802558
B2006143837643N11203687WA0255602556
B2006153837643N11203694WA0255402554
B2006163837643N11203701WA0255302553
B2006173837644N11203707WA0255202552
B2006183837646N11203712WA0255202552
B2006193837648N11203717WA0255002550
B2006203837650N11203723WA0254802548
B2006213837652N11203730WA0254502545
B2006223837654N11203737WA0254302543
B2006233837656N11203744WA0254002540
B2006243837657N11203751WA0253902539
B2006253837657N11203757WA0253902539
B2006263837657N11203763WA0253902539
B2006273837658N11203768WA0253902539
B2006283837658N11203774WA0253802538
B2006293837658N11203781WA0253602536
B2006303837657N11203789WA0253402534
B2006313837657N11203797WA0253102531
B2006323837656N11203804WA0253002530
B2006333837655N11203811WA0252902529
B2006343837654N11203818WA0252802528
B2006353837652N11203824WA0252602526
B2006363837650N11203831WA0252402524
B2006373837647N11203837WA0252102521
B2006383837645N11203844WA0251902519
B2006393837642N11203850WA0251702517
B2006403837640N11203857WA0251602516
B2006413837639N11203864WA0251502515
B2006423837638N11203870WA0251402514
B2006433837637N11203877WA0251202512
B2006443837637N11203883WA0250902509
B2006453837636N11203890WA0250702507
B2006463837635N11203897WA0250402504
B2006473837634N11203905WA0250002500
B2006483837633N11203913WA0249602496
B2006493837631N11203922WA0249102491
B2006503837630N11203931WA0248702487
B2006513837628N11203941WA0248302483
B2006523837626N11203950WA0248002480
B2006533837625N11203959WA0247802478
B2006543837623N11203969WA0247602476
B2006553837622N11203978WA0247302473
B2006563837621N11203986WA0247102471
B2006573837619N11203995WA0246902469
B2006583837617N11204004WA0246702467
B2006593837614N11204013WA0246402464
B2007003837612N11204023WA0246002460
B2007013837610N11204033WA0245702457
B2007023837608N11204043WA0245502455
B2007033837606N11204052WA0245302453
B2007043837605N11204061WA0245302453
B2007053837603N11204068WA0245302453
B2007063837602N11204076WA0245202452
B2007073837600N11204084WA0245102451
B2007083837598N11204092WA0244902449
B2007093837594N11204101WA0244602446
B2007103837590N11204109WA0244302443
B2007113837585N11204116WA0244102441
B2007123837579N11204123WA0244102441
B2007133837574N11204129WA0244002440
B2007143837569N11204134WA0243902439
B2007153837564N11204139WA0243902439
B2007163837558N11204144WA0243702437
B2007173837552N11204149WA0243502435
B2007183837546N11204154WA0243302433
B2007193837539N11204159WA0243102431
B2007203837532N11204163WA0242902429
B2007213837525N11204166WA0242702427
B2007223837518N11204169WA0242602426
B2007233837512N11204172WA0242502425
B2007243837506N11204174WA0242402424
B2007253837500N11204177WA0242302423
B2007263837494N11204179WA0242102421
B2007273837487N11204182WA0241802418
B2007283837480N11204184WA0241502415
B2007293837472N11204187WA0241202412
B2007303837464N11204189WA0241002410
B2007313837457N11204191WA0240802408
B2007323837450N11204194WA0240702407
B2007333837444N11204196WA0240702407
B2007343837437N11204200WA0240502405
B2007353837431N11204203WA0240302403
B2007363837424N11204207WA0240102401
B2007373837417N11204211WA0239802398
B2007383837410N11204214WA0239502395
B2007393837402N11204217WA0239302393
B2007403837394N11204220WA0239202392
B2007413837387N11204222WA0239202392
B2007423837380N11204224WA0239102391
B2007433837373N11204226WA0239102391
B2007443837366N11204228WA0238902389
B2007453837359N11204231WA0238702387
B2007463837351N11204233WA0238402384
B2007473837343N11204236WA0238202382
B2007483837336N11204239WA0238002380
B2007493837328N11204242WA0237802378
B2007503837321N11204244WA0237602376
B2007513837313N11204248WA0237502375
B2007523837306N11204251WA0237302373
B2007533837299N11204256WA0237002370
B2007543837291N11204260WA0236802368
B2007553837284N11204265WA0236602366
B2007563837277N11204270WA0236402364
B2007573837270N11204276WA0236302363
B2007583837264N11204281WA0236202362
B2007593837258N11204287WA0236002360
B2008003837251N11204293WA0235802358
B2008013837245N11204300WA0235502355
B2008023837238N11204307WA0235202352
B2008033837231N11204314WA0235002350
B2008043837225N11204321WA0234902349
B2008053837219N11204328WA0234802348
B2008063837214N11204335WA0234702347
B2008073837208N11204342WA0234702347
B2008083837203N11204348WA0234702347
B2008093837198N11204353WA0234802348
B2008103837192N11204357WA0234802348
B2008113837187N11204361WA0234902349
B2008123837181N11204364WA0234902349
B2008133837175N11204368WA0234702347
B2008143837168N11204371WA0234502345
B2008153837161N11204375WA0234302343
B2008163837154N11204379WA0234202342
B2008173837147N11204384WA0234102341
B2008183837140N11204388WA0234102341
B2008193837134N11204393WA0234202342
B2008203837129N11204397WA0234302343
B2008213837123N11204402WA0234502345
B2008223837119N11204406WA0234602346
B2008233837114N11204410WA0234802348
B2008243837110N11204413WA0235002350
B2008253837106N11204416WA0234902349
B2008263837100N11204420WA0234702347
B2008273837094N11204424WA0234502345
B2008283837088N11204429WA0234502345
B2008293837083N11204433WA0234702347
B2008303837079N11204438WA0234802348
B2008313837075N11204441WA0235002350
B2008323837071N11204445WA0234902349
B2008333837066N11204449WA0234702347
B2008343837061N11204455WA0234402344
B2008353837056N11204461WA0234102341
B2008363837051N11204467WA0233902339
B2008373837046N11204472WA0233902339
B2008383837041N11204476WA0233902339
B2008393837037N11204481WA0233902339
B2008403837032N11204486WA0233802338
B2008413837027N11204491WA0233702337
B2008423837021N11204496WA0233702337
B2008433837015N11204500WA0233702337
B2008443837009N11204504WA0233802338
B2008453837003N11204507WA0233802338
B2008463836998N11204510WA0233802338
B2008473836992N11204513WA0233702337
B2008483836987N11204517WA0233502335
B2008493836981N11204523WA0233302333
B2008503836976N11204529WA0233202332
B2008513836970N11204534WA0233302333
B2008523836965N11204538WA0233402334
B2008533836959N11204542WA0233402334
B2008543836954N11204545WA0233502335
B2008553836948N11204549WA0233402334
B2008563836942N11204553WA0233202332
B2008573836935N11204558WA0233102331
B2008583836929N11204562WA0233002330
B2008593836923N11204566WA0233002330
B2009003836917N11204569WA0233202332
B2009013836911N11204571WA0233302333
B2009023836905N11204573WA0233302333
B2009033836898N11204575WA0233202332
B2009043836891N11204577WA0233102331
B2009053836883N11204579WA0233102331
B2009063836877N11204580WA0233202332
B2009073836871N11204582WA0233502335
B2009083836865N11204584WA0233702337
B2009093836859N11204585WA0233702337
B2009103836853N11204586WA0233702337
B2009113836846N11204587WA0233702337
B2009123836839N11204587WA0233702337
B2009133836833N11204587WA0233802338
B2009143836827N11204587WA0233902339
B2009153836823N11204590WA0233702337
B2009163836820N11204596WA0233402334
B2009173836821N11204603WA0233102331
B2009183836824N11204610WA0232802328
B2009193836829N11204616WA0232502325
B2009203836833N11204620WA0232502325
B2009213836837N11204623WA0232602326
B2009223836840N11204626WA0232702327
B2009233836843N11204629WA0232602326
B2009243836847N11204631WA0232402324
B2009253836852N11204636WA0232102321
B2009263836856N11204641WA0232002320
B2009273836858N11204647WA0231902319
B2009283836858N11204654WA0231902319
B2009293836857N11204661WA0232002320
B2009303836855N11204667WA0232102321
B2009313836853N11204672WA0232202322
B2009323836851N11204678WA0232202322
B2009333836849N11204684WA0232202322
B2009343836846N11204691WA0232102321
B2009353836844N11204698WA0231902319
B2009363836842N11204705WA0231802318
B2009373836840N11204712WA0231702317
B2009383836838N11204718WA0231702317
B2009393836836N11204724WA0231702317
B2009403836834N11204731WA0231702317
B2009413836833N11204738WA0231602316
B2009423836832N11204745WA0231502315
B2009433836832N11204752WA0231402314
B2009443836831N11204760WA0231402314
B2009453836831N11204767WA0231502315
B2009463836831N11204774WA0231702317
B2009473836832N11204781WA0231802318
B2009483836833N11204788WA0231802318
B2009493836834N11204794WA0231902319
B2009503836834N11204800WA0231802318
B2009513836834N11204806WA0231802318
B2009523836833N11204813WA0231702317
B2009533836831N11204819WA0231602316
B2009543836829N11204826WA0231402314
B2009553836826N11204833WA0231402314
B2009563836822N11204839WA0231302313
B2009573836818N11204843WA0231402314
B2009583836815N11204847WA0231402314
B2009593836811N11204850WA0231302313
B2010003836807N11204855WA0231102311
B2010013836802N11204859WA0230902309
B2010023836798N11204865WA0230702307
B2010033836794N11204870WA0230502305
B2010043836790N11204874WA0230302303
B2010053836787N11204879WA0230202302
B2010063836783N11204884WA0230002300
B2010073836780N11204890WA0229802298
B2010083836776N11204896WA0229602296
B2010093836771N11204902WA0229502295
B2010103836767N11204908WA0229402294
B2010113836762N11204914WA0229302293
B2010123836757N11204919WA0229302293
B2010133836753N11204924WA0229302293
B2010143836748N11204928WA0229402294
B2010153836743N11204932WA0229302293
B2010163836738N11204937WA0229202292
B2010173836732N11204943WA0229102291
B2010183836726N11204948WA0229002290
B2010193836721N11204953WA0228902289
B2010203836715N11204956WA0229002290
B2010213836709N11204960WA0229102291
B2010223836703N11204963WA0229102291
B2010233836697N11204968WA0229102291
B2010243836691N11204972WA0229002290
B2010253836685N11204975WA0229002290
B2010263836680N11204978WA0229102291
B2010273836675N11204982WA0229102291
B2010283836671N11204986WA0229002290
B2010293836668N11204991WA0228802288
B2010303836664N11204996WA0228602286
B2010313836661N11205002WA0228502285
B2010323836658N11205009WA0228402284
B2010333836654N11205014WA0228502285
B2010343836650N11205019WA0228502285
B2010353836647N11205022WA0228502285
B2010363836644N11205027WA0228302283
B2010373836641N11205032WA0228102281
B2010383836638N11205038WA0227802278
B2010393836635N11205044WA0227602276
B2010403836632N11205049WA0227502275
B2010413836629N11205054WA0227402274
B2010423836627N11205059WA0227302273
B2010433836624N11205063WA0227102271
B2010443836621N11205068WA0226802268
B2010453836618N11205074WA0226502265
B2010463836614N11205080WA0226202262
B2010473836611N11205086WA0226302263
B2010483836609N11205090WA0226602266
B2010493836607N11205093WA0226802268
B2010503836605N11205095WA0227002270
B2010513836604N11205097WA0226902269
B2010523836601N11205099WA0226502265
B2010533836598N11205102WA0226102261
B2010543836594N11205106WA0225402254
B2010553836590N11205111WA0224902249
B2010563836586N11205117WA0224302243
B2010573836581N11205122WA0224002240
B2010583836577N11205127WA0223802238
B2010593836574N11205132WA0223602236
B2011003836571N11205136WA0223502235
B2011013836567N11205141WA0223302233
B2011023836564N11205147WA0223102231
B2011033836560N11205152WA0222802228
B2011043836557N11205159WA0222502225
B2011053836555N11205165WA0222402224
B2011063836553N11205171WA0222402224
B2011073836552N11205177WA0222202222
B2011083836551N11205183WA0221802218
B2011093836551N11205191WA0221502215
B2011103836550N11205199WA0221102211
B2011113836550N11205206WA0220902209
B2011123836551N11205212WA0220702207
B2011133836552N11205219WA0220402204
B2011143836553N11205226WA0220102201
B2011153836554N11205234WA0219602196
B2011163836555N11205243WA0219102191
B2011173836556N11205254WA0218802188
B2011183836557N11205264WA0219002190
B2011193836558N11205271WA0219402194
B2011203836557N11205277WA0220002200
B2011213836556N11205281WA0220402204
B2011223836556N11205285WA0220702207
B2011233836555N11205290WA0220802208
B2011243836555N11205296WA0220802208
B2011253836556N11205302WA0220702207
B2011263836559N11205307WA0220702207
B2011273836563N11205310WA0220502205
B2011283836568N11205311WA0220302203
B2011293836574N11205311WA0220002200
B2011303836580N11205312WA0219902199
B2011313836584N11205314WA0220002200
B2011323836587N11205316WA0220302203
B2011333836588N11205320WA0220502205
B2011343836589N11205323WA0220502205
B2011353836590N11205327WA0220302203
B2011363836593N11205331WA0219902199
B2011373836598N11205336WA0219402194
B2011383836603N11205340WA0219102191
B2011393836609N11205343WA0218902189
B2011403836613N11205344WA0218902189
B2011413836617N11205345WA0219002190
B2011423836621N11205346WA0219002190
B2011433836624N11205347WA0218802188
B2011443836628N11205348WA0218502185
B2011453836633N11205350WA0218002180
B2011463836638N11205353WA0217602176
B2011473836642N11205355WA0217302173
B2011483836645N11205357WA0217102171
B2011493836647N11205359WA0216902169
B2011503836649N11205362WA0216602166
B2011513836651N11205366WA0216202162
B2011523836653N11205372WA0215702157
B2011533836655N11205379WA0215202152
B2011543836657N11205386WA0215002150
B2011553836659N11205392WA0214802148
B2011563836660N11205398WA0214502145
B2011573836663N11205404WA0214102141
B2011583836665N11205409WA0213702137
B2011593836667N11205415WA0213302133
B2012003836669N11205423WA0212902129
B2012013836671N11205431WA0212402124
B2012023836672N11205441WA0212002120
B2012033836674N11205451WA0211602116
B2012043836676N11205460WA0211402114
B2012053836678N11205467WA0211402114
B2012063836680N11205472WA0211502115
B2012073836682N11205477WA0211502115
B2012083836684N11205481WA0211402114
B2012093836687N11205485WA0211302113
B2012103836689N11205490WA0211202112
B2012113836690N11205496WA0211202112
B2012123836692N11205503WA0211202112
B2012133836694N11205509WA0211302113
B2012143836696N11205514WA0211502115
B2012153836699N11205518WA0211802118
B2012163836702N11205520WA0212002120
B2012173836706N11205522WA0212102121
B2012183836710N11205525WA0212202122
B2012193836714N11205527WA0212102121
B2012203836718N11205529WA0212102121
B2012213836722N11205533WA0212002120
B2012223836725N11205537WA0211902119
B2012233836728N11205542WA0211802118
B2012243836730N11205548WA0211702117
B2012253836733N11205554WA0211602116
B2012263836735N11205560WA0211602116
B2012273836736N11205566WA0211502115
B2012283836738N11205572WA0211502115
B2012293836739N11205578WA0211402114
B2012303836740N11205585WA0211302113
B2012313836742N11205593WA0211102111
B2012323836745N11205601WA0210802108
B2012333836749N11205609WA0210502105
B2012343836754N11205617WA0210302103
B2012353836758N11205624WA0210302103
B2012363836762N11205630WA0210502105
B2012373836767N11205634WA0210602106
B2012383836771N11205638WA0210702107
B2012393836775N11205641WA0210602106
B2012403836781N11205645WA0210402104
B2012413836786N11205649WA0210102101
B2012423836792N11205654WA0209802098
B2012433836798N11205659WA0209602096
B2012443836803N11205664WA0209402094
B2012453836808N11205669WA0209402094
B2012463836813N11205674WA0209202092
B2012473836818N11205678WA0209102091
B2012483836823N11205683WA0208802088
B2012493836829N11205688WA0208502085
B2012503836836N11205693WA0208202082
B2012513836842N11205698WA0207902079
B2012523836849N11205702WA0207802078
B2012533836855N11205705WA0207702077
B2012543836861N11205707WA0207702077
B2012553836867N11205709WA0207602076
B2012563836874N11205711WA0207402074
B2012573836880N11205713WA0207202072
B2012583836887N11205716WA0206902069
B2012593836894N11205719WA0206602066
B2013003836900N11205722WA0206502065
B2013013836907N11205725WA0206402064
B2013023836913N11205727WA0206302063
B2013033836920N11205730WA0206202062
B2013043836926N11205732WA0206002060
B2013053836933N11205735WA0205802058
B2013063836940N11205738WA0205602056
B2013073836947N11205741WA0205402054
B2013083836954N11205744WA0205302053
B2013093836960N11205746WA0205202052
B2013103836967N11205748WA0205202052
B2013113836973N11205750WA0205202052
B2013123836979N11205752WA0205302053
B2013133836984N11205754WA0205502055
B2013143836989N11205755WA0205502055
B2013153836994N11205756WA0205402054
B2013163837000N11205758WA0205102051
B2013173837007N11205760WA0204702047
B2013183837014N11205764WA0204202042
B2013193837021N11205768WA0204002040
B2013203837027N11205772WA0203902039
B2013213837033N11205776WA0204002040
B2013223837038N11205779WA0204002040
B2013233837042N11205783WA0203902039
B2013243837047N11205788WA0203602036
B2013253837053N11205793WA0203302033
B2013263837059N11205798WA0202902029
B2013273837066N11205803WA0202602026
B2013283837072N11205808WA0202402024
B2013293837079N11205812WA0202302023
B2013303837085N11205815WA0202202022
B2013313837091N11205818WA0202102021
B2013323837096N11205820WA0201902019
B2013333837102N11205823WA0201702017
B2013343837109N11205826WA0201302013
B2013353837115N11205828WA0201002010
B2013363837122N11205831WA0200702007
B2013373837129N11205833WA0200502005
B2013383837135N11205836WA0200302003
B2013393837141N11205839WA0200202002
B2013403837147N11205842WA0200002000
B2013413837153N11205846WA0199801998
B2013423837158N11205851WA0199501995
B2013433837164N11205857WA0199201992
B2013443837169N11205864WA0199001990
B2013453837173N11205871WA0198801988
B2013463837177N11205878WA0198701987
B2013473837181N11205885WA0198601986
B2013483837184N11205892WA0198501985
B2013493837187N11205899WA0198301983
B2013503837190N11205906WA0198101981
B2013513837193N11205914WA0197901979
B2013523837197N11205922WA0197701977
B2013533837200N11205930WA0197601976
B2013543837204N11205938WA0197501975
B2013553837208N11205945WA0197501975
B2013563837212N11205952WA0197401974
B2013573837216N11205959WA0197301973
B2013583837220N11205967WA0197101971
B2013593837225N11205975WA0196901969
B2014003837229N11205984WA0196801968
B2014013837234N11205992WA0196801968
B2014023837238N11206000WA0196901969
B2014033837242N11206007WA0197101971
B2014043837246N11206013WA0197201972
B2014053837249N11206019WA0197401974
B2014063837253N11206024WA0197401974
B2014073837256N11206030WA0197501975
B2014083837259N11206035WA0197701977
B2014093837262N11206039WA0197801978
B2014103837267N11206041WA0197901979
B2014113837272N11206041WA0197801978
B2014123837277N11206037WA0197701977
B2014133837282N11206030WA0197501975
B2014143837284N11206020WA0197201972
B2014153837282N11206010WA0197101971
B2014163837279N11206002WA0197201972
B2014173837273N11205997WA0197401974
B2014183837267N11205995WA0197701977
B2014193837261N11205995WA0198001980
B2014203837256N11205998WA0198101981
B2014213837253N11206002WA0198001980
B2014223837250N11206008WA0198101981
B2014233837249N11206014WA0198101981
B2014243837250N11206021WA0198101981
B2014253837253N11206027WA0198101981
B2014263837257N11206031WA0198101981
B2014273837263N11206033WA0198201982
B2014283837268N11206034WA0198301983
B2014293837273N11206033WA0198401984
B2014303837279N11206031WA0198201982
B2014313837284N11206028WA0198001980
B2014323837290N11206023WA0197801978
B2014333837295N11206018WA0197501975
B2014343837300N11206011WA0197401974
B2014353837303N11206004WA0197501975
B2014363837304N11205997WA0197501975
B2014373837304N11205990WA0197301973
B2014383837302N11205983WA0197201972
B2014393837298N11205977WA0197001970
B2014403837293N11205971WA0196701967
B2014413837287N11205967WA0196401964
B2014423837280N11205964WA0196101961
B2014433837273N11205963WA0196001960
B2014443837267N11205964WA0196001960
B2014453837261N11205967WA0196101961
B2014463837257N11205971WA0196201962
B2014473837254N11205975WA0196301963
B2014483837251N11205979WA0196301963
B2014493837249N11205984WA0196401964
B2014503837247N11205989WA0196201962
B2014513837246N11205996WA0196001960
B2014523837246N11206003WA0195801958
B2014533837246N11206011WA0195701957
B2014543837248N11206017WA0195701957
B2014553837250N11206022WA0195701957
B2014563837254N11206027WA0195701957
B2014573837258N11206030WA0195601956
B2014583837262N11206034WA0195401954
B2014593837267N11206038WA0195201952
B2015003837272N11206041WA0194901949
B2015013837276N11206044WA0194701947
B2015023837281N11206047WA0194501945
B2015033837286N11206050WA0194101941
B2015043837292N11206052WA0193701937
B2015053837298N11206055WA0193401934
B2015063837304N11206058WA0193101931
B2015073837309N11206062WA0192901929
B2015083837314N11206067WA0192701927
B2015093837318N11206072WA0192601926
B2015103837321N11206077WA0192401924
B2015113837325N11206083WA0192201922
B2015123837328N11206089WA0192001920
B2015133837331N11206094WA0192001920
B2015143837334N11206099WA0191901919
B2015153837337N11206103WA0191901919
B2015163837340N11206107WA0191701917
B2015173837343N11206113WA0191701917
B2015183837345N11206119WA0191501915
B2015193837348N11206125WA0191401914
B2015203837351N11206131WA0191401914
B2015213837353N11206136WA0191501915
B2015223837356N11206140WA0191601916
B2015233837358N11206145WA0191601916
B2015243837361N11206150WA0191501915
B2015253837364N11206155WA0191401914
B2015263837368N11206161WA0191201912
B2015273837372N11206167WA0191101911
B2015283837375N11206174WA0191001910
B2015293837378N11206180WA0191101911
B2015303837380N11206185WA0191301913
B2015313837383N11206191WA0191301913
B2015323837385N11206197WA0191301913
B2015333837387N11206203WA0191101911
B2015343837390N11206210WA0191001910
B2015353837392N11206216WA0191001910
B2015363837395N11206222WA0190901909
B2015373837398N11206227WA0190901909
B2015383837401N11206232WA0190801908
B2015393837405N11206237WA0190701907
B2015403837409N11206241WA0190601906
B2015413837414N11206244WA0190501905
B2015423837419N11206248WA0190401904
B2015433837426N11206250WA0190401904
B2015443837432N11206252WA0190401904
B2015453837437N11206253WA0190601906
B2015463837442N11206254WA0190801908
B2015473837447N11206253WA0190801908
B2015483837451N11206252WA0190701907
B2015493837456N11206248WA0190501905
B2015503837460N11206242WA0190001900
B2015513837464N11206235WA0189601896
B2015523837468N11206228WA0189401894
B2015533837472N11206222WA0189401894
B2015543837475N11206218WA0189401894
B2015553837479N11206215WA0189301893
B2015563837484N11206215WA0189001890
B2015573837489N11206216WA0188601886
B2015583837495N11206220WA0188201882
B2015593837500N11206226WA0187801878
B2016003837503N11206232WA0187801878
B2016013837504N11206238WA0187801878
B2016023837504N11206243WA0187801878
B2016033837505N11206249WA0187701877
B2016043837505N11206255WA0187501875
B2016053837504N11206262WA0187201872
B2016063837502N11206270WA0186901869
B2016073837500N11206277WA0186801868
B2016083837497N11206283WA0186801868
B2016093837494N11206289WA0186801868
B2016103837491N11206294WA0186701867
B2016113837487N11206300WA0186501865
B2016123837483N11206306WA0186201862
B2016133837479N11206314WA0186001860
B2016143837475N11206320WA0185801858
B2016153837472N11206327WA0185801858
B2016163837469N11206332WA0185801858
B2016173837467N11206337WA0185701857
B2016183837464N11206343WA0185601856
B2016193837462N11206349WA0185401854
B2016203837459N11206356WA0185101851
B2016213837456N11206363WA0184801848
B2016223837453N11206369WA0184701847
B2016233837450N11206375WA0184601846
B2016243837447N11206380WA0184501845
B2016253837444N11206385WA0184301843
B2016263837441N11206391WA0184001840
B2016273837438N11206399WA0183601836
B2016283837435N11206406WA0183401834
B2016293837433N11206414WA0183301833
B2016303837431N11206420WA0183301833
B2016313837428N11206425WA0183301833
B2016323837425N11206431WA0183101831
B2016333837422N11206437WA0182801828
B2016343837419N11206444WA0182401824
B2016353837416N11206453WA0182001820
B2016363837413N11206461WA0181801818
B2016373837410N11206469WA0181901819
B2016383837408N11206476WA0182101821
B2016393837406N11206482WA0182101821
B2016403837404N11206488WA0182101821
B2016413837402N11206495WA0181901819
B2016423837399N11206504WA0181601816
B2016433837396N11206513WA0181401814
B2016443837394N11206522WA0181501815
B2016453837392N11206530WA0181701817
B2016463837392N11206536WA0182001820
B2016473837392N11206543WA0182101821
B2016483837393N11206548WA0182101821
B2016493837396N11206553WA0182101821
B2016503837401N11206556WA0181901819
B2016513837407N11206557WA0181801818
B2016523837412N11206554WA0181801818
B2016533837415N11206549WA0182001820
B2016543837415N11206543WA0182201822
B2016553837412N11206537WA0182101821
B2016563837407N11206532WA0181901819
B2016573837400N11206527WA0181601816
B2016583837392N11206524WA0181401814
B2016593837383N11206524WA0181401814
B2017003837375N11206526WA0181601816
B2017013837370N11206530WA0181901819
B2017023837366N11206535WA0182001820
B2017033837364N11206542WA0182001820
B2017043837364N11206549WA0181801818
B2017053837365N11206558WA0181401814
B2017063837367N11206567WA0181101811
B2017073837369N11206576WA0180901809
B2017083837372N11206584WA0181001810
B2017093837374N11206589WA0181101811
B2017103837376N11206593WA0181201812
B2017113837378N11206596WA0181101811
B2017123837382N11206599WA0181001810
B2017133837387N11206602WA0180801808
B2017143837392N11206603WA0180601806
B2017153837398N11206602WA0180601806
B2017163837401N11206598WA0180701807
B2017173837403N11206592WA0180901809
B2017183837402N11206586WA0181101811
B2017193837398N11206581WA0181101811
B2017203837392N11206577WA0181001810
B2017213837384N11206576WA0180801808
B2017223837375N11206579WA0180701807
B2017233837368N11206584WA0180701807
B2017243837364N11206591WA0180901809
B2017253837362N11206599WA0181001810
B2017263837361N11206605WA0181001810
B2017273837363N11206611WA0181001810
B2017283837365N11206616WA0180801808
B2017293837369N11206621WA0180601806
B2017303837374N11206625WA0180401804
B2017313837379N11206628WA0180301803
B2017323837383N11206631WA0180401804
B2017333837387N11206631WA0180501805
B2017343837391N11206631WA0180601806
B2017353837395N11206630WA0180701807
B2017363837399N11206628WA0180701807
B2017373837402N11206625WA0180801808
B2017383837404N11206621WA0180901809
B2017393837404N11206616WA0180901809
B2017403837402N11206611WA0180801808
B2017413837398N11206605WA0180701807
B2017423837391N11206601WA0180401804
B2017433837383N11206598WA0180201802
B2017443837375N11206597WA0180201802
B2017453837368N11206598WA0180501805
B2017463837362N11206600WA0180701807
B2017473837357N11206604WA0180701807
B2017483837352N11206609WA0180601806
B2017493837348N11206617WA0180401804
B2017503837345N11206626WA0180201802
B2017513837344N11206635WA0180101801
B2017523837343N11206643WA0180201802
B2017533837344N11206649WA0180301803
B2017543837346N11206655WA0180401804
B2017553837349N11206659WA0180301803
B2017563837354N11206664WA0180201802
B2017573837359N11206667WA0180101801
B2017583837364N11206670WA0180101801
B2017593837368N11206671WA0180201802
B2018003837372N11206671WA0180301803
B2018013837376N11206670WA0180401804
B2018023837379N11206667WA0180301803
B2018033837381N11206662WA0180201802
B2018043837381N11206655WA0180001800
B2018053837381N11206646WA0179801798
B2018063837379N11206639WA0179701797
B2018073837376N11206632WA0179701797
B2018083837372N11206626WA0179601796
B2018093837367N11206622WA0179601796
B2018103837361N11206619WA0179501795
B2018113837353N11206617WA0179401794
B2018123837346N11206617WA0179201792
B2018133837338N11206618WA0179001790
B2018143837330N11206620WA0178901789
B2018153837323N11206623WA0178901789
B2018163837317N11206627WA0178901789
B2018173837312N11206631WA0179001790
B2018183837308N11206636WA0178901789
B2018193837305N11206642WA0178801788
B2018203837303N11206650WA0178601786
B2018213837301N11206659WA0178401784
B2018223837300N11206667WA0178301783
B2018233837300N11206674WA0178201782
B2018243837300N11206681WA0178201782
B2018253837302N11206687WA0178201782
B2018263837304N11206692WA0178101781
B2018273837307N11206697WA0178001780
B2018283837310N11206703WA0178001780
B2018293837313N11206710WA0177901779
B2018303837315N11206717WA0177901779
B2018313837317N11206724WA0177901779
B2018323837319N11206731WA0177901779
B2018333837321N11206739WA0177801778
B2018343837323N11206746WA0177801778
B2018353837324N11206752WA0177801778
B2018363837326N11206758WA0177701777
B2018373837327N11206764WA0177501775
B2018383837328N11206770WA0177201772
B2018393837329N11206777WA0176901769
B2018403837328N11206785WA0176501765
B2018413837326N11206795WA0176201762
B2018423837322N11206804WA0175901759
B2018433837317N11206812WA0175801758
B2018443837312N11206818WA0175801758
B2018453837308N11206823WA0175901759
B2018463837304N11206828WA0175701757
B2018473837299N11206833WA0175401754
B2018483837294N11206838WA0175101751
B2018493837288N11206844WA0174701747
B2018503837282N11206850WA0174401744
B2018513837276N11206853WA0174301743
B2018523837271N11206856WA0174201742
B2018533837266N11206858WA0174101741
B2018543837261N11206861WA0173801738
B2018553837255N11206864WA0173501735
B2018563837249N11206867WA0173101731
B2018573837242N11206869WA0172801728
B2018583837235N11206871WA0172501725
B2018593837229N11206873WA0172401724
B2019003837223N11206874WA0172201722
B2019013837218N11206876WA0172001720
B2019023837213N11206879WA0171701717
B2019033837207N11206882WA0171401714
B2019043837200N11206885WA0171001710
B2019053837193N11206887WA0170701707
B2019063837187N11206889WA0170501705
B2019073837180N11206889WA0170301703
B2019083837173N11206890WA0170101701
B2019093837166N11206891WA0170001700
B2019103837160N11206892WA0169801698
B2019113837154N11206892WA0169601696
B2019123837147N11206893WA0169401694
B2019133837141N11206895WA0169201692
B2019143837135N11206898WA0169001690
B2019153837130N11206903WA0168701687
B2019163837125N11206910WA0168401684
B2019173837122N11206918WA0168001680
B2019183837121N11206927WA0167701677
B2019193837123N11206935WA0167401674
B2019203837126N11206941WA0167101671
B2019213837129N11206946WA0167001670
B2019223837133N11206949WA0166901669
B2019233837137N11206951WA0166901669
B2019243837141N11206953WA0166801668
B2019253837144N11206954WA0166701667
B2019263837145N11206955WA0166801668
B2019273837146N11206956WA0166801668
B2019283837146N11206955WA0166801668
B2019293837147N11206955WA0166701667
B2019303837147N11206956WA0166801668
B2019313837147N11206956WA0166701667
B2019323837147N11206955WA0166701667
B2019333837147N11206955WA0166701667
B2019343837146N11206955WA0166701667
B2019353837146N11206955WA0166701667
B2019363837146N11206955WA0166601666
B2019373837146N11206955WA0166601666
B2019383837146N11206955WA0166601666
B2019393837146N11206955WA0166601666
B2019403837146N11206955WA0166701667
B2019413837146N11206955WA0166701667
B2019423837146N11206955WA0166701667
B2019433837146N11206955WA0166701667
B2019443837147N11206955WA0166701667
