AXFMFLYMASTER LIVETRACK
HFDTE210926
HFFXA010
HFPLTPILOT:Seth Romanenko
HFGTYGLIDERTYPE:Ozone Zeno 2 / Ozone Forza
HFCIDCOMPETITIONID:220284
HFDTM100GPSDATUM:WGS-1984
HFRFWFIRMWAREVERSION:lt.flymaster.net bsGetPilotTrack
B1946053838033N11203635WA0266602666
B1946063838033N11203636WA0266602666
B1946073838033N11203638WA0266602666
B1946083838032N11203639WA0266602666
B1946093838032N11203641WA0266602666
B1946103838033N11203644WA0266502665
B1946113838033N11203648WA0266502665
B1946123838033N11203652WA0266602666
B1946133838033N11203655WA0266602666
B1946143838032N11203658WA0266802668
B1946153838032N11203661WA0266902669
B1946163838032N11203664WA0267002670
B1946173838032N11203668WA0267002670
B1946183838032N11203673WA0267202672
B1946193838032N11203678WA0267202672
B1946203838032N11203683WA0267402674
B1946213838033N11203687WA0267502675
B1946223838033N11203690WA0267502675
B1946233838032N11203692WA0267602676
B1946243838032N11203694WA0267602676
B1946253838030N11203696WA0267402674
B1946263838027N11203698WA0267202672
B1946273838024N11203701WA0267002670
B1946283838021N11203704WA0266902669
B1946293838018N11203705WA0266902669
B1946303838015N11203707WA0266802668
B1946313838012N11203708WA0266602666
B1946323838008N11203710WA0266402664
B1946333838004N11203711WA0266302663
B1946343838000N11203713WA0266102661
B1946353837996N11203714WA0265902659
B1946363837992N11203716WA0265902659
B1946373837989N11203716WA0265902659
B1946383837985N11203717WA0265802658
B1946393837981N11203717WA0265802658
B1946403837976N11203718WA0265702657
B1946413837971N11203719WA0265502655
B1946423837967N11203720WA0265402654
B1946433837962N11203722WA0265402654
B1946443837958N11203723WA0265402654
B1946453837954N11203723WA0265402654
B1946463837950N11203723WA0265402654
B1946473837946N11203723WA0265302653
B1946483837941N11203722WA0265302653
B1946493837937N11203721WA0265302653
B1946503837932N11203719WA0265202652
B1946513837927N11203718WA0265202652
B1946523837922N11203716WA0265302653
B1946533837917N11203714WA0265302653
B1946543837912N11203712WA0265302653
B1946553837907N11203711WA0265302653
B1946563837902N11203709WA0265302653
B1946573837897N11203708WA0265302653
B1946583837892N11203708WA0265502655
B1946593837888N11203707WA0265802658
B1947003837885N11203707WA0266102661
B1947013837883N11203708WA0266302663
B1947023837880N11203708WA0266302663
B1947033837876N11203710WA0266102661
B1947043837871N11203711WA0265902659
B1947053837866N11203714WA0265702657
B1947063837861N11203716WA0265702657
B1947073837857N11203719WA0265702657
B1947083837853N11203721WA0265702657
B1947093837850N11203722WA0265602656
B1947103837845N11203724WA0265502655
B1947113837840N11203726WA0265402654
B1947123837835N11203728WA0265302653
B1947133837830N11203730WA0265202652
B1947143837825N11203732WA0265302653
B1947153837821N11203734WA0265502655
B1947163837817N11203735WA0265602656
B1947173837813N11203736WA0265702657
B1947183837808N11203736WA0265702657
B1947193837803N11203737WA0265702657
B1947203837798N11203739WA0265802658
B1947213837794N11203740WA0265902659
B1947223837789N11203742WA0265902659
B1947233837784N11203743WA0265902659
B1947243837778N11203744WA0265802658
B1947253837773N11203745WA0265602656
B1947263837766N11203746WA0265402654
B1947273837759N11203746WA0265202652
B1947283837752N11203746WA0265002650
B1947293837746N11203744WA0265002650
B1947303837741N11203743WA0265102651
B1947313837735N11203742WA0265102651
B1947323837729N11203741WA0265002650
B1947333837722N11203740WA0264802648
B1947343837714N11203740WA0264602646
B1947353837706N11203740WA0264502645
B1947363837699N11203740WA0264502645
B1947373837691N11203741WA0264402644
B1947383837683N11203741WA0264302643
B1947393837676N11203742WA0264302643
B1947403837669N11203742WA0264402644
B1947413837663N11203742WA0264502645
B1947423837657N11203742WA0264702647
B1947433837652N11203742WA0264702647
B1947443837647N11203741WA0264802648
B1947453837642N11203739WA0264802648
B1947463837637N11203735WA0264702647
B1947473837633N11203729WA0264702647
B1947483837630N11203722WA0264702647
B1947493837628N11203714WA0264702647
B1947503837627N11203706WA0264702647
B1947513837626N11203697WA0264602646
B1947523837628N11203688WA0264502645
B1947533837630N11203680WA0264502645
B1947543837635N11203674WA0264602646
B1947553837640N11203671WA0264902649
B1947563837644N11203670WA0265102651
B1947573837648N11203671WA0265402654
B1947583837652N11203675WA0265602656
B1947593837654N11203679WA0265702657
B1948003837655N11203685WA0265802658
B1948013837655N11203691WA0266002660
B1948023837653N11203696WA0266202662
B1948033837649N11203700WA0266302663
B1948043837644N11203700WA0266302663
B1948053837640N11203697WA0266302663
B1948063837636N11203691WA0266202662
B1948073837632N11203684WA0266202662
B1948083837630N11203675WA0266102661
B1948093837629N11203667WA0266102661
B1948103837630N11203658WA0266002660
B1948113837632N11203649WA0265902659
B1948123837636N11203641WA0265802658
B1948133837642N11203635WA0265902659
B1948143837647N11203632WA0266202662
B1948153837651N11203629WA0266502665
B1948163837655N11203627WA0266902669
B1948173837659N11203626WA0267202672
B1948183837663N11203626WA0267402674
B1948193837667N11203627WA0267602676
B1948203837670N11203631WA0267702677
B1948213837672N11203635WA0267702677
B1948223837673N11203641WA0267702677
B1948233837674N11203646WA0267802678
B1948243837674N11203652WA0268002680
B1948253837673N11203657WA0268102681
B1948263837671N11203662WA0268202682
B1948273837667N11203667WA0268102681
B1948283837663N11203670WA0268002680
B1948293837658N11203670WA0268102681
B1948303837655N11203666WA0268202682
B1948313837652N11203661WA0268302683
B1948323837651N11203655WA0268302683
B1948333837650N11203647WA0268102681
B1948343837650N11203640WA0268102681
B1948353837649N11203632WA0268002680
B1948363837649N11203624WA0267902679
B1948373837650N11203617WA0267902679
B1948383837651N11203610WA0268002680
B1948393837654N11203605WA0268002680
B1948403837659N11203602WA0268002680
B1948413837663N11203601WA0267902679
B1948423837668N11203601WA0267902679
B1948433837672N11203604WA0267802678
B1948443837676N11203609WA0267802678
B1948453837679N11203614WA0267802678
B1948463837681N11203619WA0268002680
B1948473837682N11203624WA0268202682
B1948483837681N11203628WA0268202682
B1948493837680N11203632WA0268102681
B1948503837678N11203636WA0268002680
B1948513837675N11203640WA0267802678
B1948523837671N11203642WA0267502675
B1948533837667N11203643WA0267302673
B1948543837662N11203641WA0267102671
B1948553837658N11203638WA0267102671
B1948563837654N11203632WA0267102671
B1948573837651N11203626WA0267002670
B1948583837649N11203619WA0267002670
B1948593837649N11203611WA0267002670
B1949003837649N11203603WA0266902669
B1949013837650N11203595WA0266802668
B1949023837653N11203587WA0266602666
B1949033837658N11203580WA0266302663
B1949043837663N11203573WA0266102661
B1949053837670N11203568WA0265902659
B1949063837677N11203564WA0265802658
B1949073837684N11203561WA0265802658
B1949083837690N11203560WA0266002660
B1949093837695N11203559WA0266202662
B1949103837700N11203559WA0266402664
B1949113837704N11203560WA0266602666
B1949123837707N11203561WA0266602666
B1949133837711N11203562WA0266702667
B1949143837714N11203564WA0266902669
B1949153837716N11203565WA0267102671
B1949163837718N11203568WA0267302673
B1949173837720N11203571WA0267402674
B1949183837721N11203575WA0267402674
B1949193837721N11203579WA0267402674
B1949203837720N11203582WA0267502675
B1949213837717N11203584WA0267602676
B1949223837713N11203583WA0267602676
B1949233837708N11203580WA0267502675
B1949243837704N11203574WA0267402674
B1949253837702N11203567WA0267402674
B1949263837703N11203559WA0267302673
B1949273837705N11203551WA0267202672
B1949283837707N11203543WA0267102671
B1949293837711N11203536WA0267002670
B1949303837715N11203531WA0267102671
B1949313837720N11203529WA0267202672
B1949323837725N11203529WA0267302673
B1949333837729N11203531WA0267502675
B1949343837732N11203533WA0267702677
B1949353837735N11203535WA0267902679
B1949363837737N11203538WA0268102681
B1949373837740N11203541WA0268202682
B1949383837742N11203545WA0268302683
B1949393837745N11203549WA0268302683
B1949403837747N11203552WA0268302683
B1949413837749N11203556WA0268302683
B1949423837750N11203560WA0268302683
B1949433837752N11203563WA0268302683
B1949443837753N11203567WA0268302683
B1949453837755N11203570WA0268302683
B1949463837757N11203574WA0268202682
B1949473837760N11203577WA0268102681
B1949483837763N11203581WA0267902679
B1949493837766N11203586WA0267802678
B1949503837770N11203591WA0267702677
B1949513837774N11203596WA0267702677
B1949523837777N11203599WA0267802678
B1949533837780N11203602WA0268002680
B1949543837782N11203605WA0268102681
B1949553837785N11203608WA0268102681
B1949563837788N11203611WA0268002680
B1949573837791N11203613WA0268002680
B1949583837794N11203616WA0267902679
B1949593837798N11203618WA0267902679
B1950003837801N11203621WA0268002680
B1950013837805N11203623WA0267802678
B1950023837809N11203626WA0267602676
B1950033837814N11203629WA0267502675
B1950043837819N11203632WA0267502675
B1950053837823N11203636WA0267602676
B1950063837826N11203639WA0267602676
B1950073837828N11203643WA0267702677
B1950083837829N11203648WA0267602676
B1950093837831N11203652WA0267502675
B1950103837832N11203656WA0267302673
B1950113837835N11203660WA0267302673
B1950123837838N11203664WA0267202672
B1950133837842N11203667WA0267302673
B1950143837847N11203669WA0267402674
B1950153837851N11203671WA0267502675
B1950163837856N11203673WA0267502675
B1950173837861N11203674WA0267502675
B1950183837866N11203676WA0267602676
B1950193837870N11203678WA0267802678
B1950203837873N11203680WA0267902679
B1950213837876N11203682WA0267902679
B1950223837877N11203685WA0267902679
B1950233837878N11203689WA0267702677
B1950243837879N11203694WA0267602676
B1950253837880N11203698WA0267502675
B1950263837881N11203703WA0267402674
B1950273837881N11203708WA0267302673
B1950283837881N11203713WA0267202672
B1950293837881N11203718WA0267102671
B1950303837881N11203722WA0267002670
B1950313837880N11203726WA0266902669
B1950323837879N11203730WA0266702667
B1950333837878N11203733WA0266502665
B1950343837875N11203736WA0266302663
B1950353837872N11203739WA0266202662
B1950363837869N11203742WA0266102661
B1950373837865N11203743WA0266002660
B1950383837861N11203743WA0265902659
B1950393837857N11203741WA0265702657
B1950403837854N11203736WA0265702657
B1950413837851N11203729WA0265502655
B1950423837850N11203722WA0265402654
B1950433837849N11203715WA0265302653
B1950443837845N11203710WA0265202652
B1950453837841N11203710WA0264802648
B1950463837837N11203714WA0264302643
B1950473837834N11203721WA0264002640
B1950483837834N11203728WA0263902639
B1950493837834N11203733WA0264102641
B1950503837835N11203737WA0264202642
B1950513837835N11203741WA0264202642
B1950523837836N11203745WA0264102641
B1950533837838N11203751WA0263902639
B1950543837840N11203757WA0263802638
B1950553837841N11203763WA0263802638
B1950563837842N11203768WA0263902639
B1950573837842N11203772WA0264002640
B1950583837843N11203777WA0264102641
B1950593837844N11203781WA0264102641
B1951003837846N11203785WA0264102641
B1951013837849N11203789WA0264102641
B1951023837852N11203793WA0264102641
B1951033837856N11203797WA0264002640
B1951043837859N11203800WA0264002640
B1951053837862N11203804WA0263902639
B1951063837864N11203808WA0263802638
B1951073837867N11203812WA0263702637
B1951083837869N11203816WA0263602636
B1951093837871N11203820WA0263602636
B1951103837873N11203824WA0263602636
B1951113837873N11203828WA0263602636
B1951123837874N11203833WA0263702637
B1951133837873N11203838WA0263702637
B1951143837872N11203842WA0263702637
B1951153837870N11203846WA0263702637
B1951163837868N11203850WA0263602636
B1951173837864N11203852WA0263502635
B1951183837859N11203851WA0263402634
B1951193837854N11203849WA0263202632
B1951203837849N11203845WA0263202632
B1951213837845N11203841WA0263302633
B1951223837841N11203837WA0263302633
B1951233837839N11203831WA0263302633
B1951243837837N11203824WA0263102631
B1951253837836N11203815WA0262802628
B1951263837838N11203806WA0262702627
B1951273837842N11203799WA0262602626
B1951283837847N11203795WA0262602626
B1951293837852N11203793WA0262502625
B1951303837858N11203795WA0262402624
B1951313837864N11203796WA0262402624
B1951323837869N11203798WA0262602626
B1951333837875N11203800WA0262702627
B1951343837881N11203801WA0262902629
B1951353837886N11203802WA0263102631
B1951363837891N11203804WA0263302633
B1951373837896N11203804WA0263302633
B1951383837902N11203804WA0263302633
B1951393837908N11203804WA0263202632
B1951403837914N11203802WA0263202632
B1951413837920N11203800WA0263202632
B1951423837926N11203798WA0263302633
B1951433837932N11203796WA0263302633
B1951443837938N11203795WA0263402634
B1951453837944N11203796WA0263402634
B1951463837949N11203797WA0263502635
B1951473837954N11203800WA0263502635
B1951483837958N11203804WA0263602636
B1951493837962N11203808WA0263602636
B1951503837965N11203813WA0263702637
B1951513837967N11203818WA0263602636
B1951523837969N11203824WA0263602636
B1951533837971N11203830WA0263602636
B1951543837972N11203836WA0263602636
B1951553837973N11203842WA0263702637
B1951563837974N11203847WA0263802638
B1951573837974N11203852WA0263902639
B1951583837974N11203857WA0263902639
B1951593837973N11203862WA0263902639
B1952003837972N11203867WA0263802638
B1952013837970N11203872WA0263802638
B1952023837968N11203877WA0263702637
B1952033837966N11203881WA0263702637
B1952043837963N11203884WA0263702637
B1952053837960N11203885WA0263702637
B1952063837956N11203883WA0263702637
B1952073837952N11203880WA0263602636
B1952083837949N11203874WA0263602636
B1952093837949N11203866WA0263502635
B1952103837951N11203859WA0263502635
B1952113837954N11203852WA0263502635
B1952123837959N11203846WA0263402634
B1952133837965N11203842WA0263402634
B1952143837972N11203838WA0263302633
B1952153837979N11203834WA0263302633
B1952163837985N11203831WA0263302633
B1952173837992N11203827WA0263202632
B1952183837998N11203824WA0263202632
B1952193838005N11203820WA0263202632
B1952203838011N11203817WA0263302633
B1952213838018N11203814WA0263302633
B1952223838024N11203810WA0263302633
B1952233838030N11203807WA0263202632
B1952243838036N11203803WA0263202632
B1952253838042N11203801WA0263102631
B1952263838048N11203798WA0263002630
B1952273838054N11203795WA0262902629
B1952283838061N11203791WA0262702627
B1952293838068N11203787WA0262602626
B1952303838075N11203783WA0262702627
B1952313838082N11203779WA0262902629
B1952323838087N11203776WA0263302633
B1952333838092N11203773WA0263702637
B1952343838097N11203772WA0263902639
B1952353838102N11203771WA0264002640
B1952363838108N11203771WA0264102641
B1952373838113N11203770WA0264202642
B1952383838118N11203770WA0264402644
B1952393838123N11203771WA0264502645
B1952403838127N11203773WA0264602646
B1952413838131N11203776WA0264702647
B1952423838133N11203780WA0264802648
B1952433838135N11203783WA0264802648
B1952443838133N11203787WA0264902649
B1952453838130N11203790WA0264902649
B1952463838125N11203790WA0264902649
B1952473838119N11203786WA0264902649
B1952483838116N11203779WA0265202652
B1952493838115N11203770WA0265302653
B1952503838117N11203761WA0265402654
B1952513838120N11203752WA0265502655
B1952523838125N11203746WA0265702657
B1952533838130N11203743WA0265902659
B1952543838135N11203742WA0266102661
B1952553838139N11203742WA0266302663
B1952563838143N11203744WA0266402664
B1952573838145N11203749WA0266502665
B1952583838147N11203754WA0266602666
B1952593838146N11203759WA0266702667
B1953003838143N11203762WA0267002670
B1953013838139N11203763WA0267102671
B1953023838134N11203761WA0267202672
B1953033838130N11203756WA0267202672
B1953043838127N11203749WA0267302673
B1953053838126N11203740WA0267402674
B1953063838128N11203731WA0267402674
B1953073838131N11203723WA0267502675
B1953083838135N11203716WA0267502675
B1953093838140N11203710WA0267602676
B1953103838146N11203706WA0267702677
B1953113838152N11203704WA0267902679
B1953123838157N11203705WA0268102681
B1953133838161N11203708WA0268302683
B1953143838164N11203713WA0268402684
B1953153838165N11203718WA0268502685
B1953163838164N11203723WA0268602686
B1953173838162N11203726WA0268802688
B1953183838158N11203727WA0269102691
B1953193838154N11203725WA0269202692
B1953203838149N11203720WA0269202692
B1953213838146N11203713WA0269302693
B1953223838145N11203704WA0269402694
B1953233838148N11203694WA0269402694
B1953243838152N11203686WA0269502695
B1953253838157N11203679WA0269602696
B1953263838163N11203675WA0269902699
B1953273838170N11203673WA0270102701
B1953283838176N11203672WA0270302703
B1953293838182N11203672WA0270502705
B1953303838188N11203673WA0270702707
B1953313838193N11203675WA0270802708
B1953323838196N11203679WA0270902709
B1953333838199N11203682WA0271002710
B1953343838201N11203686WA0271102711
B1953353838202N11203690WA0271202712
B1953363838202N11203694WA0271302713
B1953373838203N11203698WA0271502715
B1953383838202N11203702WA0271602716
B1953393838200N11203704WA0271802718
B1953403838197N11203706WA0272002720
B1953413838194N11203706WA0272202722
B1953423838190N11203704WA0272402724
B1953433838186N11203700WA0272602726
B1953443838184N11203693WA0272802728
B1953453838183N11203685WA0272902729
B1953463838184N11203676WA0272902729
B1953473838187N11203668WA0273002730
B1953483838192N11203659WA0272902729
B1953493838199N11203654WA0272902729
B1953503838207N11203651WA0272902729
B1953513838214N11203652WA0273002730
B1953523838219N11203655WA0273202732
B1953533838223N11203659WA0273502735
B1953543838226N11203663WA0273702737
B1953553838227N11203667WA0273902739
B1953563838228N11203671WA0274002740
B1953573838228N11203675WA0274102741
B1953583838227N11203679WA0274202742
B1953593838225N11203682WA0274302743
B1954003838223N11203684WA0274502745
B1954013838222N11203686WA0274702747
B1954023838220N11203688WA0274802748
B1954033838217N11203690WA0274902749
B1954043838215N11203690WA0274902749
B1954053838212N11203688WA0274802748
B1954063838209N11203685WA0274602746
B1954073838206N11203680WA0274402744
B1954083838204N11203674WA0274202742
B1954093838202N11203667WA0274002740
B1954103838201N11203660WA0273802738
B1954113838201N11203652WA0273702737
B1954123838203N11203643WA0273602736
B1954133838205N11203634WA0273602736
B1954143838209N11203626WA0273502735
B1954153838214N11203619WA0273402734
B1954163838220N11203612WA0273302733
B1954173838225N11203606WA0273102731
B1954183838232N11203601WA0273002730
B1954193838239N11203597WA0272902729
B1954203838245N11203596WA0272902729
B1954213838252N11203596WA0273002730
B1954223838257N11203598WA0273002730
B1954233838261N11203601WA0273002730
B1954243838265N11203605WA0272902729
B1954253838268N11203610WA0272702727
B1954263838271N11203615WA0272702727
B1954273838272N11203620WA0272602726
B1954283838274N11203625WA0272602726
B1954293838274N11203630WA0272602726
B1954303838275N11203634WA0272702727
B1954313838275N11203638WA0272602726
B1954323838275N11203641WA0272602726
B1954333838274N11203644WA0272402724
B1954343838273N11203648WA0272202722
B1954353838271N11203651WA0272002720
B1954363838269N11203655WA0271702717
B1954373838266N11203658WA0271502715
B1954383838262N11203662WA0271202712
B1954393838258N11203664WA0271002710
B1954403838254N11203667WA0270902709
B1954413838250N11203670WA0270802708
B1954423838247N11203674WA0270702707
B1954433838243N11203678WA0270702707
B1954443838240N11203682WA0270602706
B1954453838237N11203685WA0270502705
B1954463838234N11203688WA0270302703
B1954473838231N11203691WA0270202702
B1954483838228N11203693WA0270102701
B1954493838224N11203696WA0270102701
B1954503838221N11203698WA0270102701
B1954513838218N11203700WA0270202702
B1954523838215N11203703WA0270202702
B1954533838213N11203706WA0270102701
B1954543838211N11203709WA0269902699
B1954553838208N11203712WA0269702697
B1954563838206N11203715WA0269602696
B1954573838204N11203719WA0269502695
B1954583838202N11203723WA0269502695
B1954593838200N11203728WA0269402694
B1955003838198N11203733WA0269402694
B1955013838197N11203737WA0269502695
B1955023838196N11203742WA0269502695
B1955033838194N11203747WA0269502695
B1955043838193N11203751WA0269602696
B1955053838192N11203755WA0269602696
B1955063838190N11203759WA0269602696
B1955073838188N11203763WA0269602696
B1955083838186N11203767WA0269602696
B1955093838185N11203772WA0269502695
B1955103838183N11203776WA0269502695
B1955113838182N11203780WA0269502695
B1955123838181N11203785WA0269502695
B1955133838181N11203789WA0269502695
B1955143838182N11203794WA0269502695
B1955153838182N11203799WA0269502695
B1955163838183N11203804WA0269502695
B1955173838183N11203809WA0269602696
B1955183838184N11203813WA0269602696
B1955193838184N11203818WA0269602696
B1955203838184N11203823WA0269702697
B1955213838183N11203827WA0269702697
B1955223838182N11203832WA0269702697
B1955233838182N11203838WA0269802698
B1955243838180N11203844WA0269902699
B1955253838179N11203849WA0270002700
B1955263838176N11203853WA0270302703
B1955273838172N11203855WA0270502705
B1955283838167N11203855WA0270602706
B1955293838162N11203852WA0270602706
B1955303838158N11203845WA0270602706
B1955313838155N11203837WA0270702707
B1955323838155N11203828WA0270702707
B1955333838158N11203819WA0270802708
B1955343838163N11203812WA0270702707
B1955353838169N11203806WA0270702707
B1955363838176N11203803WA0270602706
B1955373838183N11203801WA0270702707
B1955383838189N11203801WA0270802708
B1955393838194N11203803WA0270902709
B1955403838199N11203806WA0271102711
B1955413838203N11203809WA0271402714
B1955423838206N11203813WA0271702717
B1955433838208N11203817WA0271902719
B1955443838209N11203821WA0272102721
B1955453838209N11203826WA0272302723
B1955463838208N11203830WA0272302723
B1955473838206N11203834WA0272302723
B1955483838203N11203837WA0272402724
B1955493838200N11203840WA0272502725
B1955503838195N11203841WA0272702727
B1955513838191N11203840WA0272902729
B1955523838186N11203837WA0273002730
B1955533838182N11203833WA0273102731
B1955543838178N11203827WA0273202732
B1955553838175N11203820WA0273402734
B1955563838174N11203811WA0273602736
B1955573838174N11203802WA0273702737
B1955583838177N11203793WA0273802738
B1955593838181N11203785WA0273902739
B1956003838187N11203781WA0273902739
B1956013838194N11203779WA0273902739
B1956023838200N11203778WA0273802738
B1956033838207N11203779WA0273802738
B1956043838213N11203781WA0273802738
B1956053838218N11203785WA0273902739
B1956063838222N11203788WA0274102741
B1956073838225N11203793WA0274302743
B1956083838226N11203797WA0274402744
B1956093838226N11203802WA0274402744
B1956103838226N11203807WA0274502745
B1956113838225N11203812WA0274502745
B1956123838223N11203816WA0274602746
B1956133838220N11203819WA0274702747
B1956143838216N11203820WA0274702747
B1956153838211N11203820WA0274702747
B1956163838206N11203817WA0274702747
B1956173838202N11203813WA0274802748
B1956183838200N11203808WA0275002750
B1956193838199N11203801WA0275102751
B1956203838200N11203793WA0275002750
B1956213838202N11203784WA0274902749
B1956223838205N11203776WA0274902749
B1956233838210N11203769WA0275002750
B1956243838215N11203765WA0275202752
B1956253838221N11203763WA0275302753
B1956263838226N11203763WA0275402754
B1956273838232N11203765WA0275402754
B1956283838236N11203768WA0275402754
B1956293838240N11203773WA0275402754
B1956303838242N11203778WA0275402754
B1956313838244N11203782WA0275402754
B1956323838244N11203788WA0275402754
B1956333838243N11203793WA0275302753
B1956343838240N11203797WA0275202752
B1956353838236N11203800WA0275202752
B1956363838231N11203802WA0275102751
B1956373838226N11203802WA0275102751
B1956383838221N11203801WA0275202752
B1956393838216N11203799WA0275202752
B1956403838211N11203796WA0275302753
B1956413838207N11203792WA0275402754
B1956423838204N11203787WA0275502755
B1956433838201N11203781WA0275602756
B1956443838200N11203773WA0275602756
B1956453838201N11203764WA0275602756
B1956463838203N11203755WA0275702757
B1956473838207N11203748WA0275702757
B1956483838213N11203743WA0275902759
B1956493838218N11203741WA0276002760
B1956503838224N11203742WA0276102761
B1956513838227N11203745WA0276002760
B1956523838230N11203750WA0276002760
B1956533838231N11203754WA0275902759
B1956543838231N11203759WA0275902759
B1956553838229N11203763WA0276002760
B1956563838226N11203765WA0276002760
B1956573838222N11203765WA0276102761
B1956583838218N11203765WA0276102761
B1956593838214N11203763WA0276102761
B1957003838209N11203762WA0276202762
B1957013838205N11203759WA0276402764
B1957023838201N11203755WA0276502765
B1957033838198N11203751WA0276502765
B1957043838194N11203745WA0276502765
B1957053838192N11203738WA0276402764
B1957063838191N11203729WA0276402764
B1957073838192N11203720WA0276302763
B1957083838194N11203711WA0276302763
B1957093838196N11203703WA0276402764
B1957103838200N11203695WA0276402764
B1957113838204N11203688WA0276402764
B1957123838210N11203683WA0276302763
B1957133838216N11203679WA0276302763
B1957143838222N11203678WA0276202762
B1957153838229N11203678WA0276102761
B1957163838235N11203680WA0276102761
B1957173838239N11203683WA0276302763
B1957183838242N11203687WA0276402764
B1957193838243N11203691WA0276502765
B1957203838243N11203695WA0276502765
B1957213838242N11203699WA0276502765
B1957223838240N11203703WA0276502765
B1957233838238N11203707WA0276502765
B1957243838235N11203710WA0276602766
B1957253838233N11203713WA0276602766
B1957263838231N11203717WA0276602766
B1957273838229N11203721WA0276602766
B1957283838226N11203726WA0276602766
B1957293838224N11203730WA0276702767
B1957303838222N11203735WA0276702767
B1957313838221N11203740WA0276802768
B1957323838220N11203745WA0276902769
B1957333838219N11203749WA0277002770
B1957343838218N11203753WA0277002770
B1957353838216N11203758WA0277102771
B1957363838214N11203762WA0277102771
B1957373838211N11203765WA0277202772
B1957383838209N11203766WA0277302773
B1957393838206N11203767WA0277402774
B1957403838202N11203766WA0277402774
B1957413838199N11203764WA0277302773
B1957423838196N11203761WA0277202772
B1957433838193N11203754WA0277102771
B1957443838192N11203746WA0277002770
B1957453838192N11203737WA0276802768
B1957463838194N11203728WA0276802768
B1957473838197N11203720WA0276802768
B1957483838202N11203713WA0276602766
B1957493838207N11203706WA0276502765
B1957503838213N11203700WA0276302763
B1957513838220N11203695WA0276202762
B1957523838228N11203694WA0276202762
B1957533838234N11203695WA0276102761
B1957543838240N11203697WA0276102761
B1957553838244N11203702WA0276002760
B1957563838248N11203707WA0275902759
B1957573838250N11203713WA0275802758
B1957583838252N11203719WA0275902759
B1957593838254N11203724WA0276002760
B1958003838256N11203729WA0276202762
B1958013838258N11203734WA0276302763
B1958023838259N11203738WA0276402764
B1958033838259N11203742WA0276302763
B1958043838259N11203747WA0276302763
B1958053838258N11203751WA0276102761
B1958063838255N11203754WA0276102761
B1958073838252N11203755WA0276102761
B1958083838249N11203754WA0276202762
B1958093838246N11203751WA0276202762
B1958103838243N11203746WA0276102761
B1958113838240N11203739WA0276102761
B1958123838239N11203731WA0276102761
B1958133838240N11203723WA0276202762
B1958143838242N11203715WA0276202762
B1958153838245N11203707WA0276202762
B1958163838250N11203699WA0276102761
B1958173838256N11203693WA0276102761
B1958183838263N11203689WA0276002760
B1958193838269N11203687WA0275902759
B1958203838276N11203688WA0275702757
B1958213838281N11203690WA0275702757
B1958223838286N11203693WA0275602756
B1958233838291N11203697WA0275702757
B1958243838295N11203700WA0275602756
B1958253838299N11203704WA0275502755
B1958263838302N11203710WA0275402754
B1958273838304N11203715WA0275302753
B1958283838305N11203722WA0275102751
B1958293838306N11203728WA0275002750
B1958303838305N11203734WA0275002750
B1958313838304N11203740WA0275002750
B1958323838302N11203745WA0274902749
B1958333838300N11203750WA0274902749
B1958343838297N11203755WA0274802748
B1958353838293N11203758WA0274802748
B1958363838289N11203760WA0274802748
B1958373838286N11203762WA0274902749
B1958383838283N11203764WA0274902749
B1958393838280N11203765WA0274802748
B1958403838276N11203765WA0274702747
B1958413838272N11203764WA0274702747
B1958423838268N11203763WA0274602746
B1958433838263N11203762WA0274502745
B1958443838259N11203760WA0274402744
B1958453838255N11203759WA0274302743
B1958463838252N11203757WA0274102741
B1958473838248N11203755WA0274002740
B1958483838243N11203753WA0273802738
B1958493838239N11203750WA0273602736
B1958503838234N11203747WA0273402734
B1958513838229N11203744WA0273202732
B1958523838224N11203741WA0273002730
B1958533838218N11203739WA0272702727
B1958543838212N11203737WA0272502725
B1958553838206N11203735WA0272402724
B1958563838200N11203733WA0272302723
B1958573838195N11203731WA0272302723
B1958583838191N11203729WA0272202722
B1958593838186N11203727WA0272102721
B1959003838182N11203724WA0272002720
B1959013838177N11203723WA0271802718
B1959023838171N11203722WA0271502715
B1959033838165N11203721WA0271202712
B1959043838159N11203722WA0271002710
B1959053838153N11203724WA0270802708
B1959063838147N11203726WA0270802708
B1959073838141N11203728WA0270702707
B1959083838136N11203729WA0270702707
B1959093838131N11203731WA0270702707
B1959103838127N11203734WA0270702707
B1959113838124N11203736WA0270702707
B1959123838121N11203738WA0270602706
B1959133838117N11203739WA0270602706
B1959143838114N11203741WA0270502705
B1959153838110N11203743WA0270302703
B1959163838106N11203746WA0270102701
B1959173838103N11203749WA0270102701
B1959183838101N11203753WA0270302703
B1959193838100N11203755WA0270502705
B1959203838099N11203758WA0270702707
B1959213838099N11203761WA0270802708
B1959223838098N11203766WA0270802708
B1959233838097N11203772WA0270702707
B1959243838095N11203778WA0270702707
B1959253838092N11203782WA0270802708
B1959263838089N11203785WA0271102711
B1959273838086N11203786WA0271302713
B1959283838083N11203784WA0271402714
B1959293838081N11203782WA0271602716
B1959303838078N11203780WA0271702717
B1959313838075N11203779WA0271802718
B1959323838073N11203776WA0272002720
B1959333838072N11203771WA0272102721
B1959343838072N11203764WA0272202722
B1959353838074N11203756WA0272202722
B1959363838079N11203748WA0272302723
B1959373838085N11203743WA0272402724
B1959383838093N11203741WA0272602726
B1959393838100N11203742WA0272702727
B1959403838106N11203746WA0272902729
B1959413838110N11203751WA0273102731
B1959423838111N11203757WA0273202732
B1959433838111N11203762WA0273302733
B1959443838110N11203765WA0273402734
B1959453838108N11203768WA0273502735
B1959463838106N11203769WA0273502735
B1959473838102N11203769WA0273602736
B1959483838099N11203767WA0273502735
B1959493838096N11203764WA0273602736
B1959503838093N11203761WA0273602736
B1959513838091N11203758WA0273702737
B1959523838088N11203753WA0273802738
B1959533838087N11203748WA0273902739
B1959543838085N11203742WA0274102741
B1959553838086N11203734WA0274302743
B1959563838088N11203727WA0274502745
B1959573838093N11203719WA0274702747
B1959583838100N11203713WA0274802748
B1959593838107N11203709WA0274902749
B2000003838115N11203707WA0275002750
B2000013838123N11203706WA0275102751
B2000023838130N11203707WA0275202752
B2000033838136N11203710WA0275302753
B2000043838142N11203714WA0275302753
B2000053838146N11203720WA0275302753
B2000063838148N11203727WA0275302753
B2000073838147N11203734WA0275302753
B2000083838145N11203740WA0275302753
B2000093838143N11203744WA0275302753
B2000103838139N11203746WA0275402754
B2000113838136N11203746WA0275502755
B2000123838132N11203744WA0275602756
B2000133838128N11203742WA0275702757
B2000143838125N11203738WA0275802758
B2000153838122N11203733WA0275902759
B2000163838120N11203727WA0276102761
B2000173838118N11203721WA0276202762
B2000183838119N11203714WA0276402764
B2000193838120N11203707WA0276602766
B2000203838124N11203700WA0276802768
B2000213838128N11203693WA0277002770
B2000223838134N11203688WA0277202772
B2000233838140N11203685WA0277302773
B2000243838147N11203683WA0277502775
B2000253838154N11203684WA0277702777
B2000263838161N11203686WA0277802778
B2000273838166N11203690WA0277802778
B2000283838171N11203695WA0277802778
B2000293838175N11203702WA0277802778
B2000303838178N11203708WA0277802778
B2000313838181N11203716WA0277902779
B2000323838182N11203723WA0278002780
B2000333838182N11203729WA0278102781
B2000343838182N11203735WA0278202782
B2000353838180N11203740WA0278402784
B2000363838178N11203744WA0278402784
B2000373838175N11203748WA0278502785
B2000383838172N11203751WA0278502785
B2000393838169N11203752WA0278602786
B2000403838165N11203753WA0278602786
B2000413838161N11203751WA0278702787
B2000423838158N11203748WA0278702787
B2000433838155N11203745WA0278802788
B2000443838153N11203741WA0279002790
B2000453838152N11203736WA0279102791
B2000463838151N11203730WA0279102791
B2000473838152N11203723WA0279102791
B2000483838155N11203715WA0279102791
B2000493838158N11203708WA0279202792
B2000503838163N11203701WA0279302793
B2000513838169N11203696WA0279502795
B2000523838175N11203692WA0279602796
B2000533838181N11203690WA0279802798
B2000543838188N11203689WA0279902799
B2000553838194N11203690WA0280102801
B2000563838199N11203693WA0280302803
B2000573838205N11203697WA0280302803
B2000583838209N11203702WA0280402804
B2000593838211N11203707WA0280402804
B2001003838212N11203713WA0280402804
B2001013838211N11203718WA0280502805
B2001023838209N11203723WA0280502805
B2001033838207N11203726WA0280602806
B2001043838204N11203728WA0280702807
B2001053838200N11203729WA0280702807
B2001063838197N11203729WA0280802808
B2001073838194N11203728WA0280802808
B2001083838191N11203725WA0280902809
B2001093838189N11203720WA0280902809
B2001103838187N11203714WA0280802808
B2001113838187N11203706WA0280902809
B2001123838188N11203699WA0280902809
B2001133838191N11203691WA0280902809
B2001143838195N11203684WA0280902809
B2001153838201N11203678WA0280902809
B2001163838207N11203674WA0280902809
B2001173838214N11203671WA0280902809
B2001183838220N11203669WA0280902809
B2001193838227N11203668WA0281002810
B2001203838232N11203669WA0281102811
B2001213838237N11203672WA0281202812
B2001223838241N11203676WA0281202812
B2001233838243N11203680WA0281202812
B2001243838244N11203686WA0281202812
B2001253838243N11203691WA0281202812
B2001263838241N11203696WA0281202812
B2001273838239N11203700WA0281302813
B2001283838236N11203703WA0281302813
B2001293838234N11203706WA0281302813
B2001303838231N11203709WA0281302813
B2001313838227N11203711WA0281202812
B2001323838223N11203711WA0281102811
B2001333838219N11203710WA0281102811
B2001343838216N11203708WA0281002810
B2001353838212N11203705WA0281102811
B2001363838209N11203701WA0281102811
B2001373838207N11203697WA0281202812
B2001383838205N11203693WA0281402814
B2001393838204N11203688WA0281602816
B2001403838205N11203683WA0281802818
B2001413838207N11203676WA0281702817
B2001423838210N11203669WA0281602816
B2001433838213N11203660WA0281402814
B2001443838219N11203652WA0281302813
B2001453838225N11203646WA0281402814
B2001463838233N11203642WA0281502815
B2001473838240N11203641WA0281602816
B2001483838246N11203642WA0281802818
B2001493838251N11203646WA0281802818
B2001503838255N11203650WA0281702817
B2001513838258N11203655WA0281602816
B2001523838260N11203660WA0281402814
B2001533838260N11203665WA0281302813
B2001543838260N11203671WA0281102811
B2001553838259N11203676WA0280802808
B2001563838257N11203681WA0280602806
B2001573838255N11203685WA0280402804
B2001583838253N11203690WA0280302803
B2001593838251N11203694WA0280302803
B2002003838249N11203697WA0280302803
B2002013838247N11203701WA0280202802
B2002023838245N11203704WA0280102801
B2002033838243N11203707WA0280102801
B2002043838240N11203709WA0280002800
B2002053838236N11203712WA0279902799
B2002063838233N11203713WA0280002800
B2002073838230N11203715WA0280102801
B2002083838227N11203716WA0280202802
B2002093838224N11203715WA0280202802
B2002103838221N11203713WA0280202802
B2002113838219N11203708WA0280202802
B2002123838217N11203701WA0280102801
B2002133838217N11203693WA0280102801
B2002143838219N11203685WA0280102801
B2002153838223N11203678WA0280002800
B2002163838229N11203671WA0279902799
B2002173838236N11203665WA0279802798
B2002183838244N11203662WA0279802798
B2002193838252N11203662WA0279802798
B2002203838259N11203663WA0279802798
B2002213838265N11203666WA0279902799
B2002223838270N11203670WA0279802798
B2002233838274N11203674WA0279802798
B2002243838276N11203679WA0279802798
B2002253838278N11203683WA0279702797
B2002263838278N11203688WA0279702797
B2002273838278N11203693WA0279602796
B2002283838277N11203697WA0279502795
B2002293838276N11203702WA0279402794
B2002303838275N11203706WA0279302793
B2002313838274N11203711WA0279402794
B2002323838271N11203714WA0279402794
B2002333838269N11203718WA0279602796
B2002343838267N11203721WA0279702797
B2002353838265N11203725WA0279802798
B2002363838263N11203727WA0280002800
B2002373838260N11203729WA0280202802
B2002383838257N11203729WA0280302803
B2002393838253N11203727WA0280302803
B2002403838250N11203723WA0280302803
B2002413838247N11203717WA0280102801
B2002423838246N11203710WA0280002800
B2002433838245N11203702WA0279902799
B2002443838247N11203694WA0279702797
B2002453838249N11203686WA0279602796
B2002463838253N11203680WA0279602796
B2002473838258N11203675WA0279502795
B2002483838265N11203673WA0279302793
B2002493838271N11203674WA0279202792
B2002503838277N11203677WA0279102791
B2002513838281N11203681WA0279002790
B2002523838284N11203686WA0279002790
B2002533838285N11203691WA0279002790
B2002543838286N11203696WA0279102791
B2002553838285N11203702WA0279102791
B2002563838284N11203707WA0279002790
B2002573838283N11203711WA0279002790
B2002583838281N11203715WA0279002790
B2002593838279N11203718WA0278902789
B2003003838276N11203721WA0278802788
B2003013838273N11203724WA0278702787
B2003023838270N11203726WA0278502785
B2003033838267N11203727WA0278402784
B2003043838264N11203728WA0278302783
B2003053838261N11203728WA0278102781
B2003063838258N11203728WA0278002780
B2003073838254N11203726WA0277802778
B2003083838251N11203725WA0277602776
B2003093838247N11203723WA0277302773
B2003103838242N11203721WA0276902769
B2003113838238N11203719WA0276602766
B2003123838233N11203719WA0276302763
B2003133838229N11203719WA0276102761
B2003143838226N11203719WA0276002760
B2003153838222N11203719WA0275802758
B2003163838217N11203719WA0275502755
B2003173838213N11203721WA0275302753
B2003183838208N11203724WA0275202752
B2003193838205N11203727WA0275202752
B2003203838203N11203729WA0275302753
B2003213838201N11203733WA0275202752
B2003223838199N11203736WA0275002750
B2003233838196N11203739WA0274802748
B2003243838193N11203743WA0274602746
B2003253838189N11203747WA0274402744
B2003263838186N11203750WA0274202742
B2003273838182N11203753WA0274102741
B2003283838178N11203754WA0274102741
B2003293838174N11203755WA0274102741
B2003303838171N11203755WA0274202742
B2003313838168N11203756WA0274102741
B2003323838164N11203756WA0274102741
B2003333838160N11203757WA0274002740
B2003343838156N11203758WA0274102741
B2003353838152N11203759WA0274202742
B2003363838148N11203760WA0274402744
B2003373838145N11203762WA0274502745
B2003383838142N11203764WA0274602746
B2003393838138N11203766WA0274602746
B2003403838135N11203767WA0274602746
B2003413838131N11203767WA0274602746
B2003423838127N11203767WA0274602746
B2003433838124N11203767WA0274702747
B2003443838120N11203766WA0274602746
B2003453838116N11203765WA0274602746
B2003463838113N11203763WA0274702747
B2003473838110N11203762WA0274702747
B2003483838107N11203760WA0274602746
B2003493838103N11203759WA0274602746
B2003503838099N11203758WA0274502745
B2003513838095N11203757WA0274402744
B2003523838090N11203757WA0274302743
B2003533838084N11203756WA0274202742
B2003543838078N11203755WA0274002740
B2003553838072N11203753WA0273802738
B2003563838066N11203751WA0273502735
B2003573838060N11203749WA0273402734
B2003583838055N11203747WA0273302733
B2003593838049N11203745WA0273102731
B2004003838044N11203744WA0272902729
B2004013838038N11203743WA0272702727
B2004023838032N11203743WA0272502725
B2004033838026N11203742WA0272202722
B2004043838020N11203742WA0272102721
B2004053838013N11203742WA0271902719
B2004063838007N11203743WA0271702717
B2004073838001N11203743WA0271602716
B2004083837995N11203742WA0271502715
B2004093837989N11203742WA0271402714
B2004103837982N11203741WA0271202712
B2004113837976N11203740WA0271102711
B2004123837970N11203739WA0271102711
B2004133837964N11203739WA0271202712
B2004143837958N11203738WA0271202712
B2004153837953N11203739WA0271302713
B2004163837948N11203740WA0271402714
B2004173837943N11203741WA0271402714
B2004183837937N11203742WA0271302713
B2004193837932N11203742WA0271302713
B2004203837926N11203742WA0271202712
B2004213837921N11203742WA0271102711
B2004223837916N11203743WA0270902709
B2004233837910N11203743WA0270802708
B2004243837904N11203744WA0270602706
B2004253837898N11203746WA0270602706
B2004263837892N11203747WA0270502705
B2004273837886N11203748WA0270502705
B2004283837881N11203750WA0270402704
B2004293837875N11203751WA0270202702
B2004303837869N11203753WA0270102701
B2004313837863N11203753WA0269902699
B2004323837856N11203754WA0269702697
B2004333837850N11203754WA0269602696
B2004343837844N11203754WA0269502695
B2004353837838N11203753WA0269402694
B2004363837832N11203752WA0269302693
B2004373837827N11203751WA0269202692
B2004383837821N11203749WA0269002690
B2004393837815N11203748WA0268902689
B2004403837810N11203747WA0268802688
B2004413837804N11203745WA0268802688
B2004423837799N11203744WA0268702687
B2004433837793N11203742WA0268502685
B2004443837787N11203740WA0268302683
B2004453837781N11203739WA0268102681
B2004463837774N11203737WA0267902679
B2004473837768N11203735WA0267802678
B2004483837763N11203732WA0267702677
B2004493837757N11203730WA0267402674
B2004503837751N11203728WA0267202672
B2004513837744N11203727WA0267002670
B2004523837738N11203725WA0266802668
B2004533837732N11203724WA0266702667
B2004543837726N11203724WA0266502665
B2004553837720N11203723WA0266402664
B2004563837715N11203723WA0266302663
B2004573837709N11203723WA0266202662
B2004583837703N11203723WA0266002660
B2004593837697N11203722WA0265902659
B2005003837692N11203721WA0265702657
B2005013837686N11203720WA0265502655
B2005023837680N11203719WA0265402654
B2005033837675N11203719WA0265302653
B2005043837670N11203718WA0265102651
B2005053837664N11203718WA0264902649
B2005063837658N11203719WA0264702647
B2005073837653N11203720WA0264402644
B2005083837647N11203721WA0264202642
B2005093837641N11203721WA0264002640
B2005103837635N11203722WA0263802638
B2005113837628N11203723WA0263502635
B2005123837622N11203724WA0263202632
B2005133837614N11203725WA0262902629
B2005143837607N11203726WA0262502625
B2005153837599N11203727WA0262302623
B2005163837591N11203728WA0262102621
B2005173837584N11203729WA0262002620
B2005183837577N11203731WA0261802618
B2005193837570N11203732WA0261702617
B2005203837563N11203733WA0261502615
B2005213837556N11203734WA0261302613
B2005223837549N11203735WA0261102611
B2005233837542N11203737WA0260802608
B2005243837535N11203739WA0260602606
B2005253837529N11203743WA0260402604
B2005263837523N11203747WA0260202602
B2005273837517N11203752WA0259902599
B2005283837511N11203757WA0259702597
B2005293837506N11203762WA0259502595
B2005303837501N11203767WA0259402594
B2005313837495N11203772WA0259302593
B2005323837490N11203776WA0259202592
B2005333837484N11203780WA0259002590
B2005343837478N11203783WA0258902589
B2005353837472N11203787WA0258702587
B2005363837466N11203791WA0258602586
B2005373837460N11203794WA0258502585
B2005383837454N11203797WA0258402584
B2005393837449N11203800WA0258302583
B2005403837443N11203803WA0258102581
B2005413837438N11203807WA0257902579
B2005423837432N11203810WA0257702577
B2005433837426N11203814WA0257502575
B2005443837420N11203818WA0257302573
B2005453837414N11203822WA0257102571
B2005463837409N11203827WA0256902569
B2005473837404N11203832WA0256802568
B2005483837400N11203837WA0256602566
B2005493837395N11203843WA0256302563
B2005503837390N11203848WA0256102561
B2005513837385N11203853WA0255802558
B2005523837380N11203859WA0255502555
B2005533837375N11203865WA0255302553
B2005543837371N11203871WA0255202552
B2005553837367N11203877WA0255002550
B2005563837364N11203883WA0254802548
B2005573837360N11203889WA0254502545
B2005583837356N11203896WA0254202542
B2005593837353N11203903WA0253802538
B2006003837350N11203912WA0253502535
B2006013837347N11203920WA0253302533
B2006023837344N11203927WA0253102531
B2006033837341N11203934WA0253002530
B2006043837339N11203941WA0252802528
B2006053837337N11203948WA0252502525
B2006063837334N11203956WA0252102521
B2006073837332N11203964WA0251802518
B2006083837330N11203973WA0251402514
B2006093837330N11203982WA0251102511
B2006103837330N11203991WA0250902509
B2006113837332N11204000WA0250802508
B2006123837334N11204008WA0250602506
B2006133837337N11204015WA0250502505
B2006143837340N11204023WA0250202502
B2006153837342N11204031WA0249902499
B2006163837345N11204041WA0249602496
B2006173837348N11204050WA0249202492
B2006183837350N11204060WA0248902489
B2006193837350N11204070WA0248802488
B2006203837350N11204079WA0248702487
B2006213837349N11204087WA0248602486
B2006223837348N11204096WA0248502485
B2006233837346N11204105WA0248402484
B2006243837344N11204113WA0248302483
B2006253837342N11204122WA0248202482
B2006263837340N11204130WA0248202482
B2006273837338N11204137WA0248302483
B2006283837336N11204143WA0248602486
B2006293837334N11204149WA0248702487
B2006303837332N11204154WA0248702487
B2006313837329N11204159WA0248502485
B2006323837326N11204165WA0248102481
B2006333837323N11204172WA0247802478
B2006343837320N11204178WA0247602476
B2006353837317N11204185WA0247402474
B2006363837313N11204191WA0247202472
B2006373837310N11204197WA0246902469
B2006383837306N11204203WA0246702467
B2006393837302N11204209WA0246302463
B2006403837298N11204215WA0246002460
B2006413837294N11204223WA0245602456
B2006423837290N11204231WA0245302453
B2006433837286N11204240WA0245002450
B2006443837282N11204250WA0244902449
B2006453837279N11204259WA0244902449
B2006463837276N11204267WA0245002450
B2006473837274N11204275WA0245002450
B2006483837273N11204282WA0245002450
B2006493837272N11204289WA0245002450
B2006503837272N11204296WA0244902449
B2006513837271N11204304WA0244802448
B2006523837270N11204312WA0244702447
B2006533837268N11204320WA0244502445
B2006543837266N11204328WA0244502445
B2006553837264N11204336WA0244502445
B2006563837262N11204344WA0244502445
B2006573837260N11204352WA0244502445
B2006583837259N11204359WA0244602446
B2006593837257N11204365WA0244702447
B2007003837254N11204370WA0244802448
B2007013837252N11204374WA0244802448
B2007023837249N11204379WA0244702447
B2007033837245N11204384WA0244702447
B2007043837240N11204389WA0244702447
B2007053837236N11204394WA0244602446
B2007063837231N11204398WA0244702447
B2007073837227N11204401WA0244902449
B2007083837224N11204403WA0245102451
B2007093837220N11204404WA0245202452
B2007103837215N11204404WA0245102451
B2007113837210N11204402WA0245002450
B2007123837204N11204398WA0244902449
B2007133837200N11204391WA0244802448
B2007143837199N11204383WA0244802448
B2007153837200N11204375WA0244702447
B2007163837202N11204368WA0244602446
B2007173837206N11204363WA0244702447
B2007183837209N11204360WA0244702447
B2007193837213N11204359WA0244702447
B2007203837218N11204360WA0244602446
B2007213837222N11204362WA0244602446
B2007223837225N11204364WA0244602446
B2007233837229N11204367WA0244602446
B2007243837233N11204370WA0244602446
B2007253837236N11204373WA0244502445
B2007263837239N11204377WA0244502445
B2007273837241N11204381WA0244402444
B2007283837243N11204387WA0244402444
B2007293837244N11204392WA0244402444
B2007303837244N11204397WA0244402444
B2007313837243N11204402WA0244402444
B2007323837241N11204407WA0244302443
B2007333837239N11204412WA0244302443
B2007343837237N11204418WA0244302443
B2007353837235N11204423WA0244302443
B2007363837233N11204429WA0244302443
B2007373837230N11204434WA0244202442
B2007383837227N11204440WA0244202442
B2007393837224N11204446WA0244102441
B2007403837221N11204452WA0244002440
B2007413837218N11204458WA0244002440
B2007423837215N11204464WA0244002440
B2007433837212N11204469WA0244002440
B2007443837209N11204475WA0244002440
B2007453837205N11204480WA0243802438
B2007463837201N11204485WA0243602436
B2007473837196N11204491WA0243202432
B2007483837191N11204498WA0242802428
B2007493837186N11204505WA0242402424
B2007503837181N11204512WA0242102421
B2007513837176N11204518WA0242102421
B2007523837172N11204523WA0242102421
B2007533837169N11204527WA0242202422
B2007543837166N11204532WA0242302423
B2007553837164N11204535WA0242302423
B2007563837161N11204540WA0242202422
B2007573837158N11204544WA0242102421
B2007583837155N11204550WA0241902419
B2007593837153N11204556WA0241802418
B2008003837150N11204562WA0241702417
B2008013837148N11204568WA0241702417
B2008023837145N11204573WA0241602416
B2008033837143N11204578WA0241602416
B2008043837140N11204583WA0241502415
B2008053837137N11204588WA0241402414
B2008063837133N11204592WA0241202412
B2008073837129N11204596WA0241102411
B2008083837125N11204599WA0241002410
B2008093837119N11204601WA0240802408
B2008103837114N11204603WA0240702407
B2008113837109N11204604WA0240602406
B2008123837104N11204606WA0240502405
B2008133837098N11204607WA0240302403
B2008143837093N11204609WA0240202402
B2008153837088N11204612WA0240102401
B2008163837083N11204615WA0240002400
B2008173837078N11204617WA0239802398
B2008183837072N11204620WA0239702397
B2008193837067N11204623WA0239602396
B2008203837062N11204626WA0239502395
B2008213837057N11204629WA0239302393
B2008223837052N11204632WA0239102391
B2008233837046N11204636WA0238902389
B2008243837041N11204640WA0238802388
B2008253837035N11204643WA0238702387
B2008263837030N11204647WA0238602386
B2008273837025N11204650WA0238502385
B2008283837019N11204653WA0238402384
B2008293837014N11204657WA0238302383
B2008303837008N11204660WA0238202382
B2008313837002N11204663WA0238102381
B2008323836997N11204666WA0238102381
B2008333836992N11204670WA0238002380
B2008343836986N11204673WA0238002380
B2008353836981N11204677WA0237902379
B2008363836976N11204682WA0237802378
B2008373836971N11204687WA0237702377
B2008383836966N11204692WA0237702377
B2008393836962N11204697WA0237702377
B2008403836957N11204703WA0237802378
B2008413836953N11204708WA0237902379
B2008423836950N11204713WA0237902379
B2008433836946N11204718WA0237902379
B2008443836943N11204724WA0237702377
B2008453836939N11204730WA0237502375
B2008463836934N11204736WA0237302373
B2008473836929N11204742WA0237102371
B2008483836923N11204748WA0237002370
B2008493836917N11204752WA0237002370
B2008503836912N11204755WA0237002370
B2008513836906N11204758WA0236902369
B2008523836901N11204761WA0236902369
B2008533836896N11204765WA0236902369
B2008543836892N11204769WA0236802368
B2008553836888N11204774WA0236802368
B2008563836883N11204779WA0236602366
B2008573836879N11204784WA0236502365
B2008583836876N11204790WA0236502365
B2008593836873N11204794WA0236602366
B2009003836870N11204798WA0236602366
B2009013836867N11204802WA0236602366
B2009023836863N11204807WA0236602366
B2009033836859N11204811WA0236602366
B2009043836855N11204815WA0236602366
B2009053836851N11204820WA0236602366
B2009063836848N11204825WA0236602366
B2009073836845N11204830WA0236602366
B2009083836843N11204834WA0236702367
B2009093836841N11204839WA0236702367
B2009103836839N11204844WA0236602366
B2009113836837N11204849WA0236602366
B2009123836835N11204854WA0236502365
B2009133836832N11204859WA0236402364
B2009143836829N11204864WA0236302363
B2009153836826N11204869WA0236202362
B2009163836822N11204874WA0236202362
B2009173836819N11204879WA0236202362
B2009183836816N11204883WA0236302363
B2009193836813N11204888WA0236402364
B2009203836810N11204892WA0236402364
B2009213836807N11204895WA0236502365
B2009223836804N11204897WA0236502365
B2009233836800N11204896WA0236502365
B2009243836795N11204894WA0236302363
B2009253836790N11204890WA0236102361
B2009263836785N11204884WA0236002360
B2009273836782N11204877WA0235902359
B2009283836780N11204869WA0235802358
B2009293836779N11204861WA0235702357
B2009303836780N11204854WA0235502355
B2009313836783N11204847WA0235302353
B2009323836786N11204841WA0235202352
B2009333836791N11204836WA0235002350
B2009343836796N11204834WA0234802348
B2009353836801N11204835WA0234602346
B2009363836805N11204838WA0234402344
B2009373836808N11204844WA0234302343
B2009383836810N11204849WA0234202342
B2009393836811N11204855WA0234202342
B2009403836810N11204861WA0234202342
B2009413836810N11204866WA0234102341
B2009423836809N11204872WA0234002340
B2009433836807N11204878WA0233802338
B2009443836804N11204884WA0233502335
B2009453836801N11204891WA0233202332
B2009463836798N11204898WA0232902329
B2009473836794N11204905WA0232602326
B2009483836791N11204913WA0232502325
B2009493836787N11204920WA0232302323
B2009503836784N11204927WA0232002320
B2009513836781N11204935WA0231802318
B2009523836778N11204944WA0231702317
B2009533836775N11204952WA0231702317
B2009543836772N11204959WA0231802318
B2009553836770N11204967WA0231802318
B2009563836768N11204974WA0231902319
B2009573836765N11204981WA0231902319
B2009583836763N11204988WA0231902319
B2009593836760N11204996WA0231802318
B2010003836757N11205003WA0231802318
B2010013836755N11205010WA0231702317
B2010023836751N11205017WA0231702317
B2010033836748N11205023WA0231602316
B2010043836745N11205029WA0231502315
B2010053836741N11205036WA0231302313
B2010063836737N11205043WA0231102311
B2010073836734N11205050WA0230902309
B2010083836731N11205058WA0230802308
B2010093836729N11205066WA0230702307
B2010103836727N11205074WA0230702307
B2010113836726N11205081WA0230602306
B2010123836726N11205089WA0230502305
B2010133836724N11205097WA0230402304
B2010143836723N11205104WA0230302303
B2010153836720N11205112WA0230202302
B2010163836718N11205119WA0230202302
B2010173836716N11205126WA0230202302
B2010183836714N11205133WA0230102301
B2010193836712N11205140WA0229902299
B2010203836710N11205147WA0229702297
B2010213836708N11205155WA0229602296
B2010223836707N11205162WA0229402294
B2010233836706N11205169WA0229202292
B2010243836705N11205177WA0229002290
B2010253836705N11205184WA0228802288
B2010263836704N11205192WA0228602286
B2010273836704N11205199WA0228602286
B2010283836703N11205206WA0228502285
B2010293836703N11205213WA0228602286
B2010303836702N11205219WA0228602286
B2010313836702N11205223WA0228602286
B2010323836701N11205228WA0228502285
B2010333836701N11205233WA0228302283
B2010343836700N11205240WA0228002280
B2010353836699N11205247WA0227702277
B2010363836698N11205254WA0227602276
B2010373836696N11205260WA0227502275
B2010383836695N11205266WA0227402274
B2010393836694N11205272WA0227302273
B2010403836692N11205277WA0227102271
B2010413836691N11205283WA0226902269
B2010423836691N11205290WA0226702267
B2010433836690N11205296WA0226502265
B2010443836690N11205302WA0226402264
B2010453836690N11205307WA0226302263
B2010463836689N11205312WA0226102261
B2010473836689N11205319WA0225902259
B2010483836688N11205326WA0225702257
B2010493836687N11205333WA0225602256
B2010503836686N11205341WA0225702257
B2010513836684N11205347WA0225802258
B2010523836682N11205352WA0226002260
B2010533836680N11205357WA0226202262
B2010543836678N11205360WA0226402264
B2010553836675N11205364WA0226402264
B2010563836673N11205368WA0226302263
B2010573836669N11205373WA0226102261
B2010583836665N11205378WA0226002260
B2010593836660N11205382WA0226002260
B2011003836653N11205383WA0226002260
B2011013836647N11205380WA0226002260
B2011023836642N11205374WA0226002260
B2011033836639N11205367WA0225802258
B2011043836637N11205358WA0225702257
B2011053836637N11205350WA0225602256
B2011063836639N11205342WA0225602256
B2011073836643N11205336WA0225402254
B2011083836648N11205333WA0225202252
B2011093836652N11205331WA0225102251
B2011103836657N11205330WA0225102251
B2011113836661N11205330WA0225202252
B2011123836664N11205329WA0225202252
B2011133836668N11205330WA0225202252
B2011143836671N11205331WA0225202252
B2011153836675N11205333WA0225302253
B2011163836678N11205336WA0225302253
B2011173836681N11205339WA0225302253
B2011183836685N11205342WA0225202252
B2011193836689N11205344WA0225202252
B2011203836693N11205345WA0225302253
B2011213836697N11205346WA0225402254
B2011223836700N11205347WA0225502255
B2011233836703N11205349WA0225502255
B2011243836706N11205353WA0225402254
B2011253836707N11205359WA0225202252
B2011263836706N11205365WA0224902249
B2011273836703N11205370WA0224602246
B2011283836699N11205372WA0224402244
B2011293836694N11205373WA0224102241
B2011303836689N11205373WA0223902239
B2011313836683N11205372WA0223702237
B2011323836678N11205372WA0223502235
B2011333836673N11205373WA0223302233
B2011343836669N11205376WA0223002230
B2011353836665N11205379WA0222602226
B2011363836662N11205383WA0222202222
B2011373836659N11205389WA0221702217
B2011383836658N11205394WA0221402214
B2011393836658N11205400WA0221202212
B2011403836659N11205404WA0221002210
B2011413836660N11205408WA0220902209
B2011423836662N11205411WA0220702207
B2011433836664N11205415WA0220502205
B2011443836667N11205420WA0220202202
B2011453836670N11205424WA0219802198
B2011463836673N11205428WA0219502195
B2011473836676N11205432WA0219202192
B2011483836678N11205437WA0218902189
B2011493836680N11205444WA0218402184
B2011503836682N11205452WA0217902179
B2011513836684N11205462WA0217402174
B2011523836687N11205472WA0217102171
B2011533836691N11205481WA0217002170
B2011543836694N11205489WA0216902169
B2011553836697N11205496WA0216902169
B2011563836700N11205503WA0216802168
B2011573836703N11205510WA0216602166
B2011583836707N11205516WA0216502165
B2011593836712N11205522WA0216302163
B2012003836717N11205528WA0216302163
B2012013836721N11205534WA0216502165
B2012023836725N11205539WA0216902169
B2012033836728N11205543WA0217202172
B2012043836729N11205548WA0217602176
B2012053836729N11205552WA0217702177
B2012063836727N11205557WA0217702177
B2012073836725N11205562WA0217602176
B2012083836721N11205567WA0217402174
B2012093836716N11205569WA0217302173
B2012103836710N11205568WA0217002170
B2012113836705N11205563WA0216802168
B2012123836701N11205555WA0216502165
B2012133836698N11205547WA0216302163
B2012143836697N11205539WA0216202162
B2012153836698N11205531WA0216302163
B2012163836700N11205525WA0216402164
B2012173836702N11205521WA0216602166
B2012183836705N11205518WA0216702167
B2012193836709N11205516WA0216902169
B2012203836712N11205515WA0217002170
B2012213836715N11205515WA0217002170
B2012223836718N11205517WA0216902169
B2012233836721N11205519WA0216902169
B2012243836725N11205522WA0216802168
B2012253836728N11205525WA0216702167
B2012263836731N11205529WA0216702167
B2012273836734N11205532WA0216702167
B2012283836736N11205535WA0216702167
B2012293836738N11205539WA0216802168
B2012303836740N11205543WA0216702167
B2012313836742N11205547WA0216702167
B2012323836744N11205551WA0216602166
B2012333836747N11205555WA0216502165
B2012343836750N11205558WA0216502165
B2012353836752N11205562WA0216402164
B2012363836755N11205566WA0216302163
B2012373836756N11205571WA0216202162
B2012383836758N11205576WA0216102161
B2012393836760N11205581WA0216102161
B2012403836763N11205585WA0216002160
B2012413836766N11205590WA0215902159
B2012423836769N11205593WA0215802158
B2012433836773N11205596WA0215602156
B2012443836777N11205599WA0215402154
B2012453836781N11205602WA0215202152
B2012463836785N11205606WA0215102151
B2012473836788N11205610WA0215102151
B2012483836791N11205614WA0214902149
B2012493836794N11205618WA0214802148
B2012503836798N11205622WA0214602146
B2012513836802N11205625WA0214402144
B2012523836806N11205629WA0214102141
B2012533836811N11205633WA0213902139
B2012543836815N11205636WA0213802138
B2012553836818N11205640WA0213702137
B2012563836821N11205644WA0213502135
B2012573836825N11205648WA0213302133
B2012583836828N11205653WA0213102131
B2012593836832N11205656WA0212902129
B2013003836837N11205659WA0212802128
B2013013836842N11205661WA0212702127
B2013023836846N11205662WA0212602126
B2013033836851N11205663WA0212502125
B2013043836856N11205663WA0212302123
B2013053836862N11205664WA0212102121
B2013063836867N11205665WA0211902119
B2013073836873N11205667WA0211702117
B2013083836878N11205671WA0211502115
B2013093836884N11205674WA0211302113
B2013103836889N11205679WA0211102111
B2013113836895N11205684WA0210902109
B2013123836900N11205689WA0210702107
B2013133836905N11205694WA0210602106
B2013143836910N11205698WA0210502105
B2013153836915N11205702WA0210402104
B2013163836920N11205707WA0210202102
B2013173836926N11205711WA0210102101
B2013183836931N11205714WA0209902099
B2013193836937N11205718WA0209802098
B2013203836943N11205722WA0209602096
B2013213836949N11205726WA0209702097
B2013223836954N11205729WA0209802098
B2013233836958N11205731WA0210102101
B2013243836962N11205733WA0210402104
B2013253836964N11205735WA0210702107
B2013263836966N11205738WA0210902109
B2013273836968N11205742WA0210902109
B2013283836970N11205748WA0210802108
B2013293836969N11205755WA0210802108
B2013303836966N11205759WA0210802108
B2013313836961N11205760WA0210802108
B2013323836956N11205758WA0210602106
B2013333836951N11205752WA0210502105
B2013343836948N11205746WA0210502105
B2013353836947N11205738WA0210502105
B2013363836948N11205731WA0210502105
B2013373836950N11205724WA0210502105
B2013383836953N11205719WA0210602106
B2013393836955N11205714WA0210902109
B2013403836958N11205711WA0211202112
B2013413836961N11205710WA0211502115
B2013423836964N11205710WA0211602116
B2013433836968N11205712WA0211602116
B2013443836971N11205715WA0211502115
B2013453836974N11205720WA0211502115
B2013463836976N11205724WA0211602116
B2013473836976N11205728WA0211702117
B2013483836975N11205733WA0211702117
B2013493836971N11205737WA0211702117
B2013503836966N11205739WA0211602116
B2013513836961N11205739WA0211602116
B2013523836955N11205737WA0211602116
B2013533836950N11205734WA0211702117
B2013543836946N11205730WA0211802118
B2013553836943N11205725WA0211802118
B2013563836940N11205718WA0211802118
B2013573836939N11205711WA0211902119
B2013583836940N11205705WA0211902119
B2013593836942N11205699WA0212102121
B2014003836944N11205695WA0212202122
B2014013836948N11205692WA0212402124
B2014023836951N11205691WA0212502125
B2014033836955N11205693WA0212502125
B2014043836958N11205696WA0212502125
B2014053836960N11205701WA0212402124
B2014063836961N11205707WA0212402124
B2014073836960N11205712WA0212402124
B2014083836958N11205717WA0212502125
B2014093836955N11205720WA0212602126
B2014103836951N11205722WA0212602126
B2014113836946N11205722WA0212602126
B2014123836941N11205721WA0212602126
B2014133836936N11205718WA0212702127
B2014143836931N11205715WA0212702127
B2014153836927N11205710WA0212702127
B2014163836924N11205705WA0212702127
B2014173836922N11205698WA0212702127
B2014183836921N11205691WA0212702127
B2014193836921N11205684WA0212702127
B2014203836922N11205678WA0212802128
B2014213836925N11205673WA0212902129
B2014223836928N11205670WA0213002130
B2014233836933N11205669WA0212902129
B2014243836938N11205670WA0212802128
B2014253836941N11205671WA0212902129
B2014263836945N11205674WA0212902129
B2014273836947N11205677WA0212902129
B2014283836950N11205681WA0212902129
B2014293836953N11205685WA0212802128
B2014303836956N11205689WA0212902129
B2014313836959N11205692WA0212902129
B2014323836963N11205693WA0213002130
B2014333836967N11205693WA0213102131
B2014343836972N11205690WA0213102131
B2014353836976N11205685WA0212902129
B2014363836980N11205678WA0212802128
B2014373836981N11205670WA0212702127
B2014383836981N11205660WA0212602126
B2014393836979N11205652WA0212602126
B2014403836975N11205644WA0212602126
B2014413836970N11205638WA0212602126
B2014423836965N11205633WA0212502125
B2014433836959N11205629WA0212502125
B2014443836954N11205627WA0212602126
B2014453836949N11205625WA0212602126
B2014463836943N11205625WA0212702127
B2014473836937N11205625WA0212802128
B2014483836932N11205625WA0212802128
B2014493836926N11205625WA0212902129
B2014503836922N11205626WA0212902129
B2014513836918N11205627WA0213002130
B2014523836913N11205630WA0212902129
B2014533836909N11205633WA0212902129
B2014543836905N11205637WA0212902129
B2014553836902N11205642WA0212802128
B2014563836900N11205648WA0212702127
B2014573836899N11205654WA0212702127
B2014583836899N11205660WA0212502125
B2014593836901N11205665WA0212502125
B2015003836904N11205668WA0212502125
B2015013836907N11205671WA0212402124
B2015023836910N11205672WA0212302123
B2015033836915N11205672WA0212202122
B2015043836919N11205671WA0212002120
B2015053836925N11205669WA0211802118
B2015063836931N11205666WA0211502115
B2015073836937N11205664WA0211302113
B2015083836944N11205663WA0211102111
B2015093836950N11205662WA0211002110
B2015103836956N11205662WA0211002110
B2015113836961N11205663WA0211002110
B2015123836965N11205664WA0211002110
B2015133836970N11205665WA0211002110
B2015143836975N11205666WA0210802108
B2015153836980N11205668WA0210602106
B2015163836985N11205670WA0210402104
B2015173836990N11205673WA0210302103
B2015183836996N11205675WA0210002100
B2015193837002N11205677WA0209802098
B2015203837008N11205680WA0209502095
B2015213837015N11205682WA0209202092
B2015223837021N11205683WA0209102091
B2015233837028N11205684WA0208902089
B2015243837034N11205685WA0208802088
B2015253837040N11205686WA0208502085
B2015263837046N11205689WA0208302083
B2015273837052N11205692WA0208002080
B2015283837058N11205696WA0207802078
B2015293837063N11205700WA0207602076
B2015303837068N11205705WA0207402074
B2015313837073N11205710WA0207202072
B2015323837077N11205715WA0207002070
B2015333837082N11205720WA0206802068
B2015343837086N11205725WA0206602066
B2015353837091N11205729WA0206402064
B2015363837096N11205733WA0206202062
B2015373837101N11205737WA0206002060
B2015383837106N11205742WA0205802058
B2015393837111N11205746WA0205602056
B2015403837116N11205750WA0205302053
B2015413837121N11205755WA0205102051
B2015423837126N11205759WA0204902049
B2015433837131N11205763WA0204702047
B2015443837135N11205767WA0204502045
B2015453837140N11205772WA0204202042
B2015463837144N11205778WA0203902039
B2015473837148N11205784WA0203702037
B2015483837152N11205791WA0203502035
B2015493837155N11205798WA0203302033
B2015503837158N11205804WA0203102031
B2015513837161N11205810WA0203102031
B2015523837164N11205816WA0202902029
B2015533837167N11205822WA0202602026
B2015543837171N11205828WA0202302023
B2015553837176N11205834WA0202102021
B2015563837181N11205841WA0201902019
B2015573837186N11205846WA0201802018
B2015583837191N11205850WA0201902019
B2015593837196N11205854WA0202002020
B2016003837200N11205857WA0202102021
B2016013837204N11205860WA0202302023
B2016023837208N11205863WA0202502025
B2016033837210N11205866WA0202702027
B2016043837210N11205870WA0202802028
B2016053837209N11205875WA0202802028
B2016063837205N11205879WA0202702027
B2016073837200N11205882WA0202502025
B2016083837193N11205883WA0202302023
B2016093837187N11205880WA0202502025
B2016103837182N11205873WA0202702027
B2016113837180N11205865WA0202802028
B2016123837181N11205857WA0202802028
B2016133837184N11205850WA0202702027
B2016143837187N11205843WA0202802028
B2016153837190N11205838WA0203002030
B2016163837194N11205835WA0203102031
B2016173837199N11205832WA0203202032
B2016183837203N11205831WA0203302033
B2016193837207N11205832WA0203402034
B2016203837210N11205835WA0203502035
B2016213837212N11205839WA0203502035
B2016223837212N11205844WA0203402034
B2016233837211N11205850WA0203402034
B2016243837208N11205854WA0203402034
B2016253837203N11205858WA0203402034
B2016263837197N11205860WA0203402034
B2016273837191N11205861WA0203502035
B2016283837185N11205861WA0203602036
B2016293837179N11205859WA0203802038
B2016303837174N11205856WA0203802038
B2016313837170N11205850WA0203702037
B2016323837166N11205843WA0203602036
B2016333837164N11205834WA0203502035
B2016343837164N11205825WA0203402034
B2016353837165N11205817WA0203502035
B2016363837167N11205810WA0203702037
B2016373837170N11205806WA0203802038
B2016383837174N11205803WA0203802038
B2016393837179N11205803WA0203802038
B2016403837183N11205805WA0203702037
B2016413837188N11205808WA0203702037
B2016423837191N11205813WA0203702037
B2016433837192N11205818WA0203802038
B2016443837192N11205823WA0203902039
B2016453837189N11205828WA0204002040
B2016463837186N11205832WA0203902039
B2016473837182N11205836WA0203902039
B2016483837177N11205839WA0203902039
B2016493837171N11205840WA0203902039
B2016503837165N11205840WA0204002040
B2016513837159N11205837WA0204002040
B2016523837153N11205833WA0204002040
B2016533837149N11205827WA0203802038
B2016543837146N11205819WA0203602036
B2016553837145N11205810WA0203502035
B2016563837145N11205801WA0203302033
B2016573837147N11205792WA0203402034
B2016583837149N11205785WA0203602036
B2016593837152N11205779WA0203802038
B2017003837155N11205775WA0203902039
B2017013837158N11205773WA0204002040
B2017023837162N11205772WA0203902039
B2017033837167N11205773WA0203802038
B2017043837171N11205776WA0203602036
B2017053837173N11205781WA0203602036
B2017063837174N11205786WA0203702037
B2017073837172N11205791WA0203802038
B2017083837169N11205796WA0203802038
B2017093837164N11205799WA0203802038
B2017103837158N11205800WA0203802038
B2017113837152N11205799WA0203802038
B2017123837147N11205795WA0203802038
B2017133837142N11205790WA0203702037
B2017143837137N11205783WA0203602036
B2017153837134N11205775WA0203502035
B2017163837133N11205766WA0203502035
B2017173837132N11205757WA0203502035
B2017183837133N11205750WA0203602036
B2017193837135N11205743WA0203702037
B2017203837138N11205736WA0203802038
B2017213837141N11205731WA0203802038
B2017223837145N11205727WA0203702037
B2017233837149N11205724WA0203602036
B2017243837154N11205724WA0203502035
B2017253837159N11205725WA0203302033
B2017263837164N11205727WA0203202032
B2017273837168N11205729WA0203302033
B2017283837171N11205731WA0203402034
B2017293837174N11205733WA0203602036
B2017303837176N11205734WA0203802038
B2017313837179N11205735WA0203902039
B2017323837182N11205734WA0204102041
B2017333837185N11205733WA0204302043
B2017343837188N11205730WA0204402044
B2017353837190N11205725WA0204502045
B2017363837192N11205720WA0204602046
B2017373837194N11205717WA0204702047
B2017383837197N11205716WA0204802048
B2017393837200N11205717WA0204902049
B2017403837202N11205721WA0204902049
B2017413837202N11205726WA0204902049
B2017423837201N11205732WA0204902049
B2017433837198N11205738WA0205002050
B2017443837194N11205742WA0205202052
B2017453837188N11205744WA0205402054
B2017463837183N11205742WA0205602056
B2017473837177N11205739WA0205602056
B2017483837172N11205734WA0205702057
B2017493837168N11205728WA0205802058
B2017503837166N11205720WA0205902059
B2017513837166N11205713WA0206002060
B2017523837167N11205707WA0206102061
B2017533837169N11205702WA0206202062
B2017543837171N11205699WA0206402064
B2017553837174N11205696WA0206502065
B2017563837177N11205695WA0206602066
B2017573837180N11205695WA0206802068
B2017583837182N11205698WA0206802068
B2017593837184N11205701WA0206802068
B2018003837185N11205706WA0206902069
B2018013837187N11205711WA0207002070
B2018023837187N11205715WA0207202072
B2018033837185N11205718WA0207502075
B2018043837182N11205720WA0207502075
B2018053837178N11205723WA0207302073
B2018063837173N11205724WA0207102071
B2018073837167N11205724WA0207102071
B2018083837161N11205720WA0207102071
B2018093837156N11205715WA0207002070
B2018103837152N11205707WA0206902069
B2018113837149N11205698WA0207102071
B2018123837148N11205691WA0207302073
B2018133837148N11205685WA0207602076
B2018143837149N11205679WA0207702077
B2018153837152N11205676WA0207702077
B2018163837155N11205673WA0207702077
B2018173837159N11205672WA0207702077
B2018183837162N11205672WA0207802078
B2018193837166N11205672WA0208002080
B2018203837169N11205673WA0208102081
B2018213837172N11205674WA0208302083
B2018223837174N11205676WA0208502085
B2018233837177N11205677WA0208502085
B2018243837180N11205678WA0208502085
B2018253837183N11205680WA0208502085
B2018263837185N11205682WA0208602086
B2018273837186N11205685WA0208502085
B2018283837186N11205689WA0208402084
B2018293837187N11205693WA0208302083
B2018303837187N11205697WA0208202082
B2018313837186N11205701WA0208102081
B2018323837185N11205705WA0208002080
B2018333837182N11205709WA0207902079
B2018343837178N11205711WA0207802078
B2018353837173N11205712WA0207702077
B2018363837167N11205711WA0207602076
B2018373837162N11205708WA0207602076
B2018383837157N11205705WA0207502075
B2018393837152N11205699WA0207502075
B2018403837149N11205692WA0207302073
B2018413837148N11205683WA0207202072
B2018423837149N11205674WA0207002070
B2018433837151N11205665WA0206902069
B2018443837154N11205657WA0206902069
B2018453837158N11205652WA0206902069
B2018463837162N11205647WA0207002070
B2018473837167N11205644WA0207002070
B2018483837171N11205642WA0207002070
B2018493837175N11205641WA0206902069
B2018503837179N11205641WA0206902069
B2018513837183N11205642WA0206802068
B2018523837187N11205644WA0206702067
B2018533837191N11205646WA0206602066
B2018543837195N11205649WA0206502065
B2018553837199N11205652WA0206302063
B2018563837202N11205655WA0206302063
B2018573837206N11205658WA0206202062
B2018583837209N11205662WA0206102061
B2018593837212N11205666WA0206002060
B2019003837215N11205669WA0205902059
B2019013837218N11205672WA0205802058
B2019023837222N11205676WA0205702057
B2019033837225N11205679WA0205602056
B2019043837228N11205682WA0205502055
B2019053837232N11205686WA0205302053
B2019063837235N11205689WA0205102051
B2019073837239N11205693WA0205002050
B2019083837243N11205697WA0204902049
B2019093837246N11205701WA0204702047
B2019103837249N11205706WA0204602046
B2019113837253N11205711WA0204402044
B2019123837257N11205716WA0204202042
B2019133837261N11205722WA0203902039
B2019143837265N11205728WA0203702037
B2019153837268N11205734WA0203502035
B2019163837271N11205739WA0203502035
B2019173837274N11205745WA0203402034
B2019183837276N11205752WA0203202032
B2019193837278N11205759WA0203102031
B2019203837280N11205766WA0202902029
B2019213837282N11205772WA0202802028
B2019223837283N11205778WA0202602026
B2019233837284N11205785WA0202302023
B2019243837285N11205792WA0202002020
B2019253837286N11205800WA0201602016
B2019263837286N11205808WA0201302013
B2019273837287N11205817WA0201002010
B2019283837287N11205826WA0200802008
B2019293837288N11205833WA0200902009
B2019303837289N11205840WA0201002010
B2019313837290N11205845WA0201202012
B2019323837292N11205850WA0201302013
B2019333837294N11205855WA0201402014
B2019343837295N11205859WA0201402014
B2019353837296N11205864WA0201202012
B2019363837297N11205870WA0201002010
B2019373837298N11205876WA0200802008
B2019383837299N11205883WA0200502005
B2019393837299N11205890WA0200202002
B2019403837299N11205898WA0199901999
B2019413837299N11205907WA0199601996
B2019423837298N11205916WA0199301993
B2019433837297N11205925WA0199101991
B2019443837296N11205934WA0198901989
B2019453837294N11205943WA0198701987
B2019463837293N11205951WA0198601986
B2019473837292N11205959WA0198401984
B2019483837291N11205967WA0198301983
B2019493837289N11205975WA0198201982
B2019503837289N11205983WA0198101981
B2019513837288N11205991WA0198001980
B2019523837288N11205999WA0197901979
B2019533837288N11206007WA0197801978
B2019543837289N11206016WA0197601976
B2019553837289N11206024WA0197501975
B2019563837289N11206032WA0197401974
B2019573837289N11206041WA0197301973
B2019583837289N11206049WA0197201972
B2019593837289N11206057WA0197101971
B2020003837289N11206065WA0197001970
B2020013837289N11206073WA0196801968
B2020023837289N11206080WA0196601966
B2020033837290N11206089WA0196301963
B2020043837290N11206097WA0196101961
B2020053837290N11206106WA0196001960
B2020063837291N11206113WA0195901959
B2020073837291N11206121WA0195801958
B2020083837291N11206128WA0195701957
B2020093837292N11206136WA0195501955
B2020103837293N11206144WA0195301953
B2020113837294N11206152WA0195001950
B2020123837294N11206160WA0194801948
B2020133837294N11206169WA0194601946
B2020143837295N11206177WA0194401944
B2020153837295N11206185WA0194201942
B2020163837294N11206194WA0193901939
B2020173837293N11206202WA0193701937
B2020183837292N11206211WA0193401934
B2020193837291N11206220WA0193301933
B2020203837290N11206228WA0193201932
B2020213837287N11206236WA0193001930
B2020223837285N11206244WA0193101931
B2020233837283N11206251WA0193201932
B2020243837281N11206257WA0193401934
B2020253837279N11206263WA0193301933
B2020263837277N11206269WA0193201932
B2020273837276N11206275WA0193201932
B2020283837274N11206280WA0193301933
B2020293837273N11206285WA0193401934
B2020303837271N11206290WA0193501935
B2020313837270N11206295WA0193501935
B2020323837267N11206301WA0193501935
B2020333837265N11206307WA0193601936
B2020343837261N11206311WA0193901939
B2020353837257N11206314WA0194001940
B2020363837251N11206315WA0194101941
B2020373837243N11206315WA0194001940
B2020383837236N11206313WA0194001940
B2020393837229N11206307WA0194101941
B2020403837226N11206300WA0194001940
B2020413837224N11206293WA0193901939
B2020423837225N11206286WA0193701937
B2020433837227N11206279WA0193601936
B2020443837230N11206274WA0193401934
B2020453837234N11206271WA0193201932
B2020463837239N11206271WA0193001930
B2020473837243N11206273WA0192901929
B2020483837246N11206276WA0192701927
B2020493837248N11206281WA0192701927
B2020503837250N11206286WA0192701927
B2020513837251N11206292WA0192701927
B2020523837252N11206296WA0192901929
B2020533837253N11206300WA0193101931
B2020543837254N11206303WA0193301933
B2020553837255N11206305WA0193301933
B2020563837256N11206309WA0193101931
B2020573837256N11206313WA0192801928
B2020583837256N11206319WA0192601926
B2020593837257N11206324WA0192501925
B2021003837257N11206329WA0192301923
B2021013837257N11206334WA0192101921
B2021023837257N11206340WA0191901919
B2021033837257N11206347WA0191501915
B2021043837257N11206355WA0191201912
B2021053837257N11206364WA0191201912
B2021063837259N11206370WA0191601916
B2021073837260N11206375WA0192001920
B2021083837260N11206378WA0192301923
B2021093837260N11206382WA0192501925
B2021103837261N11206386WA0192501925
B2021113837263N11206392WA0192601926
B2021123837265N11206397WA0192601926
B2021133837268N11206402WA0192601926
B2021143837270N11206405WA0192601926
B2021153837272N11206409WA0192501925
B2021163837273N11206415WA0192201922
B2021173837275N11206421WA0191901919
B2021183837276N11206428WA0191801918
B2021193837277N11206433WA0191701917
B2021203837278N11206439WA0191601916
B2021213837280N11206444WA0191501915
B2021223837281N11206450WA0191301913
B2021233837281N11206456WA0191001910
B2021243837282N11206463WA0190701907
B2021253837282N11206470WA0190401904
B2021263837282N11206476WA0190201902
B2021273837282N11206483WA0190001900
B2021283837281N11206490WA0189801898
B2021293837281N11206498WA0189601896
B2021303837281N11206507WA0189401894
B2021313837280N11206516WA0189201892
B2021323837280N11206525WA0189001890
B2021333837280N11206533WA0188901889
B2021343837281N11206541WA0188801888
B2021353837281N11206548WA0188701887
B2021363837281N11206555WA0188601886
B2021373837281N11206562WA0188501885
B2021383837281N11206568WA0188301883
B2021393837280N11206575WA0188101881
B2021403837280N11206583WA0187701877
B2021413837280N11206591WA0187401874
B2021423837279N11206598WA0187101871
B2021433837278N11206606WA0186801868
B2021443837278N11206614WA0186501865
B2021453837277N11206622WA0186101861
B2021463837276N11206631WA0185601856
B2021473837274N11206642WA0185101851
B2021483837273N11206653WA0184601846
B2021493837272N11206664WA0184201842
B2021503837271N11206675WA0183901839
B2021513837270N11206686WA0183601836
B2021523837268N11206696WA0183301833
B2021533837267N11206705WA0183201832
B2021543837266N11206713WA0183101831
B2021553837265N11206721WA0183001830
B2021563837264N11206728WA0182901829
B2021573837263N11206736WA0182701827
B2021583837262N11206742WA0182501825
B2021593837260N11206749WA0182201822
B2022003837258N11206756WA0182001820
B2022013837255N11206763WA0181801818
B2022023837251N11206769WA0181601816
B2022033837247N11206774WA0181401814
B2022043837243N11206779WA0181301813
B2022053837240N11206784WA0181101811
B2022063837239N11206790WA0180901809
B2022073837237N11206795WA0180701807
B2022083837236N11206801WA0180401804
B2022093837235N11206807WA0180101801
B2022103837233N11206813WA0179801798
B2022113837231N11206819WA0179501795
B2022123837228N11206826WA0179201792
B2022133837226N11206833WA0179001790
B2022143837224N11206839WA0178801788
B2022153837223N11206845WA0178601786
B2022163837221N11206851WA0178401784
B2022173837218N11206857WA0178101781
B2022183837216N11206863WA0177901779
B2022193837212N11206868WA0177601776
B2022203837209N11206874WA0177301773
B2022213837206N11206880WA0177001770
B2022223837202N11206885WA0176701767
B2022233837198N11206891WA0176401764
B2022243837194N11206896WA0176201762
B2022253837189N11206901WA0176001760
B2022263837185N11206906WA0175801758
B2022273837180N11206911WA0175601756
B2022283837175N11206916WA0175501755
B2022293837170N11206921WA0175401754
B2022303837166N11206925WA0175301753
B2022313837162N11206931WA0175201752
B2022323837158N11206937WA0175101751
B2022333837154N11206942WA0174901749
B2022343837150N11206948WA0174801748
B2022353837147N11206954WA0174801748
B2022363837143N11206959WA0174601746
B2022373837140N11206966WA0174401744
B2022383837136N11206972WA0174301743
B2022393837132N11206978WA0174101741
B2022403837129N11206984WA0174001740
B2022413837126N11206989WA0173901739
B2022423837123N11206995WA0173701737
B2022433837121N11207001WA0173501735
B2022443837119N11207008WA0173301733
B2022453837117N11207014WA0173101731
B2022463837116N11207021WA0173101731
B2022473837115N11207028WA0173001730
B2022483837117N11207034WA0173001730
B2022493837120N11207038WA0173001730
B2022503837125N11207040WA0172801728
B2022513837130N11207038WA0172601726
B2022523837134N11207032WA0172601726
B2022533837134N11207025WA0172601726
B2022543837131N11207018WA0172701727
B2022553837126N11207013WA0172701727
B2022563837121N11207009WA0172801728
B2022573837116N11207006WA0172901729
B2022583837112N11207003WA0172901729
B2022593837107N11206999WA0172801728
B2023003837102N11206994WA0172601726
B2023013837098N11206989WA0172301723
B2023023837095N11206983WA0172101721
B2023033837095N11206977WA0172001720
B2023043837098N11206974WA0171801718
B2023053837102N11206973WA0171501715
B2023063837107N11206976WA0171201712
B2023073837108N11206982WA0171101711
B2023083837109N11206988WA0171001710
B2023093837109N11206995WA0170901709
B2023103837109N11207001WA0170701707
B2023113837110N11207005WA0170501705
B2023123837115N11207007WA0170201702
B2023133837119N11207004WA0169801698
B2023143837121N11206997WA0169401694
B2023153837121N11206989WA0169101691
B2023163837119N11206982WA0169001690
B2023173837117N11206976WA0168901689
B2023183837115N11206971WA0168801688
B2023193837115N11206965WA0168701687
B2023203837116N11206960WA0168501685
B2023213837118N11206955WA0168201682
B2023223837122N11206953WA0168001680
B2023233837127N11206952WA0167701677
B2023243837132N11206953WA0167401674
B2023253837137N11206953WA0167401674
B2023263837141N11206953WA0167501675
B2023273837144N11206953WA0167401674
B2023283837148N11206953WA0167301673
B2023293837150N11206953WA0167101671
B2023303837152N11206953WA0167101671
B2023313837152N11206953WA0167101671
B2023323837152N11206954WA0167101671
B2023333837152N11206954WA0167101671
B2023343837151N11206955WA0167001670
B2023353837151N11206955WA0167001670
B2023363837151N11206955WA0167001670
B2023373837151N11206955WA0167101671
B2023383837151N11206956WA0167101671
B2023393837151N11206956WA0167101671
B2023403837151N11206956WA0167101671
B2023413837151N11206956WA0167101671
B2023423837152N11206957WA0167101671
