AXFMFLYMASTER LIVETRACK
HFDTE230926
HFFXA010
HFPLTPILOT:Andria Lea Monteleone
HFGTYGLIDERTYPE:Ozone Photon / Supair Delight
HFCIDCOMPETITIONID:777
HFDTM100GPSDATUM:WGS-1984
HFRFWFIRMWAREVERSION:lt.flymaster.net bsGetPilotTrack
B1834463832453N11204415WA0340703407
B1834473832454N11204415WA0340703407
B1834483832454N11204417WA0340703407
B1834493832455N11204419WA0340603406
B1834503832457N11204421WA0340603406
B1834513832457N11204423WA0340403404
B1834523832457N11204426WA0340403404
B1834533832456N11204430WA0340203402
B1834543832455N11204433WA0340103401
B1834553832455N11204438WA0339803398
B1834563832455N11204444WA0339603396
B1834573832455N11204450WA0339203392
B1834583832454N11204457WA0339003390
B1834593832453N11204464WA0338803388
B1835003832452N11204470WA0338603386
B1835013832450N11204476WA0338603386
B1835023832449N11204481WA0338703387
B1835033832448N11204485WA0338703387
B1835043832448N11204489WA0338603386
B1835053832448N11204495WA0338503385
B1835063832450N11204501WA0338303383
B1835073832451N11204508WA0338003380
B1835083832453N11204515WA0337903379
B1835093832454N11204522WA0337803378
B1835103832457N11204527WA0337903379
B1835113832459N11204531WA0337803378
B1835123832462N11204535WA0337803378
B1835133832466N11204540WA0337603376
B1835143832469N11204545WA0337403374
B1835153832474N11204548WA0337203372
B1835163832478N11204552WA0337103371
B1835173832482N11204554WA0337103371
B1835183832486N11204556WA0337003370
B1835193832490N11204559WA0337003370
B1835203832495N11204562WA0336903369
B1835213832500N11204564WA0336703367
B1835223832505N11204566WA0336603366
B1835233832511N11204567WA0336503365
B1835243832516N11204568WA0336603366
B1835253832521N11204569WA0336603366
B1835263832525N11204572WA0336503365
B1835273832529N11204575WA0336403364
B1835283832533N11204579WA0336303363
B1835293832535N11204585WA0336203362
B1835303832535N11204592WA0336103361
B1835313832534N11204599WA0336003360
B1835323832530N11204605WA0336003360
B1835333832526N11204610WA0336203362
B1835343832520N11204612WA0336403364
B1835353832514N11204613WA0336703367
B1835363832509N11204611WA0336803368
B1835373832504N11204609WA0337003370
B1835383832498N11204605WA0337003370
B1835393832493N11204600WA0336903369
B1835403832488N11204594WA0336903369
B1835413832483N11204590WA0336903369
B1835423832477N11204589WA0336903369
B1835433832471N11204589WA0337003370
B1835443832464N11204590WA0337003370
B1835453832458N11204591WA0336903369
B1835463832452N11204593WA0336903369
B1835473832447N11204595WA0336903369
B1835483832443N11204599WA0336803368
B1835493832441N11204605WA0336603366
B1835503832441N11204613WA0336303363
B1835513832443N11204620WA0336003360
B1835523832446N11204627WA0336003360
B1835533832448N11204633WA0336203362
B1835543832450N11204638WA0336703367
B1835553832453N11204642WA0336903369
B1835563832455N11204647WA0336903369
B1835573832458N11204653WA0336903369
B1835583832461N11204659WA0337003370
B1835593832464N11204663WA0337203372
B1836003832468N11204665WA0337403374
B1836013832472N11204667WA0337503375
B1836023832477N11204668WA0337503375
B1836033832482N11204669WA0337603376
B1836043832487N11204669WA0337803378
B1836053832492N11204670WA0338003380
B1836063832497N11204673WA0338203382
B1836073832500N11204677WA0338303383
B1836083832503N11204682WA0338303383
B1836093832506N11204689WA0338303383
B1836103832508N11204696WA0338403384
B1836113832509N11204703WA0338603386
B1836123832509N11204709WA0338803388
B1836133832508N11204714WA0339103391
B1836143832506N11204720WA0339203392
B1836153832503N11204725WA0339303393
B1836163832500N11204729WA0339503395
B1836173832496N11204732WA0339803398
B1836183832491N11204734WA0340003400
B1836193832487N11204735WA0340203402
B1836203832483N11204736WA0340403404
B1836213832478N11204738WA0340503405
B1836223832473N11204740WA0340703407
B1836233832469N11204744WA0340903409
B1836243832466N11204749WA0341103411
B1836253832465N11204756WA0341203412
B1836263832465N11204763WA0341403414
B1836273832466N11204767WA0341503415
B1836283832469N11204770WA0341703417
B1836293832472N11204774WA0341803418
B1836303832476N11204779WA0341903419
B1836313832481N11204784WA0341903419
B1836323832485N11204788WA0342003420
B1836333832489N11204791WA0342103421
B1836343832494N11204792WA0342303423
B1836353832499N11204793WA0342303423
B1836363832504N11204792WA0342403424
B1836373832509N11204790WA0342503425
B1836383832514N11204787WA0342603426
B1836393832517N11204783WA0342603426
B1836403832519N11204778WA0342703427
B1836413832522N11204773WA0342603426
B1836423832525N11204768WA0342303423
B1836433832529N11204763WA0342103421
B1836443832535N11204762WA0341903419
B1836453832541N11204763WA0341803418
B1836463832546N11204766WA0341603416
B1836473832550N11204769WA0341503415
B1836483832554N11204775WA0341403414
B1836493832556N11204780WA0341203412
B1836503832557N11204786WA0341003410
B1836513832558N11204792WA0340803408
B1836523832558N11204799WA0340603406
B1836533832559N11204807WA0340503405
B1836543832559N11204814WA0340403404
B1836553832562N11204820WA0340303403
B1836563832566N11204825WA0340203402
B1836573832570N11204829WA0340203402
B1836583832574N11204831WA0340103401
B1836593832578N11204833WA0339903399
B1837003832583N11204835WA0339703397
B1837013832589N11204836WA0339303393
B1837023832595N11204838WA0339003390
B1837033832600N11204841WA0338803388
B1837043832605N11204846WA0338603386
B1837053832610N11204851WA0338403384
B1837063832615N11204857WA0338403384
B1837073832618N11204862WA0338503385
B1837083832622N11204868WA0338503385
B1837093832624N11204872WA0338503385
B1837103832626N11204877WA0338503385
B1837113832628N11204883WA0338303383
B1837123832628N11204890WA0338003380
B1837133832627N11204897WA0337703377
B1837143832624N11204904WA0337503375
B1837153832620N11204910WA0337203372
B1837163832613N11204914WA0337003370
B1837173832606N11204916WA0336703367
B1837183832599N11204917WA0336603366
B1837193832593N11204919WA0336403364
B1837203832587N11204924WA0336303363
B1837213832583N11204931WA0336203362
B1837223832580N11204938WA0336103361
B1837233832578N11204942WA0336303363
B1837243832574N11204945WA0336603366
B1837253832571N11204947WA0336703367
B1837263832568N11204948WA0336503365
B1837273832564N11204951WA0336403364
B1837283832562N11204955WA0336303363
B1837293832560N11204961WA0336203362
B1837303832561N11204967WA0336103361
B1837313832563N11204973WA0336003360
B1837323832566N11204977WA0335903359
B1837333832569N11204982WA0335803358
B1837343832573N11204987WA0335603356
B1837353832577N11204993WA0335303353
B1837363832581N11204999WA0335203352
B1837373832584N11205005WA0335103351
B1837383832588N11205011WA0335203352
B1837393832592N11205016WA0335303353
B1837403832595N11205022WA0335303353
B1837413832598N11205028WA0335303353
B1837423832602N11205035WA0335303353
B1837433832606N11205041WA0335203352
B1837443832611N11205047WA0335203352
B1837453832615N11205053WA0335203352
B1837463832620N11205059WA0335203352
B1837473832624N11205063WA0335303353
B1837483832629N11205067WA0335303353
B1837493832634N11205069WA0335303353
B1837503832639N11205071WA0335203352
B1837513832644N11205072WA0335203352
B1837523832649N11205073WA0335203352
B1837533832653N11205074WA0335203352
B1837543832658N11205076WA0335103351
B1837553832663N11205079WA0335003350
B1837563832668N11205084WA0334903349
B1837573832671N11205090WA0334803348
B1837583832673N11205096WA0334803348
B1837593832674N11205102WA0334803348
B1838003832674N11205109WA0334803348
B1838013832675N11205114WA0334703347
B1838023832677N11205120WA0334603346
B1838033832679N11205125WA0334603346
B1838043832682N11205131WA0334603346
B1838053832686N11205137WA0334503345
B1838063832690N11205143WA0334403344
B1838073832694N11205148WA0334403344
B1838083832698N11205153WA0334403344
B1838093832701N11205159WA0334403344
B1838103832705N11205164WA0334603346
B1838113832708N11205169WA0334703347
B1838123832711N11205175WA0334903349
B1838133832712N11205181WA0335003350
B1838143832712N11205188WA0335003350
B1838153832712N11205195WA0335003350
B1838163832711N11205202WA0335003350
B1838173832710N11205209WA0335103351
B1838183832709N11205216WA0335103351
B1838193832708N11205223WA0335103351
B1838203832709N11205230WA0335103351
B1838213832709N11205236WA0335103351
B1838223832711N11205242WA0335003350
B1838233832712N11205248WA0335003350
B1838243832715N11205255WA0334903349
B1838253832719N11205261WA0334703347
B1838263832722N11205267WA0334803348
B1838273832725N11205272WA0335003350
B1838283832726N11205276WA0335303353
B1838293832727N11205279WA0335403354
B1838303832728N11205283WA0335303353
B1838313832730N11205287WA0335103351
B1838323832733N11205293WA0334903349
B1838333832736N11205298WA0334703347
B1838343832740N11205303WA0334603346
B1838353832743N11205307WA0334603346
B1838363832747N11205311WA0334703347
B1838373832751N11205315WA0334603346
B1838383832754N11205320WA0334603346
B1838393832757N11205325WA0334603346
B1838403832760N11205330WA0334503345
B1838413832764N11205335WA0334403344
B1838423832768N11205339WA0334203342
B1838433832772N11205344WA0334003340
B1838443832777N11205350WA0333803338
B1838453832780N11205355WA0333703337
B1838463832784N11205359WA0333703337
B1838473832787N11205363WA0333703337
B1838483832791N11205366WA0333603336
B1838493832794N11205371WA0333503335
B1838503832797N11205377WA0333403334
B1838513832800N11205382WA0333403334
B1838523832803N11205388WA0333403334
B1838533832806N11205392WA0333503335
B1838543832809N11205396WA0333503335
B1838553832812N11205400WA0333403334
B1838563832816N11205403WA0333203332
B1838573832821N11205407WA0332903329
B1838583832826N11205411WA0332703327
B1838593832830N11205415WA0332503325
B1839003832834N11205420WA0332603326
B1839013832837N11205424WA0332603326
B1839023832840N11205428WA0332503325
B1839033832844N11205433WA0332403324
B1839043832847N11205438WA0332203322
B1839053832851N11205443WA0332003320
B1839063832856N11205448WA0331803318
B1839073832861N11205451WA0331703317
B1839083832866N11205453WA0331703317
B1839093832871N11205454WA0331603316
B1839103832876N11205454WA0331603316
B1839113832881N11205454WA0331503315
B1839123832886N11205454WA0331403314
B1839133832892N11205455WA0331303313
B1839143832897N11205457WA0331203312
B1839153832902N11205460WA0331103311
B1839163832907N11205464WA0331003310
B1839173832911N11205468WA0330903309
B1839183832915N11205472WA0330803308
B1839193832919N11205477WA0330803308
B1839203832921N11205483WA0330703307
B1839213832922N11205490WA0330703307
B1839223832922N11205498WA0330503305
B1839233832920N11205506WA0330403304
B1839243832917N11205513WA0330303303
B1839253832914N11205519WA0330303303
B1839263832910N11205526WA0330303303
B1839273832907N11205533WA0330403304
B1839283832906N11205540WA0330403304
B1839293832907N11205546WA0330403304
B1839303832908N11205552WA0330403304
B1839313832910N11205557WA0330403304
B1839323832911N11205563WA0330303303
B1839333832913N11205569WA0330203302
B1839343832917N11205575WA0330103301
B1839353832921N11205579WA0330003300
B1839363832926N11205584WA0329903299
B1839373832932N11205587WA0329803298
B1839383832937N11205591WA0329603296
B1839393832943N11205596WA0329503295
B1839403832948N11205600WA0329403294
B1839413832954N11205605WA0329303293
B1839423832959N11205609WA0329203292
B1839433832964N11205614WA0329103291
B1839443832968N11205619WA0329103291
B1839453832973N11205624WA0329103291
B1839463832977N11205628WA0329103291
B1839473832982N11205633WA0329003290
B1839483832987N11205636WA0328903289
B1839493832993N11205640WA0328703287
B1839503832999N11205644WA0328603286
B1839513833005N11205648WA0328503285
B1839523833011N11205653WA0328503285
B1839533833016N11205658WA0328503285
B1839543833020N11205665WA0328503285
B1839553833024N11205672WA0328503285
B1839563833027N11205679WA0328403284
B1839573833030N11205687WA0328303283
B1839583833034N11205694WA0328303283
B1839593833039N11205699WA0328303283
B1840003833045N11205702WA0328203282
B1840013833052N11205703WA0328203282
B1840023833058N11205703WA0328103281
B1840033833065N11205702WA0328003280
B1840043833071N11205699WA0327803278
B1840053833077N11205695WA0327703277
B1840063833083N11205690WA0327603276
B1840073833088N11205685WA0327503275
B1840083833093N11205681WA0327403274
B1840093833099N11205678WA0327403274
B1840103833105N11205677WA0327203272
B1840113833111N11205678WA0327003270
B1840123833117N11205680WA0326603266
B1840133833124N11205684WA0326203262
B1840143833130N11205688WA0325903259
B1840153833135N11205693WA0325603256
B1840163833141N11205697WA0325503255
B1840173833146N11205702WA0325303253
B1840183833150N11205707WA0325103251
B1840193833155N11205713WA0324703247
B1840203833161N11205720WA0324303243
B1840213833166N11205727WA0324003240
B1840223833172N11205735WA0323803238
B1840233833176N11205742WA0323703237
B1840243833180N11205749WA0323703237
B1840253833183N11205756WA0323703237
B1840263833185N11205764WA0323503235
B1840273833187N11205773WA0323303233
B1840283833189N11205781WA0323003230
B1840293833193N11205790WA0322803228
B1840303833196N11205797WA0322603226
B1840313833200N11205803WA0322503225
B1840323833204N11205810WA0322303223
B1840333833209N11205816WA0322103221
B1840343833214N11205822WA0321903219
B1840353833219N11205828WA0321703217
B1840363833224N11205833WA0321503215
B1840373833230N11205839WA0321303213
B1840383833235N11205844WA0321103211
B1840393833240N11205848WA0321003210
B1840403833246N11205853WA0320703207
B1840413833252N11205858WA0320503205
B1840423833258N11205862WA0320403204
B1840433833263N11205867WA0320403204
B1840443833267N11205871WA0320403204
B1840453833271N11205875WA0320403204
B1840463833275N11205879WA0320303203
B1840473833280N11205883WA0320103201
B1840483833285N11205888WA0319903199
B1840493833290N11205892WA0319803198
B1840503833294N11205895WA0319703197
B1840513833299N11205898WA0319603196
B1840523833305N11205900WA0319503195
B1840533833311N11205901WA0319303193
B1840543833318N11205901WA0319203192
B1840553833325N11205901WA0319103191
B1840563833331N11205902WA0319103191
B1840573833338N11205901WA0319103191
B1840583833344N11205900WA0319103191
B1840593833350N11205897WA0319003190
B1841003833357N11205895WA0318903189
B1841013833365N11205893WA0318803188
B1841023833372N11205892WA0318803188
B1841033833379N11205892WA0318803188
B1841043833385N11205893WA0318803188
B1841053833391N11205896WA0318803188
B1841063833395N11205900WA0318703187
B1841073833399N11205906WA0318603186
B1841083833402N11205912WA0318403184
B1841093833405N11205919WA0318303183
B1841103833407N11205926WA0318203182
B1841113833409N11205933WA0318203182
B1841123833412N11205939WA0318303183
B1841133833416N11205943WA0318303183
B1841143833422N11205946WA0318203182
B1841153833429N11205947WA0318103181
B1841163833436N11205947WA0317903179
B1841173833442N11205946WA0318003180
B1841183833448N11205943WA0318003180
B1841193833453N11205938WA0317903179
B1841203833457N11205932WA0317803178
B1841213833460N11205925WA0317703177
B1841223833462N11205916WA0317403174
B1841233833464N11205908WA0317303173
B1841243833467N11205900WA0317303173
B1841253833471N11205894WA0317103171
B1841263833477N11205889WA0316803168
B1841273833483N11205885WA0316603166
B1841283833491N11205883WA0316403164
B1841293833498N11205883WA0316203162
B1841303833506N11205885WA0315903159
B1841313833512N11205888WA0315803158
B1841323833518N11205891WA0315703157
B1841333833524N11205893WA0315603156
B1841343833530N11205894WA0315503155
B1841353833536N11205897WA0315203152
B1841363833543N11205900WA0314803148
B1841373833549N11205904WA0314503145
B1841383833555N11205910WA0314303143
B1841393833559N11205914WA0314203142
B1841403833564N11205919WA0314303143
B1841413833568N11205923WA0314303143
B1841423833571N11205927WA0314203142
B1841433833575N11205932WA0314003140
B1841443833579N11205937WA0313703137
B1841453833583N11205943WA0313503135
B1841463833588N11205948WA0313503135
B1841473833592N11205952WA0313403134
B1841483833595N11205956WA0313303133
B1841493833599N11205960WA0313203132
B1841503833603N11205965WA0313003130
B1841513833608N11205970WA0312803128
B1841523833612N11205975WA0312603126
B1841533833616N11205980WA0312403124
B1841543833620N11205984WA0312403124
B1841553833625N11205987WA0312303123
B1841563833630N11205989WA0312203122
B1841573833635N11205990WA0312003120
B1841583833642N11205991WA0311703117
B1841593833648N11205993WA0311503115
B1842003833654N11205995WA0311303113
B1842013833660N11205998WA0311103111
B1842023833665N11206001WA0311003110
B1842033833670N11206004WA0310903109
B1842043833675N11206008WA0310803108
B1842053833679N11206012WA0310603106
B1842063833684N11206017WA0310403104
B1842073833689N11206022WA0310303103
B1842083833693N11206026WA0310203102
B1842093833697N11206030WA0310203102
B1842103833702N11206033WA0310203102
B1842113833707N11206037WA0310103101
B1842123833712N11206041WA0310003100
B1842133833716N11206045WA0309903099
B1842143833720N11206051WA0309803098
B1842153833724N11206056WA0309703097
B1842163833727N11206062WA0309703097
B1842173833729N11206068WA0309803098
B1842183833731N11206074WA0309803098
B1842193833733N11206080WA0309803098
B1842203833735N11206085WA0309803098
B1842213833737N11206091WA0309703097
B1842223833739N11206097WA0309703097
B1842233833742N11206103WA0309603096
B1842243833743N11206109WA0309603096
B1842253833745N11206115WA0309503095
B1842263833746N11206121WA0309503095
B1842273833747N11206127WA0309503095
B1842283833749N11206133WA0309503095
B1842293833751N11206139WA0309503095
B1842303833754N11206143WA0309503095
B1842313833758N11206147WA0309403094
B1842323833764N11206150WA0309303093
B1842333833770N11206151WA0309103091
B1842343833777N11206153WA0309003090
B1842353833783N11206155WA0309103091
B1842363833789N11206156WA0309103091
B1842373833795N11206157WA0309003090
B1842383833801N11206158WA0309003090
B1842393833807N11206159WA0308803088
B1842403833814N11206159WA0308703087
B1842413833820N11206159WA0308603086
B1842423833827N11206159WA0308603086
B1842433833833N11206158WA0308503085
B1842443833840N11206158WA0308503085
B1842453833847N11206158WA0308403084
B1842463833853N11206159WA0308303083
B1842473833860N11206160WA0308303083
B1842483833866N11206163WA0308403084
B1842493833871N11206166WA0308403084
B1842503833875N11206171WA0308503085
B1842513833877N11206176WA0308403084
B1842523833880N11206182WA0308303083
B1842533833882N11206188WA0308203082
B1842543833884N11206194WA0308203082
B1842553833886N11206201WA0308203082
B1842563833888N11206206WA0308303083
B1842573833889N11206211WA0308303083
B1842583833889N11206216WA0308503085
B1842593833887N11206219WA0308503085
B1843003833883N11206222WA0308503085
B1843013833878N11206224WA0308403084
B1843023833873N11206226WA0308403084
B1843033833868N11206228WA0308503085
B1843043833863N11206228WA0308603086
B1843053833859N11206227WA0308703087
B1843063833854N11206224WA0308703087
B1843073833850N11206219WA0308603086
B1843083833845N11206213WA0308503085
B1843093833842N11206205WA0308503085
B1843103833839N11206197WA0308503085
B1843113833838N11206189WA0308603086
B1843123833838N11206181WA0308603086
B1843133833839N11206174WA0308603086
B1843143833841N11206165WA0308503085
B1843153833844N11206157WA0308203082
B1843163833848N11206147WA0308003080
B1843173833852N11206139WA0308003080
B1843183833856N11206131WA0308203082
B1843193833861N11206125WA0308303083
B1843203833867N11206120WA0308403084
B1843213833873N11206117WA0308303083
B1843223833880N11206115WA0308203082
B1843233833888N11206116WA0308003080
B1843243833895N11206118WA0307903079
B1843253833901N11206122WA0307803078
B1843263833905N11206127WA0307703077
B1843273833909N11206132WA0307703077
B1843283833912N11206137WA0307703077
B1843293833915N11206143WA0307603076
B1843303833916N11206149WA0307503075
B1843313833918N11206155WA0307503075
B1843323833920N11206161WA0307403074
B1843333833922N11206168WA0307403074
B1843343833925N11206173WA0307403074
B1843353833928N11206178WA0307403074
B1843363833932N11206181WA0307403074
B1843373833938N11206182WA0307303073
B1843383833945N11206182WA0307203072
B1843393833953N11206179WA0307103071
B1843403833960N11206176WA0307103071
B1843413833966N11206171WA0307103071
B1843423833971N11206165WA0307203072
B1843433833975N11206158WA0307203072
B1843443833977N11206149WA0307103071
B1843453833978N11206140WA0307103071
B1843463833978N11206130WA0307003070
B1843473833976N11206121WA0306903069
B1843483833973N11206114WA0306803068
B1843493833969N11206107WA0306703067
B1843503833965N11206102WA0306603066
B1843513833960N11206099WA0306503065
B1843523833955N11206100WA0306403064
B1843533833952N11206104WA0306203062
B1843543833949N11206110WA0305903059
B1843553833948N11206116WA0305803058
B1843563833948N11206123WA0306103061
B1843573833948N11206128WA0306303063
B1843583833948N11206133WA0306403064
B1843593833949N11206138WA0306403064
B1844003833949N11206144WA0306203062
B1844013833950N11206151WA0306103061
B1844023833952N11206157WA0306003060
B1844033833954N11206163WA0306003060
B1844043833956N11206169WA0306003060
B1844053833959N11206174WA0306003060
B1844063833963N11206178WA0306103061
B1844073833968N11206181WA0306003060
B1844083833975N11206183WA0305803058
B1844093833982N11206184WA0305703057
B1844103833989N11206186WA0305603056
B1844113833996N11206186WA0305603056
B1844123834002N11206185WA0305603056
B1844133834008N11206184WA0305503055
B1844143834014N11206181WA0305403054
B1844153834021N11206178WA0305303053
B1844163834028N11206176WA0305103051
B1844173834035N11206175WA0305003050
B1844183834042N11206175WA0305003050
B1844193834048N11206176WA0304903049
B1844203834054N11206178WA0304903049
B1844213834060N11206179WA0304803048
B1844223834066N11206181WA0304803048
B1844233834073N11206183WA0304603046
B1844243834079N11206185WA0304503045
B1844253834085N11206187WA0304403044
B1844263834091N11206189WA0304403044
B1844273834097N11206189WA0304403044
B1844283834103N11206188WA0304403044
B1844293834109N11206185WA0304303043
B1844303834114N11206180WA0304103041
B1844313834119N11206173WA0303903039
B1844323834124N11206167WA0303803038
B1844333834128N11206160WA0303703037
B1844343834130N11206152WA0303703037
B1844353834130N11206143WA0303603036
B1844363834129N11206134WA0303503035
B1844373834128N11206125WA0303403034
B1844383834128N11206116WA0303403034
B1844393834129N11206108WA0303503035
B1844403834133N11206101WA0303403034
B1844413834139N11206096WA0303003030
B1844423834146N11206093WA0302603026
B1844433834153N11206091WA0302403024
B1844443834160N11206091WA0302503025
B1844453834165N11206092WA0302603026
B1844463834170N11206093WA0302703027
B1844473834175N11206095WA0302603026
B1844483834180N11206098WA0302303023
B1844493834187N11206101WA0302103021
B1844503834193N11206105WA0301803018
B1844513834199N11206108WA0301803018
B1844523834204N11206111WA0301903019
B1844533834208N11206115WA0302003020
B1844543834210N11206119WA0302003020
B1844553834211N11206125WA0301903019
B1844563834210N11206131WA0301603016
B1844573834208N11206137WA0301503015
B1844583834205N11206142WA0301403014
B1844593834201N11206146WA0301403014
B1845003834197N11206148WA0301403014
B1845013834192N11206148WA0301503015
B1845023834187N11206148WA0301403014
B1845033834181N11206146WA0301303013
B1845043834176N11206145WA0301203012
B1845053834170N11206144WA0301003010
B1845063834164N11206143WA0301003010
B1845073834159N11206142WA0300903009
B1845083834154N11206142WA0300903009
B1845093834149N11206142WA0300803008
B1845103834144N11206143WA0300803008
B1845113834139N11206145WA0300703007
B1845123834135N11206149WA0300603006
B1845133834132N11206153WA0300503005
B1845143834130N11206158WA0300503005
B1845153834130N11206163WA0300403004
B1845163834131N11206169WA0300303003
B1845173834135N11206175WA0300103001
B1845183834139N11206181WA0300003000
B1845193834144N11206185WA0299902999
B1845203834149N11206189WA0299902999
B1845213834154N11206191WA0299902999
B1845223834160N11206192WA0299902999
B1845233834166N11206192WA0299802998
B1845243834173N11206192WA0299602996
B1845253834180N11206192WA0299602996
B1845263834186N11206192WA0299502995
B1845273834192N11206192WA0299502995
B1845283834198N11206191WA0299502995
B1845293834205N11206190WA0299402994
B1845303834211N11206189WA0299302993
B1845313834218N11206188WA0299102991
B1845323834225N11206188WA0299102991
B1845333834231N11206187WA0299002990
B1845343834237N11206186WA0299002990
B1845353834243N11206184WA0298902989
B1845363834250N11206183WA0298802988
B1845373834257N11206181WA0298702987
B1845383834264N11206180WA0298602986
B1845393834270N11206179WA0298602986
B1845403834276N11206177WA0298502985
B1845413834283N11206176WA0298502985
B1845423834289N11206175WA0298402984
B1845433834295N11206174WA0298302983
B1845443834302N11206172WA0298202982
B1845453834308N11206171WA0298202982
B1845463834315N11206169WA0298102981
B1845473834321N11206168WA0298102981
B1845483834327N11206166WA0298002980
B1845493834333N11206165WA0297902979
B1845503834339N11206163WA0297802978
B1845513834346N11206162WA0297702977
B1845523834352N11206160WA0297602976
B1845533834359N11206158WA0297502975
B1845543834365N11206156WA0297402974
B1845553834372N11206154WA0297402974
B1845563834377N11206152WA0297302973
B1845573834383N11206150WA0297202972
B1845583834390N11206148WA0297102971
B1845593834396N11206146WA0296902969
B1846003834403N11206145WA0296802968
B1846013834410N11206145WA0296602966
B1846023834417N11206145WA0296602966
B1846033834424N11206145WA0296602966
B1846043834430N11206146WA0296502965
B1846053834436N11206146WA0296502965
B1846063834442N11206147WA0296302963
B1846073834449N11206148WA0296202962
B1846083834455N11206150WA0296002960
B1846093834461N11206153WA0295902959
B1846103834466N11206157WA0295802958
B1846113834471N11206161WA0295702957
B1846123834476N11206165WA0295602956
B1846133834481N11206169WA0295502955
B1846143834486N11206173WA0295402954
B1846153834491N11206177WA0295402954
B1846163834496N11206181WA0295302953
B1846173834502N11206184WA0295202952
B1846183834507N11206187WA0295102951
B1846193834513N11206189WA0294902949
B1846203834519N11206192WA0294802948
B1846213834525N11206194WA0294802948
B1846223834531N11206196WA0294702947
B1846233834536N11206197WA0294702947
B1846243834542N11206199WA0294602946
B1846253834547N11206201WA0294502945
B1846263834552N11206204WA0294402944
B1846273834557N11206207WA0294202942
B1846283834563N11206210WA0294002940
B1846293834568N11206212WA0293802938
B1846303834574N11206215WA0293702937
B1846313834579N11206218WA0293602936
B1846323834584N11206221WA0293502935
B1846333834589N11206224WA0293302933
B1846343834595N11206227WA0293202932
B1846353834600N11206230WA0293102931
B1846363834606N11206234WA0292902929
B1846373834611N11206237WA0292802928
B1846383834617N11206241WA0292702927
B1846393834622N11206244WA0292602926
B1846403834627N11206248WA0292502925
B1846413834632N11206251WA0292402924
B1846423834637N11206254WA0292302923
B1846433834643N11206257WA0292202922
B1846443834648N11206259WA0292002920
B1846453834654N11206261WA0291902919
B1846463834660N11206262WA0291702917
B1846473834666N11206263WA0291702917
B1846483834672N11206263WA0291602916
B1846493834678N11206262WA0291502915
B1846503834684N11206261WA0291402914
B1846513834690N11206259WA0291302913
B1846523834697N11206257WA0291102911
B1846533834703N11206256WA0291002910
B1846543834710N11206256WA0290902909
B1846553834716N11206257WA0290802908
B1846563834721N11206258WA0290702907
B1846573834727N11206260WA0290602906
B1846583834732N11206263WA0290502905
B1846593834737N11206265WA0290402904
B1847003834742N11206267WA0290302903
B1847013834748N11206269WA0290202902
B1847023834753N11206270WA0290102901
B1847033834759N11206271WA0290002900
B1847043834765N11206270WA0289802898
B1847053834772N11206270WA0289702897
B1847063834778N11206268WA0289502895
B1847073834784N11206266WA0289502895
B1847083834790N11206262WA0289302893
B1847093834796N11206258WA0289302893
B1847103834801N11206253WA0289102891
B1847113834807N11206247WA0289002890
B1847123834812N11206241WA0288902889
B1847133834818N11206234WA0288802888
B1847143834824N11206229WA0288702887
B1847153834830N11206224WA0288702887
B1847163834836N11206220WA0288602886
B1847173834843N11206218WA0288502885
B1847183834850N11206217WA0288402884
B1847193834856N11206216WA0288302883
B1847203834862N11206217WA0288202882
B1847213834868N11206219WA0288102881
B1847223834874N11206221WA0288002880
B1847233834879N11206224WA0287802878
B1847243834884N11206228WA0287702877
B1847253834889N11206231WA0287602876
B1847263834893N11206235WA0287502875
B1847273834898N11206239WA0287402874
B1847283834903N11206242WA0287202872
B1847293834908N11206246WA0287102871
B1847303834913N11206249WA0287002870
B1847313834918N11206252WA0287002870
B1847323834923N11206255WA0286902869
B1847333834927N11206258WA0286802868
B1847343834932N11206262WA0286602866
B1847353834938N11206266WA0286502865
B1847363834943N11206269WA0286402864
B1847373834948N11206271WA0286302863
B1847383834953N11206274WA0286202862
B1847393834958N11206277WA0286102861
B1847403834963N11206280WA0285902859
B1847413834969N11206284WA0285802858
B1847423834974N11206287WA0285602856
B1847433834980N11206289WA0285502855
B1847443834985N11206292WA0285402854
B1847453834991N11206294WA0285302853
B1847463834997N11206296WA0285202852
B1847473835003N11206299WA0285002850
B1847483835008N11206301WA0284902849
B1847493835014N11206304WA0284802848
B1847503835019N11206308WA0284702847
B1847513835024N11206312WA0284602846
B1847523835027N11206316WA0284502845
B1847533835030N11206320WA0284402844
B1847543835032N11206326WA0284302843
B1847553835033N11206332WA0284102841
B1847563835034N11206338WA0283902839
B1847573835034N11206343WA0283802838
B1847583835032N11206348WA0283802838
B1847593835031N11206353WA0283702837
B1848003835029N11206357WA0283702837
B1848013835027N11206361WA0283602836
B1848023835024N11206365WA0283502835
B1848033835021N11206369WA0283402834
B1848043835019N11206373WA0283302833
B1848053835017N11206378WA0283202832
B1848063835015N11206384WA0283102831
B1848073835014N11206389WA0283002830
B1848083835013N11206394WA0282902829
B1848093835012N11206399WA0282802828
B1848103835011N11206405WA0282602826
B1848113835012N11206411WA0282502825
B1848123835012N11206417WA0282302823
B1848133835013N11206423WA0282302823
B1848143835015N11206429WA0282202822
B1848153835017N11206434WA0282102821
B1848163835020N11206439WA0282002820
B1848173835024N11206444WA0281902819
B1848183835028N11206449WA0281802818
B1848193835032N11206453WA0281702817
B1848203835036N11206458WA0281602816
B1848213835040N11206463WA0281502815
B1848223835044N11206467WA0281402814
B1848233835048N11206471WA0281202812
B1848243835053N11206475WA0281102811
B1848253835059N11206478WA0281102811
B1848263835064N11206479WA0281002810
B1848273835071N11206478WA0280902809
B1848283835077N11206477WA0280802808
B1848293835084N11206474WA0280702807
B1848303835089N11206469WA0280502805
B1848313835094N11206462WA0280302803
B1848323835099N11206454WA0280102801
B1848333835104N11206446WA0279902799
B1848343835109N11206438WA0279802798
B1848353835114N11206432WA0279802798
B1848363835120N11206427WA0279702797
B1848373835126N11206424WA0279702797
B1848383835133N11206422WA0279402794
B1848393835140N11206421WA0279202792
B1848403835147N11206421WA0279002790
B1848413835154N11206421WA0278902789
B1848423835160N11206422WA0278802788
B1848433835166N11206424WA0278702787
B1848443835171N11206426WA0278602786
B1848453835177N11206428WA0278402784
B1848463835183N11206430WA0278202782
B1848473835189N11206432WA0278002780
B1848483835195N11206435WA0277902779
B1848493835200N11206438WA0277802778
B1848503835205N11206442WA0277602776
B1848513835210N11206446WA0277502775
B1848523835215N11206450WA0277302773
B1848533835219N11206454WA0277102771
B1848543835224N11206458WA0277002770
B1848553835228N11206462WA0276902769
B1848563835233N11206466WA0276802768
B1848573835237N11206470WA0276602766
B1848583835242N11206474WA0276502765
B1848593835247N11206478WA0276302763
B1849003835252N11206482WA0276102761
B1849013835257N11206485WA0276002760
B1849023835262N11206488WA0275802758
B1849033835268N11206491WA0275702757
B1849043835274N11206493WA0275602756
B1849053835279N11206496WA0275502755
B1849063835284N11206499WA0275402754
B1849073835289N11206503WA0275202752
B1849083835295N11206506WA0275102751
B1849093835301N11206509WA0274902749
B1849103835306N11206511WA0274802748
B1849113835312N11206514WA0274602746
B1849123835317N11206516WA0274502745
B1849133835323N11206519WA0274302743
B1849143835328N11206522WA0274202742
B1849153835333N11206525WA0274002740
B1849163835339N11206528WA0273802738
B1849173835344N11206532WA0273602736
B1849183835350N11206535WA0273402734
B1849193835355N11206538WA0273202732
B1849203835361N11206542WA0273102731
B1849213835366N11206545WA0272902729
B1849223835371N11206549WA0272802728
B1849233835377N11206552WA0272702727
B1849243835382N11206554WA0272602726
B1849253835388N11206556WA0272502725
B1849263835394N11206557WA0272302723
B1849273835400N11206558WA0272202722
B1849283835407N11206559WA0272002720
B1849293835413N11206561WA0271902719
B1849303835419N11206564WA0271702717
B1849313835424N11206567WA0271602716
B1849323835428N11206572WA0271502715
B1849333835432N11206576WA0271302713
B1849343835436N11206581WA0271202712
B1849353835440N11206586WA0271002710
B1849363835445N11206591WA0270802708
B1849373835448N11206596WA0270602706
B1849383835452N11206602WA0270502705
B1849393835455N11206607WA0270502705
B1849403835456N11206612WA0270402704
B1849413835458N11206618WA0270402704
B1849423835459N11206623WA0270202702
B1849433835461N11206629WA0270102701
B1849443835462N11206635WA0270002700
B1849453835464N11206641WA0269902699
B1849463835465N11206647WA0269802698
B1849473835465N11206652WA0269702697
B1849483835466N11206658WA0269602696
B1849493835467N11206664WA0269502695
B1849503835467N11206670WA0269402694
B1849513835468N11206676WA0269302693
B1849523835470N11206682WA0269202692
B1849533835472N11206687WA0269102691
B1849543835475N11206692WA0269002690
B1849553835479N11206696WA0268902689
B1849563835484N11206700WA0268702687
B1849573835489N11206704WA0268602686
B1849583835494N11206707WA0268402684
B1849593835499N11206710WA0268402684
B1850003835505N11206712WA0268302683
B1850013835511N11206713WA0268202682
B1850023835517N11206713WA0268002680
B1850033835524N11206711WA0267802678
B1850043835531N11206709WA0267702677
B1850053835537N11206707WA0267602676
B1850063835544N11206704WA0267502675
B1850073835550N11206702WA0267402674
B1850083835557N11206700WA0267302673
B1850093835564N11206698WA0267202672
B1850103835571N11206697WA0267102671
B1850113835577N11206697WA0267002670
B1850123835584N11206697WA0266902669
B1850133835590N11206697WA0266802668
B1850143835597N11206698WA0266702667
B1850153835604N11206698WA0266602666
B1850163835610N11206699WA0266402664
B1850173835617N11206699WA0266302663
B1850183835623N11206700WA0266202662
B1850193835630N11206701WA0266102661
B1850203835636N11206701WA0266002660
B1850213835642N11206701WA0265902659
B1850223835649N11206701WA0265802658
B1850233835655N11206702WA0265702657
B1850243835661N11206703WA0265602656
B1850253835667N11206705WA0265502655
B1850263835673N11206709WA0265302653
B1850273835678N11206712WA0265202652
B1850283835682N11206716WA0265102651
B1850293835687N11206719WA0265002650
B1850303835692N11206722WA0264902649
B1850313835697N11206726WA0264802648
B1850323835702N11206729WA0264602646
B1850333835707N11206733WA0264502645
B1850343835713N11206735WA0264402644
B1850353835718N11206738WA0264302643
B1850363835724N11206740WA0264202642
B1850373835729N11206743WA0264102641
B1850383835735N11206746WA0263902639
B1850393835740N11206748WA0263802638
B1850403835746N11206751WA0263702637
B1850413835752N11206753WA0263702637
B1850423835757N11206754WA0263702637
B1850433835763N11206754WA0263602636
B1850443835769N11206752WA0263502635
B1850453835776N11206749WA0263302633
B1850463835782N11206746WA0263202632
B1850473835789N11206742WA0263102631
B1850483835795N11206737WA0263102631
B1850493835800N11206732WA0263002630
B1850503835805N11206726WA0262902629
B1850513835810N11206719WA0262802628
B1850523835814N11206711WA0262702627
B1850533835819N11206704WA0262602626
B1850543835825N11206698WA0262502625
B1850553835831N11206694WA0262402624
B1850563835838N11206692WA0262302623
B1850573835845N11206691WA0262202622
B1850583835851N11206690WA0262202622
B1850593835857N11206690WA0262102621
B1851003835863N11206690WA0262002620
B1851013835869N11206691WA0261802618
B1851023835876N11206692WA0261702617
B1851033835882N11206693WA0261502615
B1851043835888N11206694WA0261502615
B1851053835894N11206696WA0261402614
B1851063835899N11206699WA0261302613
B1851073835904N11206702WA0261202612
B1851083835908N11206705WA0261102611
B1851093835913N11206709WA0261002610
B1851103835918N11206712WA0260902609
B1851113835923N11206715WA0260802608
B1851123835929N11206717WA0260702607
B1851133835934N11206720WA0260602606
B1851143835939N11206723WA0260502605
B1851153835944N11206726WA0260402604
B1851163835949N11206729WA0260302603
B1851173835954N11206733WA0260202602
B1851183835958N11206737WA0260102601
B1851193835962N11206741WA0260002600
B1851203835966N11206745WA0260002600
B1851213835969N11206750WA0259902599
B1851223835972N11206754WA0259902599
B1851233835975N11206759WA0259802598
B1851243835978N11206764WA0259702597
B1851253835981N11206769WA0259502595
B1851263835984N11206775WA0259402594
B1851273835987N11206780WA0259302593
B1851283835990N11206785WA0259202592
B1851293835994N11206789WA0259102591
B1851303835998N11206794WA0259002590
B1851313836002N11206798WA0258902589
B1851323836005N11206803WA0258902589
B1851333836009N11206807WA0258802588
B1851343836013N11206811WA0258702587
B1851353836017N11206816WA0258602586
B1851363836021N11206820WA0258402584
B1851373836025N11206824WA0258302583
B1851383836029N11206829WA0258202582
B1851393836033N11206832WA0258202582
B1851403836037N11206836WA0258102581
B1851413836042N11206839WA0257902579
B1851423836047N11206842WA0257802578
B1851433836052N11206846WA0257702577
B1851443836057N11206849WA0257602576
B1851453836063N11206852WA0257502575
B1851463836068N11206855WA0257402574
B1851473836073N11206857WA0257302573
B1851483836078N11206860WA0257102571
B1851493836084N11206863WA0257002570
B1851503836089N11206866WA0256802568
B1851513836095N11206869WA0256702567
B1851523836100N11206872WA0256702567
B1851533836104N11206876WA0256602566
B1851543836108N11206880WA0256502565
B1851553836112N11206884WA0256302563
B1851563836116N11206890WA0256102561
B1851573836119N11206895WA0256002560
B1851583836123N11206900WA0255902559
B1851593836127N11206904WA0255902559
B1852003836131N11206907WA0255802558
B1852013836136N11206909WA0255702557
B1852023836141N11206911WA0255602556
B1852033836147N11206914WA0255302553
B1852043836153N11206916WA0255202552
B1852053836158N11206919WA0255002550
B1852063836164N11206921WA0255002550
B1852073836170N11206923WA0254902549
B1852083836175N11206925WA0254802548
B1852093836181N11206927WA0254602546
B1852103836187N11206929WA0254502545
B1852113836193N11206931WA0254302543
B1852123836198N11206933WA0254202542
B1852133836204N11206936WA0254102541
B1852143836209N11206938WA0254002540
B1852153836214N11206940WA0254002540
B1852163836219N11206943WA0253902539
B1852173836223N11206947WA0253802538
B1852183836226N11206952WA0253702537
B1852193836229N11206957WA0253502535
B1852203836232N11206963WA0253302533
B1852213836234N11206969WA0253202532
B1852223836237N11206974WA0253202532
B1852233836239N11206980WA0253102531
B1852243836241N11206985WA0253102531
B1852253836244N11206990WA0252902529
B1852263836247N11206995WA0252802528
B1852273836250N11207000WA0252602526
B1852283836254N11207005WA0252502525
B1852293836258N11207009WA0252402524
B1852303836263N11207011WA0252302523
B1852313836268N11207014WA0252202522
B1852323836273N11207016WA0252102521
B1852333836279N11207018WA0251902519
B1852343836285N11207020WA0251802518
B1852353836291N11207022WA0251602516
B1852363836296N11207025WA0251602516
B1852373836302N11207027WA0251502515
B1852383836307N11207029WA0251502515
B1852393836312N11207032WA0251302513
B1852403836318N11207034WA0251202512
B1852413836324N11207036WA0251102511
B1852423836330N11207039WA0250902509
B1852433836336N11207041WA0250802508
B1852443836341N11207043WA0250802508
B1852453836346N11207046WA0250702507
B1852463836351N11207048WA0250602506
B1852473836357N11207051WA0250502505
B1852483836362N11207053WA0250402504
B1852493836367N11207055WA0250302503
B1852503836373N11207058WA0250102501
B1852513836379N11207060WA0250002500
B1852523836384N11207063WA0249902499
B1852533836389N11207065WA0249802498
B1852543836395N11207068WA0249702497
B1852553836400N11207070WA0249502495
B1852563836406N11207072WA0249402494
B1852573836412N11207074WA0249202492
B1852583836417N11207077WA0249002490
B1852593836422N11207081WA0248902489
B1853003836427N11207084WA0248802488
B1853013836432N11207087WA0248702487
B1853023836437N11207090WA0248702487
B1853033836442N11207093WA0248602486
B1853043836447N11207095WA0248402484
B1853053836453N11207098WA0248302483
B1853063836458N11207100WA0248102481
B1853073836464N11207103WA0248002480
B1853083836469N11207105WA0247902479
B1853093836474N11207107WA0247802478
B1853103836480N11207109WA0247702477
B1853113836485N11207111WA0247602476
B1853123836490N11207113WA0247502475
B1853133836496N11207114WA0247302473
B1853143836502N11207115WA0247202472
B1853153836508N11207115WA0247102471
B1853163836514N11207115WA0247002470
B1853173836520N11207114WA0246902469
B1853183836526N11207114WA0246802468
B1853193836532N11207113WA0246702467
B1853203836538N11207112WA0246602466
B1853213836544N11207110WA0246502465
B1853223836549N11207107WA0246402464
B1853233836554N11207103WA0246302463
B1853243836558N11207097WA0246202462
B1853253836561N11207089WA0246002460
B1853263836562N11207080WA0245902459
B1853273836562N11207071WA0245802458
B1853283836560N11207062WA0245802458
B1853293836557N11207055WA0245602456
B1853303836552N11207049WA0245502455
B1853313836547N11207045WA0245402454
B1853323836541N11207042WA0245302453
B1853333836535N11207043WA0245302453
B1853343836530N11207045WA0245202452
B1853353836526N11207049WA0245102451
B1853363836523N11207055WA0244902449
B1853373836522N11207060WA0244902449
B1853383836521N11207066WA0244702447
B1853393836522N11207072WA0244602446
B1853403836525N11207078WA0244502445
B1853413836528N11207083WA0244302443
B1853423836531N11207088WA0244202442
B1853433836535N11207092WA0244002440
B1853443836540N11207095WA0243902439
B1853453836545N11207098WA0243802438
B1853463836550N11207100WA0243602436
B1853473836556N11207102WA0243402434
B1853483836561N11207105WA0243202432
B1853493836566N11207107WA0243102431
B1853503836571N11207110WA0243002430
B1853513836576N11207112WA0242902429
B1853523836582N11207113WA0242802428
B1853533836587N11207116WA0242602426
B1853543836593N11207118WA0242402424
B1853553836598N11207120WA0242302423
B1853563836603N11207122WA0242202422
B1853573836609N11207124WA0242102421
B1853583836614N11207126WA0242002420
B1853593836620N11207127WA0241802418
B1854003836625N11207129WA0241702417
B1854013836631N11207131WA0241502415
B1854023836636N11207132WA0241402414
B1854033836642N11207134WA0241302413
B1854043836647N11207135WA0241202412
B1854053836653N11207136WA0241002410
B1854063836659N11207137WA0240902409
B1854073836664N11207139WA0240802408
B1854083836670N11207140WA0240602406
B1854093836676N11207140WA0240502405
B1854103836682N11207141WA0240402404
B1854113836688N11207142WA0240302403
B1854123836693N11207143WA0240102401
B1854133836699N11207143WA0240002400
B1854143836705N11207144WA0239802398
B1854153836711N11207144WA0239702397
B1854163836717N11207144WA0239602396
B1854173836723N11207144WA0239502395
B1854183836729N11207144WA0239402394
B1854193836735N11207144WA0239202392
B1854203836741N11207143WA0239102391
B1854213836747N11207142WA0239002390
B1854223836753N11207141WA0238802388
B1854233836759N11207140WA0238702387
B1854243836765N11207139WA0238602386
B1854253836771N11207137WA0238402384
B1854263836778N11207135WA0238302383
B1854273836784N11207133WA0238202382
B1854283836790N11207131WA0238102381
B1854293836796N11207129WA0238002380
B1854303836803N11207127WA0237902379
B1854313836809N11207125WA0237802378
B1854323836815N11207122WA0237702377
B1854333836821N11207120WA0237602376
B1854343836827N11207117WA0237502375
B1854353836833N11207115WA0237402374
B1854363836839N11207112WA0237302373
B1854373836845N11207109WA0237202372
B1854383836851N11207107WA0237102371
B1854393836857N11207104WA0237002370
B1854403836862N11207100WA0236802368
B1854413836867N11207095WA0236702367
B1854423836872N11207089WA0236602366
B1854433836876N11207082WA0236502365
B1854443836880N11207075WA0236402364
B1854453836882N11207068WA0236302363
B1854463836884N11207060WA0236202362
B1854473836886N11207051WA0236102361
B1854483836886N11207043WA0235902359
B1854493836887N11207034WA0235802358
B1854503836887N11207025WA0235702357
B1854513836886N11207016WA0235602356
B1854523836885N11207008WA0235502355
B1854533836884N11206999WA0235302353
B1854543836883N11206990WA0235202352
B1854553836882N11206981WA0235102351
B1854563836881N11206972WA0234902349
B1854573836879N11206963WA0234802348
B1854583836877N11206954WA0234702347
B1854593836875N11206946WA0234602346
B1855003836873N11206937WA0234502345
B1855013836872N11206928WA0234402344
B1855023836871N11206920WA0234302343
B1855033836870N11206911WA0234102341
B1855043836869N11206903WA0234002340
B1855053836868N11206894WA0233902339
B1855063836868N11206885WA0233702337
B1855073836867N11206876WA0233602336
B1855083836867N11206867WA0233502335
B1855093836867N11206858WA0233402334
B1855103836865N11206849WA0233302333
B1855113836863N11206842WA0233202332
B1855123836859N11206835WA0233002330
B1855133836853N11206830WA0232902329
B1855143836847N11206827WA0232802328
B1855153836841N11206826WA0232702327
B1855163836835N11206828WA0232602326
B1855173836831N11206831WA0232502325
B1855183836827N11206835WA0232402324
B1855193836825N11206841WA0232302323
B1855203836823N11206847WA0232102321
B1855213836822N11206853WA0232002320
B1855223836820N11206859WA0231802318
B1855233836820N11206865WA0231702317
B1855243836819N11206871WA0231602316
B1855253836819N11206877WA0231502315
B1855263836820N11206884WA0231302313
B1855273836821N11206890WA0231202312
B1855283836822N11206897WA0231002310
B1855293836824N11206903WA0230902309
B1855303836825N11206910WA0230802308
B1855313836828N11206916WA0230702307
B1855323836830N11206922WA0230602306
B1855333836833N11206927WA0230502305
B1855343836836N11206933WA0230402304
B1855353836840N11206938WA0230302303
B1855363836843N11206943WA0230102301
B1855373836847N11206949WA0230002300
B1855383836850N11206954WA0229902299
B1855393836854N11206959WA0229702297
B1855403836857N11206965WA0229602296
B1855413836860N11206970WA0229602296
B1855423836864N11206974WA0229502295
B1855433836868N11206979WA0229402294
B1855443836871N11206984WA0229202292
B1855453836875N11206989WA0229102291
B1855463836879N11206994WA0229002290
B1855473836884N11206998WA0228902289
B1855483836888N11207003WA0228702287
B1855493836893N11207007WA0228602286
B1855503836897N11207011WA0228502285
B1855513836902N11207015WA0228402284
B1855523836906N11207018WA0228202282
B1855533836911N11207023WA0228102281
B1855543836916N11207027WA0228002280
B1855553836920N11207030WA0227902279
B1855563836925N11207034WA0227802278
B1855573836929N11207038WA0227702277
B1855583836934N11207042WA0227502275
B1855593836939N11207045WA0227402274
B1856003836944N11207049WA0227302273
B1856013836949N11207052WA0227202272
B1856023836954N11207055WA0227102271
B1856033836960N11207058WA0227002270
B1856043836965N11207061WA0226902269
B1856053836971N11207063WA0226702267
B1856063836976N11207065WA0226602266
B1856073836982N11207066WA0226502265
B1856083836988N11207068WA0226402264
B1856093836993N11207070WA0226302263
B1856103836999N11207072WA0226102261
B1856113837004N11207074WA0226002260
B1856123837010N11207075WA0225902259
B1856133837015N11207077WA0225802258
B1856143837021N11207079WA0225702257
B1856153837025N11207082WA0225602256
B1856163837029N11207087WA0225502255
B1856173837033N11207093WA0225202252
B1856183837036N11207099WA0225002250
B1856193837038N11207106WA0224902249
B1856203837039N11207113WA0224802248
B1856213837039N11207121WA0224702247
B1856223837038N11207128WA0224602246
B1856233837037N11207135WA0224502245
B1856243837034N11207142WA0224402244
B1856253837031N11207149WA0224302243
B1856263837027N11207154WA0224302243
B1856273837022N11207157WA0224202242
B1856283837016N11207159WA0224202242
B1856293837010N11207160WA0224002240
B1856303837003N11207161WA0223802238
B1856313836996N11207161WA0223702237
B1856323836990N11207159WA0223602236
B1856333836984N11207157WA0223502235
B1856343836979N11207154WA0223402234
B1856353836974N11207151WA0223302233
B1856363836969N11207146WA0223102231
B1856373836964N11207141WA0223002230
B1856383836959N11207136WA0222802228
B1856393836954N11207130WA0222702227
B1856403836951N11207123WA0222502225
B1856413836947N11207117WA0222402224
B1856423836944N11207111WA0222302223
B1856433836942N11207104WA0222202222
B1856443836939N11207098WA0222002220
B1856453836936N11207091WA0221902219
B1856463836934N11207084WA0221802218
B1856473836931N11207077WA0221602216
B1856483836927N11207071WA0221502215
B1856493836924N11207064WA0221402214
B1856503836921N11207057WA0221302213
B1856513836918N11207051WA0221202212
B1856523836915N11207045WA0221002210
B1856533836911N11207039WA0220902209
B1856543836907N11207033WA0220802208
B1856553836903N11207028WA0220702207
B1856563836898N11207022WA0220602206
B1856573836894N11207018WA0220602206
B1856583836889N11207013WA0220502205
B1856593836884N11207008WA0220302203
B1857003836879N11207004WA0220202202
B1857013836874N11206998WA0220102201
B1857023836870N11206993WA0220002200
B1857033836866N11206987WA0219902199
B1857043836861N11206982WA0219802198
B1857053836856N11206976WA0219702197
B1857063836851N11206972WA0219602196
B1857073836846N11206968WA0219502195
B1857083836840N11206963WA0219402194
B1857093836835N11206960WA0219302193
B1857103836829N11206956WA0219302193
B1857113836823N11206954WA0219202192
B1857123836817N11206952WA0219202192
B1857133836811N11206952WA0219102191
B1857143836805N11206953WA0218902189
B1857153836798N11206956WA0218902189
B1857163836792N11206959WA0218702187
B1857173836786N11206963WA0218602186
B1857183836780N11206966WA0218502185
B1857193836775N11206971WA0218502185
B1857203836770N11206976WA0218402184
B1857213836766N11206981WA0218202182
B1857223836761N11206987WA0218102181
B1857233836757N11206994WA0217902179
B1857243836754N11207001WA0217802178
B1857253836751N11207009WA0217802178
B1857263836749N11207016WA0217702177
B1857273836748N11207024WA0217702177
B1857283836747N11207031WA0217502175
B1857293836748N11207038WA0217402174
B1857303836748N11207046WA0217202172
B1857313836749N11207054WA0217002170
B1857323836751N11207061WA0216902169
B1857333836753N11207068WA0216802168
B1857343836755N11207075WA0216702167
B1857353836758N11207081WA0216602166
B1857363836761N11207088WA0216402164
B1857373836765N11207094WA0216302163
B1857383836769N11207099WA0216202162
B1857393836773N11207105WA0216102161
B1857403836778N11207109WA0216002160
B1857413836783N11207112WA0215902159
B1857423836788N11207115WA0215802158
B1857433836793N11207117WA0215702157
B1857443836798N11207119WA0215502155
B1857453836804N11207120WA0215402154
B1857463836809N11207120WA0215202152
B1857473836814N11207119WA0215102151
B1857483836818N11207117WA0215002150
B1857493836823N11207115WA0214802148
B1857503836827N11207111WA0214702147
B1857513836831N11207108WA0214502145
B1857523836835N11207103WA0214402144
B1857533836839N11207098WA0214202142
B1857543836842N11207093WA0214102141
B1857553836845N11207087WA0214002140
B1857563836847N11207082WA0213902139
B1857573836850N11207076WA0213902139
B1857583836852N11207070WA0213802138
B1857593836853N11207064WA0213702137
B1858003836854N11207057WA0213502135
B1858013836854N11207050WA0213402134
B1858023836854N11207043WA0213402134
B1858033836854N11207036WA0213302133
B1858043836853N11207029WA0213102131
B1858053836851N11207021WA0213002130
B1858063836850N11207014WA0212902129
B1858073836849N11207007WA0212902129
B1858083836848N11206999WA0212802128
B1858093836847N11206992WA0212802128
B1858103836846N11206985WA0212702127
B1858113836846N11206977WA0212602126
B1858123836846N11206970WA0212402124
B1858133836846N11206962WA0212302123
B1858143836845N11206955WA0212202122
B1858153836845N11206948WA0212102121
B1858163836843N11206941WA0212002120
B1858173836841N11206934WA0211902119
B1858183836839N11206928WA0211802118
B1858193836837N11206921WA0211602116
B1858203836836N11206913WA0211502115
B1858213836836N11206906WA0211302113
B1858223836838N11206899WA0211202112
B1858233836840N11206893WA0211102111
B1858243836843N11206889WA0211002110
B1858253836846N11206885WA0211002110
B1858263836850N11206882WA0210902109
B1858273836855N11206881WA0210702107
B1858283836860N11206880WA0210502105
B1858293836865N11206882WA0210302103
B1858303836869N11206886WA0210102101
B1858313836874N11206890WA0209902099
B1858323836877N11206896WA0209702097
B1858333836879N11206902WA0209602096
B1858343836881N11206909WA0209402094
B1858353836883N11206917WA0209202092
B1858363836883N11206925WA0209102091
B1858373836884N11206933WA0208902089
B1858383836884N11206940WA0208802088
B1858393836884N11206948WA0208602086
B1858403836884N11206955WA0208502085
B1858413836885N11206962WA0208302083
B1858423836887N11206969WA0208202082
B1858433836890N11206975WA0208102081
B1858443836894N11206980WA0207902079
B1858453836898N11206985WA0207802078
B1858463836902N11206989WA0207802078
B1858473836905N11206994WA0207702077
B1858483836910N11206997WA0207502075
B1858493836914N11207001WA0207402074
B1858503836919N11207004WA0207302073
B1858513836924N11207006WA0207102071
B1858523836929N11207008WA0207102071
B1858533836933N11207008WA0207002070
B1858543836938N11207007WA0206902069
B1858553836942N11207003WA0206802068
B1858563836945N11206998WA0206602066
B1858573836948N11206992WA0206502065
B1858583836949N11206985WA0206402064
B1858593836948N11206978WA0206302063
B1859003836947N11206971WA0206202062
B1859013836945N11206964WA0206102061
B1859023836942N11206958WA0206002060
B1859033836939N11206952WA0205902059
B1859043836934N11206946WA0205702057
B1859053836930N11206941WA0205502055
B1859063836924N11206935WA0205302053
B1859073836919N11206930WA0205202052
B1859083836913N11206926WA0205202052
B1859093836908N11206921WA0205102051
B1859103836903N11206918WA0205102051
B1859113836897N11206914WA0204902049
B1859123836891N11206911WA0204802048
B1859133836884N11206909WA0204602046
B1859143836878N11206907WA0204402044
B1859153836872N11206905WA0204302043
B1859163836866N11206902WA0204302043
B1859173836862N11206899WA0204102041
B1859183836858N11206894WA0203902039
B1859193836857N11206886WA0203602036
B1859203836856N11206878WA0203302033
B1859213836857N11206871WA0203102031
B1859223836857N11206864WA0203002030
B1859233836857N11206858WA0203002030
B1859243836857N11206852WA0202902029
B1859253836858N11206846WA0202702027
B1859263836858N11206840WA0202502025
B1859273836859N11206833WA0202202022
B1859283836859N11206825WA0202102021
B1859293836858N11206819WA0201902019
B1859303836858N11206813WA0201902019
B1859313836857N11206807WA0201802018
B1859323836856N11206802WA0201702017
B1859333836856N11206796WA0201502015
B1859343836855N11206790WA0201202012
B1859353836853N11206783WA0201002010
B1859363836850N11206777WA0200802008
B1859373836844N11206772WA0200602006
B1859383836836N11206770WA0200402004
B1859393836828N11206769WA0200102001
B1859403836821N11206771WA0199901999
B1859413836815N11206776WA0199701997
B1859423836810N11206783WA0199401994
B1859433836807N11206791WA0199201992
B1859443836805N11206798WA0199101991
B1859453836803N11206806WA0199101991
B1859463836801N11206815WA0198901989
B1859473836799N11206823WA0198701987
B1859483836798N11206831WA0198601986
B1859493836797N11206839WA0198501985
B1859503836796N11206846WA0198401984
B1859513836796N11206853WA0198301983
B1859523836796N11206860WA0198101981
B1859533836798N11206867WA0197901979
B1859543836801N11206873WA0197601976
B1859553836805N11206877WA0197401974
B1859563836809N11206880WA0197201972
B1859573836814N11206881WA0197001970
B1859583836818N11206882WA0196901969
B1859593836823N11206880WA0196701967
B1900003836828N11206878WA0196601966
B1900013836832N11206876WA0196401964
B1900023836836N11206872WA0196201962
B1900033836840N11206867WA0196001960
B1900043836842N11206863WA0195901959
B1900053836844N11206858WA0195801958
B1900063836845N11206852WA0195701957
B1900073836846N11206846WA0195601956
B1900083836845N11206839WA0195401954
B1900093836845N11206832WA0195301953
B1900103836845N11206826WA0195101951
B1900113836845N11206819WA0195001950
B1900123836846N11206812WA0194801948
B1900133836847N11206806WA0194601946
B1900143836848N11206800WA0194501945
B1900153836851N11206795WA0194201942
B1900163836853N11206792WA0194001940
B1900173836857N11206789WA0193801938
B1900183836861N11206788WA0193501935
B1900193836866N11206788WA0193201932
B1900203836870N11206790WA0192901929
B1900213836874N11206793WA0192601926
B1900223836877N11206797WA0192401924
B1900233836880N11206802WA0192101921
B1900243836882N11206808WA0192001920
B1900253836883N11206813WA0191901919
B1900263836884N11206819WA0191801918
B1900273836884N11206824WA0191701917
B1900283836884N11206831WA0191601916
B1900293836884N11206838WA0191301913
B1900303836882N11206845WA0191101911
B1900313836881N11206853WA0190901909
B1900323836880N11206860WA0190901909
B1900333836879N11206867WA0190901909
B1900343836878N11206873WA0191001910
B1900353836877N11206879WA0191001910
B1900363836875N11206885WA0190901909
B1900373836874N11206892WA0190801908
B1900383836874N11206899WA0190701907
B1900393836874N11206905WA0190601906
B1900403836876N11206910WA0190501905
B1900413836878N11206914WA0190401904
B1900423836881N11206916WA0190301903
B1900433836886N11206917WA0190101901
B1900443836890N11206916WA0190001900
B1900453836895N11206914WA0189801898
B1900463836898N11206910WA0189801898
B1900473836901N11206906WA0189701897
B1900483836903N11206901WA0189501895
B1900493836905N11206895WA0189301893
B1900503836907N11206888WA0189101891
B1900513836907N11206880WA0188901889
B1900523836906N11206872WA0188801888
B1900533836905N11206864WA0188601886
B1900543836903N11206857WA0188501885
B1900553836903N11206850WA0188401884
B1900563836904N11206844WA0188301883
B1900573836906N11206840WA0188101881
B1900583836909N11206836WA0187801878
B1900593836913N11206835WA0187501875
B1901003836917N11206836WA0187301873
B1901013836920N11206839WA0187001870
B1901023836923N11206844WA0186801868
B1901033836926N11206849WA0186501865
B1901043836927N11206855WA0186301863
B1901053836928N11206861WA0186001860
B1901063836929N11206867WA0185801858
B1901073836929N11206875WA0185501855
B1901083836930N11206882WA0185201852
B1901093836929N11206890WA0185001850
B1901103836929N11206897WA0184801848
B1901113836929N11206904WA0184501845
B1901123836929N11206911WA0184301843
B1901133836930N11206918WA0184001840
B1901143836930N11206925WA0183801838
B1901153836931N11206931WA0183601836
B1901163836934N11206936WA0183401834
B1901173836937N11206939WA0183201832
B1901183836940N11206941WA0183001830
B1901193836944N11206942WA0182801828
B1901203836948N11206942WA0182701827
B1901213836952N11206941WA0182501825
B1901223836956N11206940WA0182301823
B1901233836960N11206938WA0182201822
B1901243836963N11206935WA0182101821
B1901253836965N11206932WA0181901819
B1901263836967N11206928WA0181701817
B1901273836969N11206922WA0181601816
B1901283836971N11206917WA0181501815
B1901293836972N11206911WA0181301813
B1901303836973N11206906WA0181201812
B1901313836974N11206901WA0181001810
B1901323836977N11206897WA0180801808
B1901333836980N11206894WA0180601806
B1901343836984N11206893WA0180401804
B1901353836989N11206894WA0179901799
B1901363836994N11206897WA0179601796
B1901373836997N11206902WA0179501795
B1901383836999N11206907WA0179501795
B1901393837000N11206913WA0179501795
B1901403837001N11206918WA0179301793
B1901413837001N11206925WA0179101791
B1901423837000N11206933WA0178701787
B1901433837000N11206940WA0178501785
B1901443836999N11206948WA0178301783
B1901453836999N11206954WA0178101781
B1901463836999N11206961WA0178001780
B1901473837000N11206967WA0177801778
B1901483837000N11206973WA0177701777
B1901493837002N11206979WA0177401774
B1901503837004N11206984WA0177201772
B1901513837006N11206988WA0176901769
B1901523837009N11206991WA0176801768
B1901533837014N11206992WA0176601766
B1901543837017N11206990WA0176501765
B1901553837021N11206986WA0176301763
B1901563837023N11206981WA0176101761
B1901573837024N11206974WA0175901759
B1901583837024N11206968WA0175801758
B1901593837024N11206961WA0175701757
B1902003837023N11206955WA0175701757
B1902013837024N11206949WA0175601756
B1902023837025N11206943WA0175501755
B1902033837027N11206938WA0175401754
B1902043837031N11206936WA0175301753
B1902053837034N11206936WA0175201752
B1902063837037N11206938WA0175001750
B1902073837040N11206943WA0174801748
B1902083837041N11206948WA0174601746
B1902093837042N11206954WA0174501745
B1902103837041N11206960WA0174301743
B1902113837041N11206967WA0174201742
B1902123837041N11206974WA0174101741
B1902133837042N11206981WA0173901739
B1902143837044N11206988WA0173801738
B1902153837046N11206994WA0173601736
B1902163837048N11207000WA0173501735
B1902173837049N11207006WA0173401734
B1902183837051N11207010WA0173301733
B1902193837053N11207014WA0173201732
B1902203837056N11207016WA0173101731
B1902213837059N11207015WA0173001730
B1902223837062N11207013WA0172801728
B1902233837064N11207007WA0172701727
B1902243837065N11207002WA0172501725
B1902253837065N11206997WA0172401724
B1902263837065N11206992WA0172301723
B1902273837065N11206988WA0172101721
B1902283837066N11206983WA0171901719
B1902293837067N11206977WA0171701717
B1902303837067N11206972WA0171401714
B1902313837069N11206967WA0171301713
B1902323837071N11206963WA0171101711
B1902333837073N11206961WA0170901709
B1902343837076N11206961WA0170601706
B1902353837080N11206962WA0170101701
B1902363837083N11206963WA0169901699
B1902373837087N11206965WA0169801698
B1902383837090N11206967WA0169701697
B1902393837093N11206968WA0169601696
B1902403837096N11206967WA0169501695
B1902413837099N11206964WA0169301693
B1902423837101N11206959WA0169301693
B1902433837103N11206954WA0169101691
B1902443837106N11206950WA0168901689
B1902453837109N11206948WA0168701687
B1902463837113N11206949WA0168401684
B1902473837117N11206950WA0168301683
B1902483837119N11206952WA0168301683
B1902493837122N11206954WA0168201682
B1902503837125N11206954WA0168001680
B1902513837128N11206955WA0167701677
B1902523837132N11206954WA0167401674
B1902533837136N11206953WA0167201672
B1902543837140N11206953WA0167101671
B1902553837143N11206953WA0167001670
B1902563837145N11206953WA0166801668
B1902573837147N11206953WA0166701667
B1902583837148N11206953WA0166601666
B1902593837148N11206953WA0166501665
B1903003837149N11206953WA0166401664
B1903013837148N11206953WA0166301663
B1903023837148N11206952WA0166201662
B1903033837148N11206952WA0166101661
B1903043837147N11206952WA0166001660
B1903053837147N11206952WA0166001660
B1903063837147N11206952WA0166101661
B1903073837147N11206951WA0166101661
B1903083837147N11206951WA0166101661
B1903093837147N11206951WA0166201662
B1903103837147N11206951WA0166201662
B1903113837146N11206951WA0166201662
B1903123837146N11206951WA0166201662
B1903133837146N11206951WA0166201662
B1903143837146N11206951WA0166201662
