AXFMFLYMASTER LIVETRACK
HFDTE230926
HFFXA010
HFPLTPILOT:Jaison Ashbaugh
HFGTYGLIDERTYPE:Niviuk Ikuma 3P / Ozone
HFCIDCOMPETITIONID:23
HFDTM100GPSDATUM:WGS-1984
HFRFWFIRMWAREVERSION:lt.flymaster.net bsGetPilotTrack
B1720523832446N11204418WA0340203402
B1720533832446N11204421WA0340103401
B1720543832446N11204425WA0340103401
B1720553832447N11204429WA0340103401
B1720563832447N11204433WA0340003400
B1720573832448N11204438WA0340003400
B1720583832448N11204443WA0339903399
B1720593832448N11204448WA0339903399
B1721003832448N11204452WA0340003400
B1721013832449N11204456WA0340303403
B1721023832450N11204459WA0340503405
B1721033832451N11204462WA0340503405
B1721043832453N11204465WA0340603406
B1721053832456N11204468WA0340703407
B1721063832460N11204471WA0340703407
B1721073832463N11204474WA0340903409
B1721083832466N11204477WA0341003410
B1721093832468N11204480WA0341103411
B1721103832471N11204482WA0341303413
B1721113832475N11204484WA0341303413
B1721123832478N11204486WA0341303413
B1721133832481N11204489WA0341303413
B1721143832484N11204492WA0341303413
B1721153832487N11204496WA0341303413
B1721163832490N11204499WA0341403414
B1721173832493N11204503WA0341503415
B1721183832496N11204507WA0341603416
B1721193832499N11204511WA0341703417
B1721203832501N11204515WA0341803418
B1721213832503N11204519WA0341903419
B1721223832505N11204523WA0342003420
B1721233832508N11204527WA0342103421
B1721243832512N11204529WA0342203422
B1721253832517N11204530WA0342303423
B1721263832522N11204531WA0342403424
B1721273832527N11204532WA0342403424
B1721283832531N11204534WA0342503425
B1721293832534N11204536WA0342503425
B1721303832538N11204539WA0342603426
B1721313832541N11204541WA0342603426
B1721323832544N11204543WA0342603426
B1721333832548N11204546WA0342503425
B1721343832552N11204549WA0342503425
B1721353832556N11204551WA0342503425
B1721363832559N11204554WA0342503425
B1721373832563N11204555WA0342503425
B1721383832566N11204557WA0342603426
B1721393832570N11204558WA0342503425
B1721403832574N11204560WA0342303423
B1721413832578N11204562WA0341903419
B1721423832584N11204565WA0341603416
B1721433832590N11204568WA0341403414
B1721443832595N11204570WA0341403414
B1721453832599N11204573WA0341303413
B1721463832604N11204575WA0341303413
B1721473832608N11204578WA0341103411
B1721483832613N11204581WA0341003410
B1721493832618N11204585WA0340803408
B1721503832622N11204589WA0340803408
B1721513832627N11204591WA0340703407
B1721523832632N11204593WA0340603406
B1721533832638N11204594WA0340503405
B1721543832643N11204596WA0340203402
B1721553832649N11204599WA0339903399
B1721563832655N11204601WA0339803398
B1721573832661N11204604WA0339603396
B1721583832667N11204605WA0339503395
B1721593832672N11204607WA0339403394
B1722003832678N11204609WA0339203392
B1722013832684N11204611WA0339103391
B1722023832690N11204613WA0338903389
B1722033832696N11204614WA0338803388
B1722043832703N11204615WA0338703387
B1722053832709N11204615WA0338603386
B1722063832715N11204613WA0338503385
B1722073832721N11204610WA0338403384
B1722083832727N11204604WA0338103381
B1722093832732N11204597WA0337803378
B1722103832735N11204589WA0337703377
B1722113832736N11204580WA0337603376
B1722123832735N11204572WA0337403374
B1722133832732N11204564WA0337203372
B1722143832728N11204559WA0337003370
B1722153832723N11204556WA0336803368
B1722163832717N11204557WA0336503365
B1722173832712N11204560WA0336203362
B1722183832708N11204564WA0336103361
B1722193832706N11204567WA0336103361
B1722203832704N11204570WA0336203362
B1722213832702N11204573WA0336103361
B1722223832700N11204575WA0336003360
B1722233832697N11204579WA0335703357
B1722243832695N11204583WA0335403354
B1722253832693N11204587WA0335103351
B1722263832692N11204592WA0335003350
B1722273832692N11204597WA0334803348
B1722283832694N11204601WA0334603346
B1722293832696N11204606WA0334403344
B1722303832698N11204610WA0334203342
B1722313832701N11204614WA0334003340
B1722323832704N11204617WA0333903339
B1722333832708N11204620WA0333703337
B1722343832712N11204623WA0333503335
B1722353832716N11204625WA0333403334
B1722363832721N11204627WA0333203332
B1722373832726N11204629WA0333103331
B1722383832731N11204630WA0332903329
B1722393832737N11204632WA0332803328
B1722403832742N11204634WA0332703327
B1722413832747N11204636WA0332603326
B1722423832751N11204638WA0332503325
B1722433832756N11204641WA0332303323
B1722443832760N11204644WA0332103321
B1722453832764N11204648WA0332003320
B1722463832769N11204651WA0331803318
B1722473832773N11204654WA0331803318
B1722483832777N11204657WA0331803318
B1722493832782N11204658WA0331703317
B1722503832786N11204660WA0331603316
B1722513832791N11204663WA0331403314
B1722523832795N11204667WA0331203312
B1722533832798N11204671WA0331003310
B1722543832801N11204675WA0330903309
B1722553832803N11204680WA0330803308
B1722563832806N11204685WA0330703307
B1722573832808N11204690WA0330603306
B1722583832809N11204696WA0330603306
B1722593832810N11204701WA0330503305
B1723003832812N11204707WA0330403304
B1723013832813N11204713WA0330403304
B1723023832815N11204718WA0330403304
B1723033832817N11204723WA0330303303
B1723043832818N11204728WA0330203302
B1723053832820N11204733WA0330103301
B1723063832822N11204738WA0330003300
B1723073832824N11204744WA0329903299
B1723083832825N11204749WA0329803298
B1723093832827N11204754WA0329703297
B1723103832828N11204759WA0329603296
B1723113832830N11204763WA0329503295
B1723123832832N11204768WA0329403294
B1723133832834N11204772WA0329303293
B1723143832836N11204777WA0329203292
B1723153832837N11204782WA0329203292
B1723163832839N11204787WA0329103291
B1723173832841N11204792WA0329003290
B1723183832843N11204797WA0328903289
B1723193832845N11204802WA0328803288
B1723203832847N11204807WA0328703287
B1723213832849N11204812WA0328603286
B1723223832850N11204816WA0328603286
B1723233832852N11204820WA0328503285
B1723243832854N11204825WA0328403284
B1723253832857N11204829WA0328203282
B1723263832859N11204834WA0328103281
B1723273832861N11204840WA0327903279
B1723283832863N11204845WA0327803278
B1723293832864N11204851WA0327603276
B1723303832866N11204857WA0327503275
B1723313832868N11204863WA0327503275
B1723323832869N11204868WA0327503275
B1723333832871N11204874WA0327603276
B1723343832873N11204878WA0327703277
B1723353832875N11204883WA0327803278
B1723363832877N11204888WA0327803278
B1723373832878N11204893WA0327703277
B1723383832879N11204898WA0327603276
B1723393832880N11204904WA0327403274
B1723403832880N11204909WA0327303273
B1723413832880N11204914WA0327203272
B1723423832880N11204920WA0327103271
B1723433832880N11204926WA0327003270
B1723443832881N11204932WA0326903269
B1723453832882N11204937WA0326903269
B1723463832883N11204943WA0326803268
B1723473832885N11204948WA0326803268
B1723483832887N11204953WA0326703267
B1723493832890N11204958WA0326703267
B1723503832893N11204963WA0326603266
B1723513832896N11204968WA0326503265
B1723523832899N11204973WA0326503265
B1723533832902N11204978WA0326403264
B1723543832905N11204984WA0326303263
B1723553832908N11204990WA0326203262
B1723563832912N11204995WA0326203262
B1723573832915N11205001WA0326103261
B1723583832918N11205006WA0326003260
B1723593832921N11205012WA0325903259
B1724003832924N11205017WA0325803258
B1724013832927N11205023WA0325703257
B1724023832930N11205028WA0325603256
B1724033832932N11205033WA0325603256
B1724043832935N11205038WA0325503255
B1724053832938N11205043WA0325403254
B1724063832941N11205048WA0325303253
B1724073832945N11205054WA0325103251
B1724083832948N11205059WA0325003250
B1724093832951N11205064WA0324903249
B1724103832954N11205069WA0324903249
B1724113832956N11205073WA0324803248
B1724123832958N11205078WA0324603246
B1724133832961N11205084WA0324403244
B1724143832965N11205088WA0324203242
B1724153832969N11205093WA0324003240
B1724163832974N11205097WA0323903239
B1724173832978N11205100WA0323803238
B1724183832982N11205104WA0323703237
B1724193832987N11205107WA0323503235
B1724203832992N11205111WA0323303233
B1724213832997N11205115WA0323103231
B1724223833002N11205118WA0323003230
B1724233833008N11205121WA0322903229
B1724243833013N11205124WA0322703227
B1724253833018N11205127WA0322603226
B1724263833024N11205130WA0322503225
B1724273833030N11205133WA0322303223
B1724283833035N11205136WA0322203222
B1724293833040N11205139WA0322103221
B1724303833045N11205143WA0322003220
B1724313833049N11205147WA0321903219
B1724323833052N11205150WA0321903219
B1724333833056N11205154WA0321803218
B1724343833061N11205157WA0321603216
B1724353833065N11205161WA0321403214
B1724363833070N11205165WA0321203212
B1724373833074N11205169WA0321103211
B1724383833078N11205172WA0321003210
B1724393833082N11205176WA0320903209
B1724403833087N11205179WA0320903209
B1724413833091N11205183WA0320803208
B1724423833096N11205187WA0320703207
B1724433833101N11205190WA0320603206
B1724443833106N11205194WA0320503205
B1724453833110N11205198WA0320403204
B1724463833116N11205202WA0320303203
B1724473833121N11205206WA0320103201
B1724483833127N11205209WA0320103201
B1724493833132N11205212WA0320003200
B1724503833138N11205214WA0320003200
B1724513833144N11205215WA0319803198
B1724523833150N11205216WA0319703197
B1724533833157N11205217WA0319403194
B1724543833164N11205217WA0319203192
B1724553833171N11205217WA0319103191
B1724563833178N11205218WA0318903189
B1724573833184N11205218WA0318803188
B1724583833191N11205219WA0318603186
B1724593833198N11205221WA0318503185
B1725003833204N11205223WA0318403184
B1725013833211N11205224WA0318303183
B1725023833217N11205226WA0318203182
B1725033833223N11205228WA0318003180
B1725043833230N11205230WA0317903179
B1725053833236N11205233WA0317703177
B1725063833242N11205235WA0317603176
B1725073833248N11205238WA0317503175
B1725083833254N11205241WA0317303173
B1725093833260N11205245WA0317203172
B1725103833265N11205248WA0317203172
B1725113833270N11205251WA0317203172
B1725123833275N11205255WA0317103171
B1725133833280N11205259WA0317003170
B1725143833284N11205263WA0316803168
B1725153833289N11205268WA0316703167
B1725163833294N11205272WA0316603166
B1725173833298N11205277WA0316503165
B1725183833303N11205281WA0316503165
B1725193833307N11205284WA0316403164
B1725203833312N11205288WA0316203162
B1725213833318N11205292WA0316103161
B1725223833323N11205296WA0316003160
B1725233833327N11205300WA0315903159
B1725243833331N11205304WA0315903159
B1725253833335N11205307WA0315903159
B1725263833339N11205311WA0315803158
B1725273833344N11205315WA0315703157
B1725283833348N11205319WA0315603156
B1725293833352N11205323WA0315503155
B1725303833357N11205326WA0315403154
B1725313833362N11205330WA0315303153
B1725323833366N11205334WA0315203152
B1725333833371N11205338WA0315103151
B1725343833376N11205341WA0315103151
B1725353833380N11205345WA0315003150
B1725363833385N11205348WA0314903149
B1725373833389N11205352WA0314803148
B1725383833394N11205356WA0314703147
B1725393833399N11205360WA0314703147
B1725403833404N11205364WA0314603146
B1725413833408N11205367WA0314503145
B1725423833413N11205371WA0314503145
B1725433833417N11205375WA0314403144
B1725443833422N11205379WA0314303143
B1725453833426N11205383WA0314203142
B1725463833431N11205388WA0314103141
B1725473833435N11205392WA0314003140
B1725483833438N11205397WA0314003140
B1725493833442N11205401WA0313903139
B1725503833446N11205405WA0313903139
B1725513833450N11205409WA0313803138
B1725523833454N11205413WA0313803138
B1725533833458N11205417WA0313703137
B1725543833462N11205420WA0313703137
B1725553833467N11205423WA0313703137
B1725563833471N11205427WA0313603136
B1725573833476N11205430WA0313503135
B1725583833481N11205433WA0313403134
B1725593833485N11205437WA0313403134
B1726003833490N11205440WA0313303133
B1726013833496N11205443WA0313303133
B1726023833501N11205446WA0313203132
B1726033833506N11205449WA0313103131
B1726043833511N11205452WA0313003130
B1726053833517N11205455WA0312903129
B1726063833522N11205458WA0312803128
B1726073833527N11205461WA0312703127
B1726083833532N11205464WA0312703127
B1726093833538N11205467WA0312603126
B1726103833543N11205471WA0312503125
B1726113833549N11205474WA0312503125
B1726123833554N11205477WA0312503125
B1726133833560N11205480WA0312503125
B1726143833565N11205483WA0312503125
B1726153833570N11205487WA0312503125
B1726163833575N11205490WA0312403124
B1726173833580N11205493WA0312303123
B1726183833585N11205497WA0312303123
B1726193833590N11205501WA0312203122
B1726203833595N11205504WA0312203122
B1726213833599N11205508WA0312103121
B1726223833604N11205511WA0312003120
B1726233833609N11205515WA0311903119
B1726243833614N11205519WA0311703117
B1726253833619N11205523WA0311603116
B1726263833624N11205527WA0311603116
B1726273833628N11205532WA0311603116
B1726283833633N11205535WA0311603116
B1726293833637N11205539WA0311603116
B1726303833642N11205542WA0311503115
B1726313833647N11205546WA0311403114
B1726323833651N11205549WA0311203112
B1726333833656N11205553WA0311103111
B1726343833661N11205557WA0311003110
B1726353833665N11205561WA0310903109
B1726363833669N11205565WA0310803108
B1726373833673N11205569WA0310703107
B1726383833678N11205574WA0310603106
B1726393833682N11205578WA0310503105
B1726403833686N11205582WA0310503105
B1726413833690N11205586WA0310503105
B1726423833695N11205589WA0310403104
B1726433833700N11205592WA0310403104
B1726443833705N11205595WA0310403104
B1726453833710N11205597WA0310403104
B1726463833716N11205600WA0310303103
B1726473833721N11205603WA0310303103
B1726483833727N11205605WA0310303103
B1726493833732N11205608WA0310303103
B1726503833738N11205610WA0310303103
B1726513833743N11205613WA0310303103
B1726523833749N11205616WA0310303103
B1726533833755N11205619WA0310203102
B1726543833760N11205621WA0310203102
B1726553833766N11205623WA0310203102
B1726563833773N11205626WA0310203102
B1726573833779N11205628WA0310103101
B1726583833785N11205630WA0310103101
B1726593833791N11205631WA0310003100
B1727003833797N11205632WA0309903099
B1727013833803N11205633WA0309803098
B1727023833810N11205635WA0309703097
B1727033833816N11205637WA0309603096
B1727043833822N11205639WA0309503095
B1727053833828N11205641WA0309403094
B1727063833833N11205643WA0309303093
B1727073833839N11205646WA0309103091
B1727083833845N11205648WA0309003090
B1727093833851N11205651WA0308903089
B1727103833856N11205653WA0308803088
B1727113833862N11205656WA0308803088
B1727123833867N11205659WA0308603086
B1727133833873N11205662WA0308503085
B1727143833879N11205665WA0308203082
B1727153833886N11205667WA0308003080
B1727163833892N11205670WA0307803078
B1727173833899N11205673WA0307703077
B1727183833905N11205676WA0307603076
B1727193833910N11205678WA0307603076
B1727203833916N11205680WA0307503075
B1727213833922N11205683WA0307303073
B1727223833928N11205686WA0307203072
B1727233833934N11205688WA0307103071
B1727243833940N11205690WA0307003070
B1727253833946N11205692WA0306903069
B1727263833952N11205694WA0306803068
B1727273833959N11205696WA0306703067
B1727283833965N11205698WA0306603066
B1727293833971N11205701WA0306403064
B1727303833978N11205704WA0306203062
B1727313833984N11205708WA0306103061
B1727323833989N11205711WA0306003060
B1727333833995N11205713WA0306003060
B1727343834002N11205715WA0305903059
B1727353834008N11205716WA0305703057
B1727363834015N11205718WA0305503055
B1727373834022N11205719WA0305403054
B1727383834029N11205721WA0305203052
B1727393834035N11205722WA0305003050
B1727403834041N11205724WA0304903049
B1727413834048N11205725WA0304803048
B1727423834054N11205727WA0304703047
B1727433834060N11205727WA0304703047
B1727443834066N11205728WA0304603046
B1727453834072N11205729WA0304403044
B1727463834079N11205730WA0304203042
B1727473834086N11205731WA0304103041
B1727483834093N11205733WA0303903039
B1727493834099N11205734WA0303803038
B1727503834106N11205736WA0303703037
B1727513834112N11205737WA0303703037
B1727523834119N11205739WA0303603036
B1727533834125N11205741WA0303403034
B1727543834132N11205743WA0303303033
B1727553834139N11205745WA0303203032
B1727563834145N11205748WA0303103031
B1727573834152N11205749WA0303003030
B1727583834159N11205751WA0303003030
B1727593834166N11205753WA0302903029
B1728003834173N11205755WA0302803028
B1728013834179N11205758WA0302703027
B1728023834186N11205760WA0302703027
B1728033834192N11205762WA0302603026
B1728043834199N11205764WA0302603026
B1728053834205N11205766WA0302503025
B1728063834212N11205768WA0302403024
B1728073834218N11205771WA0302203022
B1728083834225N11205773WA0302103021
B1728093834232N11205775WA0302003020
B1728103834238N11205778WA0301903019
B1728113834244N11205780WA0301803018
B1728123834250N11205783WA0301703017
B1728133834256N11205786WA0301503015
B1728143834263N11205789WA0301403014
B1728153834269N11205791WA0301203012
B1728163834276N11205794WA0301103011
B1728173834282N11205796WA0301003010
B1728183834289N11205798WA0300903009
B1728193834295N11205801WA0300803008
B1728203834302N11205803WA0300603006
B1728213834308N11205806WA0300503005
B1728223834315N11205808WA0300503005
B1728233834321N11205811WA0300403004
B1728243834327N11205813WA0300303003
B1728253834333N11205816WA0300203002
B1728263834339N11205818WA0300003000
B1728273834345N11205821WA0299902999
B1728283834351N11205824WA0299902999
B1728293834357N11205827WA0299802998
B1728303834362N11205830WA0299702997
B1728313834368N11205833WA0299602996
B1728323834374N11205836WA0299502995
B1728333834379N11205840WA0299402994
B1728343834385N11205843WA0299302993
B1728353834390N11205847WA0299202992
B1728363834396N11205851WA0299102991
B1728373834401N11205854WA0299002990
B1728383834407N11205857WA0298902989
B1728393834412N11205861WA0298802988
B1728403834418N11205864WA0298602986
B1728413834425N11205867WA0298502985
B1728423834431N11205870WA0298502985
B1728433834437N11205872WA0298402984
B1728443834443N11205875WA0298302983
B1728453834449N11205878WA0298102981
B1728463834456N11205882WA0297902979
B1728473834462N11205886WA0297802978
B1728483834468N11205890WA0297602976
B1728493834473N11205894WA0297502975
B1728503834479N11205897WA0297402974
B1728513834485N11205901WA0297302973
B1728523834491N11205905WA0297102971
B1728533834497N11205908WA0297002970
B1728543834503N11205910WA0296902969
B1728553834509N11205912WA0296802968
B1728563834515N11205915WA0296702967
B1728573834522N11205917WA0296602966
B1728583834528N11205919WA0296402964
B1728593834534N11205922WA0296302963
B1729003834541N11205924WA0296102961
B1729013834547N11205927WA0296002960
B1729023834554N11205929WA0295902959
B1729033834560N11205931WA0295802958
B1729043834566N11205933WA0295602956
B1729053834573N11205936WA0295502955
B1729063834579N11205938WA0295302953
B1729073834586N11205941WA0295202952
B1729083834592N11205943WA0295102951
B1729093834599N11205945WA0295102951
B1729103834605N11205947WA0295002950
B1729113834612N11205948WA0294902949
B1729123834619N11205950WA0294802948
B1729133834626N11205951WA0294702947
B1729143834633N11205951WA0294602946
B1729153834640N11205952WA0294602946
B1729163834646N11205952WA0294502945
B1729173834653N11205953WA0294402944
B1729183834661N11205954WA0294202942
B1729193834668N11205955WA0294102941
B1729203834675N11205956WA0294102941
B1729213834681N11205957WA0294102941
B1729223834687N11205959WA0294002940
B1729233834693N11205960WA0293902939
B1729243834700N11205961WA0293802938
B1729253834707N11205961WA0293502935
B1729263834714N11205960WA0293402934
B1729273834721N11205959WA0293302933
B1729283834728N11205959WA0293202932
B1729293834735N11205958WA0293102931
B1729303834742N11205958WA0293002930
B1729313834749N11205959WA0293002930
B1729323834756N11205959WA0293002930
B1729333834762N11205961WA0293002930
B1729343834767N11205963WA0293102931
B1729353834772N11205965WA0293102931
B1729363834778N11205968WA0293002930
B1729373834784N11205971WA0292902929
B1729383834789N11205975WA0292702927
B1729393834795N11205979WA0292702927
B1729403834801N11205982WA0292702927
B1729413834806N11205985WA0292802928
B1729423834812N11205989WA0292802928
B1729433834817N11205992WA0292702927
B1729443834824N11205994WA0292702927
B1729453834830N11205996WA0292702927
B1729463834836N11205997WA0292802928
B1729473834843N11205998WA0292902929
B1729483834848N11205997WA0293002930
B1729493834855N11205995WA0293002930
B1729503834861N11205991WA0293102931
B1729513834866N11205986WA0293102931
B1729523834871N11205981WA0293102931
B1729533834874N11205974WA0293102931
B1729543834876N11205967WA0293102931
B1729553834877N11205961WA0293102931
B1729563834876N11205954WA0293002930
B1729573834874N11205948WA0293002930
B1729583834872N11205944WA0293102931
B1729593834868N11205941WA0293102931
B1730003834864N11205940WA0293102931
B1730013834860N11205940WA0293202932
B1730023834857N11205943WA0293202932
B1730033834854N11205947WA0293102931
B1730043834852N11205952WA0293002930
B1730053834852N11205958WA0293102931
B1730063834852N11205963WA0293202932
B1730073834853N11205968WA0293402934
B1730083834855N11205973WA0293402934
B1730093834857N11205979WA0293402934
B1730103834860N11205984WA0293402934
B1730113834864N11205989WA0293402934
B1730123834869N11205994WA0293502935
B1730133834874N11205997WA0293502935
B1730143834880N11206000WA0293602936
B1730153834886N11206001WA0293602936
B1730163834893N11206001WA0293702937
B1730173834900N11206001WA0293702937
B1730183834907N11205999WA0293602936
B1730193834914N11205996WA0293602936
B1730203834920N11205992WA0293502935
B1730213834926N11205987WA0293502935
B1730223834930N11205981WA0293402934
B1730233834933N11205974WA0293302933
B1730243834935N11205967WA0293202932
B1730253834936N11205959WA0293002930
B1730263834935N11205952WA0292902929
B1730273834933N11205947WA0292802928
B1730283834929N11205943WA0292602926
B1730293834925N11205941WA0292602926
B1730303834921N11205941WA0292502925
B1730313834917N11205941WA0292502925
B1730323834914N11205943WA0292602926
B1730333834911N11205946WA0292502925
B1730343834909N11205949WA0292502925
B1730353834907N11205952WA0292502925
B1730363834905N11205956WA0292502925
B1730373834903N11205959WA0292602926
B1730383834902N11205963WA0292602926
B1730393834900N11205967WA0292502925
B1730403834899N11205971WA0292502925
B1730413834897N11205975WA0292402924
B1730423834896N11205980WA0292402924
B1730433834894N11205984WA0292402924
B1730443834893N11205988WA0292302923
B1730453834890N11205991WA0292202922
B1730463834888N11205994WA0292102921
B1730473834885N11205997WA0292002920
B1730483834881N11206000WA0291802918
B1730493834878N11206003WA0291602916
B1730503834874N11206006WA0291502915
B1730513834871N11206009WA0291402914
B1730523834867N11206012WA0291302913
B1730533834864N11206014WA0291302913
B1730543834860N11206017WA0291202912
B1730553834857N11206019WA0291102911
B1730563834853N11206022WA0291002910
B1730573834849N11206025WA0290802908
B1730583834845N11206028WA0290602906
B1730593834842N11206032WA0290402904
B1731003834838N11206035WA0290302903
B1731013834834N11206038WA0290102901
B1731023834830N11206041WA0290002900
B1731033834826N11206044WA0289902899
B1731043834822N11206047WA0289802898
B1731053834817N11206049WA0289802898
B1731063834813N11206051WA0289802898
B1731073834809N11206054WA0289702897
B1731083834805N11206056WA0289702897
B1731093834802N11206059WA0289602896
B1731103834798N11206063WA0289602896
B1731113834795N11206067WA0289502895
B1731123834793N11206073WA0289402894
B1731133834791N11206079WA0289302893
B1731143834789N11206086WA0289202892
B1731153834789N11206093WA0289202892
B1731163834789N11206100WA0289202892
B1731173834791N11206107WA0289202892
B1731183834793N11206113WA0289102891
B1731193834797N11206120WA0288902889
B1731203834802N11206125WA0288802888
B1731213834807N11206128WA0288802888
B1731223834813N11206130WA0288802888
B1731233834819N11206130WA0288802888
B1731243834824N11206128WA0288702887
B1731253834829N11206126WA0288602886
B1731263834833N11206121WA0288302883
B1731273834837N11206117WA0288102881
B1731283834842N11206112WA0288002880
B1731293834846N11206108WA0287902879
B1731303834850N11206104WA0287902879
B1731313834854N11206100WA0287802878
B1731323834858N11206096WA0287702877
B1731333834862N11206091WA0287702877
B1731343834865N11206086WA0287602876
B1731353834868N11206081WA0287702877
B1731363834870N11206077WA0287802878
B1731373834873N11206074WA0287802878
B1731383834876N11206070WA0287602876
B1731393834880N11206065WA0287302873
B1731403834886N11206060WA0286902869
B1731413834892N11206057WA0286802868
B1731423834898N11206055WA0286702867
B1731433834904N11206054WA0286602866
B1731443834910N11206054WA0286502865
B1731453834917N11206056WA0286302863
B1731463834923N11206057WA0286102861
B1731473834930N11206059WA0285902859
B1731483834936N11206061WA0285902859
B1731493834942N11206064WA0286002860
B1731503834947N11206067WA0286002860
B1731513834952N11206070WA0285902859
B1731523834958N11206073WA0285802858
B1731533834964N11206075WA0285702857
B1731543834969N11206078WA0285702857
B1731553834974N11206081WA0285602856
B1731563834978N11206084WA0285302853
B1731573834984N11206087WA0285002850
B1731583834989N11206091WA0284602846
B1731593834995N11206095WA0284202842
B1732003835001N11206100WA0283802838
B1732013835007N11206104WA0283602836
B1732023835012N11206109WA0283402834
B1732033835018N11206113WA0283402834
B1732043835023N11206117WA0283402834
B1732053835027N11206121WA0283402834
B1732063835031N11206124WA0283502835
B1732073835035N11206127WA0283502835
B1732083835039N11206131WA0283402834
B1732093835044N11206135WA0283302833
B1732103835049N11206139WA0283202832
B1732113835054N11206143WA0283102831
B1732123835058N11206147WA0283102831
B1732133835062N11206151WA0283102831
B1732143835066N11206155WA0283102831
B1732153835070N11206159WA0283002830
B1732163835074N11206163WA0282802828
B1732173835078N11206168WA0282702827
B1732183835082N11206172WA0282602826
B1732193835087N11206177WA0282502825
B1732203835091N11206181WA0282502825
B1732213835096N11206185WA0282502825
B1732223835100N11206189WA0282402824
B1732233835105N11206193WA0282302823
B1732243835110N11206197WA0282202822
B1732253835114N11206201WA0282102821
B1732263835119N11206205WA0282002820
B1732273835124N11206209WA0282002820
B1732283835129N11206212WA0281902819
B1732293835134N11206216WA0281902819
B1732303835139N11206219WA0281702817
B1732313835145N11206223WA0281602816
B1732323835150N11206226WA0281502815
B1732333835155N11206230WA0281402814
B1732343835161N11206233WA0281302813
B1732353835165N11206237WA0281202812
B1732363835170N11206241WA0281202812
B1732373835175N11206245WA0281102811
B1732383835180N11206248WA0281002810
B1732393835185N11206252WA0280902809
B1732403835190N11206256WA0280802808
B1732413835195N11206260WA0280702807
B1732423835200N11206264WA0280602806
B1732433835205N11206267WA0280502805
B1732443835210N11206271WA0280402804
B1732453835215N11206275WA0280302803
B1732463835220N11206279WA0280202802
B1732473835224N11206283WA0280202802
B1732483835229N11206286WA0280002800
B1732493835234N11206290WA0279902799
B1732503835239N11206293WA0279802798
B1732513835244N11206297WA0279702797
B1732523835249N11206301WA0279602796
B1732533835254N11206305WA0279502795
B1732543835259N11206309WA0279402794
B1732553835264N11206313WA0279302793
B1732563835268N11206316WA0279102791
B1732573835273N11206320WA0279002790
B1732583835278N11206324WA0278902789
B1732593835283N11206328WA0278802788
B1733003835288N11206331WA0278702787
B1733013835293N11206335WA0278502785
B1733023835298N11206339WA0278402784
B1733033835303N11206343WA0278302783
B1733043835308N11206347WA0278202782
B1733053835313N11206351WA0278102781
B1733063835318N11206354WA0278002780
B1733073835324N11206358WA0277902779
B1733083835329N11206361WA0277802778
B1733093835334N11206365WA0277702777
B1733103835339N11206368WA0277602776
B1733113835344N11206372WA0277502775
B1733123835350N11206375WA0277402774
B1733133835355N11206378WA0277302773
B1733143835360N11206382WA0277202772
B1733153835365N11206386WA0277102771
B1733163835370N11206389WA0276902769
B1733173835376N11206393WA0276802768
B1733183835380N11206397WA0276702767
B1733193835385N11206401WA0276602766
B1733203835389N11206405WA0276502765
B1733213835394N11206410WA0276402764
B1733223835398N11206414WA0276302763
B1733233835402N11206418WA0276202762
B1733243835406N11206423WA0276102761
B1733253835411N11206427WA0276002760
B1733263835415N11206431WA0275902759
B1733273835419N11206435WA0275702757
B1733283835424N11206438WA0275502755
B1733293835429N11206442WA0275402754
B1733303835434N11206446WA0275202752
B1733313835439N11206449WA0275102751
B1733323835444N11206453WA0275002750
B1733333835449N11206456WA0274802748
B1733343835454N11206459WA0274702747
B1733353835460N11206462WA0274602746
B1733363835465N11206466WA0274502745
B1733373835470N11206469WA0274402744
B1733383835475N11206472WA0274302743
B1733393835480N11206475WA0274102741
B1733403835486N11206478WA0274002740
B1733413835492N11206479WA0273902739
B1733423835499N11206477WA0273802738
B1733433835505N11206475WA0273702737
B1733443835512N11206470WA0273502735
B1733453835518N11206465WA0273502735
B1733463835523N11206459WA0273402734
B1733473835527N11206452WA0273202732
B1733483835531N11206444WA0273102731
B1733493835535N11206436WA0273002730
B1733503835538N11206427WA0272802728
B1733513835540N11206419WA0272702727
B1733523835541N11206410WA0272602726
B1733533835543N11206401WA0272502725
B1733543835544N11206392WA0272302723
B1733553835546N11206383WA0272202722
B1733563835547N11206375WA0272102721
B1733573835548N11206366WA0272002720
B1733583835549N11206357WA0271902719
B1733593835551N11206349WA0271802718
B1734003835552N11206340WA0271702717
B1734013835553N11206331WA0271602716
B1734023835555N11206322WA0271502715
B1734033835556N11206313WA0271402714
B1734043835558N11206304WA0271302713
B1734053835559N11206296WA0271102711
B1734063835561N11206287WA0271002710
B1734073835562N11206278WA0270902709
B1734083835564N11206269WA0270802708
B1734093835565N11206260WA0270702707
B1734103835567N11206251WA0270602706
B1734113835568N11206242WA0270502705
B1734123835569N11206234WA0270402704
B1734133835570N11206225WA0270302703
B1734143835569N11206217WA0270102701
B1734153835568N11206209WA0270002700
B1734163835565N11206202WA0269902699
B1734173835561N11206197WA0269802698
B1734183835557N11206193WA0269602696
B1734193835553N11206191WA0269502695
B1734203835549N11206190WA0269402694
B1734213835545N11206191WA0269202692
B1734223835541N11206193WA0269002690
B1734233835539N11206198WA0268802688
B1734243835537N11206202WA0268702687
B1734253835536N11206207WA0268502685
B1734263835536N11206212WA0268502685
B1734273835537N11206217WA0268402684
B1734283835539N11206222WA0268302683
B1734293835541N11206227WA0268102681
B1734303835543N11206232WA0268002680
B1734313835546N11206237WA0267802678
B1734323835550N11206242WA0267702677
B1734333835553N11206246WA0267602676
B1734343835558N11206249WA0267502675
B1734353835562N11206253WA0267402674
B1734363835567N11206256WA0267302673
B1734373835571N11206260WA0267202672
B1734383835575N11206264WA0267102671
B1734393835579N11206267WA0267002670
B1734403835584N11206270WA0266902669
B1734413835589N11206273WA0266802668
B1734423835594N11206276WA0266702667
B1734433835599N11206279WA0266602666
B1734443835604N11206282WA0266402664
B1734453835609N11206285WA0266302663
B1734463835614N11206287WA0266202662
B1734473835619N11206290WA0266102661
B1734483835624N11206293WA0266002660
B1734493835629N11206295WA0265902659
B1734503835634N11206298WA0265802658
B1734513835638N11206301WA0265702657
B1734523835643N11206304WA0265602656
B1734533835648N11206307WA0265502655
B1734543835652N11206311WA0265302653
B1734553835657N11206314WA0265202652
B1734563835661N11206317WA0265102651
B1734573835667N11206319WA0265002650
B1734583835672N11206320WA0264902649
B1734593835678N11206319WA0264802648
B1735003835684N11206318WA0264702647
B1735013835690N11206317WA0264602646
B1735023835696N11206316WA0264402644
B1735033835702N11206314WA0264302643
B1735043835708N11206313WA0264202642
B1735053835714N11206312WA0264102641
B1735063835721N11206310WA0264002640
B1735073835727N11206308WA0263802638
B1735083835733N11206307WA0263702637
B1735093835739N11206305WA0263702637
B1735103835745N11206303WA0263602636
B1735113835750N11206301WA0263502635
B1735123835756N11206299WA0263402634
B1735133835762N11206297WA0263202632
B1735143835768N11206294WA0263102631
B1735153835774N11206292WA0263002630
B1735163835779N11206287WA0262902629
B1735173835784N11206283WA0262802628
B1735183835789N11206277WA0262602626
B1735193835793N11206270WA0262502625
B1735203835797N11206264WA0262402624
B1735213835801N11206257WA0262302623
B1735223835804N11206250WA0262202622
B1735233835807N11206243WA0262102621
B1735243835809N11206236WA0262002620
B1735253835811N11206228WA0261902619
B1735263835813N11206221WA0261802618
B1735273835815N11206213WA0261702617
B1735283835816N11206205WA0261602616
B1735293835817N11206197WA0261402614
B1735303835818N11206189WA0261302613
B1735313835820N11206182WA0261302613
B1735323835821N11206174WA0261202612
B1735333835822N11206167WA0261102611
B1735343835823N11206159WA0260902609
B1735353835825N11206151WA0260802608
B1735363835827N11206143WA0260702607
B1735373835829N11206135WA0260602606
B1735383835831N11206128WA0260502605
B1735393835833N11206121WA0260402604
B1735403835835N11206114WA0260302603
B1735413835837N11206107WA0260202602
B1735423835839N11206099WA0260102601
B1735433835841N11206092WA0259902599
B1735443835843N11206084WA0259802598
B1735453835844N11206077WA0259702597
B1735463835845N11206069WA0259602596
B1735473835846N11206062WA0259502595
B1735483835847N11206054WA0259402594
B1735493835848N11206046WA0259202592
B1735503835848N11206038WA0259102591
B1735513835849N11206030WA0259002590
B1735523835849N11206022WA0258902589
B1735533835850N11206014WA0258802588
B1735543835850N11206007WA0258702587
B1735553835850N11205999WA0258502585
B1735563835850N11205991WA0258402584
B1735573835849N11205983WA0258302583
B1735583835849N11205975WA0258202582
B1735593835849N11205967WA0258102581
B1736003835849N11205959WA0258002580
B1736013835849N11205951WA0257802578
B1736023835849N11205943WA0257702577
B1736033835849N11205936WA0257602576
B1736043835850N11205928WA0257502575
B1736053835853N11205922WA0257402574
B1736063835856N11205916WA0257202572
B1736073835861N11205911WA0256902569
B1736083835866N11205907WA0256802568
B1736093835871N11205905WA0256702567
B1736103835876N11205904WA0256602566
B1736113835881N11205903WA0256502565
B1736123835886N11205904WA0256402564
B1736133835891N11205905WA0256302563
B1736143835897N11205906WA0256102561
B1736153835902N11205908WA0256002560
B1736163835907N11205909WA0255802558
B1736173835912N11205911WA0255702557
B1736183835917N11205912WA0255602556
B1736193835921N11205915WA0255502555
B1736203835926N11205918WA0255402554
B1736213835930N11205921WA0255202552
B1736223835935N11205924WA0255102551
B1736233835940N11205926WA0254902549
B1736243835944N11205929WA0254802548
B1736253835948N11205933WA0254702547
B1736263835952N11205937WA0254602546
B1736273835956N11205940WA0254402544
B1736283835961N11205944WA0254302543
B1736293835965N11205947WA0254102541
B1736303835969N11205951WA0254002540
B1736313835973N11205954WA0253902539
B1736323835977N11205958WA0253802538
B1736333835981N11205962WA0253602536
B1736343835985N11205965WA0253502535
B1736353835989N11205968WA0253302533
B1736363835994N11205972WA0253202532
B1736373835998N11205975WA0253102531
B1736383836002N11205978WA0252902529
B1736393836006N11205982WA0252802528
B1736403836010N11205985WA0252602526
B1736413836015N11205988WA0252502525
B1736423836019N11205992WA0252302523
B1736433836023N11205995WA0252202522
B1736443836028N11205997WA0252102521
B1736453836033N11206000WA0252002520
B1736463836037N11206002WA0251902519
B1736473836042N11206004WA0251802518
B1736483836046N11206007WA0251602516
B1736493836051N11206009WA0251502515
B1736503836056N11206012WA0251402514
B1736513836060N11206014WA0251302513
B1736523836064N11206018WA0251202512
B1736533836069N11206021WA0251102511
B1736543836073N11206024WA0251002510
B1736553836077N11206028WA0250902509
B1736563836081N11206031WA0250802508
B1736573836085N11206035WA0250702507
B1736583836089N11206039WA0250502505
B1736593836093N11206042WA0250402504
B1737003836098N11206045WA0250302503
B1737013836102N11206047WA0250202502
B1737023836106N11206050WA0250102501
B1737033836110N11206054WA0249902499
B1737043836114N11206057WA0249802498
B1737053836119N11206061WA0249602496
B1737063836123N11206065WA0249502495
B1737073836127N11206068WA0249402494
B1737083836130N11206072WA0249302493
B1737093836134N11206076WA0249202492
B1737103836137N11206080WA0249102491
B1737113836141N11206083WA0249002490
B1737123836145N11206086WA0248802488
B1737133836150N11206087WA0248702487
B1737143836155N11206088WA0248602486
B1737153836159N11206090WA0248402484
B1737163836164N11206093WA0248302483
B1737173836168N11206095WA0248102481
B1737183836173N11206098WA0248002480
B1737193836178N11206100WA0247902479
B1737203836182N11206103WA0247802478
B1737213836187N11206105WA0247602476
B1737223836192N11206108WA0247502475
B1737233836196N11206110WA0247402474
B1737243836201N11206112WA0247302473
B1737253836206N11206114WA0247202472
B1737263836211N11206115WA0247102471
B1737273836216N11206117WA0246902469
B1737283836221N11206118WA0246802468
B1737293836226N11206119WA0246702467
B1737303836231N11206120WA0246602466
B1737313836235N11206122WA0246502465
B1737323836240N11206124WA0246402464
B1737333836244N11206126WA0246302463
B1737343836248N11206128WA0246202462
B1737353836253N11206130WA0246102461
B1737363836257N11206132WA0245902459
B1737373836262N11206135WA0245802458
B1737383836266N11206137WA0245602456
B1737393836271N11206140WA0245502455
B1737403836275N11206142WA0245402454
B1737413836280N11206145WA0245202452
B1737423836284N11206149WA0245102451
B1737433836288N11206153WA0244902449
B1737443836293N11206156WA0244802448
B1737453836297N11206159WA0244802448
B1737463836301N11206162WA0244702447
B1737473836305N11206164WA0244602446
B1737483836310N11206168WA0244502445
B1737493836314N11206171WA0244302443
B1737503836319N11206174WA0244102441
B1737513836323N11206176WA0244002440
B1737523836328N11206178WA0243902439
B1737533836332N11206181WA0243802438
B1737543836337N11206183WA0243702437
B1737553836341N11206186WA0243602436
B1737563836346N11206188WA0243402434
B1737573836351N11206190WA0243202432
B1737583836355N11206192WA0243102431
B1737593836360N11206193WA0243002430
B1738003836364N11206194WA0242902429
B1738013836369N11206193WA0242702427
B1738023836373N11206193WA0242602426
B1738033836378N11206194WA0242402424
B1738043836382N11206195WA0242202422
B1738053836387N11206197WA0242002420
B1738063836392N11206198WA0241902419
B1738073836396N11206200WA0241802418
B1738083836401N11206202WA0241702417
B1738093836406N11206204WA0241502415
B1738103836411N11206206WA0241402414
B1738113836416N11206208WA0241302413
B1738123836421N11206209WA0241202412
B1738133836425N11206211WA0241102411
B1738143836430N11206213WA0241002410
B1738153836434N11206215WA0240902409
B1738163836439N11206218WA0240802408
B1738173836444N11206221WA0240702407
B1738183836448N11206224WA0240502405
B1738193836452N11206227WA0240502405
B1738203836457N11206230WA0240302403
B1738213836461N11206234WA0240202402
B1738223836465N11206238WA0240102401
B1738233836469N11206242WA0240002400
B1738243836473N11206245WA0239902399
B1738253836477N11206249WA0239802398
B1738263836481N11206253WA0239702397
B1738273836485N11206257WA0239602396
B1738283836488N11206262WA0239502395
B1738293836492N11206266WA0239302393
B1738303836495N11206270WA0239202392
B1738313836499N11206274WA0239102391
B1738323836503N11206278WA0239002390
B1738333836506N11206283WA0238902389
B1738343836509N11206288WA0238802388
B1738353836512N11206293WA0238602386
B1738363836515N11206298WA0238502385
B1738373836518N11206303WA0238402384
B1738383836521N11206308WA0238302383
B1738393836523N11206315WA0238102381
B1738403836525N11206321WA0238002380
B1738413836528N11206326WA0237902379
B1738423836531N11206331WA0237802378
B1738433836534N11206336WA0237602376
B1738443836537N11206341WA0237502375
B1738453836540N11206346WA0237402374
B1738463836543N11206351WA0237302373
B1738473836546N11206356WA0237102371
B1738483836549N11206361WA0237002370
B1738493836552N11206366WA0236902369
B1738503836555N11206371WA0236802368
B1738513836558N11206376WA0236602366
B1738523836562N11206380WA0236502365
B1738533836565N11206384WA0236402364
B1738543836569N11206389WA0236302363
B1738553836572N11206394WA0236202362
B1738563836574N11206400WA0236002360
B1738573836577N11206405WA0235902359
B1738583836580N11206410WA0235802358
B1738593836583N11206415WA0235702357
B1739003836586N11206421WA0235602356
B1739013836588N11206426WA0235402354
B1739023836591N11206432WA0235302353
B1739033836594N11206438WA0235202352
B1739043836596N11206443WA0235102351
B1739053836599N11206448WA0234902349
B1739063836601N11206454WA0234802348
B1739073836604N11206461WA0234602346
B1739083836606N11206467WA0234402344
B1739093836609N11206472WA0234302343
B1739103836611N11206478WA0234202342
B1739113836613N11206484WA0234102341
B1739123836615N11206491WA0233902339
B1739133836617N11206497WA0233702337
B1739143836620N11206503WA0233502335
B1739153836622N11206509WA0233402334
B1739163836623N11206516WA0233302333
B1739173836625N11206522WA0233202332
B1739183836627N11206528WA0233002330
B1739193836630N11206535WA0232802328
B1739203836632N11206541WA0232602326
B1739213836634N11206547WA0232502325
B1739223836636N11206554WA0232402324
B1739233836638N11206560WA0232302323
B1739243836641N11206566WA0232102321
B1739253836643N11206571WA0231902319
B1739263836646N11206577WA0231702317
B1739273836649N11206583WA0231602316
B1739283836651N11206589WA0231402314
B1739293836654N11206595WA0231302313
B1739303836657N11206600WA0231202312
B1739313836660N11206606WA0231002310
B1739323836663N11206612WA0230902309
B1739333836665N11206617WA0230702307
B1739343836668N11206623WA0230602306
B1739353836670N11206629WA0230402304
B1739363836672N11206635WA0230302303
B1739373836674N11206642WA0230102301
B1739383836676N11206648WA0230002300
B1739393836678N11206654WA0229802298
B1739403836681N11206661WA0229702297
B1739413836683N11206667WA0229602296
B1739423836685N11206673WA0229502295
B1739433836687N11206679WA0229302293
B1739443836690N11206685WA0229202292
B1739453836692N11206691WA0229102291
B1739463836695N11206697WA0229002290
B1739473836697N11206703WA0228802288
B1739483836700N11206709WA0228702287
B1739493836702N11206715WA0228602286
B1739503836705N11206721WA0228502285
B1739513836707N11206727WA0228402284
B1739523836710N11206733WA0228302283
B1739533836712N11206739WA0228202282
B1739543836715N11206745WA0228102281
B1739553836717N11206751WA0228002280
B1739563836720N11206757WA0227902279
B1739573836722N11206763WA0227702277
B1739583836725N11206768WA0227702277
B1739593836727N11206774WA0227602276
B1740003836729N11206780WA0227502275
B1740013836732N11206786WA0227402274
B1740023836734N11206792WA0227202272
B1740033836737N11206797WA0227102271
B1740043836739N11206803WA0227002270
B1740053836742N11206809WA0226902269
B1740063836744N11206815WA0226802268
B1740073836747N11206820WA0226702267
B1740083836749N11206826WA0226602266
B1740093836752N11206832WA0226402264
B1740103836755N11206837WA0226302263
B1740113836757N11206843WA0226202262
B1740123836760N11206848WA0226102261
B1740133836763N11206853WA0226002260
B1740143836767N11206858WA0225902259
B1740153836770N11206863WA0225702257
B1740163836772N11206869WA0225602256
B1740173836775N11206875WA0225502255
B1740183836778N11206880WA0225402254
B1740193836781N11206886WA0225202252
B1740203836783N11206891WA0225102251
B1740213836786N11206897WA0225002250
B1740223836789N11206902WA0224902249
B1740233836792N11206907WA0224802248
B1740243836796N11206913WA0224702247
B1740253836799N11206918WA0224502245
B1740263836802N11206922WA0224402244
B1740273836805N11206926WA0224302243
B1740283836808N11206930WA0224202242
B1740293836812N11206934WA0224102241
B1740303836815N11206939WA0223902239
B1740313836818N11206944WA0223802238
B1740323836820N11206949WA0223602236
B1740333836823N11206954WA0223502235
B1740343836825N11206960WA0223402234
B1740353836827N11206965WA0223202232
B1740363836829N11206971WA0223102231
B1740373836830N11206977WA0223002230
B1740383836832N11206983WA0222802228
B1740393836833N11206990WA0222702227
B1740403836835N11206996WA0222502225
B1740413836836N11207002WA0222402224
B1740423836838N11207008WA0222202222
B1740433836840N11207014WA0222102221
B1740443836843N11207020WA0221902219
B1740453836845N11207026WA0221802218
B1740463836848N11207031WA0221702217
B1740473836850N11207036WA0221602216
B1740483836853N11207041WA0221502215
B1740493836855N11207046WA0221302213
B1740503836858N11207052WA0221202212
B1740513836861N11207057WA0221002210
B1740523836864N11207063WA0220902209
B1740533836866N11207069WA0220702207
B1740543836869N11207075WA0220502205
B1740553836872N11207081WA0220402204
B1740563836875N11207087WA0220302203
B1740573836878N11207092WA0220202202
B1740583836881N11207098WA0220102201
B1740593836884N11207103WA0220002200
B1741003836887N11207109WA0219802198
B1741013836891N11207114WA0219602196
B1741023836894N11207120WA0219502195
B1741033836897N11207125WA0219402194
B1741043836901N11207130WA0219302193
B1741053836904N11207136WA0219202192
B1741063836907N11207141WA0219002190
B1741073836910N11207147WA0218902189
B1741083836913N11207152WA0218702187
B1741093836916N11207158WA0218602186
B1741103836919N11207164WA0218502185
B1741113836921N11207170WA0218302183
B1741123836924N11207176WA0218202182
B1741133836927N11207183WA0218002180
B1741143836929N11207189WA0217902179
B1741153836932N11207195WA0217702177
B1741163836936N11207200WA0217602176
B1741173836939N11207206WA0217402174
B1741183836943N11207211WA0217302173
B1741193836947N11207216WA0217202172
B1741203836950N11207220WA0217102171
B1741213836954N11207225WA0217002170
B1741223836959N11207229WA0216802168
B1741233836963N11207233WA0216602166
B1741243836968N11207238WA0216502165
B1741253836972N11207242WA0216302163
B1741263836977N11207246WA0216202162
B1741273836982N11207250WA0216102161
B1741283836987N11207253WA0216002160
B1741293836992N11207256WA0215802158
B1741303836998N11207259WA0215702157
B1741313837003N11207262WA0215502155
B1741323837009N11207265WA0215402154
B1741333837015N11207267WA0215302153
B1741343837020N11207269WA0215202152
B1741353837026N11207272WA0215102151
B1741363837032N11207274WA0215002150
B1741373837037N11207275WA0214802148
B1741383837043N11207277WA0214802148
B1741393837048N11207278WA0214702147
B1741403837054N11207277WA0214602146
B1741413837059N11207276WA0214402144
B1741423837064N11207274WA0214302143
B1741433837070N11207271WA0214102141
B1741443837074N11207269WA0214002140
B1741453837079N11207267WA0213902139
B1741463837084N11207264WA0213802138
B1741473837088N11207261WA0213702137
B1741483837091N11207256WA0213602136
B1741493837094N11207251WA0213402134
B1741503837096N11207246WA0213302133
B1741513837099N11207241WA0213202132
B1741523837100N11207235WA0213102131
B1741533837101N11207229WA0212902129
B1741543837102N11207223WA0212802128
B1741553837104N11207216WA0212602126
B1741563837105N11207210WA0212502125
B1741573837105N11207205WA0212502125
B1741583837105N11207199WA0212402124
B1741593837105N11207193WA0212302123
B1742003837104N11207187WA0212102121
B1742013837103N11207181WA0212002120
B1742023837102N11207174WA0211802118
B1742033837101N11207168WA0211702117
B1742043837100N11207162WA0211602116
B1742053837099N11207156WA0211502115
B1742063837098N11207150WA0211402114
B1742073837096N11207144WA0211302113
B1742083837095N11207138WA0211202112
B1742093837093N11207133WA0211102111
B1742103837092N11207127WA0211002110
B1742113837090N11207121WA0210802108
B1742123837089N11207115WA0210702107
B1742133837087N11207109WA0210602106
B1742143837086N11207103WA0210502105
B1742153837084N11207097WA0210402104
B1742163837083N11207092WA0210202102
B1742173837081N11207086WA0210102101
B1742183837079N11207080WA0210002100
B1742193837077N11207075WA0209902099
B1742203837075N11207069WA0209802098
B1742213837073N11207064WA0209602096
B1742223837071N11207059WA0209502095
B1742233837069N11207053WA0209402094
B1742243837066N11207048WA0209202092
B1742253837064N11207042WA0209102091
B1742263837061N11207037WA0209002090
B1742273837059N11207032WA0208902089
B1742283837056N11207027WA0208702087
B1742293837053N11207022WA0208602086
B1742303837051N11207016WA0208502085
B1742313837050N11207011WA0208402084
B1742323837049N11207005WA0208302083
B1742333837048N11206999WA0208102081
B1742343837048N11206993WA0208002080
B1742353837048N11206987WA0207902079
B1742363837048N11206981WA0207802078
B1742373837047N11206975WA0207702077
B1742383837046N11206969WA0207602076
B1742393837044N11206963WA0207502075
B1742403837042N11206957WA0207302073
B1742413837039N11206952WA0207202072
B1742423837036N11206947WA0207102071
B1742433837033N11206942WA0207002070
B1742443837030N11206937WA0206902069
B1742453837027N11206931WA0206802068
B1742463837024N11206926WA0206602066
B1742473837021N11206920WA0206502065
B1742483837018N11206915WA0206402064
B1742493837015N11206910WA0206402064
B1742503837012N11206905WA0206302063
B1742513837009N11206900WA0206102061
B1742523837006N11206895WA0206002060
B1742533837003N11206891WA0206002060
B1742543836998N11206888WA0205802058
B1742553836993N11206887WA0205702057
B1742563836987N11206888WA0205502055
B1742573836982N11206891WA0205502055
B1742583836978N11206896WA0205402054
B1742593836975N11206901WA0205302053
B1743003836972N11206907WA0205202052
B1743013836970N11206914WA0205002050
B1743023836969N11206921WA0204902049
B1743033836968N11206929WA0204702047
B1743043836969N11206936WA0204602046
B1743053836970N11206943WA0204402044
B1743063836970N11206951WA0204302043
B1743073836971N11206958WA0204202042
B1743083836973N11206965WA0204002040
B1743093836974N11206972WA0203902039
B1743103836976N11206979WA0203802038
B1743113836977N11206987WA0203602036
B1743123836978N11206994WA0203502035
B1743133836980N11207001WA0203402034
B1743143836981N11207008WA0203302033
B1743153836983N11207015WA0203202032
B1743163836984N11207023WA0203002030
B1743173836986N11207030WA0202902029
B1743183836987N11207037WA0202802028
B1743193836989N11207044WA0202602026
B1743203836990N11207052WA0202502025
B1743213836992N11207059WA0202302023
B1743223836994N11207066WA0202202022
B1743233836995N11207073WA0202002020
B1743243836997N11207080WA0201902019
B1743253836999N11207087WA0201702017
B1743263837001N11207094WA0201602016
B1743273837003N11207100WA0201502015
B1743283837005N11207106WA0201302013
B1743293837007N11207112WA0201202012
B1743303837010N11207118WA0201102011
B1743313837013N11207124WA0200902009
B1743323837016N11207130WA0200802008
B1743333837018N11207136WA0200602006
B1743343837021N11207142WA0200502005
B1743353837024N11207147WA0200402004
B1743363837027N11207152WA0200502005
B1743373837029N11207157WA0200602006
B1743383837032N11207161WA0200602006
B1743393837034N11207166WA0200602006
B1743403837038N11207171WA0200602006
B1743413837041N11207176WA0200502005
B1743423837045N11207181WA0200402004
B1743433837049N11207185WA0200402004
B1743443837053N11207190WA0200502005
B1743453837056N11207194WA0200502005
B1743463837060N11207198WA0200402004
B1743473837064N11207202WA0200402004
B1743483837068N11207205WA0200302003
B1743493837073N11207208WA0200102001
B1743503837078N11207210WA0199901999
B1743513837083N11207212WA0199701997
B1743523837088N11207215WA0199701997
B1743533837092N11207217WA0199701997
B1743543837096N11207219WA0199601996
B1743553837100N11207220WA0199501995
B1743563837105N11207223WA0199301993
B1743573837110N11207225WA0199101991
B1743583837115N11207228WA0198901989
B1743593837120N11207231WA0198901989
B1744003837124N11207234WA0198901989
B1744013837129N11207236WA0198801988
B1744023837133N11207239WA0198701987
B1744033837138N11207242WA0198501985
B1744043837143N11207244WA0198401984
B1744053837148N11207245WA0198301983
B1744063837153N11207244WA0198201982
B1744073837158N11207242WA0198001980
B1744083837162N11207239WA0197901979
B1744093837165N11207235WA0197801978
B1744103837167N11207230WA0197701977
B1744113837168N11207225WA0197601976
B1744123837168N11207219WA0197401974
B1744133837166N11207214WA0197301973
B1744143837164N11207209WA0197101971
B1744153837160N11207205WA0197001970
B1744163837156N11207202WA0196801968
B1744173837151N11207200WA0196601966
B1744183837146N11207198WA0196501965
B1744193837141N11207197WA0196401964
B1744203837137N11207196WA0196201962
B1744213837132N11207194WA0196001960
B1744223837128N11207192WA0195801958
B1744233837123N11207189WA0195601956
B1744243837118N11207187WA0195401954
B1744253837113N11207184WA0195201952
B1744263837109N11207181WA0195001950
B1744273837104N11207178WA0194901949
B1744283837100N11207174WA0194801948
B1744293837095N11207171WA0194601946
B1744303837091N11207168WA0194401944
B1744313837087N11207164WA0194201942
B1744323837083N11207159WA0194001940
B1744333837079N11207154WA0193801938
B1744343837075N11207149WA0193701937
B1744353837070N11207144WA0193601936
B1744363837066N11207139WA0193601936
B1744373837061N11207134WA0193501935
B1744383837056N11207130WA0193501935
B1744393837051N11207127WA0193301933
B1744403837046N11207123WA0193301933
B1744413837041N11207120WA0193201932
B1744423837036N11207117WA0193301933
B1744433837032N11207115WA0193301933
B1744443837027N11207113WA0193201932
B1744453837022N11207111WA0193001930
B1744463837017N11207111WA0192801928
B1744473837011N11207112WA0192701927
B1744483837006N11207115WA0192601926
B1744493837002N11207118WA0192501925
B1744503837000N11207123WA0192401924
B1744513836997N11207129WA0192301923
B1744523836996N11207136WA0192201922
B1744533836996N11207142WA0192101921
B1744543836997N11207148WA0192001920
B1744553836998N11207154WA0191901919
B1744563837001N11207160WA0191801918
B1744573837004N11207164WA0191601916
B1744583837007N11207168WA0191401914
B1744593837011N11207171WA0191201912
B1745003837016N11207173WA0190901909
B1745013837022N11207175WA0190701907
B1745023837027N11207178WA0190601906
B1745033837031N11207180WA0190601906
B1745043837034N11207182WA0190601906
B1745053837038N11207183WA0190501905
B1745063837042N11207185WA0190401904
B1745073837047N11207187WA0190201902
B1745083837052N11207189WA0190101901
B1745093837057N11207191WA0190001900
B1745103837062N11207192WA0190001900
B1745113837068N11207194WA0190001900
B1745123837073N11207194WA0190101901
B1745133837077N11207195WA0190301903
B1745143837081N11207196WA0190501905
B1745153837084N11207196WA0190601906
B1745163837088N11207196WA0190601906
B1745173837093N11207196WA0190601906
B1745183837098N11207195WA0190501905
B1745193837103N11207193WA0190401904
B1745203837107N11207190WA0190401904
B1745213837110N11207186WA0190401904
B1745223837113N11207182WA0190201902
B1745233837115N11207176WA0190101901
B1745243837117N11207170WA0189901899
B1745253837118N11207163WA0189801898
B1745263837117N11207157WA0189701897
B1745273837114N11207151WA0189701897
B1745283837111N11207146WA0189701897
B1745293837107N11207143WA0189701897
B1745303837102N11207141WA0189601896
B1745313837098N11207140WA0189601896
B1745323837093N11207139WA0189601896
B1745333837088N11207140WA0189601896
B1745343837083N11207143WA0189501895
B1745353837078N11207147WA0189501895
B1745363837075N11207151WA0189601896
B1745373837073N11207156WA0189801898
B1745383837071N11207160WA0189901899
B1745393837069N11207164WA0189901899
B1745403837068N11207170WA0189801898
B1745413837068N11207176WA0189701897
B1745423837068N11207182WA0189801898
B1745433837069N11207188WA0189901899
B1745443837072N11207192WA0190001900
B1745453837074N11207196WA0190101901
B1745463837078N11207200WA0190201902
B1745473837081N11207202WA0190201902
B1745483837086N11207203WA0190201902
B1745493837090N11207203WA0190101901
B1745503837094N11207202WA0190001900
B1745513837098N11207200WA0189901899
B1745523837101N11207196WA0189701897
B1745533837105N11207192WA0189401894
B1745543837108N11207186WA0189201892
B1745553837110N11207180WA0189001890
B1745563837110N11207173WA0188801888
B1745573837109N11207166WA0188701887
B1745583837107N11207161WA0188601886
B1745593837104N11207156WA0188501885
B1746003837100N11207153WA0188401884
B1746013837095N11207150WA0188301883
B1746023837090N11207148WA0188101881
B1746033837084N11207147WA0188001880
B1746043837079N11207148WA0187901879
B1746053837074N11207150WA0187801878
B1746063837070N11207153WA0187901879
B1746073837067N11207156WA0188001880
B1746083837065N11207159WA0188101881
B1746093837062N11207162WA0188201882
B1746103837059N11207167WA0188201882
B1746113837056N11207172WA0188201882
B1746123837053N11207178WA0188101881
B1746133837051N11207185WA0188201882
B1746143837051N11207192WA0188201882
B1746153837053N11207198WA0188201882
B1746163837055N11207203WA0188201882
B1746173837058N11207206WA0188201882
B1746183837062N11207209WA0188201882
B1746193837066N11207211WA0188001880
B1746203837071N11207212WA0187901879
B1746213837075N11207213WA0187901879
B1746223837080N11207213WA0187901879
B1746233837084N11207212WA0187901879
B1746243837087N11207211WA0187901879
B1746253837091N11207209WA0187801878
B1746263837095N11207207WA0187601876
B1746273837100N11207204WA0187401874
B1746283837104N11207201WA0187201872
B1746293837108N11207196WA0187101871
B1746303837111N11207191WA0187001870
B1746313837113N11207186WA0186901869
B1746323837114N11207180WA0186801868
B1746333837114N11207173WA0186501865
B1746343837113N11207166WA0186301863
B1746353837111N11207159WA0186101861
B1746363837109N11207153WA0186001860
B1746373837105N11207149WA0185901859
B1746383837101N11207145WA0185701857
B1746393837096N11207142WA0185601856
B1746403837091N11207140WA0185401854
B1746413837086N11207137WA0185301853
B1746423837080N11207135WA0185101851
B1746433837075N11207134WA0185001850
B1746443837069N11207134WA0184801848
B1746453837063N11207134WA0184701847
B1746463837058N11207133WA0184801848
B1746473837053N11207133WA0184901849
B1746483837049N11207131WA0185101851
B1746493837044N11207129WA0185201852
B1746503837039N11207128WA0185301853
B1746513837034N11207127WA0185301853
B1746523837029N11207128WA0185401854
B1746533837025N11207130WA0185401854
B1746543837021N11207134WA0185401854
B1746553837018N11207139WA0185401854
B1746563837016N11207144WA0185401854
B1746573837016N11207151WA0185401854
B1746583837018N11207156WA0185301853
B1746593837021N11207161WA0185401854
B1747003837024N11207165WA0185501855
B1747013837027N11207166WA0185701857
B1747023837031N11207166WA0185801858
B1747033837035N11207165WA0185801858
B1747043837039N11207164WA0185801858
B1747053837043N11207161WA0185801858
B1747063837047N11207157WA0185801858
B1747073837050N11207153WA0185901859
B1747083837052N11207149WA0186001860
B1747093837053N11207143WA0186001860
B1747103837055N11207137WA0185901859
B1747113837057N11207130WA0185801858
B1747123837058N11207123WA0185801858
B1747133837058N11207117WA0185901859
B1747143837057N11207111WA0185901859
B1747153837056N11207105WA0185901859
B1747163837054N11207099WA0185801858
B1747173837052N11207092WA0185801858
B1747183837050N11207085WA0185801858
B1747193837049N11207078WA0186001860
B1747203837048N11207072WA0186101861
B1747213837047N11207065WA0186201862
B1747223837046N11207059WA0186201862
B1747233837047N11207051WA0186201862
B1747243837048N11207044WA0186201862
B1747253837050N11207038WA0186401864
B1747263837052N11207033WA0186501865
B1747273837055N11207029WA0186601866
B1747283837058N11207024WA0186601866
B1747293837062N11207020WA0186401864
B1747303837066N11207017WA0186301863
B1747313837072N11207014WA0186201862
B1747323837077N11207012WA0186201862
B1747333837083N11207012WA0186201862
B1747343837088N11207012WA0186201862
B1747353837093N11207013WA0186201862
B1747363837097N11207015WA0186201862
B1747373837100N11207016WA0186101861
B1747383837104N11207017WA0185901859
B1747393837109N11207019WA0185601856
B1747403837114N11207022WA0185301853
B1747413837118N11207024WA0185101851
B1747423837122N11207027WA0184901849
B1747433837126N11207030WA0184701847
B1747443837131N11207033WA0184501845
B1747453837135N11207036WA0184201842
B1747463837139N11207040WA0183901839
B1747473837142N11207045WA0183701837
B1747483837145N11207050WA0183401834
B1747493837147N11207055WA0183101831
B1747503837148N11207062WA0182901829
B1747513837148N11207067WA0182801828
B1747523837148N11207072WA0182901829
B1747533837146N11207076WA0182801828
B1747543837146N11207080WA0182701827
B1747553837145N11207085WA0182601826
B1747563837144N11207090WA0182401824
B1747573837145N11207096WA0182201822
B1747583837146N11207101WA0182001820
B1747593837148N11207105WA0181801818
B1748003837152N11207108WA0181701817
B1748013837156N11207110WA0181501815
B1748023837160N11207109WA0181301813
B1748033837164N11207106WA0181201812
B1748043837167N11207101WA0181001810
B1748053837169N11207095WA0181001810
B1748063837170N11207089WA0180901809
B1748073837169N11207084WA0180901809
B1748083837167N11207079WA0180801808
B1748093837164N11207074WA0180601806
B1748103837161N11207070WA0180401804
B1748113837156N11207067WA0180101801
B1748123837151N11207065WA0179801798
B1748133837145N11207063WA0179601796
B1748143837139N11207063WA0179501795
B1748153837134N11207064WA0179301793
B1748163837128N11207065WA0179201792
B1748173837123N11207066WA0179001790
B1748183837117N11207065WA0178801788
B1748193837111N11207063WA0178701787
B1748203837106N11207059WA0178601786
B1748213837101N11207055WA0178501785
B1748223837096N11207050WA0178401784
B1748233837092N11207045WA0178301783
B1748243837087N11207041WA0178101781
B1748253837082N11207036WA0178001780
B1748263837078N11207031WA0177901779
B1748273837073N11207025WA0177801778
B1748283837069N11207019WA0177701777
B1748293837066N11207013WA0177601776
B1748303837063N11207005WA0177401774
B1748313837061N11206999WA0177301773
B1748323837059N11206993WA0177301773
B1748333837057N11206987WA0177201772
B1748343837056N11206981WA0177101771
B1748353837055N11206974WA0176801768
B1748363837053N11206967WA0176601766
B1748373837052N11206960WA0176401764
B1748383837051N11206953WA0176301763
B1748393837051N11206947WA0176201762
B1748403837051N11206940WA0176001760
B1748413837051N11206934WA0175701757
B1748423837051N11206927WA0175501755
B1748433837052N11206921WA0175301753
B1748443837054N11206915WA0175201752
B1748453837057N11206911WA0175001750
B1748463837060N11206908WA0174901749
B1748473837065N11206906WA0174601746
B1748483837070N11206908WA0174401744
B1748493837074N11206911WA0174101741
B1748503837077N11206917WA0173901739
B1748513837077N11206923WA0173701737
B1748523837075N11206929WA0173501735
B1748533837073N11206935WA0173301733
B1748543837071N11206940WA0173201732
B1748553837069N11206945WA0173001730
B1748563837068N11206951WA0172801728
B1748573837066N11206957WA0172601726
B1748583837066N11206963WA0172401724
B1748593837065N11206970WA0172201722
B1749003837065N11206976WA0172101721
B1749013837065N11206981WA0172001720
B1749023837066N11206987WA0171801718
B1749033837068N11206993WA0171601716
B1749043837070N11206999WA0171401714
B1749053837073N11207004WA0171301713
B1749063837076N11207008WA0171401714
B1749073837079N11207010WA0171301713
B1749083837083N11207010WA0171301713
B1749093837088N11207009WA0171301713
B1749103837091N11207006WA0171201712
B1749113837094N11207000WA0171101711
B1749123837094N11206994WA0170901709
B1749133837093N11206988WA0170901709
B1749143837090N11206983WA0170801708
B1749153837087N11206979WA0170701707
B1749163837084N11206974WA0170601706
B1749173837083N11206969WA0170401704
B1749183837084N11206963WA0170001700
B1749193837087N11206957WA0169701697
B1749203837090N11206952WA0169501695
B1749213837093N11206949WA0169501695
B1749223837096N11206946WA0169401694
B1749233837099N11206945WA0169201692
B1749243837104N11206945WA0168901689
B1749253837110N11206947WA0168601686
B1749263837114N11206950WA0168501685
B1749273837117N11206954WA0168501685
B1749283837119N11206958WA0168401684
B1749293837122N11206960WA0168201682
B1749303837126N11206961WA0168001680
B1749313837131N11206963WA0167601676
B1749323837136N11206963WA0167401674
B1749333837141N11206962WA0167301673
B1749343837145N11206959WA0167101671
B1749353837148N11206957WA0166901669
B1749363837150N11206956WA0166901669
B1749373837151N11206956WA0166801668
B1749383837151N11206956WA0166901669
B1749393837151N11206956WA0166901669
B1749403837151N11206956WA0166901669
B1749413837151N11206956WA0166901669
B1749423837151N11206956WA0166801668
B1749433837151N11206956WA0166901669
B1749443837151N11206956WA0166901669
B1749453837151N11206956WA0166901669
B1749463837151N11206956WA0166901669
B1749473837151N11206956WA0166901669
B1749483837151N11206956WA0166901669
B1749493837151N11206956WA0166901669
