AXFMFLYMASTER LIVETRACK
HFDTE230926
HFFXA010
HFPLTPILOT:Jeff Speer
HFGTYGLIDERTYPE:Ozone Photon / Gin Gliders Genie Lite
HFCIDCOMPETITIONID:427
HFDTM100GPSDATUM:WGS-1984
HFRFWFIRMWAREVERSION:lt.flymaster.net bsGetPilotTrack
B1532123832837N11205029WA0299902999
B1532133832834N11205021WA0300103001
B1532143832831N11205015WA0300203002
B1532153832827N11205008WA0300303003
B1532163832824N11205003WA0300503005
B1532173832820N11204998WA0300603006
B1532183832816N11204994WA0300703007
B1532193832813N11204990WA0300803008
B1532203832809N11204987WA0300903009
B1532213832806N11204984WA0301003010
B1532223832803N11204981WA0301103011
B1532233832799N11204978WA0301203012
B1532243832796N11204974WA0301203012
B1532253832793N11204971WA0301303013
B1532263832790N11204968WA0301403014
B1532273832787N11204965WA0301503015
B1532283832785N11204963WA0301503015
B1532293832783N11204960WA0301603016
B1532303832784N11204956WA0301603016
B1532313832785N11204954WA0301603016
B1532323832787N11204953WA0301703017
B1532333832790N11204953WA0301703017
B1532343832793N11204955WA0301803018
B1532353832796N11204959WA0301803018
B1532363832800N11204962WA0301803018
B1532373832805N11204966WA0301803018
B1532383832810N11204970WA0301803018
B1532393832816N11204973WA0301703017
B1532403832822N11204977WA0301703017
B1532413832828N11204982WA0301603016
B1532423832835N11204987WA0301503015
B1532433832841N11204994WA0301503015
B1532443832846N11205001WA0301403014
B1532453832852N11205008WA0301403014
B1532463832857N11205015WA0301403014
B1532473832861N11205020WA0301403014
B1532483832866N11205025WA0301503015
B1532493832872N11205027WA0301603016
B1532503832877N11205028WA0301603016
B1532513832882N11205027WA0301703017
B1532523832886N11205024WA0301703017
B1532533832889N11205020WA0301803018
B1532543832890N11205015WA0301803018
B1532553832891N11205009WA0301803018
B1532563832890N11205003WA0301803018
B1532573832889N11204997WA0301803018
B1532583832887N11204992WA0301903019
B1532593832884N11204988WA0302003020
B1533003832880N11204984WA0302103021
B1533013832877N11204981WA0302203022
B1533023832873N11204979WA0302303023
B1533033832869N11204976WA0302403024
B1533043832864N11204974WA0302503025
B1533053832860N11204971WA0302603026
B1533063832855N11204968WA0302603026
B1533073832849N11204965WA0302703027
B1533083832844N11204962WA0302803028
B1533093832838N11204959WA0302903029
B1533103832832N11204956WA0303003030
B1533113832825N11204953WA0303103031
B1533123832819N11204950WA0303203032
B1533133832814N11204946WA0303303033
B1533143832808N11204942WA0303303033
B1533153832803N11204938WA0303403034
B1533163832797N11204934WA0303503035
B1533173832792N11204929WA0303603036
B1533183832787N11204925WA0303703037
B1533193832781N11204921WA0303703037
B1533203832776N11204917WA0303803038
B1533213832770N11204915WA0303803038
B1533223832764N11204913WA0303903039
B1533233832759N11204913WA0303903039
B1533243832754N11204912WA0304003040
B1533253832749N11204913WA0304003040
B1533263832744N11204913WA0304003040
B1533273832739N11204914WA0304003040
B1533283832734N11204916WA0304003040
B1533293832729N11204919WA0304103041
B1533303832725N11204924WA0304103041
B1533313832722N11204930WA0304303043
B1533323832718N11204935WA0304403044
B1533333832715N11204940WA0304503045
B1533343832711N11204944WA0304603046
B1533353832707N11204949WA0304703047
B1533363832704N11204953WA0304903049
B1533373832701N11204956WA0305003050
B1533383832698N11204958WA0305103051
B1533393832695N11204958WA0305103051
B1533403832691N11204958WA0305203052
B1533413832688N11204956WA0305303053
B1533423832685N11204953WA0305303053
B1533433832683N11204949WA0305303053
B1533443832680N11204945WA0305403054
B1533453832677N11204940WA0305503055
B1533463832675N11204935WA0305603056
B1533473832673N11204929WA0305703057
B1533483832671N11204924WA0305903059
B1533493832669N11204919WA0306003060
B1533503832667N11204914WA0306003060
B1533513832666N11204908WA0306203062
B1533523832666N11204902WA0306203062
B1533533832665N11204896WA0306303063
B1533543832664N11204889WA0306303063
B1533553832662N11204884WA0306403064
B1533563832661N11204878WA0306403064
B1533573832658N11204873WA0306403064
B1533583832655N11204867WA0306403064
B1533593832652N11204862WA0306503065
B1534003832648N11204856WA0306503065
B1534013832644N11204850WA0306403064
B1534023832640N11204843WA0306403064
B1534033832636N11204836WA0306403064
B1534043832632N11204829WA0306403064
B1534053832628N11204821WA0306303063
B1534063832624N11204814WA0306303063
B1534073832620N11204807WA0306303063
B1534083832615N11204801WA0306403064
B1534093832611N11204797WA0306403064
B1534103832607N11204794WA0306503065
B1534113832602N11204793WA0306403064
B1534123832598N11204792WA0306503065
B1534133832594N11204791WA0306503065
B1534143832589N11204791WA0306503065
B1534153832584N11204791WA0306503065
B1534163832579N11204791WA0306503065
B1534173832574N11204790WA0306603066
B1534183832569N11204790WA0306703067
B1534193832565N11204792WA0306703067
B1534203832561N11204793WA0306703067
B1534213832558N11204796WA0306703067
B1534223832555N11204799WA0306803068
B1534233832554N11204804WA0307003070
B1534243832552N11204809WA0307203072
B1534253832553N11204814WA0307303073
B1534263832554N11204819WA0307303073
B1534273832556N11204824WA0307203072
B1534283832558N11204828WA0307303073
B1534293832561N11204832WA0307403074
B1534303832563N11204836WA0307603076
B1534313832564N11204840WA0307603076
B1534323832564N11204844WA0307703077
B1534333832563N11204847WA0307703077
B1534343832561N11204848WA0307703077
B1534353832558N11204848WA0307803078
B1534363832556N11204847WA0307803078
B1534373832553N11204844WA0307903079
B1534383832550N11204840WA0307903079
B1534393832547N11204836WA0307803078
B1534403832544N11204832WA0307803078
B1534413832540N11204829WA0307703077
B1534423832537N11204826WA0307803078
B1534433832533N11204824WA0307903079
B1534443832528N11204823WA0307903079
B1534453832524N11204822WA0307903079
B1534463832519N11204820WA0308003080
B1534473832514N11204818WA0308103081
B1534483832509N11204817WA0308203082
B1534493832504N11204815WA0308203082
B1534503832499N11204813WA0308203082
B1534513832494N11204811WA0308203082
B1534523832489N11204809WA0308103081
B1534533832483N11204807WA0308203082
B1534543832479N11204806WA0308403084
B1534553832474N11204806WA0308403084
B1534563832470N11204805WA0308503085
B1534573832466N11204804WA0308603086
B1534583832462N11204802WA0308603086
B1534593832458N11204801WA0308703087
B1535003832454N11204798WA0308703087
B1535013832450N11204796WA0308603086
B1535023832445N11204794WA0308703087
B1535033832441N11204792WA0308703087
B1535043832437N11204790WA0308803088
B1535053832432N11204787WA0308803088
B1535063832428N11204784WA0308903089
B1535073832424N11204780WA0309103091
B1535083832421N11204777WA0309203092
B1535093832418N11204773WA0309403094
B1535103832415N11204768WA0309403094
B1535113832413N11204764WA0309503095
B1535123832410N11204761WA0309603096
B1535133832408N11204759WA0309603096
B1535143832405N11204758WA0309703097
B1535153832402N11204759WA0309803098
B1535163832399N11204761WA0309803098
B1535173832398N11204765WA0309803098
B1535183832398N11204769WA0309803098
B1535193832398N11204774WA0310003100
B1535203832400N11204779WA0310003100
B1535213832402N11204785WA0310103101
B1535223832404N11204791WA0310203102
B1535233832406N11204797WA0310103101
B1535243832407N11204804WA0310303103
B1535253832407N11204811WA0310303103
B1535263832406N11204818WA0310303103
B1535273832405N11204825WA0310403104
B1535283832404N11204832WA0310503105
B1535293832402N11204840WA0310503105
B1535303832401N11204847WA0310503105
B1535313832400N11204855WA0310503105
B1535323832399N11204862WA0310603106
B1535333832399N11204870WA0310703107
B1535343832398N11204876WA0310803108
B1535353832397N11204883WA0310903109
B1535363832396N11204889WA0311003110
B1535373832394N11204895WA0311103111
B1535383832392N11204900WA0311103111
B1535393832390N11204904WA0311203112
B1535403832386N11204908WA0311303113
B1535413832383N11204910WA0311403114
B1535423832379N11204912WA0311403114
B1535433832374N11204912WA0311503115
B1535443832370N11204912WA0311603116
B1535453832366N11204910WA0311603116
B1535463832362N11204907WA0311603116
B1535473832358N11204904WA0311603116
B1535483832355N11204899WA0311703117
B1535493832353N11204894WA0311803118
B1535503832351N11204888WA0311803118
B1535513832349N11204881WA0311803118
B1535523832347N11204875WA0311703117
B1535533832345N11204868WA0311703117
B1535543832343N11204861WA0311603116
B1535553832340N11204855WA0311503115
B1535563832337N11204849WA0311503115
B1535573832335N11204843WA0311403114
B1535583832331N11204837WA0311403114
B1535593832326N11204833WA0311403114
B1536003832320N11204830WA0311503115
B1536013832315N11204827WA0311503115
B1536023832309N11204826WA0311403114
B1536033832303N11204826WA0311603116
B1536043832297N11204826WA0311703117
B1536053832291N11204827WA0311803118
B1536063832285N11204829WA0311903119
B1536073832279N11204831WA0311903119
B1536083832274N11204834WA0312003120
B1536093832268N11204838WA0311903119
B1536103832263N11204842WA0311903119
B1536113832257N11204846WA0312003120
B1536123832251N11204849WA0311903119
B1536133832246N11204853WA0311903119
B1536143832240N11204856WA0311903119
B1536153832233N11204859WA0312003120
B1536163832227N11204862WA0312103121
B1536173832221N11204865WA0312203122
B1536183832215N11204867WA0312203122
B1536193832209N11204868WA0312303123
B1536203832204N11204869WA0312403124
B1536213832198N11204871WA0312503125
B1536223832193N11204873WA0312603126
B1536233832188N11204875WA0312703127
B1536243832184N11204878WA0312703127
B1536253832179N11204882WA0312703127
B1536263832174N11204886WA0312703127
B1536273832169N11204890WA0312803128
B1536283832163N11204893WA0312803128
B1536293832158N11204897WA0312903129
B1536303832152N11204901WA0312903129
B1536313832146N11204906WA0312903129
B1536323832140N11204910WA0312903129
B1536333832134N11204914WA0313003130
B1536343832128N11204918WA0313003130
B1536353832122N11204921WA0313103131
B1536363832116N11204924WA0313103131
B1536373832110N11204926WA0313203132
B1536383832104N11204927WA0313203132
B1536393832098N11204927WA0313303133
B1536403832092N11204927WA0313303133
B1536413832087N11204926WA0313403134
B1536423832081N11204926WA0313403134
B1536433832075N11204927WA0313503135
B1536443832070N11204929WA0313503135
B1536453832066N11204933WA0313603136
B1536463832062N11204937WA0313603136
B1536473832058N11204941WA0313703137
B1536483832053N11204944WA0313703137
B1536493832049N11204946WA0313703137
B1536503832044N11204947WA0313803138
B1536513832038N11204947WA0313803138
B1536523832033N11204947WA0313803138
B1536533832027N11204946WA0313803138
B1536543832021N11204945WA0313703137
B1536553832015N11204944WA0313803138
B1536563832008N11204942WA0313803138
B1536573832002N11204941WA0313803138
B1536583831995N11204939WA0313803138
B1536593831988N11204938WA0313903139
B1537003831982N11204936WA0313803138
B1537013831975N11204935WA0313903139
B1537023831968N11204935WA0313903139
B1537033831961N11204936WA0314003140
B1537043831954N11204937WA0314003140
B1537053831947N11204937WA0314103141
B1537063831940N11204937WA0314103141
B1537073831933N11204937WA0314203142
B1537083831926N11204937WA0314203142
B1537093831920N11204936WA0314303143
B1537103831913N11204936WA0314303143
B1537113831907N11204935WA0314403144
B1537123831901N11204934WA0314403144
B1537133831895N11204933WA0314503145
B1537143831889N11204932WA0314603146
B1537153831884N11204931WA0314703147
B1537163831879N11204929WA0314803148
B1537173831874N11204926WA0314903149
B1537183831870N11204922WA0315003150
B1537193831866N11204917WA0315103151
B1537203831863N11204911WA0315103151
B1537213831861N11204904WA0315103151
B1537223831859N11204896WA0315103151
B1537233831858N11204888WA0315103151
B1537243831858N11204878WA0315103151
B1537253831857N11204868WA0315003150
B1537263831857N11204858WA0315003150
B1537273831856N11204847WA0314903149
B1537283831856N11204837WA0314903149
B1537293831855N11204826WA0314803148
B1537303831853N11204816WA0314803148
B1537313831851N11204805WA0314803148
B1537323831850N11204795WA0314703147
B1537333831850N11204785WA0314703147
B1537343831851N11204775WA0314703147
B1537353831853N11204766WA0314703147
B1537363831855N11204757WA0314703147
B1537373831858N11204749WA0314803148
B1537383831861N11204741WA0314803148
B1537393831863N11204732WA0314803148
B1537403831865N11204723WA0314803148
B1537413831866N11204715WA0314703147
B1537423831866N11204706WA0314703147
B1537433831866N11204697WA0314703147
B1537443831866N11204690WA0314703147
B1537453831865N11204682WA0314703147
B1537463831864N11204674WA0314703147
B1537473831861N11204668WA0314603146
B1537483831858N11204661WA0314503145
B1537493831856N11204655WA0314403144
B1537503831856N11204649WA0314303143
B1537513831857N11204642WA0314203142
B1537523831859N11204636WA0314103141
B1537533831862N11204631WA0314103141
B1537543831866N11204627WA0314103141
B1537553831871N11204623WA0314103141
B1537563831875N11204618WA0313903139
B1537573831879N11204612WA0313803138
B1537583831882N11204605WA0313703137
B1537593831884N11204598WA0313603136
B1538003831885N11204591WA0313503135
B1538013831886N11204583WA0313403134
B1538023831887N11204574WA0313303133
B1538033831887N11204565WA0313403134
B1538043831887N11204557WA0313503135
B1538053831887N11204548WA0313403134
B1538063831886N11204540WA0313303133
B1538073831886N11204531WA0313303133
B1538083831886N11204523WA0313203132
B1538093831886N11204515WA0313103131
B1538103831886N11204506WA0313103131
B1538113831886N11204498WA0313103131
B1538123831885N11204490WA0313003130
B1538133831884N11204481WA0312903129
B1538143831883N11204472WA0312803128
B1538153831882N11204464WA0312803128
B1538163831880N11204456WA0312803128
B1538173831878N11204448WA0312803128
B1538183831875N11204440WA0312803128
B1538193831873N11204433WA0312903129
B1538203831870N11204425WA0312903129
B1538213831867N11204418WA0312903129
B1538223831863N11204411WA0312903129
B1538233831859N11204405WA0312903129
B1538243831854N11204400WA0312903129
B1538253831848N11204396WA0312903129
B1538263831841N11204392WA0312903129
B1538273831835N11204390WA0312903129
B1538283831828N11204388WA0313003130
B1538293831822N11204385WA0313003130
B1538303831816N11204382WA0313103131
B1538313831810N11204379WA0313103131
B1538323831804N11204375WA0313203132
B1538333831799N11204370WA0313203132
B1538343831796N11204365WA0313203132
B1538353831793N11204359WA0313203132
B1538363831791N11204352WA0313203132
B1538373831790N11204346WA0313303133
B1538383831790N11204340WA0313403134
B1538393831791N11204334WA0313503135
B1538403831792N11204328WA0313503135
B1538413831793N11204323WA0313503135
B1538423831793N11204317WA0313603136
B1538433831794N11204312WA0313703137
B1538443831794N11204306WA0313803138
B1538453831793N11204300WA0313903139
B1538463831791N11204293WA0314003140
B1538473831789N11204286WA0314003140
B1538483831787N11204280WA0314103141
B1538493831785N11204273WA0314103141
B1538503831783N11204266WA0314203142
B1538513831781N11204259WA0314203142
B1538523831779N11204251WA0314203142
B1538533831778N11204244WA0314303143
B1538543831777N11204236WA0314303143
B1538553831776N11204228WA0314303143
B1538563831776N11204220WA0314303143
B1538573831777N11204211WA0314303143
B1538583831778N11204202WA0314303143
B1538593831778N11204194WA0314303143
B1539003831779N11204185WA0314303143
B1539013831781N11204176WA0314303143
B1539023831782N11204167WA0314303143
B1539033831783N11204158WA0314303143
B1539043831784N11204149WA0314403144
B1539053831785N11204140WA0314403144
B1539063831787N11204132WA0314403144
B1539073831788N11204123WA0314503145
B1539083831789N11204114WA0314503145
B1539093831791N11204105WA0314503145
B1539103831793N11204096WA0314503145
B1539113831794N11204087WA0314403144
B1539123831796N11204078WA0314403144
B1539133831798N11204068WA0314303143
B1539143831800N11204059WA0314303143
B1539153831801N11204050WA0314303143
B1539163831803N11204041WA0314303143
B1539173831805N11204032WA0314403144
B1539183831806N11204023WA0314303143
B1539193831807N11204014WA0314303143
B1539203831809N11204004WA0314303143
B1539213831811N11203995WA0314303143
B1539223831813N11203986WA0314203142
B1539233831815N11203978WA0314203142
B1539243831818N11203969WA0314203142
B1539253831822N11203962WA0314203142
B1539263831826N11203956WA0314303143
B1539273831831N11203951WA0314303143
B1539283831836N11203949WA0314403144
B1539293831842N11203948WA0314403144
B1539303831847N11203949WA0314503145
B1539313831852N11203949WA0314503145
B1539323831857N11203950WA0314603146
B1539333831862N11203949WA0314703147
B1539343831866N11203947WA0314703147
B1539353831870N11203944WA0314703147
B1539363831874N11203941WA0314703147
B1539373831878N11203936WA0314503145
B1539383831880N11203930WA0314503145
B1539393831882N11203924WA0314303143
B1539403831883N11203917WA0314203142
B1539413831884N11203909WA0314103141
B1539423831883N11203901WA0314203142
B1539433831882N11203892WA0314303143
B1539443831882N11203884WA0314403144
B1539453831882N11203877WA0314403144
B1539463831882N11203870WA0314503145
B1539473831882N11203863WA0314603146
B1539483831882N11203856WA0314603146
B1539493831883N11203849WA0314703147
B1539503831884N11203843WA0314803148
B1539513831885N11203837WA0315003150
B1539523831886N11203832WA0315103151
B1539533831888N11203826WA0315203152
B1539543831890N11203821WA0315303153
B1539553831892N11203816WA0315303153
B1539563831894N11203811WA0315403154
B1539573831897N11203806WA0315503155
B1539583831899N11203802WA0315603156
B1539593831901N11203797WA0315703157
B1540003831904N11203793WA0315803158
B1540013831907N11203789WA0315803158
B1540023831909N11203785WA0315903159
B1540033831912N11203782WA0316003160
B1540043831915N11203778WA0316103161
B1540053831919N11203774WA0316203162
B1540063831922N11203770WA0316203162
B1540073831925N11203767WA0316303163
B1540083831929N11203763WA0316403164
B1540093831933N11203760WA0316503165
B1540103831937N11203758WA0316603166
B1540113831942N11203755WA0316803168
B1540123831948N11203753WA0316903169
B1540133831953N11203750WA0317003170
B1540143831959N11203747WA0317103171
B1540153831965N11203744WA0317203172
B1540163831970N11203742WA0317303173
B1540173831975N11203739WA0317403174
B1540183831979N11203737WA0317503175
B1540193831983N11203735WA0317703177
B1540203831988N11203733WA0317803178
B1540213831992N11203731WA0317803178
B1540223831997N11203729WA0317903179
B1540233832002N11203726WA0318003180
B1540243832007N11203723WA0318103181
B1540253832012N11203720WA0318103181
B1540263832016N11203716WA0318303183
B1540273832021N11203711WA0318303183
B1540283832025N11203706WA0318403184
B1540293832028N11203700WA0318403184
B1540303832032N11203695WA0318503185
B1540313832035N11203691WA0318603186
B1540323832038N11203688WA0318703187
B1540333832041N11203685WA0318703187
B1540343832044N11203683WA0318803188
B1540353832047N11203682WA0318803188
B1540363832050N11203682WA0318903189
B1540373832054N11203682WA0318903189
B1540383832058N11203683WA0319103191
B1540393832061N11203684WA0319103191
B1540403832064N11203687WA0319203192
B1540413832065N11203690WA0319203192
B1540423832066N11203694WA0319303193
B1540433832067N11203698WA0319503195
B1540443832066N11203702WA0319603196
B1540453832065N11203707WA0319703197
B1540463832064N11203711WA0319803198
B1540473832063N11203716WA0320003200
B1540483832061N11203720WA0320103201
B1540493832059N11203724WA0320103201
B1540503832057N11203729WA0320003200
B1540513832055N11203735WA0320103201
B1540523832053N11203740WA0320203202
B1540533832051N11203747WA0320203202
B1540543832050N11203753WA0320303203
B1540553832049N11203759WA0320403204
B1540563832049N11203766WA0320503205
B1540573832048N11203773WA0320703207
B1540583832046N11203779WA0320803208
B1540593832045N11203785WA0320803208
B1541003832043N11203791WA0320903209
B1541013832040N11203797WA0321003210
B1541023832036N11203802WA0321003210
B1541033832032N11203806WA0321103211
B1541043832027N11203810WA0321203212
B1541053832023N11203813WA0321303213
B1541063832018N11203817WA0321403214
B1541073832013N11203821WA0321603216
B1541083832009N11203825WA0321603216
B1541093832004N11203829WA0321703217
B1541103832000N11203833WA0321803218
B1541113831996N11203837WA0321803218
B1541123831992N11203841WA0321903219
B1541133831987N11203846WA0322003220
B1541143831983N11203851WA0322003220
B1541153831979N11203857WA0322103221
B1541163831976N11203861WA0322203222
B1541173831972N11203865WA0322303223
B1541183831969N11203869WA0322303223
B1541193831966N11203872WA0322403224
B1541203831963N11203875WA0322403224
B1541213831961N11203878WA0322503225
B1541223831960N11203882WA0322503225
B1541233831960N11203886WA0322603226
B1541243831961N11203890WA0322603226
B1541253831962N11203893WA0322603226
B1541263831965N11203895WA0322703227
B1541273831967N11203896WA0322703227
B1541283831970N11203896WA0322803228
B1541293831972N11203895WA0322803228
B1541303831975N11203892WA0322803228
B1541313831977N11203889WA0322903229
B1541323831980N11203886WA0323003230
B1541333831983N11203882WA0323003230
B1541343831986N11203878WA0323103231
B1541353831988N11203874WA0323203232
B1541363831992N11203870WA0323303233
B1541373831995N11203866WA0323303233
B1541383831999N11203863WA0323303233
B1541393832002N11203861WA0323403234
B1541403832006N11203858WA0323503235
B1541413832010N11203857WA0323503235
B1541423832015N11203855WA0323603236
B1541433832019N11203854WA0323703237
B1541443832025N11203853WA0323803238
B1541453832030N11203852WA0323903239
B1541463832035N11203852WA0324003240
B1541473832041N11203853WA0324103241
B1541483832046N11203853WA0324103241
B1541493832052N11203854WA0324203242
B1541503832058N11203854WA0324303243
B1541513832064N11203854WA0324403244
B1541523832070N11203853WA0324403244
B1541533832076N11203851WA0324503245
B1541543832082N11203849WA0324703247
B1541553832087N11203847WA0324803248
B1541563832093N11203845WA0324903249
B1541573832098N11203844WA0325003250
B1541583832104N11203842WA0325103251
B1541593832108N11203841WA0325203252
B1542003832113N11203840WA0325303253
B1542013832118N11203838WA0325503255
B1542023832123N11203836WA0325503255
B1542033832127N11203834WA0325603256
B1542043832131N11203830WA0325603256
B1542053832135N11203827WA0325703257
B1542063832139N11203822WA0325703257
B1542073832143N11203817WA0325803258
B1542083832146N11203812WA0325803258
B1542093832148N11203807WA0325903259
B1542103832151N11203801WA0325903259
B1542113832154N11203795WA0325903259
B1542123832157N11203790WA0325903259
B1542133832161N11203785WA0325903259
B1542143832165N11203781WA0326003260
B1542153832170N11203777WA0325903259
B1542163832175N11203775WA0326003260
B1542173832180N11203774WA0326103261
B1542183832186N11203773WA0326303263
B1542193832191N11203772WA0326403264
B1542203832196N11203770WA0326503265
B1542213832201N11203769WA0326603266
B1542223832206N11203767WA0326703267
B1542233832212N11203765WA0326703267
B1542243832217N11203763WA0326803268
B1542253832222N11203760WA0326803268
B1542263832228N11203757WA0326903269
B1542273832234N11203755WA0327003270
B1542283832240N11203751WA0327003270
B1542293832246N11203748WA0327103271
B1542303832253N11203744WA0327203272
B1542313832259N11203740WA0327303273
B1542323832265N11203735WA0327303273
B1542333832272N11203730WA0327403274
B1542343832278N11203724WA0327503275
B1542353832284N11203718WA0327503275
B1542363832290N11203713WA0327603276
B1542373832296N11203706WA0327703277
B1542383832302N11203700WA0327803278
B1542393832308N11203694WA0327903279
B1542403832313N11203688WA0327903279
B1542413832319N11203682WA0328003280
B1542423832324N11203676WA0328103281
B1542433832329N11203670WA0328203282
B1542443832333N11203665WA0328203282
B1542453832337N11203660WA0328303283
B1542463832341N11203655WA0328403284
B1542473832345N11203650WA0328503285
B1542483832348N11203645WA0328603286
B1542493832352N11203640WA0328703287
B1542503832355N11203635WA0328703287
B1542513832358N11203630WA0328803288
B1542523832360N11203624WA0328903289
B1542533832363N11203619WA0329003290
B1542543832365N11203613WA0329103291
B1542553832367N11203607WA0329303293
B1542563832369N11203602WA0329403294
B1542573832371N11203596WA0329403294
B1542583832372N11203591WA0329503295
B1542593832372N11203585WA0329503295
B1543003832373N11203580WA0329603296
B1543013832373N11203575WA0329603296
B1543023832373N11203571WA0329703297
B1543033832374N11203567WA0329803298
B1543043832375N11203563WA0329803298
B1543053832377N11203560WA0330003300
B1543063832379N11203556WA0330003300
B1543073832382N11203553WA0330103301
B1543083832385N11203550WA0330203302
B1543093832389N11203547WA0330203302
B1543103832393N11203545WA0330303303
B1543113832397N11203543WA0330303303
B1543123832402N11203542WA0330403304
B1543133832407N11203542WA0330503305
B1543143832411N11203542WA0330603306
B1543153832416N11203543WA0330603306
B1543163832420N11203545WA0330603306
B1543173832425N11203546WA0330703307
B1543183832429N11203548WA0330703307
B1543193832434N11203549WA0330803308
B1543203832439N11203551WA0330803308
B1543213832443N11203552WA0330903309
B1543223832448N11203553WA0330903309
B1543233832452N11203555WA0331003310
B1543243832456N11203556WA0331103311
B1543253832460N11203558WA0331103311
B1543263832465N11203560WA0331203312
B1543273832469N11203563WA0331303313
B1543283832473N11203566WA0331403314
B1543293832478N11203569WA0331403314
B1543303832482N11203572WA0331503315
B1543313832486N11203574WA0331603316
B1543323832490N11203577WA0331703317
B1543333832493N11203579WA0331703317
B1543343832496N11203582WA0331703317
B1543353832499N11203585WA0331803318
B1543363832501N11203589WA0331803318
B1543373832503N11203594WA0331803318
B1543383832505N11203598WA0331803318
B1543393832506N11203603WA0331903319
B1543403832506N11203608WA0331903319
B1543413832506N11203613WA0331903319
B1543423832505N11203617WA0331903319
B1543433832503N11203620WA0331903319
B1543443832500N11203623WA0332003320
B1543453832497N11203627WA0332003320
B1543463832494N11203631WA0332003320
B1543473832492N11203636WA0332003320
B1543483832492N11203642WA0332003320
B1543493832491N11203649WA0332003320
B1543503832492N11203656WA0332003320
B1543513832492N11203664WA0332003320
B1543523832492N11203671WA0332003320
B1543533832491N11203679WA0332003320
B1543543832490N11203687WA0332003320
B1543553832488N11203694WA0332003320
B1543563832487N11203702WA0332103321
B1543573832485N11203709WA0332103321
B1543583832483N11203716WA0332203322
B1543593832481N11203722WA0332203322
B1544003832478N11203729WA0332203322
B1544013832475N11203735WA0332303323
B1544023832472N11203740WA0332303323
B1544033832468N11203745WA0332303323
B1544043832464N11203749WA0332403324
B1544053832459N11203753WA0332403324
B1544063832454N11203756WA0332403324
B1544073832449N11203760WA0332403324
B1544083832443N11203763WA0332403324
B1544093832437N11203766WA0332403324
B1544103832431N11203769WA0332403324
B1544113832425N11203773WA0332403324
B1544123832419N11203776WA0332403324
B1544133832414N11203781WA0332403324
B1544143832408N11203787WA0332403324
B1544153832403N11203792WA0332403324
B1544163832397N11203796WA0332403324
B1544173832391N11203799WA0332403324
B1544183832385N11203802WA0332503325
B1544193832379N11203804WA0332603326
B1544203832373N11203806WA0332703327
B1544213832367N11203807WA0332803328
B1544223832361N11203808WA0332803328
B1544233832355N11203809WA0332903329
B1544243832350N11203810WA0333003330
B1544253832345N11203811WA0333103331
B1544263832340N11203813WA0333203332
B1544273832336N11203816WA0333303333
B1544283832332N11203818WA0333403334
B1544293832328N11203821WA0333403334
B1544303832323N11203823WA0333503335
B1544313832318N11203825WA0333503335
B1544323832314N11203827WA0333603336
B1544333832310N11203829WA0333603336
B1544343832307N11203832WA0333603336
B1544353832305N11203835WA0333703337
B1544363832304N11203839WA0333703337
B1544373832304N11203843WA0333803338
B1544383832306N11203847WA0333803338
B1544393832308N11203851WA0333903339
B1544403832312N11203856WA0333903339
B1544413832315N11203860WA0333903339
B1544423832318N11203865WA0334003340
B1544433832322N11203869WA0334103341
B1544443832325N11203874WA0334103341
B1544453832328N11203878WA0334203342
B1544463832330N11203884WA0334303343
B1544473832331N11203889WA0334303343
B1544483832331N11203895WA0334303343
B1544493832331N11203901WA0334403344
B1544503832330N11203907WA0334403344
B1544513832329N11203913WA0334503345
B1544523832327N11203919WA0334503345
B1544533832325N11203925WA0334603346
B1544543832323N11203930WA0334703347
B1544553832320N11203934WA0334703347
B1544563832316N11203938WA0334803348
B1544573832313N11203941WA0334803348
B1544583832309N11203944WA0334803348
B1544593832305N11203947WA0334903349
B1545003832300N11203949WA0335003350
B1545013832296N11203953WA0335003350
B1545023832291N11203956WA0335103351
B1545033832287N11203959WA0335203352
B1545043832282N11203961WA0335203352
B1545053832277N11203962WA0335303353
B1545063832271N11203963WA0335303353
B1545073832266N11203964WA0335403354
B1545083832261N11203965WA0335403354
B1545093832255N11203967WA0335503355
B1545103832251N11203970WA0335603356
B1545113832246N11203974WA0335603356
B1545123832242N11203978WA0335703357
B1545133832238N11203983WA0335803358
B1545143832234N11203988WA0335803358
B1545153832230N11203993WA0335903359
B1545163832226N11203998WA0336003360
B1545173832222N11204002WA0336003360
B1545183832218N11204005WA0336103361
B1545193832215N11204008WA0336103361
B1545203832212N11204012WA0336203362
B1545213832211N11204017WA0336303363
B1545223832210N11204022WA0336403364
B1545233832209N11204028WA0336403364
B1545243832208N11204034WA0336503365
B1545253832207N11204040WA0336503365
B1545263832206N11204046WA0336603366
B1545273832205N11204052WA0336603366
B1545283832203N11204056WA0336703367
B1545293832200N11204060WA0336703367
B1545303832197N11204062WA0336703367
B1545313832194N11204063WA0336803368
B1545323832191N11204065WA0336803368
B1545333832188N11204066WA0336903369
B1545343832185N11204068WA0336903369
B1545353832183N11204071WA0336903369
B1545363832181N11204076WA0337003370
B1545373832180N11204080WA0337003370
B1545383832180N11204085WA0337103371
B1545393832181N11204089WA0337203372
B1545403832182N11204093WA0337203372
B1545413832183N11204097WA0337303373
B1545423832184N11204101WA0337403374
B1545433832185N11204105WA0337503375
B1545443832187N11204109WA0337603376
B1545453832188N11204114WA0337603376
B1545463832190N11204119WA0337603376
B1545473832192N11204124WA0337703377
B1545483832194N11204129WA0337703377
B1545493832194N11204135WA0337703377
B1545503832194N11204140WA0337703377
B1545513832194N11204145WA0337803378
B1545523832193N11204149WA0337903379
B1545533832192N11204154WA0338003380
B1545543832192N11204159WA0338003380
B1545553832192N11204164WA0338103381
B1545563832193N11204169WA0338103381
B1545573832193N11204173WA0338203382
B1545583832193N11204178WA0338303383
B1545593832194N11204183WA0338403384
B1546003832194N11204187WA0338503385
B1546013832194N11204192WA0338603386
B1546023832195N11204196WA0338703387
B1546033832196N11204201WA0338803388
B1546043832197N11204206WA0338903389
B1546053832198N11204211WA0339003390
B1546063832200N11204216WA0339103391
B1546073832202N11204221WA0339203392
B1546083832204N11204225WA0339303393
B1546093832207N11204228WA0339303393
B1546103832211N11204231WA0339403394
B1546113832215N11204233WA0339303393
B1546123832219N11204236WA0339403394
B1546133832223N11204240WA0339403394
B1546143832227N11204245WA0339403394
B1546153832230N11204250WA0339403394
B1546163832233N11204255WA0339503395
B1546173832236N11204261WA0339603396
B1546183832239N11204265WA0339703397
B1546193832243N11204269WA0339803398
B1546203832247N11204273WA0339803398
B1546213832251N11204275WA0339903399
B1546223832255N11204277WA0339903399
B1546233832259N11204278WA0340003400
B1546243832264N11204278WA0339903399
B1546253832269N11204278WA0339903399
B1546263832274N11204278WA0339903399
B1546273832280N11204277WA0339903399
B1546283832285N11204277WA0339903399
B1546293832290N11204277WA0339903399
B1546303832295N11204278WA0339903399
B1546313832299N11204279WA0340003400
B1546323832303N11204281WA0340003400
B1546333832307N11204284WA0340103401
B1546343832311N11204287WA0340103401
B1546353832315N11204290WA0340103401
B1546363832319N11204293WA0340203402
B1546373832323N11204295WA0340203402
B1546383832328N11204297WA0340203402
B1546393832332N11204299WA0340303403
B1546403832337N11204301WA0340303403
B1546413832341N11204303WA0340303403
B1546423832345N11204306WA0340303403
B1546433832350N11204308WA0340303403
B1546443832354N11204311WA0340203402
B1546453832358N11204313WA0340203402
B1546463832363N11204316WA0340203402
B1546473832366N11204319WA0340203402
B1546483832370N11204322WA0340203402
B1546493832373N11204325WA0340203402
B1546503832375N11204328WA0340203402
B1546513832378N11204332WA0340303403
B1546523832381N11204335WA0340303403
B1546533832384N11204339WA0340203402
B1546543832387N11204342WA0340203402
B1546553832389N11204345WA0340103401
B1546563832392N11204348WA0340103401
B1546573832394N11204351WA0340103401
B1546583832396N11204353WA0340103401
B1546593832398N11204356WA0340103401
B1547003832400N11204358WA0340103401
B1547013832401N11204359WA0340103401
B1547023832402N11204361WA0340103401
B1547033832403N11204362WA0340003400
B1547043832405N11204364WA0340003400
B1547053832406N11204365WA0340003400
B1547063832407N11204366WA0340003400
B1547073832408N11204367WA0340003400
B1547083832408N11204368WA0340003400
B1547093832408N11204368WA0340003400
B1547103832409N11204369WA0340003400
