AXFMFLYMASTER LIVETRACK
HFDTE230926
HFFXA010
HFPLTPILOT:Seth Romanenko
HFGTYGLIDERTYPE:Ozone Zeno 2 / Ozone Forza
HFCIDCOMPETITIONID:220284
HFDTM100GPSDATUM:WGS-1984
HFRFWFIRMWAREVERSION:lt.flymaster.net bsGetPilotTrack
B1741243832430N11204414WA0340403404
B1741253832429N11204416WA0340203402
B1741263832428N11204420WA0340203402
B1741273832427N11204424WA0340103401
B1741283832426N11204428WA0340103401
B1741293832424N11204432WA0340203402
B1741303832422N11204436WA0340303403
B1741313832421N11204439WA0340403404
B1741323832420N11204443WA0340403404
B1741333832419N11204447WA0340303403
B1741343832417N11204452WA0340203402
B1741353832416N11204457WA0340103401
B1741363832413N11204463WA0340103401
B1741373832410N11204468WA0340303403
B1741383832407N11204473WA0340503405
B1741393832405N11204477WA0340703407
B1741403832404N11204482WA0341003410
B1741413832404N11204486WA0341303413
B1741423832405N11204489WA0341403414
B1741433832407N11204494WA0341503415
B1741443832410N11204498WA0341603416
B1741453832413N11204503WA0341703417
B1741463832416N11204508WA0341903419
B1741473832420N11204513WA0342003420
B1741483832423N11204517WA0342103421
B1741493832427N11204520WA0342203422
B1741503832431N11204524WA0342303423
B1741513832435N11204527WA0342403424
B1741523832439N11204531WA0342503425
B1741533832442N11204535WA0342503425
B1741543832446N11204540WA0342503425
B1741553832450N11204544WA0342503425
B1741563832454N11204548WA0342503425
B1741573832459N11204552WA0342603426
B1741583832464N11204555WA0342603426
B1741593832469N11204559WA0342603426
B1742003832475N11204561WA0342503425
B1742013832481N11204564WA0342603426
B1742023832488N11204566WA0342603426
B1742033832494N11204567WA0342603426
B1742043832501N11204569WA0342603426
B1742053832507N11204569WA0342503425
B1742063832514N11204570WA0342403424
B1742073832522N11204570WA0342303423
B1742083832529N11204569WA0342303423
B1742093832536N11204568WA0342103421
B1742103832544N11204566WA0342003420
B1742113832551N11204564WA0341903419
B1742123832559N11204561WA0341803418
B1742133832566N11204557WA0341703417
B1742143832573N11204554WA0341703417
B1742153832580N11204552WA0341703417
B1742163832587N11204550WA0341703417
B1742173832593N11204549WA0341603416
B1742183832600N11204549WA0341503415
B1742193832605N11204550WA0341403414
B1742203832611N11204552WA0341203412
B1742213832616N11204555WA0341003410
B1742223832621N11204559WA0340803408
B1742233832626N11204563WA0340703407
B1742243832630N11204567WA0340603406
B1742253832634N11204571WA0340603406
B1742263832637N11204575WA0340603406
B1742273832638N11204579WA0340503405
B1742283832638N11204584WA0340403404
B1742293832636N11204588WA0340203402
B1742303832633N11204592WA0340103401
B1742313832629N11204594WA0340003400
B1742323832624N11204596WA0340003400
B1742333832619N11204596WA0339903399
B1742343832614N11204594WA0339803398
B1742353832610N11204592WA0339703397
B1742363832606N11204589WA0339503395
B1742373832602N11204583WA0339303393
B1742383832600N11204575WA0339103391
B1742393832598N11204567WA0338903389
B1742403832598N11204557WA0338703387
B1742413832599N11204547WA0338603386
B1742423832600N11204537WA0338503385
B1742433832601N11204528WA0338403384
B1742443832603N11204518WA0338403384
B1742453832605N11204510WA0338303383
B1742463832610N11204502WA0338103381
B1742473832615N11204495WA0337903379
B1742483832621N11204490WA0337803378
B1742493832627N11204487WA0337803378
B1742503832633N11204486WA0337703377
B1742513832638N11204487WA0337503375
B1742523832643N11204489WA0337303373
B1742533832647N11204493WA0337103371
B1742543832650N11204498WA0336803368
B1742553832652N11204504WA0336403364
B1742563832653N11204510WA0336103361
B1742573832652N11204517WA0335903359
B1742583832651N11204523WA0335603356
B1742593832648N11204529WA0335503355
B1743003832644N11204534WA0335503355
B1743013832641N11204537WA0335503355
B1743023832638N11204539WA0335403354
B1743033832635N11204540WA0335203352
B1743043832630N11204541WA0334703347
B1743053832626N11204543WA0334303343
B1743063832621N11204546WA0333803338
B1743073832615N11204549WA0333403334
B1743083832610N11204553WA0333003330
B1743093832605N11204557WA0332703327
B1743103832599N11204561WA0332403324
B1743113832594N11204565WA0332203322
B1743123832590N11204570WA0332103321
B1743133832585N11204574WA0332003320
B1743143832580N11204578WA0331903319
B1743153832576N11204582WA0331803318
B1743163832571N11204587WA0331703317
B1743173832566N11204592WA0331603316
B1743183832561N11204597WA0331503315
B1743193832557N11204603WA0331403314
B1743203832552N11204608WA0331203312
B1743213832547N11204613WA0331103311
B1743223832543N11204618WA0331103311
B1743233832540N11204623WA0331103311
B1743243832536N11204627WA0331003310
B1743253832533N11204632WA0330803308
B1743263832529N11204637WA0330503305
B1743273832525N11204642WA0330203302
B1743283832520N11204648WA0329803298
B1743293832515N11204654WA0329603296
B1743303832511N11204661WA0329403294
B1743313832506N11204667WA0329203292
B1743323832501N11204673WA0329103291
B1743333832496N11204679WA0329003290
B1743343832492N11204684WA0328803288
B1743353832488N11204689WA0328503285
B1743363832483N11204695WA0328303283
B1743373832479N11204701WA0328003280
B1743383832475N11204707WA0327703277
B1743393832471N11204714WA0327503275
B1743403832467N11204720WA0327203272
B1743413832463N11204727WA0326903269
B1743423832459N11204733WA0326803268
B1743433832455N11204740WA0326703267
B1743443832451N11204746WA0326703267
B1743453832448N11204751WA0326803268
B1743463832445N11204755WA0326903269
B1743473832443N11204759WA0327003270
B1743483832440N11204763WA0327003270
B1743493832438N11204768WA0327003270
B1743503832435N11204773WA0326903269
B1743513832432N11204779WA0326803268
B1743523832430N11204784WA0326803268
B1743533832428N11204790WA0326903269
B1743543832425N11204795WA0327003270
B1743553832423N11204799WA0327103271
B1743563832421N11204803WA0327203272
B1743573832419N11204808WA0327203272
B1743583832416N11204813WA0327103271
B1743593832413N11204817WA0327103271
B1744003832409N11204821WA0327103271
B1744013832405N11204824WA0327103271
B1744023832400N11204826WA0327103271
B1744033832395N11204828WA0327003270
B1744043832390N11204830WA0326903269
B1744053832384N11204831WA0326803268
B1744063832379N11204832WA0326803268
B1744073832373N11204833WA0326703267
B1744083832368N11204833WA0326703267
B1744093832363N11204833WA0326503265
B1744103832357N11204833WA0326403264
B1744113832352N11204833WA0326203262
B1744123832346N11204833WA0326103261
B1744133832340N11204834WA0325903259
B1744143832335N11204835WA0325903259
B1744153832330N11204837WA0325803258
B1744163832326N11204840WA0325803258
B1744173832323N11204843WA0325603256
B1744183832320N11204847WA0325403254
B1744193832315N11204851WA0325103251
B1744203832311N11204855WA0324703247
B1744213832307N11204860WA0324503245
B1744223832304N11204866WA0324203242
B1744233832303N11204872WA0324003240
B1744243832303N11204878WA0323803238
B1744253832303N11204884WA0323603236
B1744263832304N11204890WA0323403234
B1744273832305N11204897WA0323303233
B1744283832307N11204902WA0323203232
B1744293832309N11204907WA0323103231
B1744303832310N11204912WA0322803228
B1744313832312N11204918WA0322503225
B1744323832313N11204925WA0322003220
B1744333832315N11204933WA0321603216
B1744343832317N11204941WA0321203212
B1744353832319N11204948WA0321003210
B1744363832321N11204955WA0320903209
B1744373832322N11204961WA0320803208
B1744383832325N11204967WA0320703207
B1744393832328N11204972WA0320603206
B1744403832331N11204977WA0320603206
B1744413832334N11204981WA0320703207
B1744423832336N11204984WA0320603206
B1744433832339N11204988WA0320403204
B1744443832342N11204992WA0320203202
B1744453832346N11204997WA0319903199
B1744463832349N11205003WA0319603196
B1744473832352N11205009WA0319403194
B1744483832353N11205015WA0319103191
B1744493832353N11205022WA0318803188
B1744503832353N11205030WA0318603186
B1744513832351N11205036WA0318303183
B1744523832348N11205043WA0318303183
B1744533832346N11205048WA0318403184
B1744543832344N11205053WA0318403184
B1744553832342N11205058WA0318303183
B1744563832340N11205063WA0318203182
B1744573832339N11205069WA0318103181
B1744583832339N11205075WA0318003180
B1744593832338N11205081WA0317803178
B1745003832338N11205087WA0317603176
B1745013832338N11205094WA0317303173
B1745023832337N11205100WA0317103171
B1745033832335N11205107WA0316903169
B1745043832334N11205114WA0316803168
B1745053832332N11205122WA0316603166
B1745063832331N11205129WA0316603166
B1745073832329N11205135WA0316603166
B1745083832329N11205140WA0316703167
B1745093832328N11205146WA0316703167
B1745103832328N11205151WA0316703167
B1745113832327N11205156WA0316703167
B1745123832327N11205162WA0316603166
B1745133832327N11205167WA0316503165
B1745143832326N11205174WA0316303163
B1745153832325N11205180WA0316203162
B1745163832324N11205187WA0316203162
B1745173832323N11205193WA0316103161
B1745183832322N11205200WA0316003160
B1745193832321N11205207WA0315903159
B1745203832320N11205214WA0315803158
B1745213832318N11205222WA0315603156
B1745223832317N11205230WA0315603156
B1745233832314N11205236WA0315603156
B1745243832312N11205242WA0315703157
B1745253832311N11205248WA0315803158
B1745263832309N11205253WA0315803158
B1745273832306N11205258WA0315703157
B1745283832304N11205264WA0315603156
B1745293832300N11205269WA0315403154
B1745303832297N11205275WA0315403154
B1745313832294N11205281WA0315403154
B1745323832290N11205287WA0315303153
B1745333832287N11205292WA0315303153
B1745343832284N11205298WA0315303153
B1745353832282N11205304WA0315203152
B1745363832280N11205310WA0315203152
B1745373832278N11205316WA0315203152
B1745383832278N11205322WA0315203152
B1745393832278N11205327WA0315103151
B1745403832278N11205333WA0314903149
B1745413832277N11205340WA0314603146
B1745423832276N11205347WA0314403144
B1745433832275N11205354WA0314303143
B1745443832273N11205361WA0314203142
B1745453832272N11205367WA0314303143
B1745463832269N11205373WA0314503145
B1745473832267N11205377WA0314603146
B1745483832263N11205381WA0314703147
B1745493832259N11205382WA0314703147
B1745503832254N11205382WA0314603146
B1745513832249N11205378WA0314503145
B1745523832246N11205373WA0314503145
B1745533832244N11205366WA0314403144
B1745543832244N11205358WA0314403144
B1745553832247N11205350WA0314303143
B1745563832250N11205343WA0314203142
B1745573832254N11205336WA0314203142
B1745583832258N11205329WA0314203142
B1745593832262N11205323WA0314303143
B1746003832266N11205317WA0314203142
B1746013832271N11205312WA0314303143
B1746023832275N11205307WA0314303143
B1746033832279N11205303WA0314303143
B1746043832284N11205300WA0314303143
B1746053832289N11205297WA0314403144
B1746063832294N11205295WA0314503145
B1746073832299N11205294WA0314603146
B1746083832303N11205294WA0314603146
B1746093832308N11205295WA0314503145
B1746103832313N11205297WA0314403144
B1746113832319N11205301WA0314103141
B1746123832325N11205305WA0313903139
B1746133832330N11205309WA0313703137
B1746143832335N11205313WA0313603136
B1746153832339N11205318WA0313503135
B1746163832342N11205322WA0313403134
B1746173832345N11205327WA0313303133
B1746183832347N11205333WA0313103131
B1746193832349N11205339WA0312803128
B1746203832350N11205346WA0312603126
B1746213832350N11205352WA0312303123
B1746223832350N11205359WA0312003120
B1746233832349N11205367WA0311703117
B1746243832348N11205375WA0311403114
B1746253832346N11205383WA0311203112
B1746263832343N11205390WA0311003110
B1746273832341N11205398WA0310903109
B1746283832338N11205405WA0310803108
B1746293832336N11205412WA0310703107
B1746303832334N11205418WA0310703107
B1746313832331N11205424WA0310703107
B1746323832330N11205430WA0310603106
B1746333832328N11205437WA0310403104
B1746343832326N11205443WA0310303103
B1746353832325N11205450WA0310203102
B1746363832324N11205457WA0310103101
B1746373832322N11205463WA0310003100
B1746383832321N11205470WA0309803098
B1746393832320N11205477WA0309703097
B1746403832318N11205484WA0309603096
B1746413832317N11205491WA0309503095
B1746423832315N11205499WA0309403094
B1746433832313N11205506WA0309303093
B1746443832310N11205513WA0309303093
B1746453832307N11205520WA0309303093
B1746463832304N11205527WA0309403094
B1746473832302N11205534WA0309403094
B1746483832301N11205540WA0309403094
B1746493832300N11205547WA0309303093
B1746503832300N11205554WA0309203092
B1746513832299N11205562WA0309003090
B1746523832297N11205570WA0308903089
B1746533832295N11205578WA0308903089
B1746543832293N11205585WA0309003090
B1746553832291N11205590WA0309203092
B1746563832289N11205595WA0309403094
B1746573832287N11205600WA0309403094
B1746583832286N11205606WA0309403094
B1746593832284N11205612WA0309303093
B1747003832283N11205619WA0309303093
B1747013832281N11205625WA0309203092
B1747023832279N11205631WA0309103091
B1747033832276N11205636WA0309103091
B1747043832272N11205640WA0309103091
B1747053832268N11205644WA0309203092
B1747063832265N11205646WA0309403094
B1747073832261N11205647WA0309503095
B1747083832257N11205647WA0309603096
B1747093832254N11205645WA0309503095
B1747103832251N11205641WA0309403094
B1747113832249N11205635WA0309203092
B1747123832248N11205627WA0309103091
B1747133832248N11205619WA0308903089
B1747143832249N11205610WA0308903089
B1747153832251N11205601WA0308903089
B1747163832253N11205593WA0309003090
B1747173832255N11205585WA0309103091
B1747183832258N11205578WA0309303093
B1747193832262N11205573WA0309403094
B1747203832268N11205569WA0309403094
B1747213832275N11205567WA0309303093
B1747223832282N11205568WA0309303093
B1747233832288N11205571WA0309403094
B1747243832294N11205575WA0309403094
B1747253832299N11205580WA0309303093
B1747263832304N11205587WA0309303093
B1747273832307N11205594WA0309203092
B1747283832310N11205601WA0309103091
B1747293832311N11205609WA0308903089
B1747303832312N11205618WA0308803088
B1747313832312N11205626WA0308803088
B1747323832311N11205634WA0308803088
B1747333832309N11205641WA0308803088
B1747343832307N11205648WA0308903089
B1747353832304N11205654WA0308903089
B1747363832301N11205660WA0309003090
B1747373832298N11205664WA0309103091
B1747383832295N11205668WA0309303093
B1747393832292N11205671WA0309403094
B1747403832289N11205675WA0309503095
B1747413832286N11205679WA0309603096
B1747423832282N11205683WA0309603096
B1747433832278N11205686WA0309803098
B1747443832275N11205688WA0310003100
B1747453832271N11205687WA0310103101
B1747463832268N11205685WA0310203102
B1747473832265N11205680WA0310303103
B1747483832264N11205673WA0310303103
B1747493832264N11205664WA0310203102
B1747503832267N11205655WA0310203102
B1747513832271N11205647WA0310403104
B1747523832276N11205642WA0310603106
B1747533832281N11205639WA0310903109
B1747543832287N11205638WA0311003110
B1747553832294N11205639WA0311203112
B1747563832299N11205643WA0311203112
B1747573832304N11205648WA0311303113
B1747583832307N11205654WA0311303113
B1747593832309N11205662WA0311403114
B1748003832309N11205668WA0311503115
B1748013832308N11205674WA0311703117
B1748023832307N11205680WA0311803118
B1748033832305N11205685WA0311903119
B1748043832303N11205690WA0311903119
B1748053832300N11205695WA0311903119
B1748063832297N11205700WA0312003120
B1748073832294N11205705WA0312203122
B1748083832290N11205708WA0312303123
B1748093832286N11205708WA0312503125
B1748103832282N11205708WA0312603126
B1748113832278N11205705WA0312703127
B1748123832275N11205700WA0312803128
B1748133832272N11205693WA0312803128
B1748143832271N11205684WA0312703127
B1748153832271N11205675WA0312703127
B1748163832274N11205667WA0312703127
B1748173832279N11205661WA0312703127
B1748183832285N11205657WA0312703127
B1748193832292N11205655WA0312603126
B1748203832300N11205656WA0312603126
B1748213832306N11205661WA0312503125
B1748223832310N11205668WA0312503125
B1748233832313N11205676WA0312503125
B1748243832315N11205683WA0312703127
B1748253832315N11205690WA0312903129
B1748263832315N11205696WA0313103131
B1748273832314N11205702WA0313303133
B1748283832313N11205708WA0313403134
B1748293832312N11205713WA0313503135
B1748303832310N11205719WA0313603136
B1748313832309N11205723WA0313703137
B1748323832307N11205728WA0313803138
B1748333832305N11205732WA0313803138
B1748343832303N11205737WA0313903139
B1748353832301N11205741WA0313903139
B1748363832298N11205745WA0314003140
B1748373832295N11205747WA0314203142
B1748383832291N11205749WA0314403144
B1748393832287N11205749WA0314503145
B1748403832283N11205746WA0314603146
B1748413832279N11205741WA0314603146
B1748423832276N11205734WA0314603146
B1748433832274N11205725WA0314603146
B1748443832274N11205716WA0314703147
B1748453832275N11205706WA0314703147
B1748463832277N11205697WA0314603146
B1748473832280N11205687WA0314603146
B1748483832283N11205677WA0314703147
B1748493832286N11205668WA0314903149
B1748503832288N11205660WA0315003150
B1748513832290N11205651WA0315103151
B1748523832290N11205643WA0315103151
B1748533832290N11205634WA0315103151
B1748543832289N11205624WA0315003150
B1748553832288N11205615WA0315003150
B1748563832285N11205607WA0315103151
B1748573832282N11205599WA0315103151
B1748583832279N11205593WA0315203152
B1748593832274N11205588WA0315303153
B1749003832270N11205583WA0315403154
B1749013832265N11205579WA0315403154
B1749023832260N11205576WA0315403154
B1749033832255N11205574WA0315303153
B1749043832250N11205574WA0315203152
B1749053832245N11205574WA0315103151
B1749063832240N11205575WA0315003150
B1749073832235N11205576WA0314903149
B1749083832230N11205578WA0314803148
B1749093832226N11205580WA0314803148
B1749103832222N11205582WA0314703147
B1749113832218N11205585WA0314703147
B1749123832214N11205588WA0314603146
B1749133832211N11205592WA0314603146
B1749143832208N11205595WA0314703147
B1749153832205N11205599WA0314703147
B1749163832201N11205603WA0314803148
B1749173832198N11205607WA0314803148
B1749183832195N11205610WA0314903149
B1749193832192N11205614WA0315003150
B1749203832189N11205617WA0315103151
B1749213832186N11205620WA0315103151
B1749223832183N11205624WA0315103151
B1749233832180N11205628WA0315103151
B1749243832177N11205632WA0315003150
B1749253832174N11205636WA0314903149
B1749263832170N11205640WA0314903149
B1749273832166N11205645WA0314703147
B1749283832163N11205649WA0314703147
B1749293832159N11205653WA0314703147
B1749303832156N11205656WA0314703147
B1749313832153N11205658WA0314703147
B1749323832150N11205660WA0314603146
B1749333832146N11205661WA0314503145
B1749343832142N11205663WA0314303143
B1749353832138N11205664WA0314203142
B1749363832134N11205665WA0314103141
B1749373832129N11205666WA0313903139
B1749383832124N11205667WA0313703137
B1749393832119N11205668WA0313603136
B1749403832114N11205669WA0313603136
B1749413832110N11205670WA0313503135
B1749423832105N11205671WA0313403134
B1749433832100N11205673WA0313203132
B1749443832094N11205675WA0313003130
B1749453832090N11205678WA0312803128
B1749463832085N11205682WA0312603126
B1749473832082N11205688WA0312403124
B1749483832079N11205694WA0312203122
B1749493832079N11205702WA0312103121
B1749503832078N11205710WA0312003120
B1749513832078N11205717WA0311903119
B1749523832080N11205725WA0311803118
B1749533832082N11205732WA0311803118
B1749543832085N11205739WA0311703117
B1749553832088N11205746WA0311703117
B1749563832093N11205751WA0311703117
B1749573832097N11205757WA0311603116
B1749583832102N11205761WA0311603116
B1749593832107N11205765WA0311603116
B1750003832113N11205768WA0311603116
B1750013832119N11205770WA0311703117
B1750023832125N11205770WA0311703117
B1750033832132N11205769WA0311803118
B1750043832138N11205768WA0311803118
B1750053832145N11205768WA0311803118
B1750063832151N11205769WA0311903119
B1750073832156N11205771WA0312003120
B1750083832159N11205775WA0312003120
B1750093832159N11205780WA0312003120
B1750103832158N11205784WA0311903119
B1750113832154N11205786WA0311703117
B1750123832149N11205786WA0311603116
B1750133832142N11205783WA0311403114
B1750143832137N11205777WA0311403114
B1750153832132N11205769WA0311303113
B1750163832129N11205760WA0311303113
B1750173832127N11205750WA0311203112
B1750183832126N11205740WA0311203112
B1750193832125N11205730WA0311203112
B1750203832125N11205719WA0311103111
B1750213832125N11205709WA0311103111
B1750223832125N11205698WA0311103111
B1750233832126N11205687WA0311103111
B1750243832126N11205677WA0311103111
B1750253832128N11205666WA0311203112
B1750263832130N11205657WA0311203112
B1750273832133N11205648WA0311103111
B1750283832137N11205639WA0311003110
B1750293832140N11205630WA0310803108
B1750303832144N11205621WA0310703107
B1750313832148N11205613WA0310603106
B1750323832153N11205604WA0310603106
B1750333832157N11205596WA0310503105
B1750343832162N11205588WA0310403104
B1750353832167N11205579WA0310403104
B1750363832171N11205571WA0310303103
B1750373832176N11205563WA0310203102
B1750383832181N11205555WA0310103101
B1750393832187N11205548WA0310003100
B1750403832193N11205542WA0309903099
B1750413832200N11205537WA0309803098
B1750423832207N11205532WA0309703097
B1750433832214N11205527WA0309603096
B1750443832220N11205524WA0309603096
B1750453832227N11205521WA0309503095
B1750463832234N11205520WA0309503095
B1750473832240N11205518WA0309303093
B1750483832247N11205518WA0309103091
B1750493832254N11205519WA0309103091
B1750503832260N11205520WA0309103091
B1750513832266N11205521WA0309203092
B1750523832272N11205521WA0309203092
B1750533832279N11205522WA0309203092
B1750543832285N11205522WA0309103091
B1750553832291N11205522WA0309003090
B1750563832298N11205523WA0308903089
B1750573832304N11205523WA0308803088
B1750583832311N11205525WA0308703087
B1750593832318N11205527WA0308503085
B1751003832324N11205529WA0308403084
B1751013832330N11205530WA0308303083
B1751023832336N11205532WA0308303083
B1751033832341N11205535WA0308103081
B1751043832346N11205539WA0307903079
B1751053832351N11205544WA0307603076
B1751063832357N11205548WA0307403074
B1751073832362N11205553WA0307203072
B1751083832367N11205558WA0307103071
B1751093832373N11205564WA0306803068
B1751103832378N11205571WA0306503065
B1751113832384N11205578WA0306203062
B1751123832390N11205584WA0305903059
B1751133832397N11205588WA0305803058
B1751143832404N11205591WA0305703057
B1751153832411N11205594WA0305603056
B1751163832418N11205595WA0305603056
B1751173832424N11205596WA0305603056
B1751183832428N11205597WA0305703057
B1751193832432N11205598WA0305803058
B1751203832434N11205600WA0305803058
B1751213832437N11205602WA0305503055
B1751223832442N11205604WA0305203052
B1751233832447N11205605WA0304903049
B1751243832453N11205606WA0304703047
B1751253832459N11205606WA0304603046
B1751263832464N11205607WA0304503045
B1751273832469N11205609WA0304603046
B1751283832473N11205611WA0304603046
B1751293832477N11205613WA0304603046
B1751303832481N11205616WA0304603046
B1751313832485N11205620WA0304503045
B1751323832489N11205623WA0304503045
B1751333832493N11205627WA0304403044
B1751343832497N11205630WA0304403044
B1751353832500N11205633WA0304403044
B1751363832505N11205637WA0304203042
B1751373832510N11205640WA0304203042
B1751383832515N11205644WA0304103041
B1751393832520N11205648WA0303903039
B1751403832527N11205651WA0303803038
B1751413832533N11205654WA0303703037
B1751423832540N11205658WA0303703037
B1751433832546N11205662WA0303703037
B1751443832552N11205665WA0303903039
B1751453832556N11205669WA0304203042
B1751463832559N11205672WA0304603046
B1751473832561N11205675WA0304703047
B1751483832562N11205680WA0304803048
B1751493832562N11205685WA0304603046
B1751503832559N11205692WA0304403044
B1751513832554N11205697WA0304203042
B1751523832548N11205699WA0304203042
B1751533832540N11205698WA0304203042
B1751543832534N11205694WA0304303043
B1751553832529N11205687WA0304303043
B1751563832527N11205679WA0304403044
B1751573832526N11205670WA0304403044
B1751583832526N11205663WA0304503045
B1751593832528N11205656WA0304603046
B1752003832532N11205651WA0304603046
B1752013832535N11205648WA0304603046
B1752023832539N11205645WA0304603046
B1752033832543N11205644WA0304603046
B1752043832548N11205644WA0304503045
B1752053832553N11205644WA0304403044
B1752063832558N11205645WA0304503045
B1752073832563N11205647WA0304503045
B1752083832568N11205648WA0304603046
B1752093832572N11205648WA0304703047
B1752103832576N11205648WA0304703047
B1752113832580N11205648WA0304703047
B1752123832585N11205648WA0304603046
B1752133832590N11205647WA0304503045
B1752143832595N11205647WA0304503045
B1752153832600N11205647WA0304503045
B1752163832605N11205648WA0304503045
B1752173832610N11205649WA0304403044
B1752183832615N11205650WA0304203042
B1752193832619N11205653WA0304003040
B1752203832624N11205656WA0303803038
B1752213832628N11205661WA0303603036
B1752223832632N11205667WA0303403034
B1752233832635N11205674WA0303303033
B1752243832638N11205680WA0303203032
B1752253832641N11205687WA0303003030
B1752263832645N11205695WA0302703027
B1752273832648N11205703WA0302303023
B1752283832652N11205711WA0301903019
B1752293832656N11205719WA0301603016
B1752303832659N11205726WA0301403014
B1752313832663N11205734WA0301203012
B1752323832666N11205741WA0300903009
B1752333832670N11205747WA0300703007
B1752343832675N11205753WA0300303003
B1752353832680N11205760WA0300003000
B1752363832685N11205766WA0299702997
B1752373832691N11205772WA0299402994
B1752383832697N11205778WA0299102991
B1752393832703N11205783WA0298802988
B1752403832710N11205788WA0298502985
B1752413832716N11205793WA0298202982
B1752423832723N11205797WA0298002980
B1752433832730N11205802WA0297702977
B1752443832737N11205805WA0297502975
B1752453832744N11205809WA0297302973
B1752463832751N11205812WA0297202972
B1752473832758N11205815WA0297102971
B1752483832765N11205818WA0296902969
B1752493832772N11205821WA0296802968
B1752503832779N11205824WA0296602966
B1752513832786N11205826WA0296402964
B1752523832793N11205827WA0296202962
B1752533832801N11205828WA0296102961
B1752543832808N11205828WA0296102961
B1752553832815N11205828WA0296202962
B1752563832822N11205827WA0296402964
B1752573832828N11205827WA0296702967
B1752583832832N11205826WA0297002970
B1752593832835N11205826WA0297402974
B1753003832838N11205827WA0297602976
B1753013832841N11205829WA0297702977
B1753023832844N11205832WA0297702977
B1753033832846N11205837WA0297802978
B1753043832846N11205842WA0297902979
B1753053832845N11205847WA0298102981
B1753063832841N11205851WA0298102981
B1753073832836N11205854WA0298102981
B1753083832829N11205854WA0298002980
B1753093832821N11205850WA0298002980
B1753103832815N11205844WA0298102981
B1753113832812N11205836WA0298202982
B1753123832810N11205827WA0298302983
B1753133832811N11205819WA0298302983
B1753143832812N11205811WA0298302983
B1753153832815N11205804WA0298402984
B1753163832819N11205800WA0298402984
B1753173832823N11205797WA0298602986
B1753183832827N11205795WA0298702987
B1753193832831N11205793WA0298902989
B1753203832835N11205793WA0299002990
B1753213832839N11205793WA0299102991
B1753223832842N11205793WA0299102991
B1753233832846N11205794WA0299202992
B1753243832850N11205795WA0299302993
B1753253832853N11205797WA0299302993
B1753263832856N11205799WA0299402994
B1753273832859N11205802WA0299402994
B1753283832863N11205804WA0299502995
B1753293832867N11205806WA0299402994
B1753303832871N11205808WA0299402994
B1753313832876N11205811WA0299302993
B1753323832880N11205815WA0299202992
B1753333832885N11205819WA0299202992
B1753343832890N11205823WA0299402994
B1753353832894N11205827WA0299602996
B1753363832896N11205832WA0300003000
B1753373832896N11205838WA0300103001
B1753383832894N11205845WA0300003000
B1753393832891N11205852WA0299902999
B1753403832886N11205858WA0299802998
B1753413832880N11205862WA0299802998
B1753423832873N11205863WA0299802998
B1753433832866N11205861WA0299802998
B1753443832860N11205856WA0299702997
B1753453832856N11205849WA0299602996
B1753463832852N11205841WA0299502995
B1753473832851N11205833WA0299502995
B1753483832852N11205824WA0299402994
B1753493832856N11205817WA0299302993
B1753503832860N11205810WA0299402994
B1753513832865N11205806WA0299602996
B1753523832869N11205803WA0299902999
B1753533832874N11205801WA0300103001
B1753543832878N11205800WA0300203002
B1753553832883N11205799WA0300303003
B1753563832888N11205799WA0300203002
B1753573832893N11205798WA0300003000
B1753583832899N11205798WA0299902999
B1753593832904N11205800WA0299802998
B1754003832910N11205802WA0299702997
B1754013832915N11205805WA0299502995
B1754023832920N11205808WA0299102991
B1754033832926N11205812WA0298802988
B1754043832931N11205815WA0298502985
B1754053832937N11205819WA0298202982
B1754063832943N11205821WA0297902979
B1754073832949N11205824WA0297602976
B1754083832955N11205826WA0297402974
B1754093832962N11205828WA0297102971
B1754103832968N11205829WA0296702967
B1754113832975N11205831WA0296402964
B1754123832983N11205832WA0296002960
B1754133832991N11205832WA0295602956
B1754143832999N11205833WA0295302953
B1754153833006N11205833WA0294902949
B1754163833014N11205833WA0294602946
B1754173833021N11205833WA0294402944
B1754183833029N11205835WA0294002940
B1754193833036N11205836WA0293802938
B1754203833043N11205838WA0293602936
B1754213833050N11205840WA0293402934
B1754223833057N11205842WA0293202932
B1754233833064N11205845WA0292902929
B1754243833071N11205847WA0292802928
B1754253833078N11205848WA0292502925
B1754263833085N11205850WA0292302923
B1754273833092N11205852WA0292102921
B1754283833100N11205854WA0291902919
B1754293833108N11205856WA0291702917
B1754303833115N11205859WA0291802918
B1754313833120N11205861WA0291902919
B1754323833126N11205863WA0292002920
B1754333833131N11205865WA0292102921
B1754343833136N11205867WA0292202922
B1754353833141N11205868WA0292202922
B1754363833146N11205869WA0292202922
B1754373833152N11205870WA0292102921
B1754383833158N11205871WA0292102921
B1754393833164N11205871WA0292102921
B1754403833169N11205870WA0292202922
B1754413833173N11205869WA0292202922
B1754423833177N11205868WA0292302923
B1754433833181N11205868WA0292202922
B1754443833185N11205868WA0292002920
B1754453833190N11205870WA0291702917
B1754463833194N11205872WA0291402914
B1754473833199N11205876WA0291202912
B1754483833204N11205879WA0291202912
B1754493833208N11205881WA0291102911
B1754503833212N11205884WA0291002910
B1754513833216N11205888WA0290902909
B1754523833220N11205892WA0290902909
B1754533833224N11205896WA0291002910
B1754543833228N11205899WA0291002910
B1754553833232N11205902WA0291002910
B1754563833236N11205906WA0290902909
B1754573833241N11205910WA0290802908
B1754583833245N11205914WA0290602906
B1754593833250N11205917WA0290402904
B1755003833255N11205920WA0290102901
B1755013833259N11205924WA0289802898
B1755023833263N11205929WA0289602896
B1755033833268N11205934WA0289302893
B1755043833272N11205939WA0289002890
B1755053833277N11205943WA0288802888
B1755063833281N11205947WA0288502885
B1755073833287N11205950WA0288302883
B1755083833293N11205953WA0288002880
B1755093833299N11205956WA0287602876
B1755103833307N11205958WA0287302873
B1755113833315N11205960WA0286902869
B1755123833324N11205961WA0286602866
B1755133833332N11205962WA0286302863
B1755143833341N11205963WA0286102861
B1755153833350N11205963WA0285902859
B1755163833359N11205964WA0285802858
B1755173833367N11205965WA0285702857
B1755183833375N11205966WA0285502855
B1755193833384N11205967WA0285402854
B1755203833392N11205968WA0285202852
B1755213833400N11205968WA0284902849
B1755223833408N11205969WA0284602846
B1755233833417N11205970WA0284302843
B1755243833426N11205972WA0284002840
B1755253833434N11205974WA0283702837
B1755263833442N11205978WA0283402834
B1755273833450N11205982WA0283202832
B1755283833457N11205987WA0283102831
B1755293833464N11205992WA0282902829
B1755303833470N11205998WA0282802828
B1755313833476N11206004WA0282702827
B1755323833481N11206010WA0282602826
B1755333833486N11206017WA0282402824
B1755343833491N11206024WA0282202822
B1755353833495N11206031WA0282002820
B1755363833500N11206039WA0281802818
B1755373833504N11206047WA0281602816
B1755383833507N11206055WA0281502815
B1755393833511N11206063WA0281302813
B1755403833514N11206071WA0281102811
B1755413833517N11206079WA0280902809
B1755423833520N11206087WA0280702807
B1755433833523N11206095WA0280502805
B1755443833526N11206103WA0280302803
B1755453833528N11206111WA0280102801
B1755463833530N11206119WA0279902799
B1755473833533N11206127WA0279702797
B1755483833535N11206135WA0279502795
B1755493833537N11206144WA0279302793
B1755503833539N11206153WA0279102791
B1755513833542N11206162WA0278902789
B1755523833543N11206171WA0278702787
B1755533833545N11206180WA0278502785
B1755543833546N11206190WA0278302783
B1755553833547N11206199WA0278102781
B1755563833548N11206208WA0278002780
B1755573833549N11206217WA0277902779
B1755583833550N11206226WA0277902779
B1755593833551N11206234WA0277902779
B1756003833552N11206242WA0277802778
B1756013833553N11206250WA0277702777
B1756023833553N11206259WA0277502775
B1756033833554N11206268WA0277302773
B1756043833554N11206277WA0277102771
B1756053833554N11206287WA0276902769
B1756063833553N11206297WA0276802768
B1756073833553N11206306WA0276702767
B1756083833551N11206315WA0276602766
B1756093833550N11206323WA0276602766
B1756103833548N11206331WA0276502765
B1756113833546N11206338WA0276402764
B1756123833544N11206346WA0276202762
B1756133833542N11206354WA0275902759
B1756143833541N11206363WA0275802758
B1756153833541N11206371WA0275602756
B1756163833542N11206380WA0275502755
B1756173833543N11206388WA0275402754
B1756183833545N11206396WA0275202752
B1756193833548N11206403WA0275102751
B1756203833552N11206409WA0275002750
B1756213833558N11206415WA0275002750
B1756223833564N11206418WA0274902749
B1756233833571N11206418WA0274802748
B1756243833579N11206417WA0274602746
B1756253833587N11206415WA0274502745
B1756263833594N11206412WA0274402744
B1756273833601N11206407WA0274202742
B1756283833609N11206402WA0274102741
B1756293833616N11206397WA0273902739
B1756303833623N11206393WA0273702737
B1756313833631N11206389WA0273602736
B1756323833640N11206387WA0273402734
B1756333833648N11206386WA0273202732
B1756343833657N11206387WA0273102731
B1756353833665N11206389WA0273102731
B1756363833672N11206392WA0273002730
B1756373833678N11206397WA0272902729
B1756383833683N11206402WA0272702727
B1756393833687N11206409WA0272502725
B1756403833690N11206417WA0272402724
B1756413833692N11206425WA0272202722
B1756423833692N11206433WA0272002720
B1756433833691N11206442WA0271802718
B1756443833690N11206450WA0271702717
B1756453833687N11206458WA0271502715
B1756463833684N11206465WA0271402714
B1756473833680N11206472WA0271202712
B1756483833676N11206479WA0271102711
B1756493833672N11206485WA0270902709
B1756503833668N11206491WA0270802708
B1756513833664N11206498WA0270702707
B1756523833661N11206504WA0270502705
B1756533833658N11206511WA0270402704
B1756543833654N11206518WA0270302703
B1756553833652N11206524WA0270202702
B1756563833649N11206531WA0270102701
B1756573833646N11206538WA0269802698
B1756583833643N11206545WA0269502695
B1756593833639N11206553WA0269202692
B1757003833636N11206561WA0268802688
B1757013833632N11206570WA0268402684
B1757023833628N11206580WA0268002680
B1757033833623N11206589WA0267702677
B1757043833619N11206599WA0267402674
B1757053833615N11206608WA0267202672
B1757063833611N11206617WA0267002670
B1757073833606N11206625WA0266902669
B1757083833602N11206633WA0266702667
B1757093833597N11206641WA0266502665
B1757103833593N11206649WA0266302663
B1757113833589N11206657WA0266002660
B1757123833586N11206666WA0265702657
B1757133833583N11206676WA0265502655
B1757143833580N11206685WA0265302653
B1757153833578N11206695WA0265102651
B1757163833576N11206704WA0265002650
B1757173833574N11206712WA0264902649
B1757183833572N11206719WA0264902649
B1757193833570N11206726WA0264702647
B1757203833569N11206734WA0264502645
B1757213833567N11206742WA0264302643
B1757223833565N11206751WA0264102641
B1757233833563N11206759WA0263902639
B1757243833561N11206768WA0263702637
B1757253833559N11206777WA0263502635
B1757263833557N11206786WA0263402634
B1757273833555N11206794WA0263202632
B1757283833552N11206802WA0263102631
B1757293833549N11206810WA0263002630
B1757303833547N11206818WA0262802628
B1757313833545N11206826WA0262702627
B1757323833544N11206834WA0262702627
B1757333833544N11206841WA0262602626
B1757343833544N11206848WA0262702627
B1757353833545N11206853WA0262702627
B1757363833545N11206859WA0262702627
B1757373833546N11206866WA0262602626
B1757383833548N11206872WA0262502625
B1757393833550N11206879WA0262402624
B1757403833553N11206885WA0262302623
B1757413833556N11206891WA0262202622
B1757423833559N11206897WA0262102621
B1757433833561N11206904WA0262102621
B1757443833564N11206910WA0262002620
B1757453833565N11206917WA0261902619
B1757463833567N11206924WA0261702617
B1757473833568N11206931WA0261602616
B1757483833568N11206938WA0261502615
B1757493833568N11206944WA0261502615
B1757503833568N11206950WA0261502615
B1757513833568N11206956WA0261402614
B1757523833567N11206961WA0261302613
B1757533833566N11206967WA0261102611
B1757543833565N11206974WA0260902609
B1757553833563N11206981WA0260702607
B1757563833562N11206989WA0260402604
B1757573833560N11206998WA0260202602
B1757583833559N11207006WA0260002600
B1757593833558N11207015WA0259802598
B1758003833557N11207024WA0259702597
B1758013833556N11207032WA0259602596
B1758023833555N11207039WA0259602596
B1758033833555N11207047WA0259602596
B1758043833554N11207054WA0259602596
B1758053833554N11207060WA0259602596
B1758063833553N11207066WA0259602596
B1758073833553N11207072WA0259502595
B1758083833552N11207078WA0259402594
B1758093833551N11207084WA0259202592
B1758103833550N11207090WA0259102591
B1758113833549N11207097WA0258802588
B1758123833547N11207105WA0258702587
B1758133833546N11207112WA0258502585
B1758143833544N11207119WA0258402584
B1758153833543N11207126WA0258402584
B1758163833541N11207132WA0258302583
B1758173833540N11207138WA0258302583
B1758183833539N11207145WA0258202582
B1758193833538N11207151WA0258102581
B1758203833537N11207157WA0258002580
B1758213833535N11207164WA0257902579
B1758223833534N11207170WA0257802578
B1758233833533N11207176WA0257702577
B1758243833531N11207183WA0257602576
B1758253833529N11207189WA0257402574
B1758263833526N11207195WA0257202572
B1758273833523N11207202WA0256902569
B1758283833519N11207209WA0256602566
B1758293833516N11207216WA0256502565
B1758303833512N11207223WA0256402564
B1758313833509N11207229WA0256402564
B1758323833506N11207235WA0256402564
B1758333833503N11207242WA0256302563
B1758343833500N11207248WA0256202562
B1758353833497N11207256WA0256102561
B1758363833494N11207263WA0256002560
B1758373833492N11207271WA0255902559
B1758383833490N11207279WA0255802558
B1758393833489N11207287WA0255702557
B1758403833488N11207296WA0255602556
B1758413833487N11207304WA0255602556
B1758423833487N11207312WA0255602556
B1758433833487N11207320WA0255602556
B1758443833487N11207328WA0255502555
B1758453833486N11207336WA0255402554
B1758463833484N11207344WA0255202552
B1758473833481N11207352WA0255102551
B1758483833479N11207360WA0255102551
B1758493833476N11207367WA0255202552
B1758503833474N11207373WA0255202552
B1758513833473N11207379WA0255302553
B1758523833472N11207385WA0255302553
B1758533833470N11207392WA0255202552
B1758543833469N11207399WA0255002550
B1758553833468N11207406WA0254902549
B1758563833466N11207412WA0254702547
B1758573833464N11207419WA0254502545
B1758583833461N11207425WA0254402544
B1758593833458N11207431WA0254402544
B1759003833455N11207436WA0254302543
B1759013833451N11207441WA0254202542
B1759023833447N11207446WA0254002540
B1759033833442N11207451WA0253802538
B1759043833436N11207457WA0253402534
B1759053833430N11207463WA0253002530
B1759063833424N11207470WA0252702527
B1759073833417N11207476WA0252502525
B1759083833410N11207482WA0252402524
B1759093833404N11207488WA0252302523
B1759103833397N11207493WA0252302523
B1759113833391N11207497WA0252202522
B1759123833385N11207502WA0252002520
B1759133833379N11207507WA0251802518
B1759143833373N11207513WA0251602516
B1759153833367N11207519WA0251402514
B1759163833361N11207526WA0251202512
B1759173833354N11207532WA0251002510
B1759183833348N11207537WA0250802508
B1759193833341N11207543WA0250602506
B1759203833335N11207550WA0250402504
B1759213833329N11207557WA0250302503
B1759223833323N11207564WA0250202502
B1759233833318N11207571WA0250102501
B1759243833314N11207578WA0250002500
B1759253833309N11207586WA0249902499
B1759263833305N11207594WA0249702497
B1759273833300N11207602WA0249602496
B1759283833296N11207611WA0249402494
B1759293833292N11207620WA0249102491
B1759303833287N11207628WA0248902489
B1759313833282N11207637WA0248702487
B1759323833277N11207645WA0248502485
B1759333833271N11207653WA0248302483
B1759343833266N11207661WA0248202482
B1759353833260N11207668WA0248002480
B1759363833253N11207674WA0247802478
B1759373833247N11207681WA0247602476
B1759383833240N11207687WA0247402474
B1759393833233N11207693WA0247302473
B1759403833226N11207699WA0247102471
B1759413833219N11207704WA0246902469
B1759423833211N11207709WA0246702467
B1759433833204N11207714WA0246502465
B1759443833196N11207718WA0246302463
B1759453833188N11207723WA0246102461
B1759463833180N11207727WA0245902459
B1759473833173N11207733WA0245902459
B1759483833168N11207739WA0245902459
B1759493833165N11207746WA0245902459
B1759503833162N11207753WA0245802458
B1759513833161N11207761WA0245602456
B1759523833161N11207769WA0245502455
B1759533833164N11207776WA0245302453
B1759543833168N11207782WA0245002450
B1759553833174N11207786WA0244702447
B1759563833181N11207787WA0244402444
B1759573833189N11207785WA0244002440
B1759583833196N11207782WA0243802438
B1759593833202N11207778WA0243802438
B1800003833208N11207773WA0243702437
B1800013833213N11207768WA0243602436
B1800023833218N11207763WA0243502435
B1800033833222N11207756WA0243302433
B1800043833227N11207749WA0243002430
B1800053833232N11207742WA0242802428
B1800063833236N11207735WA0242602426
B1800073833241N11207729WA0242402424
B1800083833246N11207722WA0242302423
B1800093833252N11207717WA0242102421
B1800103833258N11207711WA0241802418
B1800113833264N11207706WA0241702417
B1800123833270N11207701WA0241502415
B1800133833276N11207696WA0241302413
B1800143833282N11207692WA0241102411
B1800153833289N11207687WA0241002410
B1800163833295N11207683WA0240802408
B1800173833302N11207679WA0240602406
B1800183833309N11207676WA0240502405
B1800193833315N11207673WA0240402404
B1800203833322N11207671WA0240202402
B1800213833330N11207668WA0239802398
B1800223833338N11207666WA0239402394
B1800233833346N11207664WA0238902389
B1800243833355N11207661WA0238402384
B1800253833365N11207658WA0238002380
B1800263833374N11207654WA0237802378
B1800273833382N11207651WA0237602376
B1800283833391N11207647WA0237402374
B1800293833399N11207643WA0237202372
B1800303833406N11207640WA0237102371
B1800313833414N11207637WA0236902369
B1800323833421N11207634WA0236802368
B1800333833428N11207631WA0236802368
B1800343833435N11207629WA0236802368
B1800353833441N11207626WA0236702367
B1800363833447N11207623WA0236402364
B1800373833454N11207619WA0236102361
B1800383833462N11207615WA0235702357
B1800393833469N11207612WA0235502355
B1800403833476N11207609WA0235302353
B1800413833483N11207606WA0235102351
B1800423833490N11207603WA0235002350
B1800433833497N11207599WA0234802348
B1800443833504N11207596WA0234602346
B1800453833511N11207592WA0234502345
B1800463833517N11207587WA0234402344
B1800473833523N11207582WA0234402344
B1800483833530N11207577WA0234302343
B1800493833536N11207572WA0234202342
B1800503833542N11207567WA0234202342
B1800513833548N11207563WA0234302343
B1800523833552N11207560WA0234702347
B1800533833556N11207558WA0234902349
B1800543833559N11207556WA0235102351
B1800553833562N11207555WA0235302353
B1800563833564N11207554WA0235502355
B1800573833568N11207553WA0235502355
B1800583833572N11207551WA0235402354
B1800593833576N11207550WA0235302353
B1801003833580N11207548WA0235302353
B1801013833584N11207545WA0235402354
B1801023833588N11207543WA0235402354
B1801033833591N11207539WA0235402354
B1801043833593N11207535WA0235402354
B1801053833596N11207530WA0235402354
B1801063833597N11207524WA0235402354
B1801073833598N11207518WA0235302353
B1801083833597N11207511WA0235402354
B1801093833596N11207504WA0235502355
B1801103833594N11207498WA0235602356
B1801113833591N11207494WA0235802358
B1801123833587N11207491WA0235802358
B1801133833582N11207488WA0235802358
B1801143833576N11207487WA0235802358
B1801153833570N11207486WA0236002360
B1801163833564N11207486WA0236302363
B1801173833560N11207485WA0236602366
B1801183833556N11207482WA0236902369
B1801193833554N11207476WA0236902369
B1801203833552N11207470WA0237102371
B1801213833553N11207463WA0237102371
B1801223833557N11207458WA0237002370
B1801233833562N11207456WA0236802368
B1801243833567N11207456WA0236602366
B1801253833573N11207458WA0236502365
B1801263833577N11207463WA0236602366
B1801273833580N11207467WA0236802368
B1801283833582N11207472WA0236902369
B1801293833584N11207477WA0236902369
B1801303833586N11207482WA0236902369
B1801313833590N11207486WA0236802368
B1801323833593N11207490WA0236702367
B1801333833598N11207494WA0236702367
B1801343833602N11207498WA0236602366
B1801353833606N11207502WA0236702367
B1801363833610N11207505WA0236702367
B1801373833613N11207508WA0236602366
B1801383833616N11207513WA0236502365
B1801393833617N11207519WA0236402364
B1801403833617N11207526WA0236102361
B1801413833616N11207533WA0236002360
B1801423833612N11207540WA0235802358
B1801433833607N11207545WA0235702357
B1801443833601N11207548WA0235502355
B1801453833594N11207550WA0235402354
B1801463833587N11207551WA0235302353
B1801473833580N11207550WA0235302353
B1801483833573N11207549WA0235302353
B1801493833566N11207546WA0235202352
B1801503833560N11207542WA0235202352
B1801513833555N11207537WA0235102351
B1801523833552N11207531WA0235102351
B1801533833551N11207525WA0235202352
B1801543833551N11207520WA0235202352
B1801553833551N11207514WA0235302353
B1801563833552N11207509WA0235402354
B1801573833552N11207503WA0235502355
B1801583833553N11207497WA0235602356
B1801593833552N11207491WA0235702357
B1802003833551N11207485WA0235802358
B1802013833551N11207479WA0235902359
B1802023833551N11207473WA0235902359
B1802033833551N11207467WA0235902359
B1802043833553N11207462WA0235902359
B1802053833555N11207456WA0235802358
B1802063833558N11207451WA0235802358
B1802073833561N11207447WA0235702357
B1802083833565N11207444WA0235602356
B1802093833569N11207442WA0235502355
B1802103833574N11207441WA0235502355
B1802113833578N11207441WA0235402354
B1802123833583N11207441WA0235302353
B1802133833588N11207443WA0235302353
B1802143833592N11207446WA0235102351
B1802153833596N11207450WA0235002350
B1802163833600N11207454WA0234902349
B1802173833604N11207458WA0234802348
B1802183833609N11207461WA0234702347
B1802193833614N11207463WA0234702347
B1802203833618N11207464WA0234602346
B1802213833623N11207464WA0234402344
B1802223833627N11207463WA0234302343
B1802233833631N11207459WA0234002340
B1802243833635N11207455WA0233802338
B1802253833639N11207450WA0233502335
B1802263833643N11207444WA0233302333
B1802273833647N11207439WA0233102331
B1802283833652N11207434WA0233002330
B1802293833657N11207430WA0232902329
B1802303833662N11207427WA0232702327
B1802313833667N11207424WA0232502325
B1802323833673N11207421WA0232302323
B1802333833678N11207419WA0232202322
B1802343833684N11207417WA0232102321
B1802353833689N11207415WA0232002320
B1802363833695N11207414WA0231902319
B1802373833700N11207413WA0231702317
B1802383833706N11207411WA0231502315
B1802393833712N11207408WA0231202312
B1802403833718N11207405WA0230902309
B1802413833725N11207401WA0230702307
B1802423833731N11207396WA0230402304
B1802433833738N11207391WA0230202302
B1802443833744N11207385WA0230002300
B1802453833750N11207380WA0229802298
B1802463833755N11207375WA0229702297
B1802473833761N11207370WA0229602296
B1802483833766N11207365WA0229402294
B1802493833772N11207359WA0229202292
B1802503833777N11207354WA0229002290
B1802513833782N11207348WA0228802288
B1802523833788N11207342WA0228502285
B1802533833794N11207336WA0228302283
B1802543833800N11207330WA0228102281
B1802553833806N11207326WA0228002280
B1802563833813N11207321WA0227802278
B1802573833819N11207316WA0227702277
B1802583833826N11207312WA0227602276
B1802593833832N11207307WA0227502275
B1803003833838N11207303WA0227402274
B1803013833844N11207300WA0227302273
B1803023833850N11207296WA0227302273
B1803033833856N11207294WA0227202272
B1803043833862N11207291WA0227102271
B1803053833869N11207289WA0227002270
B1803063833875N11207288WA0226802268
B1803073833882N11207286WA0226602266
B1803083833889N11207285WA0226502265
B1803093833896N11207285WA0226302263
B1803103833903N11207284WA0226102261
B1803113833910N11207284WA0225902259
B1803123833917N11207284WA0225702257
B1803133833924N11207284WA0225502255
B1803143833932N11207283WA0225302253
B1803153833940N11207283WA0225102251
B1803163833947N11207281WA0225002250
B1803173833955N11207280WA0224902249
B1803183833962N11207279WA0224802248
B1803193833969N11207277WA0224702247
B1803203833977N11207275WA0224702247
B1803213833983N11207273WA0224702247
B1803223833989N11207270WA0224702247
B1803233833994N11207266WA0224702247
B1803243833999N11207263WA0224802248
B1803253834003N11207260WA0224802248
B1803263834007N11207257WA0224902249
B1803273834011N11207253WA0224902249
B1803283834015N11207249WA0225002250
B1803293834018N11207245WA0225102251
B1803303834022N11207242WA0225102251
B1803313834025N11207239WA0225102251
B1803323834029N11207234WA0225102251
B1803333834033N11207229WA0225002250
B1803343834037N11207225WA0224902249
B1803353834040N11207220WA0224802248
B1803363834043N11207214WA0224702247
B1803373834044N11207207WA0224602246
B1803383834044N11207200WA0224602246
B1803393834044N11207193WA0224502245
B1803403834042N11207187WA0224502245
B1803413834039N11207182WA0224502245
B1803423834035N11207178WA0224502245
B1803433834031N11207176WA0224502245
B1803443834026N11207175WA0224402244
B1803453834020N11207173WA0224402244
B1803463834015N11207173WA0224402244
B1803473834009N11207173WA0224402244
B1803483834003N11207174WA0224302243
B1803493833998N11207177WA0224302243
B1803503833992N11207180WA0224302243
B1803513833987N11207184WA0224302243
B1803523833983N11207188WA0224302243
B1803533833979N11207192WA0224302243
B1803543833975N11207198WA0224202242
B1803553833973N11207204WA0224002240
B1803563833971N11207211WA0223902239
B1803573833970N11207218WA0223802238
B1803583833970N11207224WA0223702237
B1803593833971N11207230WA0223602236
B1804003833971N11207236WA0223502235
B1804013833973N11207242WA0223202232
B1804023833975N11207248WA0223002230
B1804033833978N11207255WA0222902229
B1804043833981N11207261WA0222802228
B1804053833984N11207266WA0222802228
B1804063833987N11207271WA0222902229
B1804073833991N11207275WA0222902229
B1804083833996N11207278WA0222802228
B1804093834001N11207280WA0222802228
B1804103834006N11207281WA0222702227
B1804113834011N11207282WA0222702227
B1804123834017N11207281WA0222802228
B1804133834022N11207280WA0222802228
B1804143834026N11207279WA0222902229
B1804153834030N11207277WA0223102231
B1804163834034N11207275WA0223202232
B1804173834038N11207273WA0223302233
B1804183834042N11207270WA0223402234
B1804193834046N11207268WA0223502235
B1804203834050N11207267WA0223502235
B1804213834054N11207266WA0223602236
B1804223834059N11207266WA0223602236
B1804233834063N11207267WA0223702237
B1804243834068N11207269WA0223702237
B1804253834072N11207272WA0223902239
B1804263834076N11207277WA0224002240
B1804273834077N11207284WA0224102241
B1804283834077N11207290WA0224102241
B1804293834076N11207298WA0224002240
B1804303834072N11207304WA0224002240
B1804313834068N11207310WA0223902239
B1804323834063N11207315WA0224002240
B1804333834057N11207319WA0224102241
B1804343834052N11207322WA0224302243
B1804353834047N11207323WA0224502245
B1804363834042N11207322WA0224502245
B1804373834036N11207319WA0224402244
B1804383834031N11207314WA0224402244
B1804393834028N11207307WA0224502245
B1804403834027N11207301WA0224602246
B1804413834026N11207295WA0224702247
B1804423834027N11207289WA0224802248
B1804433834028N11207283WA0224902249
B1804443834030N11207279WA0225102251
B1804453834033N11207275WA0225202252
B1804463834036N11207272WA0225302253
B1804473834041N11207271WA0225402254
B1804483834046N11207272WA0225502255
B1804493834050N11207275WA0225702257
B1804503834052N11207280WA0225902259
B1804513834053N11207286WA0226002260
B1804523834052N11207293WA0225902259
B1804533834049N11207300WA0225802258
B1804543834045N11207307WA0225802258
B1804553834040N11207314WA0225802258
B1804563834035N11207319WA0225902259
B1804573834029N11207322WA0226002260
B1804583834022N11207323WA0226102261
B1804593834016N11207322WA0226202262
B1805003834011N11207318WA0226302263
B1805013834007N11207312WA0226402264
B1805023834003N11207306WA0226502265
B1805033834001N11207299WA0226602266
B1805043834001N11207293WA0226702267
B1805053834001N11207287WA0226802268
B1805063834002N11207280WA0226902269
B1805073834004N11207274WA0226902269
B1805083834006N11207267WA0227102271
B1805093834010N11207263WA0227302273
B1805103834014N11207261WA0227502275
B1805113834019N11207263WA0227602276
B1805123834022N11207267WA0227702277
B1805133834025N11207273WA0227802278
B1805143834025N11207281WA0227802278
B1805153834023N11207288WA0227902279
B1805163834019N11207294WA0228002280
B1805173834014N11207298WA0228102281
B1805183834007N11207301WA0228202282
B1805193834001N11207300WA0228202282
B1805203833995N11207297WA0228302283
B1805213833990N11207292WA0228402284
B1805223833986N11207285WA0228502285
B1805233833984N11207278WA0228702287
B1805243833984N11207271WA0228802288
B1805253833985N11207265WA0229002290
B1805263833989N11207261WA0229002290
B1805273833993N11207258WA0229102291
B1805283833997N11207258WA0229202292
B1805293834002N11207260WA0229302293
B1805303834006N11207263WA0229302293
B1805313834009N11207267WA0229402294
B1805323834011N11207273WA0229502295
B1805333834012N11207280WA0229602296
B1805343834012N11207287WA0229702297
B1805353834011N11207294WA0229802298
B1805363834007N11207301WA0230002300
B1805373834002N11207306WA0230102301
B1805383833997N11207308WA0230202302
B1805393833991N11207308WA0230402304
B1805403833985N11207305WA0230402304
B1805413833980N11207300WA0230402304
B1805423833976N11207294WA0230502305
B1805433833974N11207288WA0230602306
B1805443833973N11207281WA0230802308
B1805453833973N11207275WA0230902309
B1805463833974N11207269WA0230902309
B1805473833977N11207263WA0231002310
B1805483833980N11207259WA0231202312
B1805493833985N11207257WA0231202312
B1805503833989N11207258WA0231302313
B1805513833994N11207261WA0231302313
B1805523833997N11207265WA0231402314
B1805533834001N11207271WA0231502315
B1805543834002N11207277WA0231702317
B1805553834002N11207284WA0231802318
B1805563834001N11207291WA0231902319
B1805573833999N11207297WA0232102321
B1805583833995N11207303WA0232202322
B1805593833990N11207307WA0232302323
B1806003833983N11207309WA0232302323
B1806013833977N11207308WA0232402324
B1806023833971N11207306WA0232402324
B1806033833966N11207302WA0232402324
B1806043833962N11207297WA0232502325
B1806053833959N11207291WA0232502325
B1806063833956N11207284WA0232602326
B1806073833955N11207277WA0232602326
B1806083833955N11207270WA0232702327
B1806093833955N11207263WA0232802328
B1806103833957N11207256WA0232902329
B1806113833960N11207251WA0232902329
B1806123833963N11207246WA0233002330
B1806133833967N11207243WA0233002330
B1806143833971N11207240WA0233002330
B1806153833976N11207238WA0233102331
B1806163833980N11207237WA0233102331
B1806173833985N11207237WA0233102331
B1806183833990N11207238WA0233302333
B1806193833994N11207239WA0233402334
B1806203833998N11207242WA0233402334
B1806213834002N11207245WA0233402334
B1806223834005N11207250WA0233402334
B1806233834008N11207255WA0233402334
B1806243834011N11207261WA0233502335
B1806253834014N11207267WA0233802338
B1806263834015N11207273WA0234002340
B1806273834016N11207280WA0234202342
B1806283834015N11207287WA0234102341
B1806293834014N11207294WA0234002340
B1806303834012N11207302WA0233902339
B1806313834010N11207308WA0233902339
B1806323834008N11207314WA0233902339
B1806333834004N11207320WA0233902339
B1806343833999N11207325WA0233902339
B1806353833994N11207330WA0233902339
B1806363833988N11207332WA0234002340
B1806373833981N11207333WA0234002340
B1806383833975N11207333WA0234002340
B1806393833968N11207330WA0234002340
B1806403833962N11207327WA0234102341
B1806413833958N11207322WA0234202342
B1806423833955N11207316WA0234302343
B1806433833952N11207309WA0234302343
B1806443833950N11207302WA0234202342
B1806453833949N11207295WA0234202342
B1806463833949N11207288WA0234202342
B1806473833949N11207281WA0234202342
B1806483833950N11207274WA0234202342
B1806493833950N11207267WA0234202342
B1806503833950N11207260WA0234302343
B1806513833950N11207254WA0234402344
B1806523833949N11207248WA0234402344
B1806533833949N11207242WA0234502345
B1806543833950N11207236WA0234402344
B1806553833952N11207231WA0234402344
B1806563833955N11207225WA0234302343
B1806573833958N11207221WA0234202342
B1806583833963N11207217WA0234102341
B1806593833967N11207213WA0234102341
B1807003833972N11207210WA0234302343
B1807013833977N11207208WA0234602346
B1807023833981N11207208WA0234902349
B1807033833985N11207211WA0235002350
B1807043833988N11207215WA0235102351
B1807053833991N11207221WA0235102351
B1807063833993N11207228WA0235102351
B1807073833993N11207235WA0235102351
B1807083833990N11207241WA0235102351
B1807093833985N11207247WA0234902349
B1807103833979N11207250WA0234702347
B1807113833973N11207252WA0234602346
B1807123833966N11207253WA0234602346
B1807133833959N11207253WA0234702347
B1807143833953N11207253WA0234802348
B1807153833948N11207253WA0235002350
B1807163833943N11207253WA0235002350
B1807173833937N11207255WA0235002350
B1807183833932N11207257WA0234902349
B1807193833928N11207261WA0234802348
B1807203833923N11207265WA0234702347
B1807213833919N11207270WA0234602346
B1807223833915N11207277WA0234502345
B1807233833913N11207284WA0234402344
B1807243833912N11207291WA0234302343
B1807253833912N11207298WA0234302343
B1807263833913N11207304WA0234302343
B1807273833915N11207309WA0234302343
B1807283833918N11207314WA0234202342
B1807293833923N11207317WA0234002340
B1807303833928N11207319WA0233902339
B1807313833933N11207319WA0233802338
B1807323833937N11207318WA0233802338
B1807333833942N11207315WA0233802338
B1807343833945N11207311WA0233702337
B1807353833948N11207306WA0233702337
B1807363833950N11207301WA0233802338
B1807373833952N11207296WA0233902339
B1807383833954N11207291WA0234002340
B1807393833956N11207286WA0234002340
B1807403833958N11207281WA0234102341
B1807413833961N11207277WA0234102341
B1807423833963N11207274WA0234102341
B1807433833967N11207272WA0234002340
B1807443833970N11207269WA0233802338
B1807453833974N11207265WA0233702337
B1807463833978N11207260WA0233502335
B1807473833981N11207254WA0233302333
B1807483833983N11207248WA0233202332
B1807493833985N11207242WA0233102331
B1807503833987N11207235WA0233002330
B1807513833988N11207228WA0233002330
B1807523833988N11207222WA0232902329
B1807533833989N11207215WA0232902329
B1807543833990N11207209WA0232802328
B1807553833991N11207203WA0232702327
B1807563833993N11207197WA0232502325
B1807573833995N11207191WA0232302323
B1807583833997N11207183WA0232102321
B1807593834000N11207176WA0232102321
B1808003834003N11207170WA0232202322
B1808013834006N11207166WA0232402324
B1808023834010N11207162WA0232602326
B1808033834014N11207160WA0232602326
B1808043834018N11207158WA0232702327
B1808053834022N11207156WA0232602326
B1808063834027N11207153WA0232602326
B1808073834032N11207150WA0232502325
B1808083834036N11207145WA0232402324
B1808093834041N11207142WA0232202322
B1808103834045N11207139WA0232102321
B1808113834050N11207137WA0231902319
B1808123834055N11207135WA0231702317
B1808133834060N11207132WA0231402314
B1808143834065N11207128WA0231202312
B1808153834070N11207123WA0231002310
B1808163834075N11207117WA0230802308
B1808173834079N11207111WA0230702307
B1808183834082N11207105WA0230702307
B1808193834085N11207099WA0230502305
B1808203834087N11207092WA0230402304
B1808213834091N11207085WA0230202302
B1808223834094N11207078WA0229902299
B1808233834098N11207071WA0229802298
B1808243834102N11207065WA0229602296
B1808253834106N11207059WA0229502295
B1808263834110N11207053WA0229402294
B1808273834114N11207048WA0229302293
B1808283834118N11207042WA0229102291
B1808293834122N11207037WA0229002290
B1808303834127N11207032WA0228802288
B1808313834132N11207027WA0228702287
B1808323834137N11207023WA0228502285
B1808333834142N11207019WA0228402284
B1808343834148N11207016WA0228202282
B1808353834153N11207012WA0228102281
B1808363834158N11207008WA0228002280
B1808373834162N11207005WA0227902279
B1808383834166N11207001WA0227802278
B1808393834170N11206997WA0227702277
B1808403834175N11206993WA0227602276
B1808413834180N11206989WA0227502275
B1808423834184N11206985WA0227302273
B1808433834190N11206981WA0227202272
B1808443834195N11206976WA0227002270
B1808453834201N11206971WA0226802268
B1808463834206N11206965WA0226502265
B1808473834212N11206959WA0226402264
B1808483834218N11206953WA0226302263
B1808493834224N11206947WA0226402264
B1808503834229N11206941WA0226502265
B1808513834234N11206936WA0226802268
B1808523834238N11206932WA0227002270
B1808533834243N11206931WA0227302273
B1808543834246N11206931WA0227402274
B1808553834250N11206933WA0227302273
B1808563834253N11206937WA0227102271
B1808573834256N11206942WA0226902269
B1808583834257N11206949WA0226802268
B1808593834257N11206957WA0226602266
B1809003834255N11206964WA0226502265
B1809013834252N11206970WA0226502265
B1809023834248N11206975WA0226402264
B1809033834243N11206979WA0226302263
B1809043834237N11206982WA0226202262
B1809053834232N11206982WA0226102261
B1809063834226N11206980WA0226002260
B1809073834220N11206977WA0225902259
B1809083834215N11206974WA0225902259
B1809093834210N11206969WA0225902259
B1809103834205N11206964WA0225902259
B1809113834201N11206958WA0226002260
B1809123834197N11206953WA0226002260
B1809133834194N11206947WA0226102261
B1809143834190N11206942WA0226102261
B1809153834186N11206936WA0226102261
B1809163834182N11206930WA0226202262
B1809173834177N11206924WA0226202262
B1809183834174N11206919WA0226202262
B1809193834171N11206913WA0226202262
B1809203834168N11206907WA0226202262
B1809213834167N11206900WA0226202262
B1809223834168N11206894WA0226102261
B1809233834171N11206887WA0225902259
B1809243834174N11206881WA0225602256
B1809253834179N11206875WA0225402254
B1809263834185N11206871WA0225202252
B1809273834190N11206868WA0225102251
B1809283834196N11206867WA0225102251
B1809293834201N11206866WA0225002250
B1809303834206N11206865WA0225002250
B1809313834211N11206865WA0224902249
B1809323834217N11206865WA0224702247
B1809333834223N11206865WA0224602246
B1809343834230N11206865WA0224202242
B1809353834237N11206864WA0223902239
B1809363834244N11206863WA0223602236
B1809373834251N11206861WA0223402234
B1809383834258N11206858WA0223302233
B1809393834264N11206855WA0223202232
B1809403834270N11206852WA0223102231
B1809413834277N11206849WA0223002230
B1809423834282N11206845WA0222902229
B1809433834288N11206843WA0222802228
B1809443834294N11206840WA0222702227
B1809453834300N11206840WA0222502225
B1809463834305N11206841WA0222402224
B1809473834310N11206846WA0222302223
B1809483834313N11206852WA0222102221
B1809493834315N11206860WA0221802218
B1809503834317N11206869WA0221602216
B1809513834318N11206878WA0221302213
B1809523834318N11206888WA0221002210
B1809533834317N11206898WA0220802208
B1809543834317N11206908WA0220602206
B1809553834315N11206918WA0220502205
B1809563834314N11206928WA0220302203
B1809573834312N11206938WA0220102201
B1809583834310N11206947WA0220002200
B1809593834308N11206957WA0219802198
B1810003834306N11206965WA0219702197
B1810013834304N11206974WA0219502195
B1810023834301N11206983WA0219302193
B1810033834297N11206992WA0219102191
B1810043834295N11207001WA0218902189
B1810053834292N11207010WA0218802188
B1810063834291N11207020WA0218602186
B1810073834290N11207029WA0218402184
B1810083834290N11207039WA0218302183
B1810093834290N11207048WA0218102181
B1810103834291N11207057WA0218002180
B1810113834291N11207067WA0217802178
B1810123834291N11207077WA0217602176
B1810133834292N11207087WA0217302173
B1810143834292N11207097WA0217202172
B1810153834292N11207107WA0217002170
B1810163834292N11207117WA0216802168
B1810173834291N11207127WA0216702167
B1810183834289N11207137WA0216502165
B1810193834287N11207147WA0216402164
B1810203834285N11207156WA0216302163
B1810213834283N11207166WA0216202162
B1810223834281N11207175WA0216002160
B1810233834278N11207185WA0215802158
B1810243834275N11207194WA0215602156
B1810253834272N11207204WA0215402154
B1810263834269N11207214WA0215102151
B1810273834266N11207223WA0214902149
B1810283834262N11207233WA0214702147
B1810293834259N11207242WA0214602146
B1810303834255N11207251WA0214402144
B1810313834251N11207260WA0214202142
B1810323834247N11207268WA0214102141
B1810333834242N11207277WA0213902139
B1810343834238N11207285WA0213702137
B1810353834233N11207294WA0213602136
B1810363834228N11207302WA0213402134
B1810373834224N11207310WA0213302133
B1810383834219N11207318WA0213202132
B1810393834213N11207325WA0213002130
B1810403834208N11207333WA0212802128
B1810413834202N11207340WA0212602126
B1810423834196N11207348WA0212502125
B1810433834191N11207356WA0212402124
B1810443834186N11207364WA0212402124
B1810453834181N11207371WA0212502125
B1810463834177N11207379WA0212602126
B1810473834174N11207385WA0212802128
B1810483834170N11207392WA0213002130
B1810493834167N11207398WA0213102131
B1810503834164N11207403WA0213102131
B1810513834161N11207409WA0213102131
B1810523834158N11207415WA0213002130
B1810533834157N11207422WA0213002130
B1810543834155N11207428WA0213102131
B1810553834155N11207434WA0213202132
B1810563834155N11207439WA0213202132
B1810573834156N11207444WA0213202132
B1810583834157N11207450WA0213102131
B1810593834159N11207456WA0212902129
B1811003834162N11207461WA0212702127
B1811013834166N11207467WA0212502125
B1811023834170N11207471WA0212402124
B1811033834174N11207475WA0212302123
B1811043834178N11207478WA0212302123
B1811053834182N11207480WA0212202122
B1811063834187N11207482WA0212102121
B1811073834191N11207484WA0211902119
B1811083834197N11207486WA0211702117
B1811093834202N11207489WA0211502115
B1811103834207N11207492WA0211402114
B1811113834212N11207497WA0211202112
B1811123834216N11207501WA0211002110
B1811133834220N11207506WA0210802108
B1811143834223N11207512WA0210602106
B1811153834226N11207517WA0210402104
B1811163834229N11207523WA0210202102
B1811173834231N11207530WA0210002100
B1811183834232N11207536WA0209902099
B1811193834234N11207543WA0209702097
B1811203834236N11207550WA0209502095
B1811213834238N11207556WA0209302093
B1811223834241N11207562WA0209102091
B1811233834243N11207568WA0208902089
B1811243834246N11207574WA0208602086
B1811253834249N11207581WA0208402084
B1811263834252N11207588WA0208202082
B1811273834254N11207595WA0208002080
B1811283834255N11207602WA0207802078
B1811293834256N11207610WA0207602076
B1811303834257N11207617WA0207402074
B1811313834257N11207624WA0207302073
B1811323834257N11207632WA0207102071
B1811333834256N11207639WA0206902069
B1811343834254N11207646WA0206802068
B1811353834252N11207652WA0206702067
B1811363834249N11207658WA0206602066
B1811373834246N11207664WA0206502065
B1811383834243N11207669WA0206402064
B1811393834239N11207675WA0206302063
B1811403834235N11207680WA0206402064
B1811413834231N11207686WA0206402064
B1811423834227N11207691WA0206402064
B1811433834224N11207696WA0206402064
B1811443834221N11207701WA0206302063
B1811453834217N11207707WA0206102061
B1811463834214N11207713WA0205902059
B1811473834212N11207720WA0205602056
B1811483834210N11207727WA0205402054
B1811493834210N11207735WA0205302053
B1811503834211N11207742WA0205102051
B1811513834212N11207749WA0205002050
B1811523834214N11207755WA0204802048
B1811533834217N11207761WA0204702047
B1811543834221N11207766WA0204502045
B1811553834225N11207771WA0204402044
B1811563834230N11207774WA0204202042
B1811573834235N11207777WA0204202042
B1811583834240N11207780WA0204102041
B1811593834245N11207782WA0204102041
B1812003834250N11207784WA0204202042
B1812013834254N11207785WA0204202042
B1812023834259N11207786WA0204102041
B1812033834264N11207786WA0204002040
B1812043834269N11207786WA0203902039
B1812053834274N11207785WA0203802038
B1812063834279N11207785WA0203702037
B1812073834285N11207786WA0203602036
B1812083834291N11207786WA0203402034
B1812093834297N11207786WA0203202032
B1812103834302N11207786WA0203202032
B1812113834308N11207785WA0203202032
B1812123834313N11207784WA0203202032
B1812133834317N11207783WA0203202032
B1812143834322N11207783WA0203002030
B1812153834327N11207783WA0202802028
B1812163834332N11207784WA0202602026
B1812173834337N11207785WA0202502025
B1812183834342N11207787WA0202302023
B1812193834348N11207789WA0202202022
B1812203834353N11207791WA0202102021
B1812213834359N11207793WA0202002020
B1812223834364N11207795WA0201902019
B1812233834369N11207798WA0201702017
B1812243834373N11207800WA0201702017
B1812253834377N11207804WA0201502015
B1812263834381N11207808WA0201402014
B1812273834384N11207813WA0201202012
B1812283834387N11207818WA0201102011
B1812293834389N11207825WA0201002010
B1812303834391N11207831WA0200902009
B1812313834392N11207838WA0200802008
B1812323834393N11207845WA0200702007
B1812333834394N11207851WA0200602006
B1812343834395N11207858WA0200502005
B1812353834397N11207865WA0200502005
B1812363834397N11207872WA0200502005
B1812373834398N11207879WA0200602006
B1812383834397N11207886WA0200702007
B1812393834397N11207892WA0200702007
B1812403834394N11207897WA0200702007
B1812413834391N11207902WA0200702007
B1812423834387N11207907WA0200602006
B1812433834382N11207912WA0200602006
B1812443834378N11207915WA0200602006
B1812453834373N11207919WA0200702007
B1812463834369N11207921WA0200702007
B1812473834363N11207923WA0200702007
B1812483834358N11207923WA0200702007
B1812493834352N11207923WA0200602006
B1812503834347N11207921WA0200602006
B1812513834343N11207917WA0200602006
B1812523834339N11207912WA0200602006
B1812533834337N11207906WA0200502005
B1812543834336N11207900WA0200502005
B1812553834336N11207893WA0200502005
B1812563834337N11207886WA0200502005
B1812573834339N11207880WA0200402004
B1812583834341N11207873WA0200402004
B1812593834344N11207866WA0200502005
B1813003834346N11207860WA0200502005
B1813013834348N11207854WA0200602006
B1813023834350N11207848WA0200602006
B1813033834353N11207843WA0200502005
B1813043834356N11207838WA0200302003
B1813053834360N11207832WA0200102001
B1813063834363N11207827WA0200002000
B1813073834367N11207823WA0199901999
B1813083834372N11207818WA0199701997
B1813093834377N11207815WA0199601996
B1813103834383N11207813WA0199501995
B1813113834388N11207811WA0199501995
B1813123834393N11207809WA0199401994
B1813133834398N11207809WA0199401994
B1813143834403N11207809WA0199301993
B1813153834408N11207810WA0199101991
B1813163834413N11207813WA0198901989
B1813173834417N11207816WA0198801988
B1813183834422N11207819WA0198701987
B1813193834425N11207824WA0198601986
B1813203834429N11207828WA0198401984
B1813213834432N11207834WA0198201982
B1813223834434N11207840WA0198101981
B1813233834437N11207846WA0198001980
B1813243834439N11207853WA0197901979
B1813253834441N11207860WA0197801978
B1813263834443N11207867WA0197601976
B1813273834445N11207874WA0197501975
B1813283834447N11207881WA0197501975
B1813293834448N11207888WA0197501975
B1813303834449N11207895WA0197501975
B1813313834450N11207903WA0197501975
B1813323834451N11207910WA0197601976
B1813333834452N11207917WA0197601976
B1813343834453N11207924WA0197601976
B1813353834454N11207931WA0197501975
B1813363834456N11207937WA0197501975
B1813373834459N11207943WA0197401974
B1813383834463N11207949WA0197301973
B1813393834467N11207954WA0197301973
B1813403834471N11207958WA0197201972
B1813413834474N11207962WA0197101971
B1813423834479N11207964WA0197001970
B1813433834483N11207965WA0196801968
B1813443834489N11207965WA0196501965
B1813453834494N11207965WA0196301963
B1813463834500N11207966WA0196101961
B1813473834506N11207967WA0196001960
B1813483834512N11207969WA0195901959
B1813493834518N11207971WA0195801958
B1813503834523N11207974WA0195801958
B1813513834528N11207977WA0195801958
B1813523834533N11207980WA0195901959
B1813533834537N11207983WA0195801958
B1813543834542N11207986WA0195701957
B1813553834547N11207990WA0195601956
B1813563834551N11207994WA0195401954
B1813573834556N11207999WA0195201952
B1813583834561N11208003WA0195201952
B1813593834566N11208007WA0195101951
B1814003834571N11208011WA0195001950
B1814013834576N11208015WA0194901949
B1814023834581N11208019WA0194901949
B1814033834585N11208023WA0194901949
B1814043834590N11208027WA0194801948
B1814053834595N11208031WA0194701947
B1814063834599N11208035WA0194601946
B1814073834604N11208040WA0194501945
B1814083834609N11208044WA0194501945
B1814093834613N11208048WA0194401944
B1814103834617N11208053WA0194401944
B1814113834621N11208058WA0194301943
B1814123834625N11208064WA0194201942
B1814133834628N11208069WA0194201942
B1814143834631N11208074WA0194101941
B1814153834634N11208080WA0194001940
B1814163834637N11208086WA0193801938
B1814173834640N11208093WA0193601936
B1814183834643N11208099WA0193501935
B1814193834646N11208105WA0193301933
B1814203834650N11208110WA0193101931
B1814213834654N11208114WA0193001930
B1814223834659N11208118WA0192801928
B1814233834664N11208121WA0192701927
B1814243834670N11208122WA0192501925
B1814253834676N11208123WA0192201922
B1814263834682N11208124WA0192001920
B1814273834689N11208124WA0191801918
B1814283834695N11208124WA0191701917
B1814293834701N11208123WA0191601916
B1814303834708N11208123WA0191401914
B1814313834713N11208122WA0191401914
B1814323834718N11208120WA0191401914
B1814333834723N11208119WA0191501915
B1814343834726N11208117WA0191601916
B1814353834730N11208114WA0191801918
B1814363834733N11208111WA0191801918
B1814373834736N11208107WA0191901919
B1814383834739N11208102WA0191901919
B1814393834741N11208096WA0191901919
B1814403834741N11208089WA0191901919
B1814413834739N11208081WA0192001920
B1814423834736N11208075WA0192001920
B1814433834730N11208069WA0192001920
B1814443834724N11208066WA0192101921
B1814453834718N11208066WA0192201922
B1814463834713N11208068WA0192301923
B1814473834708N11208072WA0192301923
B1814483834705N11208078WA0192401924
B1814493834704N11208085WA0192501925
B1814503834706N11208090WA0192701927
B1814513834708N11208094WA0192801928
B1814523834712N11208097WA0193001930
B1814533834716N11208099WA0193101931
B1814543834720N11208101WA0193201932
B1814553834724N11208102WA0193301933
B1814563834728N11208102WA0193401934
B1814573834732N11208102WA0193501935
B1814583834736N11208101WA0193501935
B1814593834740N11208099WA0193601936
B1815003834744N11208096WA0193601936
B1815013834747N11208092WA0193701937
B1815023834749N11208086WA0193701937
B1815033834750N11208080WA0193801938
B1815043834750N11208073WA0193801938
B1815053834750N11208066WA0193801938
B1815063834748N11208059WA0193701937
B1815073834745N11208053WA0193701937
B1815083834741N11208047WA0193601936
B1815093834736N11208042WA0193401934
B1815103834730N11208038WA0193201932
B1815113834724N11208035WA0193201932
B1815123834718N11208034WA0193201932
B1815133834711N11208035WA0193101931
B1815143834706N11208037WA0193201932
B1815153834701N11208040WA0193201932
B1815163834696N11208045WA0193201932
B1815173834692N11208050WA0193301933
B1815183834689N11208055WA0193301933
B1815193834687N11208062WA0193401934
B1815203834686N11208068WA0193401934
B1815213834686N11208075WA0193601936
B1815223834685N11208080WA0193801938
B1815233834685N11208085WA0193901939
B1815243834684N11208090WA0194001940
B1815253834681N11208096WA0194001940
B1815263834678N11208101WA0193901939
B1815273834673N11208106WA0193801938
B1815283834668N11208108WA0193701937
B1815293834663N11208108WA0193601936
B1815303834658N11208104WA0193401934
B1815313834655N11208099WA0193201932
B1815323834654N11208093WA0193001930
B1815333834655N11208085WA0192701927
B1815343834658N11208079WA0192401924
B1815353834661N11208072WA0192101921
B1815363834665N11208067WA0192101921
B1815373834669N11208062WA0192201922
B1815383834673N11208057WA0192401924
B1815393834675N11208053WA0192601926
B1815403834677N11208048WA0192801928
B1815413834679N11208043WA0193001930
B1815423834681N11208038WA0193101931
B1815433834683N11208033WA0193101931
B1815443834685N11208029WA0193201932
B1815453834688N11208025WA0193201932
B1815463834692N11208022WA0193101931
B1815473834696N11208020WA0193001930
B1815483834700N11208018WA0193001930
B1815493834704N11208018WA0192901929
B1815503834709N11208018WA0192801928
B1815513834713N11208018WA0192601926
B1815523834718N11208019WA0192501925
B1815533834722N11208021WA0192401924
B1815543834726N11208022WA0192301923
B1815553834730N11208025WA0192301923
B1815563834734N11208027WA0192101921
B1815573834738N11208030WA0192001920
B1815583834742N11208034WA0191901919
B1815593834745N11208038WA0191701917
B1816003834749N11208042WA0191501915
B1816013834753N11208046WA0191401914
B1816023834756N11208051WA0191301913
B1816033834760N11208056WA0191201912
B1816043834763N11208060WA0191201912
B1816053834766N11208065WA0191101911
B1816063834769N11208069WA0191101911
B1816073834772N11208074WA0191001910
B1816083834774N11208079WA0190901909
B1816093834777N11208084WA0190801908
B1816103834780N11208088WA0190701907
B1816113834783N11208093WA0190701907
B1816123834786N11208098WA0190701907
B1816133834789N11208102WA0190701907
B1816143834792N11208107WA0190701907
B1816153834795N11208111WA0190601906
B1816163834799N11208116WA0190501905
B1816173834803N11208121WA0190401904
B1816183834807N11208125WA0190401904
B1816193834812N11208129WA0190401904
B1816203834816N11208132WA0190401904
B1816213834820N11208135WA0190301903
B1816223834825N11208137WA0190201902
B1816233834830N11208140WA0190001900
B1816243834835N11208142WA0189901899
B1816253834840N11208144WA0189801898
B1816263834846N11208146WA0189701897
B1816273834851N11208148WA0189601896
B1816283834857N11208150WA0189601896
B1816293834862N11208152WA0189601896
B1816303834866N11208153WA0189601896
B1816313834871N11208154WA0189601896
B1816323834875N11208156WA0189501895
B1816333834879N11208157WA0189401894
B1816343834884N11208160WA0189201892
B1816353834888N11208163WA0189101891
B1816363834892N11208166WA0189001890
B1816373834897N11208169WA0188801888
B1816383834902N11208171WA0188701887
B1816393834907N11208174WA0188501885
B1816403834911N11208177WA0188401884
B1816413834916N11208180WA0188201882
B1816423834921N11208183WA0188001880
B1816433834927N11208186WA0187701877
B1816443834933N11208189WA0187501875
B1816453834939N11208192WA0187301873
B1816463834944N11208195WA0187201872
B1816473834949N11208198WA0187101871
B1816483834954N11208201WA0186801868
B1816493834959N11208204WA0186601866
B1816503834964N11208208WA0186301863
B1816513834969N11208211WA0186101861
B1816523834974N11208214WA0185901859
B1816533834979N11208217WA0185701857
B1816543834985N11208219WA0185401854
B1816553834990N11208222WA0185201852
B1816563834995N11208225WA0185001850
B1816573835000N11208229WA0184801848
B1816583835005N11208233WA0184601846
B1816593835010N11208237WA0184401844
B1817003835015N11208240WA0184301843
B1817013835019N11208244WA0184101841
B1817023835023N11208248WA0184101841
B1817033835026N11208252WA0183901839
B1817043835031N11208257WA0183801838
B1817053835035N11208261WA0183601836
B1817063835040N11208266WA0183501835
B1817073835045N11208270WA0183401834
B1817083835050N11208273WA0183501835
B1817093835054N11208276WA0183601836
B1817103835058N11208278WA0183701837
B1817113835061N11208279WA0183901839
B1817123835065N11208281WA0183901839
B1817133835069N11208282WA0183801838
B1817143835074N11208284WA0183801838
B1817153835078N11208286WA0183701837
B1817163835082N11208288WA0183701837
B1817173835086N11208292WA0183701837
B1817183835089N11208297WA0183701837
B1817193835090N11208303WA0183601836
B1817203835090N11208310WA0183501835
B1817213835088N11208317WA0183401834
B1817223835083N11208323WA0183301833
B1817233835078N11208326WA0183201832
B1817243835072N11208328WA0183201832
B1817253835066N11208328WA0183301833
B1817263835061N11208327WA0183401834
B1817273835055N11208326WA0183501835
B1817283835050N11208324WA0183401834
B1817293835044N11208321WA0183401834
B1817303835038N11208320WA0183501835
B1817313835033N11208321WA0183601836
B1817323835028N11208324WA0183701837
B1817333835023N11208329WA0183701837
B1817343835020N11208336WA0183701837
B1817353835018N11208343WA0183701837
B1817363835019N11208350WA0183701837
B1817373835022N11208356WA0183801838
B1817383835026N11208361WA0183801838
B1817393835030N11208364WA0183901839
B1817403835034N11208365WA0184001840
B1817413835039N11208365WA0184101841
B1817423835042N11208364WA0184201842
B1817433835046N11208362WA0184201842
B1817443835049N11208359WA0184201842
B1817453835052N11208355WA0184301843
B1817463835055N11208350WA0184301843
B1817473835056N11208344WA0184401844
B1817483835056N11208338WA0184401844
B1817493835054N11208332WA0184401844
B1817503835052N11208326WA0184401844
B1817513835049N11208319WA0184401844
B1817523835045N11208314WA0184301843
B1817533835040N11208309WA0184401844
B1817543835035N11208306WA0184601846
B1817553835029N11208303WA0184701847
B1817563835024N11208302WA0184801848
B1817573835018N11208303WA0184801848
B1817583835012N11208305WA0184901849
B1817593835006N11208308WA0184901849
B1818003835002N11208313WA0185001850
B1818013834999N11208320WA0185001850
B1818023834998N11208328WA0185001850
B1818033834998N11208336WA0184901849
B1818043835000N11208343WA0185001850
B1818053835004N11208348WA0185101851
B1818063835008N11208350WA0185201852
B1818073835013N11208351WA0185201852
B1818083835017N11208349WA0185201852
B1818093835021N11208346WA0185201852
B1818103835025N11208342WA0185301853
B1818113835027N11208337WA0185201852
B1818123835029N11208331WA0185201852
B1818133835030N11208325WA0185101851
B1818143835031N11208318WA0185201852
B1818153835031N11208311WA0185201852
B1818163835030N11208305WA0185301853
B1818173835029N11208299WA0185401854
B1818183835026N11208293WA0185501855
B1818193835022N11208288WA0185401854
B1818203835017N11208283WA0185301853
B1818213835011N11208279WA0185201852
B1818223835005N11208276WA0185201852
B1818233834998N11208274WA0185301853
B1818243834992N11208275WA0185401854
B1818253834986N11208277WA0185501855
B1818263834982N11208280WA0185701857
B1818273834977N11208284WA0185601856
B1818283834973N11208288WA0185601856
B1818293834969N11208291WA0185401854
B1818303834964N11208296WA0185201852
B1818313834960N11208301WA0185101851
B1818323834957N11208306WA0185101851
B1818333834954N11208313WA0185001850
B1818343834953N11208320WA0185001850
B1818353834954N11208327WA0184901849
B1818363834956N11208333WA0184801848
B1818373834960N11208338WA0184801848
B1818383834964N11208342WA0184701847
B1818393834970N11208343WA0184701847
B1818403834975N11208342WA0184601846
B1818413834980N11208341WA0184601846
B1818423834985N11208339WA0184701847
B1818433834990N11208337WA0184901849
B1818443834994N11208335WA0185101851
B1818453834998N11208332WA0185101851
B1818463835003N11208330WA0185201852
B1818473835007N11208328WA0185301853
B1818483835011N11208329WA0185501855
B1818493835014N11208332WA0185601856
B1818503835015N11208338WA0185601856
B1818513835015N11208346WA0185401854
B1818523835013N11208354WA0185301853
B1818533835008N11208361WA0185201852
B1818543835002N11208365WA0185201852
B1818553834996N11208366WA0185301853
B1818563834990N11208365WA0185301853
B1818573834985N11208362WA0185401854
B1818583834981N11208358WA0185501855
B1818593834979N11208353WA0185501855
B1819003834977N11208347WA0185401854
B1819013834977N11208340WA0185301853
B1819023834977N11208333WA0185401854
B1819033834978N11208327WA0185601856
B1819043834980N11208322WA0185601856
B1819053834983N11208317WA0185701857
B1819063834987N11208314WA0185601856
B1819073834992N11208312WA0185601856
B1819083834997N11208311WA0185701857
B1819093835002N11208313WA0185801858
B1819103835006N11208316WA0185901859
B1819113835009N11208321WA0185901859
B1819123835010N11208327WA0186001860
B1819133835011N11208335WA0186001860
B1819143835009N11208342WA0185901859
B1819153835006N11208349WA0185801858
B1819163835002N11208355WA0185801858
B1819173834996N11208359WA0185701857
B1819183834989N11208361WA0185601856
B1819193834983N11208361WA0185401854
B1819203834977N11208359WA0185401854
B1819213834971N11208354WA0185401854
B1819223834967N11208349WA0185401854
B1819233834964N11208344WA0185601856
B1819243834961N11208339WA0185701857
B1819253834958N11208335WA0185801858
B1819263834955N11208330WA0186001860
B1819273834952N11208326WA0186001860
B1819283834949N11208322WA0186101861
B1819293834945N11208318WA0186101861
B1819303834942N11208314WA0186101861
B1819313834939N11208310WA0186001860
B1819323834935N11208306WA0185901859
B1819333834931N11208302WA0185801858
B1819343834928N11208297WA0185601856
B1819353834925N11208291WA0185501855
B1819363834924N11208286WA0185501855
B1819373834924N11208280WA0185301853
B1819383834926N11208274WA0185101851
B1819393834929N11208269WA0184801848
B1819403834933N11208266WA0184601846
B1819413834938N11208263WA0184401844
B1819423834943N11208262WA0184301843
B1819433834948N11208261WA0184301843
B1819443834952N11208261WA0184401844
B1819453834956N11208260WA0184501845
B1819463834959N11208259WA0184601846
B1819473834962N11208256WA0184601846
B1819483834964N11208252WA0184601846
B1819493834967N11208247WA0184501845
B1819503834968N11208240WA0184401844
B1819513834968N11208233WA0184401844
B1819523834967N11208227WA0184401844
B1819533834966N11208222WA0184401844
B1819543834963N11208217WA0184301843
B1819553834960N11208212WA0184201842
B1819563834956N11208207WA0184101841
B1819573834952N11208204WA0184001840
B1819583834947N11208201WA0183901839
B1819593834943N11208199WA0183701837
B1820003834937N11208198WA0183501835
B1820013834932N11208199WA0183301833
B1820023834927N11208202WA0183101831
B1820033834922N11208207WA0182901829
B1820043834918N11208213WA0182801828
B1820053834915N11208220WA0182701827
B1820063834913N11208226WA0182701827
B1820073834913N11208232WA0182601826
B1820083834914N11208237WA0182401824
B1820093834916N11208243WA0182101821
B1820103834920N11208247WA0181901819
B1820113834925N11208250WA0181801818
B1820123834929N11208252WA0181701817
B1820133834934N11208252WA0181701817
B1820143834938N11208250WA0181801818
B1820153834941N11208247WA0181801818
B1820163834944N11208242WA0181701817
B1820173834946N11208237WA0181601816
B1820183834948N11208232WA0181601816
B1820193834951N11208226WA0181501815
B1820203834953N11208221WA0181401814
B1820213834956N11208215WA0181301813
B1820223834959N11208209WA0181201812
B1820233834962N11208203WA0181101811
B1820243834965N11208197WA0181101811
B1820253834968N11208191WA0181101811
B1820263834972N11208185WA0181101811
B1820273834974N11208179WA0181201812
B1820283834977N11208174WA0181201812
B1820293834979N11208169WA0181301813
B1820303834981N11208164WA0181301813
B1820313834984N11208160WA0181101811
B1820323834987N11208155WA0180901809
B1820333834990N11208150WA0180701807
B1820343834993N11208143WA0180501805
B1820353834994N11208137WA0180401804
B1820363834995N11208130WA0180301803
B1820373834995N11208122WA0180101801
B1820383834996N11208114WA0179901799
B1820393834997N11208106WA0179901799
B1820403834999N11208100WA0179901799
B1820413835001N11208094WA0180001800
B1820423835002N11208089WA0180101801
B1820433835004N11208084WA0180201802
B1820443835005N11208080WA0180201802
B1820453835007N11208075WA0180001800
B1820463835010N11208071WA0179901799
B1820473835012N11208066WA0179601796
B1820483835015N11208061WA0179401794
B1820493835019N11208057WA0179201792
B1820503835022N11208053WA0178901789
B1820513835026N11208049WA0178701787
B1820523835030N11208047WA0178601786
B1820533835034N11208045WA0178401784
B1820543835039N11208043WA0178301783
B1820553835043N11208042WA0178301783
B1820563835047N11208041WA0178201782
B1820573835050N11208041WA0178201782
B1820583835055N11208040WA0178001780
B1820593835059N11208041WA0177901779
B1821003835063N11208042WA0177701777
B1821013835068N11208044WA0177501775
B1821023835072N11208047WA0177301773
B1821033835076N11208050WA0177001770
B1821043835081N11208053WA0176801768
B1821053835084N11208057WA0176701767
B1821063835088N11208062WA0176601766
B1821073835091N11208067WA0176401764
B1821083835094N11208072WA0176401764
B1821093835097N11208076WA0176501765
B1821103835099N11208081WA0176501765
B1821113835102N11208085WA0176501765
B1821123835104N11208089WA0176501765
B1821133835106N11208093WA0176401764
B1821143835109N11208097WA0176201762
B1821153835111N11208101WA0176101761
B1821163835115N11208106WA0175901759
B1821173835118N11208110WA0175701757
B1821183835122N11208114WA0175601756
B1821193835125N11208118WA0175401754
B1821203835128N11208122WA0175301753
B1821213835131N11208126WA0175101751
B1821223835134N11208131WA0174901749
B1821233835137N11208135WA0174701747
B1821243835140N11208140WA0174501745
B1821253835143N11208145WA0174301743
B1821263835147N11208148WA0174001740
B1821273835151N11208152WA0173801738
B1821283835155N11208154WA0173601736
B1821293835159N11208155WA0173501735
B1821303835163N11208155WA0173401734
B1821313835168N11208155WA0173301733
B1821323835172N11208155WA0173201732
B1821333835176N11208156WA0173001730
B1821343835181N11208156WA0172801728
B1821353835186N11208157WA0172601726
B1821363835191N11208158WA0172401724
B1821373835195N11208160WA0172201722
B1821383835199N11208163WA0172001720
B1821393835203N11208165WA0171901719
B1821403835207N11208167WA0171701717
B1821413835211N11208168WA0171601716
B1821423835215N11208169WA0171401714
B1821433835219N11208169WA0171301713
B1821443835223N11208167WA0171001710
B1821453835227N11208165WA0170701707
B1821463835231N11208163WA0170501705
B1821473835236N11208161WA0170301703
B1821483835240N11208160WA0170101701
B1821493835244N11208160WA0169901699
B1821503835248N11208161WA0169801698
B1821513835252N11208163WA0169701697
B1821523835256N11208164WA0169601696
B1821533835260N11208164WA0169401694
B1821543835264N11208162WA0169201692
B1821553835268N11208159WA0168901689
B1821563835272N11208154WA0168701687
B1821573835275N11208149WA0168501685
B1821583835279N11208144WA0168401684
B1821593835283N11208139WA0168301683
B1822003835287N11208134WA0168201682
B1822013835291N11208130WA0168001680
B1822023835295N11208126WA0168001680
B1822033835299N11208122WA0167901679
B1822043835301N11208117WA0167901679
B1822053835304N11208114WA0167801678
B1822063835305N11208112WA0167801678
B1822073835307N11208110WA0167801678
B1822083835308N11208108WA0167701677
B1822093835309N11208108WA0167701677
B1822103835309N11208107WA0167701677
B1822113835310N11208107WA0167801678
B1822123835310N11208108WA0167801678
B1822133835310N11208109WA0167801678
B1822143835309N11208109WA0167801678
B1822153835309N11208109WA0167801678
B1822163835310N11208108WA0167801678
