AXFMFLYMASTER LIVETRACK
HFDTE250926
HFFXA010
HFPLTPILOT:Andria Lea Monteleone
HFGTYGLIDERTYPE:Ozone Photon / Supair Delight
HFCIDCOMPETITIONID:777
HFDTM100GPSDATUM:WGS-1984
HFRFWFIRMWAREVERSION:lt.flymaster.net bsGetPilotTrack
B1832133838046N11203633WA0266402664
B1832143838047N11203635WA0266502665
B1832153838048N11203637WA0266402664
B1832163838049N11203640WA0266402664
B1832173838049N11203643WA0266302663
B1832183838050N11203646WA0266302663
B1832193838050N11203649WA0266302663
B1832203838050N11203652WA0266302663
B1832213838051N11203656WA0266402664
B1832223838051N11203659WA0266602666
B1832233838051N11203661WA0266702667
B1832243838051N11203664WA0266902669
B1832253838049N11203666WA0267002670
B1832263838047N11203667WA0267202672
B1832273838044N11203668WA0267302673
B1832283838040N11203668WA0267502675
B1832293838037N11203668WA0267602676
B1832303838034N11203668WA0267802678
B1832313838032N11203669WA0267902679
B1832323838031N11203672WA0268102681
B1832333838029N11203675WA0268202682
B1832343838029N11203677WA0268402684
B1832353838030N11203678WA0268602686
B1832363838031N11203679WA0268902689
B1832373838032N11203680WA0269002690
B1832383838032N11203683WA0269202692
B1832393838033N11203685WA0269302693
B1832403838034N11203689WA0269602696
B1832413838037N11203691WA0270002700
B1832423838040N11203693WA0270302703
B1832433838043N11203695WA0270502705
B1832443838047N11203697WA0270602706
B1832453838051N11203698WA0270802708
B1832463838055N11203700WA0271002710
B1832473838059N11203702WA0271302713
B1832483838062N11203704WA0271502715
B1832493838065N11203707WA0271602716
B1832503838068N11203711WA0271802718
B1832513838070N11203715WA0272102721
B1832523838072N11203718WA0272302723
B1832533838074N11203721WA0272602726
B1832543838076N11203725WA0272802728
B1832553838078N11203729WA0272902729
B1832563838081N11203734WA0272902729
B1832573838083N11203739WA0273102731
B1832583838085N11203744WA0273502735
B1832593838087N11203748WA0274002740
B1833003838088N11203752WA0274502745
B1833013838089N11203756WA0274802748
B1833023838090N11203760WA0275002750
B1833033838090N11203765WA0275202752
B1833043838091N11203770WA0275302753
B1833053838092N11203776WA0275602756
B1833063838094N11203782WA0275902759
B1833073838096N11203787WA0276202762
B1833083838099N11203791WA0276802768
B1833093838101N11203794WA0277402774
B1833103838104N11203796WA0277902779
B1833113838106N11203799WA0278302783
B1833123838109N11203803WA0278402784
B1833133838112N11203809WA0278602786
B1833143838116N11203814WA0279002790
B1833153838118N11203818WA0279402794
B1833163838121N11203822WA0279802798
B1833173838124N11203826WA0280102801
B1833183838128N11203829WA0280402804
B1833193838132N11203833WA0280602806
B1833203838134N11203838WA0280802808
B1833213838136N11203842WA0281002810
B1833223838135N11203846WA0281202812
B1833233838133N11203849WA0281402814
B1833243838130N11203850WA0281502815
B1833253838127N11203850WA0281702817
B1833263838123N11203846WA0282002820
B1833273838121N11203841WA0282502825
B1833283838120N11203834WA0282802828
B1833293838119N11203827WA0283202832
B1833303838120N11203818WA0283502835
B1833313838121N11203809WA0283702837
B1833323838124N11203800WA0284002840
B1833333838127N11203791WA0284302843
B1833343838132N11203782WA0284602846
B1833353838137N11203774WA0284902849
B1833363838143N11203765WA0285202852
B1833373838150N11203757WA0285502855
B1833383838158N11203750WA0285902859
B1833393838165N11203744WA0286302863
B1833403838173N11203739WA0286702867
B1833413838181N11203735WA0286902869
B1833423838189N11203730WA0287202872
B1833433838198N11203726WA0287402874
B1833443838206N11203722WA0287802878
B1833453838213N11203720WA0288302883
B1833463838220N11203718WA0288702887
B1833473838227N11203717WA0288902889
B1833483838234N11203715WA0289102891
B1833493838242N11203715WA0289302893
B1833503838249N11203714WA0289402894
B1833513838256N11203714WA0289702897
B1833523838262N11203714WA0289802898
B1833533838268N11203715WA0289802898
B1833543838274N11203717WA0289802898
B1833553838279N11203721WA0289802898
B1833563838282N11203725WA0289802898
B1833573838283N11203728WA0289902899
B1833583838283N11203730WA0290102901
B1833593838281N11203731WA0290302903
B1834003838278N11203729WA0290402904
B1834013838275N11203725WA0290602906
B1834023838272N11203718WA0290702907
B1834033838270N11203709WA0290902909
B1834043838270N11203699WA0291102911
B1834053838271N11203689WA0291302913
B1834063838275N11203679WA0291502915
B1834073838280N11203668WA0291602916
B1834083838286N11203656WA0291602916
B1834093838293N11203645WA0291702917
B1834103838301N11203635WA0291802918
B1834113838309N11203626WA0292002920
B1834123838316N11203620WA0292102921
B1834133838324N11203616WA0292002920
B1834143838332N11203614WA0292102921
B1834153838339N11203613WA0292202922
B1834163838346N11203613WA0292402924
B1834173838353N11203612WA0292502925
B1834183838360N11203611WA0292602926
B1834193838366N11203611WA0292602926
B1834203838373N11203611WA0292602926
B1834213838379N11203613WA0292702927
B1834223838384N11203616WA0292802928
B1834233838387N11203618WA0293002930
B1834243838389N11203621WA0293102931
B1834253838391N11203623WA0293302933
B1834263838392N11203626WA0293302933
B1834273838393N11203629WA0293402934
B1834283838395N11203633WA0293402934
B1834293838397N11203636WA0293502935
B1834303838400N11203639WA0293602936
B1834313838403N11203642WA0293602936
B1834323838407N11203646WA0293602936
B1834333838411N11203651WA0293602936
B1834343838415N11203656WA0293602936
B1834353838418N11203660WA0293802938
B1834363838420N11203664WA0293902939
B1834373838421N11203668WA0293902939
B1834383838421N11203672WA0293902939
B1834393838420N11203676WA0293902939
B1834403838419N11203679WA0293902939
B1834413838417N11203681WA0294002940
B1834423838414N11203681WA0294102941
B1834433838411N11203679WA0294102941
B1834443838406N11203677WA0294102941
B1834453838401N11203673WA0294002940
B1834463838396N11203668WA0293902939
B1834473838392N11203661WA0294002940
B1834483838389N11203654WA0294202942
B1834493838388N11203645WA0294402944
B1834503838388N11203637WA0294502945
B1834513838389N11203628WA0294602946
B1834523838390N11203618WA0294702947
B1834533838392N11203607WA0294602946
B1834543838396N11203597WA0294602946
B1834553838401N11203587WA0294602946
B1834563838408N11203579WA0294602946
B1834573838416N11203572WA0294602946
B1834583838424N11203568WA0294802948
B1834593838432N11203564WA0295002950
B1835003838438N11203562WA0295202952
B1835013838444N11203559WA0295302953
B1835023838451N11203557WA0295302953
B1835033838458N11203555WA0295302953
B1835043838464N11203553WA0295202952
B1835053838470N11203553WA0295202952
B1835063838475N11203555WA0295102951
B1835073838480N11203557WA0295102951
B1835083838483N11203559WA0294902949
B1835093838487N11203562WA0294902949
B1835103838490N11203566WA0294802948
B1835113838492N11203570WA0294702947
B1835123838494N11203575WA0294602946
B1835133838496N11203579WA0294502945
B1835143838497N11203584WA0294302943
B1835153838499N11203589WA0294202942
B1835163838500N11203593WA0294202942
B1835173838499N11203596WA0294302943
B1835183838498N11203598WA0294302943
B1835193838495N11203599WA0294302943
B1835203838492N11203599WA0294202942
B1835213838487N11203598WA0294102941
B1835223838483N11203595WA0294002940
B1835233838479N11203590WA0294002940
B1835243838475N11203583WA0294002940
B1835253838473N11203575WA0294002940
B1835263838471N11203565WA0293802938
B1835273838471N11203554WA0293702937
B1835283838473N11203542WA0293502935
B1835293838477N11203532WA0293402934
B1835303838482N11203522WA0293402934
B1835313838488N11203514WA0293302933
B1835323838494N11203507WA0293202932
B1835333838499N11203500WA0293202932
B1835343838506N11203495WA0293102931
B1835353838512N11203491WA0293002930
B1835363838519N11203488WA0293002930
B1835373838526N11203486WA0292802928
B1835383838533N11203484WA0292702927
B1835393838540N11203481WA0292602926
B1835403838546N11203478WA0292602926
B1835413838553N11203475WA0292502925
B1835423838560N11203474WA0292302923
B1835433838566N11203473WA0292102921
B1835443838571N11203475WA0291802918
B1835453838576N11203478WA0291502915
B1835463838581N11203482WA0291202912
B1835473838586N11203485WA0291002910
B1835483838591N11203487WA0290902909
B1835493838596N11203488WA0290802908
B1835503838601N11203489WA0290602906
B1835513838607N11203490WA0290302903
B1835523838613N11203492WA0290002900
B1835533838619N11203494WA0289802898
B1835543838624N11203494WA0289702897
B1835553838630N11203494WA0289602896
B1835563838636N11203492WA0289402894
B1835573838642N11203489WA0289202892
B1835583838649N11203484WA0288902889
B1835593838655N11203478WA0288702887
B1836003838661N11203471WA0288502885
B1836013838665N11203463WA0288402884
B1836023838670N11203455WA0288202882
B1836033838675N11203448WA0288002880
B1836043838681N11203441WA0287702877
B1836053838689N11203435WA0287502875
B1836063838696N11203431WA0287402874
B1836073838703N11203430WA0287402874
B1836083838709N11203431WA0287302873
B1836093838715N11203433WA0287102871
B1836103838721N11203436WA0286902869
B1836113838727N11203438WA0286702867
B1836123838733N11203440WA0286502865
B1836133838738N11203442WA0286402864
B1836143838744N11203444WA0286302863
B1836153838749N11203446WA0286102861
B1836163838754N11203448WA0285902859
B1836173838759N11203451WA0285602856
B1836183838765N11203453WA0285402854
B1836193838772N11203455WA0285102851
B1836203838778N11203456WA0284802848
B1836213838785N11203457WA0284602846
B1836223838791N11203457WA0284402844
B1836233838798N11203457WA0284202842
B1836243838804N11203456WA0283902839
B1836253838810N11203457WA0283402834
B1836263838816N11203460WA0283102831
B1836273838821N11203462WA0282702827
B1836283838827N11203464WA0282402824
B1836293838832N11203466WA0282102821
B1836303838838N11203467WA0281802818
B1836313838844N11203467WA0281602816
B1836323838850N11203467WA0281302813
B1836333838857N11203466WA0281002810
B1836343838863N11203466WA0280802808
B1836353838870N11203466WA0280502805
B1836363838876N11203466WA0280302803
B1836373838882N11203466WA0280002800
B1836383838889N11203466WA0279702797
B1836393838895N11203467WA0279402794
B1836403838902N11203467WA0279102791
B1836413838909N11203467WA0278902789
B1836423838916N11203467WA0278802788
B1836433838923N11203466WA0278502785
B1836443838930N11203466WA0278302783
B1836453838938N11203466WA0278002780
B1836463838945N11203467WA0277702777
B1836473838952N11203467WA0277402774
B1836483838959N11203467WA0277102771
B1836493838966N11203468WA0276802768
B1836503838973N11203469WA0276402764
B1836513838981N11203469WA0276102761
B1836523838988N11203469WA0275902759
B1836533838994N11203470WA0275602756
B1836543839001N11203470WA0275302753
B1836553839008N11203469WA0275002750
B1836563839015N11203469WA0274602746
B1836573839022N11203469WA0274302743
B1836583839029N11203469WA0274002740
B1836593839036N11203469WA0273802738
B1837003839043N11203469WA0273602736
B1837013839050N11203469WA0273302733
B1837023839056N11203469WA0273002730
B1837033839063N11203469WA0272802728
B1837043839071N11203470WA0272502725
B1837053839078N11203471WA0272302723
B1837063839085N11203471WA0272202722
B1837073839092N11203472WA0272002720
B1837083839099N11203472WA0271802718
B1837093839106N11203473WA0271602716
B1837103839114N11203473WA0271602716
B1837113839122N11203473WA0271502715
B1837123839129N11203472WA0271302713
B1837133839137N11203471WA0271202712
B1837143839144N11203471WA0271102711
B1837153839151N11203471WA0271002710
B1837163839158N11203472WA0270902709
B1837173839164N11203472WA0270802708
B1837183839172N11203473WA0270602706
B1837193839179N11203474WA0270502705
B1837203839187N11203474WA0270402704
B1837213839194N11203474WA0270302703
B1837223839200N11203474WA0270302703
B1837233839207N11203474WA0270302703
B1837243839213N11203472WA0270302703
B1837253839220N11203470WA0270102701
B1837263839227N11203467WA0270002700
B1837273839235N11203464WA0269902699
B1837283839243N11203462WA0269902699
B1837293839250N11203462WA0269902699
B1837303839256N11203462WA0269902699
B1837313839262N11203462WA0269902699
B1837323839267N11203462WA0269802698
B1837333839273N11203464WA0269702697
B1837343839277N11203466WA0269602696
B1837353839281N11203469WA0269402694
B1837363839283N11203473WA0269302693
B1837373839283N11203476WA0269202692
B1837383839282N11203480WA0269102691
B1837393839280N11203483WA0268902689
B1837403839279N11203487WA0268702687
B1837413839281N11203490WA0268502685
B1837423839285N11203493WA0268302683
B1837433839290N11203496WA0268102681
B1837443839297N11203497WA0267802678
B1837453839303N11203497WA0267602676
B1837463839309N11203496WA0267302673
B1837473839315N11203496WA0267002670
B1837483839321N11203495WA0266702667
B1837493839328N11203494WA0266302663
B1837503839336N11203492WA0265902659
B1837513839343N11203489WA0265602656
B1837523839350N11203485WA0265402654
B1837533839357N11203481WA0265102651
B1837543839363N11203476WA0264802648
B1837553839371N11203470WA0264502645
B1837563839378N11203465WA0264102641
B1837573839386N11203460WA0263802638
B1837583839393N11203455WA0263602636
B1837593839400N11203451WA0263402634
B1838003839407N11203446WA0263102631
B1838013839414N11203442WA0262802628
B1838023839421N11203438WA0262502625
B1838033839428N11203433WA0262102621
B1838043839435N11203429WA0261802618
B1838053839442N11203425WA0261402614
B1838063839449N11203421WA0261102611
B1838073839456N11203418WA0260802608
B1838083839463N11203416WA0260402604
B1838093839470N11203414WA0260002600
B1838103839477N11203412WA0259602596
B1838113839485N11203410WA0259202592
B1838123839492N11203409WA0258902589
B1838133839500N11203408WA0258602586
B1838143839507N11203408WA0258302583
B1838153839514N11203408WA0257902579
B1838163839522N11203409WA0257502575
B1838173839530N11203410WA0257002570
B1838183839539N11203411WA0256602566
B1838193839547N11203412WA0256202562
B1838203839555N11203413WA0255902559
B1838213839563N11203414WA0255802558
B1838223839571N11203414WA0255502555
B1838233839579N11203415WA0255302553
B1838243839587N11203416WA0255002550
B1838253839595N11203418WA0254602546
B1838263839603N11203420WA0254202542
B1838273839611N11203422WA0253902539
B1838283839620N11203424WA0253602536
B1838293839628N11203425WA0253402534
B1838303839636N11203426WA0253102531
B1838313839645N11203427WA0252802528
B1838323839653N11203428WA0252502525
B1838333839662N11203430WA0252202522
B1838343839670N11203431WA0252002520
B1838353839678N11203432WA0251802518
B1838363839686N11203433WA0251702517
B1838373839693N11203434WA0251602516
B1838383839698N11203435WA0251602516
B1838393839704N11203435WA0251502515
B1838403839709N11203434WA0251302513
B1838413839716N11203434WA0251102511
B1838423839722N11203433WA0250702507
B1838433839730N11203432WA0250402504
B1838443839737N11203432WA0250102501
B1838453839744N11203431WA0250002500
B1838463839751N11203430WA0249802498
B1838473839757N11203429WA0249702497
B1838483839764N11203429WA0249402494
B1838493839770N11203428WA0249202492
B1838503839777N11203428WA0248902489
B1838513839784N11203428WA0248702487
B1838523839791N11203427WA0248502485
B1838533839798N11203427WA0248302483
B1838543839805N11203427WA0248102481
B1838553839812N11203427WA0247902479
B1838563839819N11203426WA0247702477
B1838573839826N11203426WA0247602476
B1838583839833N11203426WA0247402474
B1838593839840N11203426WA0247302473
B1839003839847N11203425WA0247202472
B1839013839854N11203424WA0247002470
B1839023839861N11203423WA0246802468
B1839033839868N11203421WA0246602466
B1839043839875N11203420WA0246402464
B1839053839883N11203420WA0246202462
B1839063839890N11203419WA0246102461
B1839073839897N11203418WA0246002460
B1839083839904N11203417WA0245802458
B1839093839912N11203416WA0245602456
B1839103839919N11203416WA0245502455
B1839113839926N11203415WA0245302453
B1839123839933N11203414WA0245102451
B1839133839940N11203413WA0244902449
B1839143839948N11203412WA0244702447
B1839153839955N11203410WA0244502445
B1839163839963N11203408WA0244302443
B1839173839970N11203406WA0244202442
B1839183839978N11203403WA0244102441
B1839193839985N11203400WA0243902439
B1839203839992N11203397WA0243702437
B1839213840000N11203394WA0243502435
B1839223840008N11203391WA0243202432
B1839233840017N11203389WA0243002430
B1839243840025N11203387WA0242902429
B1839253840032N11203385WA0242802428
B1839263840039N11203383WA0242802428
B1839273840046N11203381WA0242702427
B1839283840053N11203378WA0242602426
B1839293840060N11203375WA0242402424
B1839303840068N11203371WA0242202422
B1839313840076N11203367WA0242002420
B1839323840083N11203363WA0241802418
B1839333840090N11203360WA0241702417
B1839343840097N11203359WA0241502415
B1839353840104N11203358WA0241202412
B1839363840112N11203358WA0240902409
B1839373840119N11203357WA0240702407
B1839383840126N11203357WA0240502405
B1839393840132N11203357WA0240302403
B1839403840139N11203358WA0240102401
B1839413840145N11203358WA0239902399
B1839423840152N11203358WA0239602396
B1839433840159N11203357WA0239402394
B1839443840166N11203355WA0239102391
B1839453840174N11203353WA0238902389
B1839463840181N11203351WA0238702387
B1839473840188N11203350WA0238502385
B1839483840195N11203348WA0238302383
B1839493840203N11203347WA0238002380
B1839503840210N11203346WA0237802378
B1839513840217N11203345WA0237502375
B1839523840225N11203345WA0237202372
B1839533840232N11203344WA0236802368
B1839543840240N11203344WA0236602366
B1839553840247N11203344WA0236302363
B1839563840255N11203344WA0236102361
B1839573840262N11203345WA0235802358
B1839583840270N11203346WA0235502355
B1839593840278N11203346WA0235202352
B1840003840287N11203346WA0234902349
B1840013840295N11203345WA0234802348
B1840023840302N11203345WA0234802348
B1840033840308N11203344WA0234902349
B1840043840314N11203343WA0234802348
B1840053840321N11203343WA0234602346
B1840063840328N11203342WA0234402344
B1840073840335N11203342WA0234102341
B1840083840342N11203342WA0233902339
B1840093840348N11203342WA0233602336
B1840103840354N11203342WA0233402334
B1840113840361N11203341WA0233102331
B1840123840368N11203339WA0232702327
B1840133840375N11203338WA0232402324
B1840143840382N11203337WA0232102321
B1840153840390N11203336WA0231802318
B1840163840397N11203336WA0231502315
B1840173840404N11203336WA0231302313
B1840183840411N11203336WA0231002310
B1840193840418N11203337WA0230802308
B1840203840425N11203338WA0230502305
B1840213840432N11203340WA0230302303
B1840223840439N11203341WA0230002300
B1840233840446N11203342WA0229702297
B1840243840453N11203343WA0229402294
B1840253840460N11203344WA0229002290
B1840263840467N11203344WA0228602286
B1840273840475N11203345WA0228202282
B1840283840481N11203346WA0228002280
B1840293840487N11203346WA0227702277
B1840303840493N11203346WA0227402274
B1840313840500N11203345WA0226902269
B1840323840507N11203344WA0226502265
B1840333840515N11203342WA0226002260
B1840343840522N11203340WA0225802258
B1840353840528N11203339WA0225802258
B1840363840534N11203340WA0225802258
B1840373840540N11203342WA0225602256
B1840383840546N11203345WA0225202252
B1840393840552N11203348WA0224902249
B1840403840559N11203351WA0224702247
B1840413840565N11203354WA0224502245
B1840423840572N11203356WA0224302243
B1840433840578N11203359WA0224202242
B1840443840584N11203361WA0224002240
B1840453840591N11203363WA0223802238
B1840463840598N11203365WA0223502235
B1840473840606N11203366WA0223302233
B1840483840614N11203367WA0223202232
B1840493840622N11203367WA0223002230
B1840503840629N11203368WA0222902229
B1840513840637N11203368WA0222802228
B1840523840645N11203368WA0222602226
B1840533840652N11203369WA0222502225
B1840543840660N11203369WA0222402224
B1840553840668N11203370WA0222302223
B1840563840675N11203370WA0222202222
B1840573840683N11203371WA0222102221
B1840583840691N11203372WA0222002220
B1840593840699N11203373WA0221902219
B1841003840706N11203376WA0222002220
B1841013840712N11203379WA0222102221
B1841023840718N11203382WA0222302223
B1841033840722N11203386WA0222302223
B1841043840725N11203391WA0222102221
B1841053840728N11203397WA0221802218
B1841063840732N11203403WA0221702217
B1841073840736N11203409WA0221602216
B1841083840742N11203414WA0221502215
B1841093840747N11203417WA0221502215
B1841103840751N11203421WA0221402214
B1841113840756N11203425WA0221302213
B1841123840762N11203429WA0221002210
B1841133840768N11203433WA0220702207
B1841143840775N11203437WA0220602206
B1841153840780N11203440WA0220602206
B1841163840786N11203443WA0220602206
B1841173840791N11203445WA0220502205
B1841183840797N11203447WA0220402204
B1841193840805N11203449WA0220102201
B1841203840812N11203450WA0219902199
B1841213840820N11203451WA0219702197
B1841223840829N11203452WA0219602196
B1841233840837N11203452WA0219402194
B1841243840845N11203452WA0219302193
B1841253840853N11203451WA0219202192
B1841263840861N11203451WA0219102191
B1841273840870N11203450WA0218902189
B1841283840879N11203448WA0218802188
B1841293840887N11203445WA0218702187
B1841303840895N11203441WA0218702187
B1841313840902N11203435WA0218702187
B1841323840908N11203425WA0218602186
B1841333840912N11203415WA0218602186
B1841343840915N11203405WA0218502185
B1841353840916N11203395WA0218402184
B1841363840916N11203385WA0218302183
B1841373840916N11203377WA0218302183
B1841383840916N11203369WA0218202182
B1841393840915N11203362WA0218102181
B1841403840912N11203358WA0218102181
B1841413840908N11203355WA0218002180
B1841423840905N11203355WA0218002180
B1841433840902N11203357WA0217902179
B1841443840901N11203359WA0217902179
B1841453840901N11203363WA0217902179
B1841463840903N11203366WA0217802178
B1841473840908N11203370WA0217702177
B1841483840915N11203373WA0217502175
B1841493840922N11203374WA0217502175
B1841503840930N11203373WA0217502175
B1841513840938N11203370WA0217402174
B1841523840945N11203365WA0217402174
B1841533840952N11203357WA0217402174
B1841543840957N11203347WA0217302173
B1841553840962N11203337WA0217302173
B1841563840967N11203327WA0217302173
B1841573840971N11203319WA0217402174
B1841583840976N11203311WA0217302173
B1841593840981N11203301WA0217202172
B1842003840987N11203292WA0217202172
B1842013840992N11203283WA0217202172
B1842023840997N11203276WA0217302173
B1842033841002N11203270WA0217402174
B1842043841007N11203263WA0217202172
B1842053841012N11203256WA0217002170
B1842063841018N11203250WA0216602166
B1842073841025N11203245WA0216502165
B1842083841031N11203240WA0216502165
B1842093841036N11203236WA0216602166
B1842103841042N11203233WA0216602166
B1842113841047N11203231WA0216402164
B1842123841053N11203230WA0216102161
B1842133841060N11203230WA0215702157
B1842143841066N11203229WA0215302153
B1842153841074N11203228WA0215002150
B1842163841081N11203226WA0214902149
B1842173841087N11203224WA0214902149
B1842183841093N11203223WA0215002150
B1842193841099N11203224WA0214902149
B1842203841104N11203225WA0214702147
B1842213841110N11203227WA0214602146
B1842223841116N11203228WA0214502145
B1842233841121N11203229WA0214502145
B1842243841127N11203229WA0214502145
B1842253841132N11203229WA0214302143
B1842263841138N11203230WA0214102141
B1842273841145N11203230WA0213802138
B1842283841152N11203230WA0213602136
B1842293841158N11203228WA0213502135
B1842303841165N11203226WA0213402134
B1842313841171N11203225WA0213402134
B1842323841176N11203225WA0213402134
B1842333841181N11203225WA0213302133
B1842343841186N11203225WA0213102131
B1842353841193N11203225WA0212902129
B1842363841200N11203224WA0212702127
B1842373841207N11203223WA0212702127
B1842383841214N11203222WA0212602126
B1842393841220N11203222WA0212702127
B1842403841225N11203223WA0212702127
B1842413841231N11203224WA0212702127
B1842423841236N11203225WA0212702127
B1842433841243N11203226WA0212602126
B1842443841250N11203225WA0212502125
B1842453841257N11203225WA0212602126
B1842463841263N11203224WA0212702127
B1842473841269N11203224WA0212802128
B1842483841276N11203224WA0212702127
B1842493841283N11203225WA0212602126
B1842503841290N11203226WA0212602126
B1842513841298N11203226WA0212702127
B1842523841304N11203226WA0212902129
B1842533841310N11203226WA0213002130
B1842543841316N11203226WA0213002130
B1842553841323N11203226WA0213002130
B1842563841329N11203226WA0212802128
B1842573841337N11203225WA0212702127
B1842583841344N11203224WA0212502125
B1842593841352N11203223WA0212402124
B1843003841360N11203223WA0212302123
B1843013841367N11203222WA0212402124
B1843023841374N11203220WA0212402124
B1843033841381N11203218WA0212402124
B1843043841388N11203215WA0212402124
B1843053841394N11203212WA0212302123
B1843063841401N11203209WA0212202122
B1843073841407N11203206WA0212202122
B1843083841413N11203204WA0212102121
B1843093841419N11203205WA0212102121
B1843103841425N11203207WA0211902119
B1843113841431N11203209WA0211602116
B1843123841437N11203212WA0211502115
B1843133841442N11203213WA0211502115
B1843143841448N11203213WA0211402114
B1843153841452N11203212WA0211402114
B1843163841457N11203210WA0211302113
B1843173841461N11203207WA0211202112
B1843183841466N11203204WA0211002110
B1843193841471N11203201WA0210802108
B1843203841476N11203197WA0210602106
B1843213841482N11203194WA0210402104
B1843223841487N11203192WA0210302103
B1843233841492N11203190WA0210202102
B1843243841496N11203190WA0210302103
B1843253841500N11203191WA0210302103
B1843263841505N11203192WA0210402104
B1843273841510N11203193WA0210402104
B1843283841516N11203194WA0210502105
B1843293841521N11203195WA0210802108
B1843303841524N11203198WA0211002110
B1843313841527N11203200WA0211202112
B1843323841529N11203203WA0211402114
B1843333841532N11203206WA0211502115
B1843343841536N11203208WA0211602116
B1843353841540N11203210WA0211702117
B1843363841544N11203211WA0211802118
B1843373841548N11203212WA0211902119
B1843383841552N11203213WA0211902119
B1843393841557N11203215WA0211802118
B1843403841561N11203217WA0211702117
B1843413841565N11203219WA0211802118
B1843423841568N11203221WA0211902119
B1843433841572N11203223WA0211902119
B1843443841575N11203225WA0211902119
B1843453841579N11203228WA0211602116
B1843463841583N11203230WA0211402114
B1843473841587N11203231WA0211302113
B1843483841591N11203233WA0211102111
B1843493841595N11203234WA0210802108
B1843503841600N11203236WA0210702107
B1843513841605N11203238WA0210602106
B1843523841610N11203241WA0210402104
B1843533841615N11203244WA0210202102
B1843543841621N11203247WA0210102101
B1843553841626N11203249WA0209902099
B1843563841632N11203251WA0209802098
B1843573841637N11203253WA0209702097
B1843583841643N11203255WA0209602096
B1843593841648N11203257WA0209402094
B1844003841652N11203259WA0209302093
B1844013841658N11203260WA0209102091
B1844023841663N11203260WA0208902089
B1844033841669N11203259WA0208702087
B1844043841676N11203257WA0208602086
B1844053841682N11203254WA0208302083
B1844063841687N11203250WA0208102081
B1844073841692N11203246WA0208002080
B1844083841697N11203241WA0207702077
B1844093841701N11203235WA0207502075
B1844103841707N11203229WA0207202072
B1844113841712N11203223WA0207002070
B1844123841716N11203217WA0206702067
B1844133841721N11203210WA0206402064
B1844143841725N11203203WA0206202062
B1844153841728N11203196WA0206002060
B1844163841731N11203189WA0205702057
B1844173841735N11203181WA0205402054
B1844183841738N11203174WA0205102051
B1844193841742N11203167WA0204702047
B1844203841746N11203159WA0204302043
B1844213841751N11203152WA0203902039
B1844223841756N11203146WA0203602036
B1844233841761N11203141WA0203302033
B1844243841766N11203136WA0203102031
B1844253841771N11203132WA0202702027
B1844263841776N11203127WA0202302023
B1844273841781N11203121WA0201902019
B1844283841787N11203115WA0201602016
B1844293841793N11203109WA0201202012
B1844303841798N11203103WA0200902009
B1844313841803N11203096WA0200602006
B1844323841807N11203089WA0200202002
B1844333841811N11203082WA0199801998
B1844343841816N11203075WA0199301993
B1844353841820N11203067WA0198901989
B1844363841824N11203060WA0198701987
B1844373841827N11203054WA0198501985
B1844383841830N11203049WA0198201982
B1844393841834N11203042WA0197801978
B1844403841838N11203035WA0197401974
B1844413841843N11203028WA0197001970
B1844423841848N11203021WA0196701967
B1844433841852N11203014WA0196501965
B1844443841856N11203006WA0196201962
B1844453841859N11202999WA0196001960
B1844463841862N11202991WA0195701957
B1844473841866N11202983WA0195301953
B1844483841869N11202975WA0195001950
B1844493841872N11202967WA0194701947
B1844503841875N11202959WA0194401944
B1844513841877N11202951WA0194101941
B1844523841879N11202943WA0193901939
B1844533841881N11202934WA0193501935
B1844543841883N11202925WA0193201932
B1844553841886N11202916WA0192901929
B1844563841888N11202908WA0192601926
B1844573841890N11202899WA0192301923
B1844583841892N11202890WA0192001920
B1844593841894N11202882WA0191801918
B1845003841895N11202874WA0191501915
B1845013841897N11202866WA0191201912
B1845023841898N11202857WA0190801908
B1845033841899N11202847WA0190501905
B1845043841900N11202837WA0190201902
B1845053841900N11202827WA0190001900
B1845063841899N11202818WA0189801898
B1845073841899N11202809WA0189501895
B1845083841898N11202800WA0189301893
B1845093841897N11202791WA0189001890
B1845103841897N11202781WA0188701887
B1845113841896N11202770WA0188401884
B1845123841896N11202760WA0188101881
B1845133841895N11202751WA0188001880
B1845143841894N11202742WA0187801878
B1845153841894N11202733WA0187601876
B1845163841893N11202724WA0187401874
B1845173841892N11202714WA0187101871
B1845183841892N11202704WA0186901869
B1845193841893N11202694WA0186601866
B1845203841894N11202685WA0186401864
B1845213841896N11202676WA0186201862
B1845223841897N11202667WA0186001860
B1845233841898N11202658WA0185801858
B1845243841900N11202649WA0185601856
B1845253841901N11202639WA0185301853
B1845263841902N11202630WA0185101851
B1845273841904N11202620WA0184701847
B1845283841906N11202610WA0184501845
B1845293841907N11202601WA0184401844
B1845303841908N11202592WA0184301843
B1845313841909N11202583WA0184101841
B1845323841910N11202574WA0183801838
B1845333841909N11202563WA0183601836
B1845343841908N11202553WA0183501835
B1845353841907N11202543WA0183301833
B1845363841906N11202533WA0183001830
B1845373841906N11202523WA0182801828
B1845383841905N11202512WA0182601826
B1845393841905N11202502WA0182401824
B1845403841906N11202493WA0182201822
B1845413841906N11202482WA0182101821
B1845423841907N11202471WA0182001820
B1845433841908N11202461WA0182001820
B1845443841908N11202450WA0181901819
B1845453841909N11202441WA0181801818
B1845463841911N11202432WA0181801818
B1845473841912N11202422WA0181801818
B1845483841914N11202412WA0181701817
B1845493841918N11202403WA0181601816
B1845503841921N11202395WA0181701817
B1845513841924N11202387WA0181701817
B1845523841927N11202380WA0181801818
B1845533841930N11202372WA0181701817
B1845543841933N11202364WA0181601816
B1845553841937N11202356WA0181401814
B1845563841942N11202349WA0181401814
B1845573841946N11202343WA0181401814
B1845583841950N11202337WA0181501815
B1845593841954N11202331WA0181601816
B1846003841958N11202326WA0181501815
B1846013841962N11202320WA0181401814
B1846023841967N11202313WA0181301813
B1846033841972N11202306WA0181201812
B1846043841976N11202298WA0181101811
B1846053841980N11202290WA0181001810
B1846063841984N11202282WA0180901809
B1846073841988N11202276WA0180801808
B1846083841992N11202270WA0180701807
B1846093841997N11202265WA0180501805
B1846103842001N11202261WA0180401804
B1846113842005N11202259WA0180201802
B1846123842009N11202260WA0180001800
B1846133842011N11202263WA0179601796
B1846143842011N11202269WA0179201792
B1846153842009N11202274WA0178801788
B1846163842003N11202276WA0178601786
B1846173841996N11202276WA0178501785
B1846183841990N11202272WA0178301783
B1846193841985N11202266WA0178201782
B1846203841979N11202260WA0178101781
B1846213841974N11202253WA0177901779
B1846223841969N11202245WA0177801778
B1846233841963N11202238WA0177701777
B1846243841957N11202230WA0177601776
B1846253841951N11202222WA0177501775
B1846263841946N11202215WA0177301773
B1846273841940N11202209WA0177201772
B1846283841934N11202204WA0177001770
B1846293841927N11202200WA0176901769
B1846303841920N11202199WA0176701767
B1846313841914N11202198WA0176601766
B1846323841909N11202199WA0176501765
B1846333841905N11202201WA0176301763
B1846343841902N11202203WA0176301763
B1846353841899N11202205WA0176401764
B1846363841896N11202209WA0176401764
B1846373841893N11202212WA0176401764
B1846383841890N11202216WA0176601766
B1846393841886N11202219WA0176801768
B1846403841882N11202221WA0177101771
B1846413841878N11202224WA0177301773
B1846423841875N11202227WA0177501775
B1846433841873N11202232WA0177501775
B1846443841872N11202237WA0177601776
B1846453841871N11202242WA0177701777
B1846463841872N11202245WA0177801778
B1846473841874N11202248WA0178001780
B1846483841877N11202250WA0177901779
B1846493841881N11202251WA0177901779
B1846503841887N11202250WA0177901779
B1846513841891N11202248WA0178101781
B1846523841895N11202246WA0178401784
B1846533841899N11202243WA0178601786
B1846543841903N11202239WA0178601786
B1846553841907N11202234WA0178601786
B1846563841911N11202230WA0178601786
B1846573841916N11202226WA0178701787
B1846583841920N11202221WA0178701787
B1846593841925N11202216WA0178701787
B1847003841929N11202212WA0178801788
B1847013841933N11202208WA0178801788
B1847023841937N11202205WA0178901789
B1847033841941N11202203WA0178901789
B1847043841946N11202201WA0178701787
B1847053841950N11202199WA0178701787
B1847063841954N11202198WA0178701787
B1847073841957N11202197WA0178601786
B1847083841960N11202199WA0178501785
B1847093841963N11202202WA0178401784
B1847103841965N11202205WA0178201782
B1847113841965N11202208WA0178201782
B1847123841964N11202212WA0178201782
B1847133841961N11202215WA0178001780
B1847143841957N11202217WA0177701777
B1847153841952N11202218WA0177501775
B1847163841946N11202218WA0177301773
B1847173841940N11202218WA0177201772
B1847183841934N11202218WA0177101771
B1847193841928N11202218WA0177001770
B1847203841922N11202217WA0176901769
B1847213841916N11202217WA0176801768
B1847223841910N11202217WA0176601766
B1847233841905N11202218WA0176501765
B1847243841900N11202220WA0176501765
B1847253841898N11202223WA0176401764
B1847263841897N11202226WA0176301763
B1847273841897N11202230WA0176201762
B1847283841899N11202234WA0176001760
B1847293841901N11202237WA0175801758
B1847303841905N11202239WA0175701757
B1847313841909N11202241WA0175801758
B1847323841913N11202240WA0175801758
B1847333841917N11202240WA0175801758
B1847343841920N11202239WA0175801758
B1847353841924N11202240WA0175701757
B1847363841927N11202242WA0175501755
B1847373841931N11202244WA0175201752
B1847383841934N11202245WA0175101751
B1847393841937N11202245WA0175001750
B1847403841941N11202245WA0174901749
B1847413841944N11202245WA0174701747
B1847423841948N11202245WA0174601746
B1847433841951N11202246WA0174501745
B1847443841955N11202248WA0174401744
B1847453841957N11202250WA0174201742
B1847463841957N11202254WA0174101741
B1847473841956N11202258WA0173901739
B1847483841954N11202262WA0173901739
B1847493841953N11202266WA0173801738
B1847503841954N11202270WA0173701737
B1847513841955N11202274WA0173501735
B1847523841958N11202276WA0173301733
B1847533841961N11202278WA0173201732
B1847543841964N11202279WA0173001730
B1847553841967N11202280WA0172801728
B1847563841970N11202282WA0172601726
B1847573841972N11202285WA0172401724
B1847583841974N11202289WA0172201722
B1847593841975N11202293WA0172001720
B1848003841976N11202296WA0171901719
B1848013841978N11202300WA0171801718
B1848023841980N11202304WA0171601716
B1848033841981N11202307WA0171501715
B1848043841982N11202311WA0171401714
B1848053841982N11202315WA0171201712
B1848063841983N11202319WA0171101711
B1848073841983N11202321WA0171001710
B1848083841983N11202321WA0171001710
B1848093841983N11202321WA0171001710
B1848103841983N11202321WA0171001710
B1848113841983N11202321WA0171001710
B1848123841983N11202321WA0171001710
B1848133841983N11202321WA0171201712
B1848143841983N11202321WA0171201712
B1848153841983N11202321WA0171201712
B1848163841983N11202321WA0171201712
B1848173841983N11202321WA0171201712
B1848183841983N11202321WA0171201712
B1848193841983N11202321WA0171101711
B1848203841983N11202322WA0171101711
B1848213841984N11202322WA0171101711
B1848223841984N11202322WA0171001710
B1848233841984N11202322WA0171001710
B1848243841984N11202322WA0171001710
B1848253841984N11202322WA0171001710
B1848263841984N11202322WA0171001710
B1848273841984N11202322WA0171001710
