AXFMFLYMASTER LIVETRACK
HFDTE250926
HFFXA010
HFPLTPILOT:Nathan Pohl
HFGTYGLIDERTYPE:Ozone Alpina 5 / Advance Impress 3
HFCIDCOMPETITIONID:1211
HFDTM100GPSDATUM:WGS-1984
HFRFWFIRMWAREVERSION:lt.flymaster.net bsGetPilotTrack
B1731233837924N11203642WA0267902679
B1731243837923N11203643WA0267902679
B1731253837923N11203644WA0267902679
B1731263837921N11203644WA0267902679
B1731273837920N11203644WA0267802678
B1731283837917N11203645WA0267702677
B1731293837915N11203646WA0267702677
B1731303837911N11203648WA0267602676
B1731313837907N11203649WA0267502675
B1731323837903N11203650WA0267402674
B1731333837899N11203651WA0267502675
B1731343837895N11203652WA0267602676
B1731353837891N11203652WA0267702677
B1731363837888N11203652WA0267802678
B1731373837885N11203651WA0267802678
B1731383837881N11203651WA0267702677
B1731393837877N11203650WA0267502675
B1731403837872N11203649WA0267402674
B1731413837866N11203647WA0267402674
B1731423837862N11203644WA0267502675
B1731433837858N11203642WA0267802678
B1731443837855N11203639WA0268102681
B1731453837852N11203636WA0268202682
B1731463837848N11203632WA0268202682
B1731473837844N11203628WA0268102681
B1731483837840N11203623WA0268002680
B1731493837835N11203619WA0267902679
B1731503837831N11203616WA0268002680
B1731513837827N11203612WA0268102681
B1731523837823N11203609WA0268202682
B1731533837819N11203605WA0268302683
B1731543837815N11203601WA0268302683
B1731553837811N11203597WA0268302683
B1731563837807N11203593WA0268202682
B1731573837801N11203588WA0268102681
B1731583837796N11203584WA0268102681
B1731593837791N11203580WA0268302683
B1732003837786N11203579WA0268502685
B1732013837782N11203578WA0268702687
B1732023837778N11203577WA0268902689
B1732033837774N11203575WA0268902689
B1732043837770N11203572WA0268802688
B1732053837765N11203569WA0268602686
B1732063837760N11203565WA0268502685
B1732073837756N11203561WA0268502685
B1732083837751N11203557WA0268602686
B1732093837747N11203553WA0268702687
B1732103837744N11203549WA0268802688
B1732113837740N11203544WA0268702687
B1732123837736N11203540WA0268702687
B1732133837731N11203537WA0268502685
B1732143837726N11203535WA0268502685
B1732153837722N11203533WA0268602686
B1732163837719N11203530WA0268702687
B1732173837715N11203525WA0268602686
B1732183837711N11203519WA0268502685
B1732193837708N11203513WA0268402684
B1732203837705N11203506WA0268302683
B1732213837702N11203499WA0268202682
B1732223837699N11203492WA0268102681
B1732233837696N11203485WA0267902679
B1732243837692N11203478WA0267902679
B1732253837689N11203471WA0267802678
B1732263837685N11203466WA0267802678
B1732273837681N11203462WA0267702677
B1732283837676N11203461WA0267502675
B1732293837673N11203463WA0267302673
B1732303837671N11203468WA0267002670
B1732313837673N11203474WA0266702667
B1732323837677N11203478WA0266502665
B1732333837683N11203482WA0266402664
B1732343837687N11203486WA0266402664
B1732353837690N11203489WA0266402664
B1732363837693N11203493WA0266402664
B1732373837696N11203496WA0266302663
B1732383837698N11203500WA0266302663
B1732393837700N11203505WA0266102661
B1732403837701N11203511WA0266002660
B1732413837702N11203517WA0266002660
B1732423837703N11203521WA0266102661
B1732433837704N11203525WA0266202662
B1732443837706N11203529WA0266302663
B1732453837709N11203534WA0266202662
B1732463837713N11203538WA0266102661
B1732473837718N11203543WA0266002660
B1732483837724N11203546WA0265902659
B1732493837729N11203550WA0265902659
B1732503837734N11203555WA0265902659
B1732513837738N11203560WA0265902659
B1732523837743N11203564WA0266002660
B1732533837749N11203567WA0266002660
B1732543837755N11203570WA0266002660
B1732553837760N11203573WA0266002660
B1732563837765N11203577WA0266002660
B1732573837770N11203581WA0266002660
B1732583837775N11203585WA0266002660
B1732593837780N11203590WA0265902659
B1733003837785N11203594WA0265902659
B1733013837790N11203597WA0266102661
B1733023837796N11203599WA0266102661
B1733033837801N11203602WA0266102661
B1733043837807N11203605WA0266002660
B1733053837814N11203608WA0265802658
B1733063837820N11203611WA0265802658
B1733073837826N11203613WA0265702657
B1733083837832N11203616WA0265702657
B1733093837836N11203621WA0265602656
B1733103837840N11203627WA0265502655
B1733113837843N11203633WA0265402654
B1733123837845N11203640WA0265302653
B1733133837847N11203646WA0265302653
B1733143837850N11203651WA0265402654
B1733153837853N11203656WA0265502655
B1733163837857N11203659WA0265702657
B1733173837861N11203663WA0265702657
B1733183837867N11203667WA0265702657
B1733193837872N11203671WA0265602656
B1733203837877N11203676WA0265602656
B1733213837880N11203681WA0265602656
B1733223837880N11203686WA0265602656
B1733233837877N11203690WA0265402654
B1733243837873N11203691WA0265302653
B1733253837868N11203690WA0265202652
B1733263837865N11203686WA0265202652
B1733273837861N11203681WA0265302653
B1733283837859N11203675WA0265402654
B1733293837856N11203670WA0265402654
B1733303837852N11203664WA0265402654
B1733313837848N11203659WA0265502655
B1733323837844N11203654WA0265502655
B1733333837841N11203648WA0265602656
B1733343837838N11203642WA0265802658
B1733353837835N11203636WA0266002660
B1733363837832N11203631WA0266202662
B1733373837829N11203626WA0266302663
B1733383837825N11203623WA0266402664
B1733393837821N11203622WA0266402664
B1733403837816N11203621WA0266402664
B1733413837811N11203621WA0266502665
B1733423837807N11203620WA0266602666
B1733433837803N11203618WA0266802668
B1733443837800N11203617WA0267002670
B1733453837796N11203616WA0267002670
B1733463837793N11203615WA0266802668
B1733473837788N11203613WA0266602666
B1733483837784N11203610WA0266502665
B1733493837779N11203605WA0266402664
B1733503837776N11203600WA0266502665
B1733513837774N11203593WA0266602666
B1733523837772N11203586WA0266602666
B1733533837770N11203579WA0266502665
B1733543837767N11203574WA0266502665
B1733553837763N11203570WA0266302663
B1733563837759N11203569WA0266302663
B1733573837756N11203572WA0266202662
B1733583837756N11203578WA0266002660
B1733593837758N11203584WA0265902659
B1734003837763N11203589WA0265802658
B1734013837769N11203591WA0265902659
B1734023837776N11203593WA0265902659
B1734033837783N11203594WA0266002660
B1734043837790N11203595WA0266002660
B1734053837796N11203598WA0265902659
B1734063837802N11203602WA0265902659
B1734073837807N11203606WA0265902659
B1734083837812N11203610WA0265902659
B1734093837816N11203615WA0265902659
B1734103837819N11203620WA0265802658
B1734113837824N11203626WA0265702657
B1734123837828N11203632WA0265602656
B1734133837832N11203638WA0265502655
B1734143837836N11203643WA0265602656
B1734153837841N11203647WA0265602656
B1734163837845N11203652WA0265702657
B1734173837850N11203656WA0265602656
B1734183837855N11203660WA0265602656
B1734193837861N11203664WA0265602656
B1734203837866N11203669WA0265602656
B1734213837871N11203674WA0265602656
B1734223837875N11203680WA0265602656
B1734233837878N11203685WA0265902659
B1734243837882N11203689WA0266202662
B1734253837886N11203692WA0266402664
B1734263837890N11203695WA0266502665
B1734273837895N11203698WA0266502665
B1734283837901N11203702WA0266402664
B1734293837907N11203706WA0266302663
B1734303837913N11203710WA0266302663
B1734313837919N11203714WA0266502665
B1734323837924N11203717WA0266702667
B1734333837927N11203721WA0266702667
B1734343837928N11203726WA0266702667
B1734353837926N11203730WA0266302663
B1734363837921N11203732WA0265902659
B1734373837915N11203728WA0265702657
B1734383837912N11203722WA0265702657
B1734393837910N11203716WA0265902659
B1734403837908N11203712WA0266202662
B1734413837906N11203709WA0266202662
B1734423837902N11203706WA0266002660
B1734433837898N11203703WA0265802658
B1734443837894N11203699WA0265602656
B1734453837889N11203695WA0265602656
B1734463837886N11203692WA0265702657
B1734473837882N11203688WA0265702657
B1734483837879N11203684WA0265702657
B1734493837875N11203679WA0265602656
B1734503837871N11203674WA0265602656
B1734513837866N11203671WA0265602656
B1734523837860N11203668WA0265602656
B1734533837856N11203665WA0265802658
B1734543837852N11203662WA0266002660
B1734553837848N11203658WA0266102661
B1734563837844N11203654WA0266102661
B1734573837840N11203651WA0265902659
B1734583837834N11203647WA0265702657
B1734593837830N11203642WA0265602656
B1735003837826N11203635WA0265702657
B1735013837825N11203629WA0265902659
B1735023837823N11203624WA0266102661
B1735033837821N11203619WA0266102661
B1735043837817N11203616WA0265902659
B1735053837812N11203614WA0265602656
B1735063837806N11203614WA0265302653
B1735073837800N11203615WA0265202652
B1735083837796N11203616WA0265302653
B1735093837792N11203616WA0265402654
B1735103837788N11203615WA0265502655
B1735113837783N11203614WA0265402654
B1735123837778N11203614WA0265302653
B1735133837772N11203614WA0265102651
B1735143837767N11203615WA0265102651
B1735153837761N11203616WA0265302653
B1735163837757N11203616WA0265602656
B1735173837752N11203617WA0265802658
B1735183837747N11203618WA0266002660
B1735193837742N11203619WA0266102661
B1735203837737N11203621WA0266102661
B1735213837733N11203622WA0266102661
B1735223837728N11203624WA0266102661
B1735233837724N11203626WA0266002660
B1735243837718N11203628WA0265802658
B1735253837712N11203629WA0265602656
B1735263837706N11203631WA0265502655
B1735273837701N11203632WA0265602656
B1735283837696N11203633WA0265602656
B1735293837691N11203635WA0265702657
B1735303837685N11203635WA0265602656
B1735313837679N11203635WA0265502655
B1735323837673N11203636WA0265302653
B1735333837667N11203638WA0265202652
B1735343837663N11203640WA0265302653
B1735353837659N11203642WA0265302653
B1735363837656N11203643WA0265302653
B1735373837653N11203643WA0265202652
B1735383837649N11203642WA0264902649
B1735393837645N11203637WA0264502645
B1735403837642N11203629WA0264002640
B1735413837642N11203619WA0263602636
B1735423837646N11203610WA0263202632
B1735433837652N11203605WA0262802628
B1735443837660N11203605WA0262502625
B1735453837666N11203609WA0262202622
B1735463837670N11203614WA0262102621
B1735473837674N11203616WA0262202622
B1735483837679N11203618WA0262102621
B1735493837684N11203619WA0261902619
B1735503837689N11203622WA0261602616
B1735513837695N11203627WA0261102611
B1735523837700N11203634WA0260702607
B1735533837705N11203640WA0260502605
B1735543837710N11203643WA0260602606
B1735553837714N11203646WA0260702607
B1735563837718N11203649WA0260602606
B1735573837721N11203654WA0260402604
B1735583837723N11203662WA0260002600
B1735593837724N11203670WA0259602596
B1736003837725N11203676WA0259502595
B1736013837725N11203682WA0259502595
B1736023837724N11203688WA0259502595
B1736033837724N11203693WA0259302593
B1736043837723N11203700WA0259002590
B1736053837724N11203707WA0258802588
B1736063837725N11203713WA0258602586
B1736073837729N11203719WA0258602586
B1736083837733N11203723WA0258502585
B1736093837738N11203727WA0258402584
B1736103837742N11203729WA0258302583
B1736113837747N11203731WA0258202582
B1736123837753N11203733WA0258102581
B1736133837759N11203736WA0257802578
B1736143837766N11203738WA0257602576
B1736153837772N11203741WA0257502575
B1736163837777N11203744WA0257502575
B1736173837782N11203747WA0257502575
B1736183837788N11203751WA0257302573
B1736193837793N11203757WA0257202572
B1736203837798N11203764WA0257202572
B1736213837801N11203772WA0257302573
B1736223837804N11203778WA0257502575
B1736233837806N11203783WA0257902579
B1736243837808N11203787WA0258102581
B1736253837812N11203791WA0258102581
B1736263837816N11203796WA0258002580
B1736273837821N11203802WA0257902579
B1736283837825N11203807WA0257902579
B1736293837828N11203813WA0258002580
B1736303837831N11203819WA0258102581
B1736313837835N11203824WA0258202582
B1736323837839N11203828WA0258302583
B1736333837843N11203832WA0258302583
B1736343837848N11203836WA0258202582
B1736353837852N11203842WA0258102581
B1736363837856N11203849WA0258102581
B1736373837859N11203855WA0258102581
B1736383837864N11203859WA0258402584
B1736393837869N11203860WA0258702587
B1736403837876N11203860WA0258802588
B1736413837883N11203858WA0258702587
B1736423837890N11203855WA0258602586
B1736433837898N11203852WA0258602586
B1736443837905N11203848WA0258702587
B1736453837912N11203845WA0258802588
B1736463837919N11203843WA0259002590
B1736473837925N11203840WA0259002590
B1736483837932N11203836WA0259002590
B1736493837939N11203832WA0258902589
B1736503837946N11203828WA0258702587
B1736513837954N11203824WA0258702587
B1736523837961N11203820WA0258702587
B1736533837968N11203815WA0258802588
B1736543837975N11203810WA0258902589
B1736553837982N11203806WA0259002590
B1736563837989N11203802WA0259102591
B1736573837996N11203799WA0259202592
B1736583838003N11203796WA0259302593
B1736593838010N11203793WA0259402594
B1737003838016N11203789WA0259502595
B1737013838022N11203785WA0259702597
B1737023838029N11203781WA0259702597
B1737033838036N11203776WA0259602596
B1737043838044N11203773WA0259502595
B1737053838052N11203771WA0259502595
B1737063838059N11203769WA0259602596
B1737073838065N11203766WA0259702597
B1737083838071N11203762WA0259702597
B1737093838078N11203758WA0259702597
B1737103838084N11203754WA0259702597
B1737113838091N11203749WA0259602596
B1737123838098N11203745WA0259602596
B1737133838104N11203742WA0259502595
B1737143838111N11203739WA0259602596
B1737153838118N11203736WA0259602596
B1737163838125N11203733WA0259602596
B1737173838132N11203729WA0259502595
B1737183838139N11203726WA0259502595
B1737193838146N11203722WA0259402594
B1737203838153N11203720WA0259302593
B1737213838160N11203721WA0259202592
B1737223838167N11203723WA0259202592
B1737233838171N11203728WA0259102591
B1737243838172N11203734WA0259002590
B1737253838171N11203739WA0258902589
B1737263838167N11203741WA0259002590
B1737273838164N11203741WA0259102591
B1737283838161N11203740WA0259302593
B1737293838157N11203739WA0259402594
B1737303838154N11203739WA0259302593
B1737313838150N11203740WA0259202592
B1737323838145N11203743WA0259102591
B1737333838140N11203745WA0259202592
B1737343838136N11203746WA0259402594
B1737353838132N11203746WA0259702597
B1737363838128N11203747WA0259902599
B1737373838124N11203747WA0260002600
B1737383838120N11203748WA0260002600
B1737393838115N11203748WA0260002600
B1737403838110N11203748WA0260102601
B1737413838106N11203749WA0260302603
B1737423838101N11203749WA0260402604
B1737433838097N11203750WA0260502605
B1737443838092N11203750WA0260502605
B1737453838088N11203751WA0260502605
B1737463838083N11203752WA0260502605
B1737473838079N11203753WA0260502605
B1737483838075N11203754WA0260502605
B1737493838072N11203755WA0260402604
B1737503838067N11203757WA0260202602
B1737513838062N11203758WA0260102601
B1737523838057N11203758WA0260102601
B1737533838053N11203757WA0260302603
B1737543838049N11203757WA0260602606
B1737553838046N11203758WA0260902609
B1737563838043N11203758WA0261002610
B1737573838039N11203758WA0261002610
B1737583838035N11203758WA0260902609
B1737593838030N11203758WA0260802608
B1738003838026N11203759WA0260902609
B1738013838023N11203760WA0261202612
B1738023838021N11203760WA0261402614
B1738033838019N11203759WA0261502615
B1738043838017N11203758WA0261402614
B1738053838013N11203759WA0261102611
B1738063838009N11203760WA0260902609
B1738073838006N11203763WA0260702607
B1738083838005N11203766WA0260802608
B1738093838006N11203771WA0260902609
B1738103838011N11203775WA0260602606
B1738113838019N11203777WA0260102601
B1738123838030N11203775WA0259802598
B1738133838039N11203772WA0259702597
B1738143838046N11203769WA0260102601
B1738153838052N11203768WA0260302603
B1738163838058N11203767WA0260402604
B1738173838065N11203766WA0260202602
B1738183838073N11203763WA0260102601
B1738193838081N11203759WA0259702597
B1738203838089N11203755WA0259602596
B1738213838097N11203752WA0259502595
B1738223838104N11203750WA0259602596
B1738233838110N11203747WA0259702597
B1738243838117N11203743WA0259602596
B1738253838124N11203739WA0259402594
B1738263838133N11203735WA0259102591
B1738273838141N11203732WA0258902589
B1738283838149N11203731WA0258902589
B1738293838155N11203733WA0258802588
B1738303838160N11203737WA0258602586
B1738313838162N11203743WA0258402584
B1738323838160N11203748WA0258002580
B1738333838155N11203749WA0257802578
B1738343838151N11203748WA0257702577
B1738353838148N11203747WA0257802578
B1738363838146N11203748WA0257902579
B1738373838144N11203749WA0257702577
B1738383838142N11203752WA0257502575
B1738393838139N11203755WA0257202572
B1738403838135N11203758WA0256902569
B1738413838132N11203760WA0256702567
B1738423838129N11203762WA0256602566
B1738433838126N11203766WA0256502565
B1738443838123N11203769WA0256402564
B1738453838120N11203773WA0256302563
B1738463838117N11203776WA0256202562
B1738473838113N11203779WA0256202562
B1738483838110N11203781WA0256102561
B1738493838106N11203783WA0256102561
B1738503838103N11203785WA0256102561
B1738513838099N11203789WA0255902559
B1738523838095N11203793WA0255602556
B1738533838090N11203799WA0255402554
B1738543838086N11203804WA0255202552
B1738553838082N11203809WA0255302553
B1738563838078N11203813WA0255402554
B1738573838075N11203817WA0255602556
B1738583838071N11203820WA0255702557
B1738593838068N11203824WA0255702557
B1739003838065N11203828WA0255602556
B1739013838061N11203832WA0255602556
B1739023838058N11203837WA0255502555
B1739033838054N11203841WA0255502555
B1739043838051N11203844WA0255602556
B1739053838048N11203846WA0255702557
B1739063838045N11203849WA0255702557
B1739073838041N11203852WA0255702557
B1739083838038N11203854WA0255702557
B1739093838035N11203857WA0255702557
B1739103838032N11203861WA0255802558
B1739113838029N11203865WA0255802558
B1739123838027N11203869WA0255802558
B1739133838024N11203873WA0255802558
B1739143838021N11203877WA0255802558
B1739153838018N11203881WA0255802558
B1739163838015N11203883WA0255902559
B1739173838011N11203885WA0255902559
B1739183838007N11203886WA0255902559
B1739193838003N11203888WA0255802558
B1739203837999N11203890WA0255802558
B1739213837995N11203892WA0255802558
B1739223837992N11203893WA0255802558
B1739233837988N11203894WA0255802558
B1739243837985N11203894WA0255802558
B1739253837982N11203895WA0255802558
B1739263837978N11203896WA0255802558
B1739273837975N11203898WA0255802558
B1739283837972N11203901WA0255902559
B1739293837968N11203903WA0256002560
B1739303837965N11203904WA0256202562
B1739313837962N11203905WA0256302563
B1739323837959N11203904WA0256302563
B1739333837956N11203904WA0256202562
B1739343837952N11203904WA0255902559
B1739353837947N11203905WA0255602556
B1739363837942N11203906WA0255402554
B1739373837937N11203906WA0255302553
B1739383837933N11203905WA0255302553
B1739393837929N11203904WA0255402554
B1739403837926N11203902WA0255502555
B1739413837923N11203900WA0255402554
B1739423837919N11203898WA0255302553
B1739433837915N11203897WA0255102551
B1739443837910N11203896WA0254902549
B1739453837905N11203894WA0254802548
B1739463837901N11203890WA0254602546
B1739473837897N11203886WA0254702547
B1739483837893N11203881WA0254802548
B1739493837889N11203877WA0254802548
B1739503837886N11203872WA0254802548
B1739513837882N11203868WA0254802548
B1739523837878N11203864WA0254802548
B1739533837875N11203859WA0254702547
B1739543837871N11203853WA0254602546
B1739553837867N11203847WA0254502545
B1739563837862N11203842WA0254502545
B1739573837858N11203838WA0254502545
B1739583837854N11203833WA0254502545
B1739593837850N11203829WA0254602546
B1740003837848N11203823WA0254602546
B1740013837845N11203817WA0254402544
B1740023837841N11203811WA0254302543
B1740033837835N11203806WA0254102541
B1740043837830N11203803WA0254002540
B1740053837825N11203801WA0254002540
B1740063837820N11203801WA0254102541
B1740073837816N11203805WA0253902539
B1740083837814N11203811WA0253602536
B1740093837815N11203818WA0253302533
B1740103837818N11203824WA0253202532
B1740113837823N11203829WA0253202532
B1740123837828N11203833WA0253402534
B1740133837832N11203836WA0253702537
B1740143837835N11203840WA0253802538
B1740153837837N11203844WA0253902539
B1740163837841N11203848WA0253902539
B1740173837845N11203852WA0253802538
B1740183837850N11203856WA0253802538
B1740193837856N11203858WA0253702537
B1740203837861N11203860WA0253602536
B1740213837867N11203862WA0253602536
B1740223837873N11203864WA0253502535
B1740233837879N11203866WA0253302533
B1740243837886N11203868WA0253202532
B1740253837893N11203870WA0253102531
B1740263837899N11203871WA0253102531
B1740273837906N11203871WA0253102531
B1740283837912N11203871WA0253002530
B1740293837919N11203870WA0252902529
B1740303837926N11203869WA0252802528
B1740313837933N11203869WA0252502525
B1740323837940N11203871WA0252302523
B1740333837947N11203873WA0252302523
B1740343837953N11203876WA0252402524
B1740353837958N11203879WA0252502525
B1740363837963N11203884WA0252502525
B1740373837965N11203889WA0252502525
B1740383837964N11203895WA0252202522
B1740393837960N11203900WA0251802518
B1740403837954N11203901WA0251302513
B1740413837947N11203898WA0251002510
B1740423837943N11203893WA0250902509
B1740433837939N11203889WA0251102511
B1740443837936N11203888WA0251102511
B1740453837932N11203888WA0250902509
B1740463837927N11203889WA0250602506
B1740473837921N11203889WA0250402504
B1740483837916N11203887WA0250402504
B1740493837911N11203886WA0250502505
B1740503837906N11203885WA0250702507
B1740513837902N11203885WA0250802508
B1740523837896N11203884WA0250802508
B1740533837891N11203883WA0250802508
B1740543837885N11203882WA0250802508
B1740553837880N11203880WA0250902509
B1740563837875N11203878WA0250902509
B1740573837870N11203876WA0250902509
B1740583837865N11203873WA0250902509
B1740593837860N11203871WA0250902509
B1741003837856N11203871WA0251002510
B1741013837852N11203873WA0251002510
B1741023837849N11203877WA0251102511
B1741033837847N11203882WA0251102511
B1741043837848N11203887WA0251202512
B1741053837852N11203892WA0251302513
B1741063837856N11203895WA0251402514
B1741073837860N11203899WA0251502515
B1741083837864N11203904WA0251602516
B1741093837867N11203909WA0251802518
B1741103837869N11203915WA0251902519
B1741113837871N11203920WA0252002520
B1741123837874N11203927WA0252002520
B1741133837876N11203934WA0252102521
B1741143837878N11203940WA0252202522
B1741153837880N11203945WA0252502525
B1741163837882N11203948WA0252802528
B1741173837883N11203953WA0253002530
B1741183837885N11203957WA0253002530
B1741193837886N11203963WA0253002530
B1741203837887N11203968WA0253102531
B1741213837885N11203973WA0253202532
B1741223837882N11203976WA0253302533
B1741233837876N11203976WA0253202532
B1741243837871N11203971WA0253202532
B1741253837867N11203964WA0253302533
B1741263837866N11203956WA0253602536
B1741273837866N11203948WA0253902539
B1741283837868N11203939WA0254002540
B1741293837871N11203932WA0254302543
B1741303837877N11203926WA0254402544
B1741313837884N11203922WA0254602546
B1741323837891N11203921WA0254702547
B1741333837898N11203922WA0254802548
B1741343837903N11203926WA0255002550
B1741353837907N11203931WA0255202552
B1741363837909N11203937WA0255302553
B1741373837910N11203943WA0255402554
B1741383837912N11203949WA0255602556
B1741393837913N11203954WA0255802558
B1741403837914N11203958WA0256002560
B1741413837914N11203961WA0256002560
B1741423837912N11203964WA0256002560
B1741433837909N11203966WA0255902559
B1741443837905N11203965WA0256002560
B1741453837902N11203962WA0256202562
B1741463837900N11203956WA0256502565
B1741473837898N11203949WA0256702567
B1741483837896N11203941WA0256902569
B1741493837896N11203932WA0257102571
B1741503837897N11203924WA0257302573
B1741513837900N11203916WA0257502575
B1741523837906N11203910WA0257602576
B1741533837912N11203907WA0257702577
B1741543837919N11203909WA0257702577
B1741553837924N11203917WA0257502575
B1741563837926N11203925WA0257302573
B1741573837926N11203932WA0257502575
B1741583837925N11203935WA0257802578
B1741593837924N11203937WA0258202582
B1742003837923N11203940WA0258602586
B1742013837923N11203942WA0258802588
B1742023837923N11203946WA0258902589
B1742033837923N11203949WA0259002590
B1742043837921N11203951WA0259002590
B1742053837918N11203951WA0258902589
B1742063837914N11203947WA0258902589
B1742073837910N11203941WA0258902589
B1742083837909N11203932WA0259002590
B1742093837910N11203923WA0259202592
B1742103837912N11203913WA0259302593
B1742113837917N11203904WA0259502595
B1742123837923N11203896WA0259602596
B1742133837931N11203892WA0259802598
B1742143837939N11203891WA0260302603
B1742153837946N11203892WA0260502605
B1742163837951N11203896WA0260602606
B1742173837955N11203901WA0260702607
B1742183837958N11203906WA0260802608
B1742193837959N11203911WA0260902609
B1742203837960N11203915WA0261002610
B1742213837958N11203917WA0261002610
B1742223837955N11203917WA0260902609
B1742233837951N11203914WA0260802608
B1742243837948N11203908WA0260702607
B1742253837945N11203900WA0260602606
B1742263837945N11203892WA0260602606
B1742273837945N11203883WA0260802608
B1742283837947N11203875WA0261002610
B1742293837949N11203868WA0261202612
B1742303837952N11203860WA0261402614
B1742313837958N11203852WA0261502615
B1742323837964N11203845WA0261502615
B1742333837972N11203842WA0261702617
B1742343837979N11203842WA0261902619
B1742353837984N11203846WA0262102621
B1742363837988N11203853WA0262002620
B1742373837989N11203860WA0261902619
B1742383837989N11203866WA0262002620
B1742393837989N11203871WA0262202622
B1742403837989N11203875WA0262502625
B1742413837989N11203877WA0262602626
B1742423837987N11203878WA0262602626
B1742433837983N11203878WA0262402624
B1742443837979N11203877WA0262202622
B1742453837974N11203874WA0262102621
B1742463837970N11203871WA0262202622
B1742473837967N11203866WA0262402624
B1742483837964N11203861WA0262602626
B1742493837962N11203856WA0262902629
B1742503837960N11203851WA0263102631
B1742513837959N11203846WA0263302633
B1742523837958N11203841WA0263202632
B1742533837955N11203837WA0263102631
B1742543837952N11203833WA0262802628
B1742553837948N11203830WA0262502625
B1742563837944N11203827WA0262402624
B1742573837941N11203823WA0262502625
B1742583837939N11203817WA0262602626
B1742593837937N11203811WA0262502625
B1743003837934N11203806WA0262502625
B1743013837931N11203803WA0262402624
B1743023837928N11203803WA0262302623
B1743033837925N11203806WA0262202622
B1743043837925N11203811WA0262102621
B1743053837927N11203816WA0262002620
B1743063837932N11203821WA0261902619
B1743073837937N11203825WA0261902619
B1743083837943N11203828WA0261902619
B1743093837950N11203829WA0261802618
B1743103837958N11203828WA0261802618
B1743113837966N11203826WA0261702617
B1743123837974N11203821WA0261602616
B1743133837982N11203816WA0261502615
B1743143837990N11203812WA0261502615
B1743153837999N11203810WA0261502615
B1743163838007N11203811WA0261702617
B1743173838013N11203815WA0262002620
B1743183838017N11203820WA0262202622
B1743193838019N11203826WA0262502625
B1743203838019N11203831WA0262802628
B1743213838018N11203835WA0263102631
B1743223838017N11203837WA0263502635
B1743233838015N11203835WA0263802638
B1743243838013N11203831WA0263902639
B1743253838012N11203822WA0263802638
B1743263838014N11203811WA0263702637
B1743273838019N11203800WA0263702637
B1743283838027N11203793WA0264002640
B1743293838035N11203791WA0264402644
B1743303838042N11203792WA0264702647
B1743313838048N11203794WA0264902649
B1743323838052N11203798WA0265102651
B1743333838055N11203803WA0265202652
B1743343838057N11203809WA0265202652
B1743353838059N11203815WA0265402654
B1743363838060N11203821WA0265702657
B1743373838061N11203825WA0265902659
B1743383838064N11203830WA0266202662
B1743393838066N11203833WA0266402664
B1743403838068N11203838WA0266502665
B1743413838070N11203842WA0266502665
B1743423838071N11203847WA0266502665
B1743433838072N11203851WA0266402664
B1743443838072N11203854WA0266302663
B1743453838071N11203857WA0266102661
B1743463838067N11203857WA0265802658
B1743473838062N11203853WA0265302653
B1743483838058N11203846WA0264902649
B1743493838055N11203837WA0264702647
B1743503838054N11203828WA0264602646
B1743513838055N11203821WA0264802648
B1743523838056N11203813WA0264902649
B1743533838059N11203804WA0264802648
B1743543838061N11203795WA0264702647
B1743553838064N11203784WA0264602646
B1743563838067N11203775WA0264802648
B1743573838072N11203768WA0265102651
B1743583838079N11203763WA0265302653
B1743593838087N11203760WA0265302653
B1744003838096N11203759WA0265402654
B1744013838104N11203762WA0265602656
B1744023838110N11203766WA0265802658
B1744033838114N11203771WA0266002660
B1744043838116N11203776WA0266302663
B1744053838116N11203780WA0266502665
B1744063838117N11203782WA0266602666
B1744073838116N11203784WA0266702667
B1744083838116N11203786WA0266702667
B1744093838115N11203787WA0266502665
B1744103838112N11203786WA0266202662
B1744113838108N11203784WA0265802658
B1744123838104N11203779WA0265402654
B1744133838101N11203771WA0265302653
B1744143838101N11203761WA0265402654
B1744153838104N11203752WA0265402654
B1744163838110N11203744WA0265502655
B1744173838119N11203739WA0265502655
B1744183838128N11203737WA0265602656
B1744193838137N11203739WA0265802658
B1744203838143N11203742WA0266102661
B1744213838148N11203745WA0266302663
B1744223838152N11203748WA0266502665
B1744233838154N11203751WA0266502665
B1744243838155N11203754WA0266302663
B1744253838155N11203757WA0266102661
B1744263838153N11203759WA0265802658
B1744273838149N11203760WA0265502655
B1744283838145N11203758WA0265402654
B1744293838142N11203753WA0265402654
B1744303838141N11203745WA0265302653
B1744313838144N11203735WA0265202652
B1744323838150N11203726WA0264902649
B1744333838159N11203720WA0264702647
B1744343838168N11203717WA0264402644
B1744353838177N11203718WA0264302643
B1744363838184N11203721WA0264302643
B1744373838188N11203726WA0264202642
B1744383838190N11203730WA0264102641
B1744393838189N11203733WA0264002640
B1744403838188N11203734WA0263802638
B1744413838185N11203734WA0263602636
B1744423838181N11203734WA0263302633
B1744433838178N11203735WA0263102631
B1744443838175N11203734WA0263002630
B1744453838171N11203733WA0262702627
B1744463838167N11203731WA0262502625
B1744473838162N11203730WA0262402624
B1744483838159N11203730WA0262302623
B1744493838157N11203731WA0262302623
B1744503838155N11203732WA0262202622
B1744513838153N11203733WA0262102621
B1744523838150N11203734WA0261902619
B1744533838147N11203736WA0261602616
B1744543838143N11203738WA0261402614
B1744553838140N11203740WA0261202612
B1744563838137N11203742WA0261102611
B1744573838134N11203743WA0261102611
B1744583838130N11203745WA0261102611
B1744593838127N11203746WA0261002610
B1745003838123N11203746WA0260902609
B1745013838119N11203746WA0260902609
B1745023838115N11203745WA0260902609
B1745033838111N11203744WA0260802608
B1745043838107N11203743WA0260902609
B1745053838104N11203742WA0261002610
B1745063838100N11203743WA0261002610
B1745073838096N11203744WA0261002610
B1745083838092N11203746WA0261002610
B1745093838088N11203748WA0261102611
B1745103838084N11203749WA0261102611
B1745113838080N11203749WA0261202612
B1745123838075N11203749WA0261202612
B1745133838071N11203749WA0261302613
B1745143838067N11203749WA0261402614
B1745153838063N11203750WA0261602616
B1745163838061N11203751WA0261802618
B1745173838058N11203752WA0261902619
B1745183838055N11203755WA0261702617
B1745193838053N11203759WA0261602616
B1745203838053N11203766WA0261502615
B1745213838055N11203773WA0261602616
B1745223838060N11203778WA0261702617
B1745233838067N11203780WA0261802618
B1745243838074N11203778WA0261802618
B1745253838081N11203774WA0261802618
B1745263838087N11203768WA0261802618
B1745273838093N11203761WA0261702617
B1745283838099N11203753WA0261702617
B1745293838105N11203746WA0261802618
B1745303838111N11203741WA0261802618
B1745313838119N11203739WA0261802618
B1745323838125N11203741WA0261702617
B1745333838129N11203746WA0261502615
B1745343838128N11203752WA0261202612
B1745353838124N11203756WA0260902609
B1745363838121N11203758WA0261002610
B1745373838118N11203757WA0261502615
B1745383838117N11203756WA0261802618
B1745393838115N11203754WA0262002620
B1745403838113N11203752WA0261902619
B1745413838111N11203752WA0261702617
B1745423838109N11203753WA0261502615
B1745433838106N11203755WA0261402614
B1745443838104N11203756WA0261302613
B1745453838103N11203757WA0261302613
B1745463838101N11203758WA0261202612
B1745473838099N11203759WA0261002610
B1745483838097N11203761WA0260802608
B1745493838094N11203762WA0260502605
B1745503838091N11203765WA0260302603
B1745513838089N11203767WA0260202602
B1745523838086N11203768WA0260202602
B1745533838083N11203769WA0260002600
B1745543838080N11203769WA0259802598
B1745553838076N11203770WA0259602596
B1745563838072N11203770WA0259602596
B1745573838069N11203769WA0259602596
B1745583838066N11203769WA0259702597
B1745593838064N11203770WA0259802598
B1746003838061N11203772WA0259802598
B1746013838059N11203775WA0259702597
B1746023838055N11203778WA0259702597
B1746033838052N11203780WA0259802598
B1746043838048N11203782WA0259902599
B1746053838044N11203783WA0260002600
B1746063838040N11203784WA0260102601
B1746073838036N11203786WA0260302603
B1746083838034N11203789WA0260502605
B1746093838032N11203793WA0260502605
B1746103838030N11203798WA0260602606
B1746113838029N11203802WA0260602606
B1746123838027N11203807WA0260602606
B1746133838026N11203812WA0260702607
B1746143838024N11203817WA0260802608
B1746153838022N11203822WA0260902609
B1746163838021N11203825WA0261002610
B1746173838018N11203827WA0261202612
B1746183838016N11203830WA0261102611
B1746193838014N11203832WA0261102611
B1746203838010N11203834WA0261102611
B1746213838007N11203834WA0261002610
B1746223838004N11203829WA0261102611
B1746233838002N11203821WA0261002610
B1746243838004N11203811WA0260802608
B1746253838010N11203802WA0260802608
B1746263838018N11203796WA0260702607
B1746273838026N11203795WA0260702607
B1746283838033N11203798WA0260802608
B1746293838037N11203803WA0260902609
B1746303838037N11203808WA0260802608
B1746313838035N11203812WA0260702607
B1746323838030N11203814WA0260502605
B1746333838025N11203814WA0260402604
B1746343838021N11203812WA0260502605
B1746353838017N11203810WA0260702607
B1746363838014N11203809WA0260802608
B1746373838011N11203808WA0260902609
B1746383838008N11203808WA0260902609
B1746393838005N11203809WA0260902609
B1746403838003N11203810WA0261002610
B1746413838000N11203811WA0261102611
B1746423837998N11203811WA0261002610
B1746433837996N11203811WA0261002610
B1746443837992N11203812WA0260802608
B1746453837989N11203812WA0260602606
B1746463837985N11203812WA0260402604
B1746473837982N11203811WA0260302603
B1746483837979N11203810WA0260302603
B1746493837976N11203808WA0260202602
B1746503837972N11203806WA0260102601
B1746513837969N11203804WA0259902599
B1746523837965N11203802WA0259902599
B1746533837962N11203801WA0260002600
B1746543837959N11203799WA0260002600
B1746553837955N11203797WA0260102601
B1746563837952N11203796WA0260302603
B1746573837949N11203795WA0260402604
B1746583837946N11203794WA0260502605
B1746593837943N11203793WA0260602606
B1747003837940N11203792WA0260702607
B1747013837937N11203790WA0260802608
B1747023837934N11203787WA0260902609
B1747033837930N11203783WA0260902609
B1747043837926N11203780WA0260902609
B1747053837923N11203776WA0260902609
B1747063837919N11203774WA0261102611
B1747073837915N11203772WA0261102611
B1747083837912N11203771WA0261202612
B1747093837908N11203772WA0261202612
B1747103837906N11203775WA0261102611
B1747113837904N11203781WA0261102611
B1747123837905N11203787WA0261002610
B1747133837907N11203794WA0260902609
B1747143837912N11203799WA0261102611
B1747153837918N11203803WA0261302613
B1747163837923N11203806WA0261602616
B1747173837927N11203809WA0261902619
B1747183837931N11203812WA0262002620
B1747193837932N11203815WA0261902619
B1747203837932N11203819WA0261802618
B1747213837930N11203821WA0261502615
B1747223837926N11203822WA0261202612
B1747233837921N11203821WA0261002610
B1747243837917N11203819WA0261002610
B1747253837913N11203815WA0261002610
B1747263837910N11203813WA0260902609
B1747273837906N11203811WA0260802608
B1747283837901N11203810WA0260602606
B1747293837897N11203810WA0260402604
B1747303837892N11203808WA0260302603
B1747313837887N11203807WA0260202602
B1747323837883N11203804WA0260302603
B1747333837879N11203801WA0260202602
B1747343837875N11203798WA0260202602
B1747353837870N11203795WA0260002600
B1747363837865N11203793WA0259902599
B1747373837859N11203790WA0260002600
B1747383837855N11203786WA0260102601
B1747393837851N11203783WA0260202602
B1747403837847N11203780WA0260202602
B1747413837842N11203776WA0260302603
B1747423837838N11203771WA0260302603
B1747433837833N11203766WA0260202602
B1747443837829N11203761WA0260202602
B1747453837824N11203756WA0260202602
B1747463837820N11203751WA0260202602
B1747473837815N11203745WA0260302603
B1747483837811N11203739WA0260302603
B1747493837806N11203733WA0260302603
B1747503837802N11203727WA0260402604
B1747513837799N11203720WA0260402604
B1747523837795N11203713WA0260502605
B1747533837791N11203706WA0260502605
B1747543837787N11203699WA0260502605
B1747553837782N11203692WA0260602606
B1747563837779N11203685WA0260802608
B1747573837776N11203678WA0261002610
B1747583837773N11203671WA0261202612
B1747593837770N11203665WA0261302613
B1748003837767N11203659WA0261302613
B1748013837764N11203655WA0261302613
B1748023837761N11203653WA0261202612
B1748033837758N11203654WA0261202612
B1748043837756N11203658WA0260902609
B1748053837757N11203665WA0260702607
B1748063837761N11203671WA0260402604
B1748073837766N11203675WA0260502605
B1748083837770N11203678WA0260902609
B1748093837772N11203681WA0261302613
B1748103837775N11203684WA0261502615
B1748113837778N11203687WA0261502615
B1748123837782N11203690WA0261402614
B1748133837788N11203694WA0261202612
B1748143837792N11203698WA0261202612
B1748153837796N11203702WA0261302613
B1748163837800N11203706WA0261402614
B1748173837804N11203710WA0261402614
B1748183837808N11203713WA0261402614
B1748193837813N11203716WA0261402614
B1748203837819N11203718WA0261502615
B1748213837824N11203721WA0261502615
B1748223837829N11203724WA0261602616
B1748233837833N11203728WA0261702617
B1748243837837N11203731WA0261902619
B1748253837841N11203734WA0262102621
B1748263837845N11203736WA0262402624
B1748273837849N11203738WA0262702627
B1748283837853N11203741WA0262802628
B1748293837856N11203744WA0262802628
B1748303837860N11203747WA0262702627
B1748313837864N11203751WA0262502625
B1748323837868N11203756WA0262302623
B1748333837873N11203759WA0262302623
B1748343837879N11203762WA0262302623
B1748353837884N11203764WA0262302623
B1748363837890N11203766WA0262302623
B1748373837896N11203769WA0262202622
B1748383837902N11203772WA0262102621
B1748393837908N11203775WA0262002620
B1748403837915N11203777WA0261902619
B1748413837922N11203778WA0261802618
B1748423837929N11203779WA0261802618
B1748433837937N11203779WA0261702617
B1748443837943N11203781WA0261702617
B1748453837949N11203785WA0261802618
B1748463837951N11203791WA0261702617
B1748473837950N11203797WA0261602616
B1748483837945N11203801WA0261302613
B1748493837940N11203800WA0261202612
B1748503837935N11203796WA0261302613
B1748513837932N11203792WA0261502615
B1748523837929N11203790WA0261702617
B1748533837926N11203788WA0261902619
B1748543837923N11203787WA0261802618
B1748553837919N11203785WA0261702617
B1748563837915N11203782WA0261602616
B1748573837911N11203778WA0261502615
B1748583837908N11203774WA0261502615
B1748593837904N11203770WA0261502615
B1749003837901N11203765WA0261402614
B1749013837897N11203760WA0261302613
B1749023837894N11203755WA0261302613
B1749033837890N11203752WA0261202612
B1749043837886N11203748WA0261202612
B1749053837881N11203745WA0261302613
B1749063837877N11203743WA0261302613
B1749073837873N11203740WA0261202612
B1749083837868N11203739WA0261002610
B1749093837863N11203738WA0261002610
B1749103837858N11203739WA0260902609
B1749113837855N11203741WA0261002610
B1749123837854N11203745WA0261002610
B1749133837855N11203750WA0260802608
B1749143837856N11203755WA0260702607
B1749153837857N11203761WA0260602606
B1749163837859N11203768WA0260502605
B1749173837860N11203775WA0260402604
B1749183837861N11203783WA0260302603
B1749193837863N11203791WA0260102601
B1749203837866N11203799WA0259902599
B1749213837868N11203806WA0259902599
B1749223837870N11203814WA0259902599
B1749233837872N11203821WA0259902599
B1749243837874N11203829WA0259802598
B1749253837876N11203837WA0259702597
B1749263837878N11203845WA0259502595
B1749273837880N11203854WA0259302593
B1749283837882N11203863WA0259202592
B1749293837884N11203871WA0259102591
B1749303837887N11203879WA0259102591
B1749313837890N11203887WA0259102591
B1749323837893N11203895WA0259002590
B1749333837896N11203902WA0258902589
B1749343837900N11203910WA0258802588
B1749353837903N11203918WA0258602586
B1749363837906N11203927WA0258502585
B1749373837909N11203935WA0258402584
B1749383837911N11203943WA0258302583
B1749393837914N11203951WA0258302583
B1749403837918N11203959WA0258202582
B1749413837922N11203967WA0258302583
B1749423837926N11203975WA0258202582
B1749433837930N11203983WA0258202582
B1749443837935N11203990WA0258302583
B1749453837939N11203997WA0258602586
B1749463837942N11204003WA0259002590
B1749473837944N11204008WA0259402594
B1749483837946N11204012WA0259602596
B1749493837947N11204016WA0259702597
B1749503837949N11204021WA0259902599
B1749513837951N11204026WA0259802598
B1749523837952N11204031WA0259702597
B1749533837954N11204036WA0259502595
B1749543837954N11204041WA0259302593
B1749553837951N11204045WA0259002590
B1749563837947N11204047WA0258702587
B1749573837942N11204046WA0258502585
B1749583837938N11204041WA0258202582
B1749593837934N11204034WA0258002580
B1750003837933N11204025WA0257802578
B1750013837935N11204016WA0257802578
B1750023837939N11204007WA0257802578
B1750033837944N11204000WA0257902579
B1750043837948N11203994WA0258002580
B1750053837953N11203988WA0258202582
B1750063837958N11203983WA0258202582
B1750073837965N11203978WA0258202582
B1750083837972N11203975WA0258202582
B1750093837980N11203973WA0258202582
B1750103837988N11203974WA0258202582
B1750113837995N11203977WA0258402584
B1750123838000N11203981WA0258502585
B1750133838005N11203987WA0258502585
B1750143838008N11203994WA0258502585
B1750153838009N11204000WA0258602586
B1750163838009N11204005WA0258702587
B1750173838009N11204010WA0258802588
B1750183838009N11204014WA0258902589
B1750193838009N11204019WA0258802588
B1750203838010N11204024WA0258802588
B1750213838009N11204029WA0258702587
B1750223838007N11204033WA0258602586
B1750233838005N11204035WA0258502585
B1750243838002N11204037WA0258302583
B1750253837999N11204038WA0258102581
B1750263837995N11204039WA0257802578
B1750273837990N11204040WA0257502575
B1750283837986N11204040WA0257202572
B1750293837981N11204041WA0257002570
B1750303837977N11204042WA0256902569
B1750313837973N11204044WA0256902569
B1750323837969N11204045WA0256802568
B1750333837965N11204046WA0256702567
B1750343837961N11204045WA0256702567
B1750353837958N11204043WA0256602566
B1750363837954N11204039WA0256502565
B1750373837950N11204036WA0256402564
B1750383837945N11204035WA0256402564
B1750393837941N11204038WA0256302563
B1750403837938N11204043WA0256302563
B1750413837938N11204050WA0256302563
B1750423837939N11204057WA0256402564
B1750433837942N11204063WA0256602566
B1750443837945N11204068WA0256702567
B1750453837948N11204073WA0256602566
B1750463837952N11204079WA0256402564
B1750473837956N11204086WA0256302563
B1750483837959N11204093WA0256302563
B1750493837963N11204100WA0256502565
B1750503837966N11204107WA0256602566
B1750513837969N11204113WA0256702567
B1750523837971N11204119WA0256702567
B1750533837974N11204125WA0256702567
B1750543837975N11204131WA0256902569
B1750553837976N11204135WA0257002570
B1750563837975N11204138WA0257102571
B1750573837973N11204141WA0257102571
B1750583837970N11204142WA0256902569
B1750593837965N11204138WA0256702567
B1751003837962N11204131WA0256302563
B1751013837961N11204121WA0256002560
B1751023837962N11204110WA0255802558
B1751033837968N11204101WA0255902559
B1751043837975N11204095WA0255902559
B1751053837983N11204095WA0255702557
B1751063837991N11204100WA0255402554
B1751073837996N11204106WA0255402554
B1751083837998N11204113WA0255502555
B1751093837998N11204118WA0255702557
B1751103837998N11204121WA0255802558
B1751113837997N11204124WA0255902559
B1751123837995N11204127WA0255802558
B1751133837993N11204129WA0255602556
B1751143837991N11204133WA0255402554
B1751153837988N11204137WA0255102551
B1751163837985N11204141WA0255002550
B1751173837983N11204144WA0255102551
B1751183837981N11204145WA0255202552
B1751193837978N11204146WA0255102551
B1751203837976N11204147WA0254802548
B1751213837973N11204149WA0254502545
B1751223837969N11204152WA0254202542
B1751233837967N11204155WA0254102541
B1751243837964N11204157WA0254102541
B1751253837962N11204158WA0254102541
B1751263837959N11204159WA0253902539
B1751273837956N11204162WA0253602536
B1751283837953N11204166WA0253202532
B1751293837948N11204171WA0252802528
B1751303837944N11204176WA0252502525
B1751313837940N11204181WA0252402524
B1751323837938N11204187WA0252402524
B1751333837936N11204192WA0252402524
B1751343837936N11204198WA0252302523
B1751353837938N11204205WA0252102521
B1751363837943N11204212WA0251802518
B1751373837949N11204218WA0251402514
B1751383837955N11204224WA0251102511
B1751393837961N11204230WA0250902509
B1751403837966N11204237WA0250602506
B1751413837971N11204244WA0250302503
B1751423837974N11204252WA0250002500
B1751433837978N11204259WA0249802498
B1751443837981N11204266WA0249502495
B1751453837985N11204273WA0249202492
B1751463837988N11204280WA0248902489
B1751473837991N11204287WA0248502485
B1751483837994N11204294WA0248202482
B1751493837997N11204302WA0247802478
B1751503838000N11204310WA0247402474
B1751513838002N11204318WA0247102471
B1751523838005N11204326WA0246802468
B1751533838008N11204334WA0246502465
B1751543838011N11204342WA0246202462
B1751553838014N11204350WA0245902459
B1751563838018N11204358WA0245502455
B1751573838023N11204366WA0245202452
B1751583838028N11204374WA0244902449
B1751593838033N11204382WA0244702447
B1752003838037N11204390WA0244502445
B1752013838041N11204398WA0244202442
B1752023838045N11204406WA0244002440
B1752033838047N11204416WA0243802438
B1752043838049N11204425WA0243602436
B1752053838050N11204433WA0243402434
B1752063838050N11204442WA0243302433
B1752073838051N11204451WA0243102431
B1752083838053N11204460WA0242802428
B1752093838054N11204469WA0242602426
B1752103838056N11204477WA0242502425
B1752113838057N11204486WA0242302423
B1752123838058N11204494WA0242102421
B1752133838059N11204503WA0241802418
B1752143838058N11204512WA0241502415
B1752153838057N11204521WA0241202412
B1752163838056N11204529WA0241002410
B1752173838055N11204537WA0240902409
B1752183838055N11204545WA0240702407
B1752193838055N11204553WA0240502405
B1752203838056N11204562WA0240202402
B1752213838058N11204571WA0240102401
B1752223838062N11204579WA0240102401
B1752233838066N11204587WA0240002400
B1752243838069N11204594WA0239902399
B1752253838071N11204602WA0239902399
B1752263838072N11204609WA0239802398
B1752273838074N11204616WA0239902399
B1752283838075N11204623WA0239902399
B1752293838076N11204630WA0239902399
B1752303838077N11204636WA0239802398
B1752313838079N11204642WA0239802398
B1752323838080N11204647WA0239702397
B1752333838082N11204652WA0239502395
B1752343838085N11204658WA0239102391
B1752353838087N11204666WA0238802388
B1752363838088N11204673WA0238602386
B1752373838089N11204681WA0238502385
B1752383838090N11204687WA0238402384
B1752393838090N11204693WA0238302383
B1752403838091N11204699WA0238202382
B1752413838091N11204705WA0238002380
B1752423838092N11204712WA0237702377
B1752433838092N11204719WA0237502375
B1752443838093N11204726WA0237302373
B1752453838093N11204733WA0237202372
B1752463838093N11204739WA0237202372
B1752473838093N11204745WA0237202372
B1752483838093N11204752WA0237102371
B1752493838094N11204759WA0237002370
B1752503838094N11204767WA0236902369
B1752513838094N11204774WA0236702367
B1752523838095N11204780WA0236702367
B1752533838096N11204787WA0236702367
B1752543838097N11204793WA0236602366
B1752553838098N11204800WA0236402364
B1752563838100N11204808WA0236102361
B1752573838101N11204817WA0235902359
B1752583838102N11204826WA0235702357
B1752593838102N11204835WA0235702357
B1753003838103N11204843WA0235802358
B1753013838104N11204850WA0235902359
B1753023838106N11204856WA0235802358
B1753033838107N11204862WA0235802358
B1753043838109N11204869WA0235602356
B1753053838110N11204876WA0235302353
B1753063838112N11204884WA0235102351
B1753073838114N11204893WA0234902349
B1753083838116N11204901WA0234802348
B1753093838118N11204909WA0234702347
B1753103838121N11204917WA0234702347
B1753113838123N11204923WA0234602346
B1753123838125N11204930WA0234402344
B1753133838128N11204937WA0234202342
B1753143838130N11204945WA0233902339
B1753153838132N11204953WA0233602336
B1753163838134N11204960WA0233402334
B1753173838136N11204968WA0233202332
B1753183838138N11204976WA0233002330
B1753193838140N11204983WA0232802328
B1753203838141N11204990WA0232602326
B1753213838143N11204998WA0232302323
B1753223838144N11205006WA0232002320
B1753233838146N11205015WA0231702317
B1753243838147N11205022WA0231602316
B1753253838149N11205030WA0231502315
B1753263838151N11205038WA0231302313
B1753273838153N11205046WA0231202312
B1753283838155N11205054WA0231102311
B1753293838156N11205061WA0230902309
B1753303838158N11205069WA0230602306
B1753313838159N11205075WA0230402304
B1753323838160N11205082WA0230102301
B1753333838161N11205088WA0229702297
B1753343838164N11205096WA0229402294
B1753353838166N11205104WA0229002290
B1753363838170N11205112WA0228602286
B1753373838173N11205120WA0228302283
B1753383838177N11205127WA0228102281
B1753393838181N11205134WA0227902279
B1753403838186N11205140WA0227702277
B1753413838191N11205146WA0227402274
B1753423838197N11205153WA0227002270
B1753433838202N11205160WA0226602266
B1753443838207N11205168WA0226102261
B1753453838212N11205176WA0225802258
B1753463838217N11205183WA0225502255
B1753473838221N11205190WA0225302253
B1753483838225N11205197WA0225202252
B1753493838230N11205203WA0225002250
B1753503838236N11205210WA0224802248
B1753513838241N11205216WA0224702247
B1753523838246N11205223WA0224502245
B1753533838251N11205230WA0224402244
B1753543838256N11205238WA0224302243
B1753553838261N11205245WA0224102241
B1753563838267N11205253WA0223802238
B1753573838272N11205261WA0223702237
B1753583838276N11205270WA0223402234
B1753593838279N11205278WA0223202232
B1754003838282N11205286WA0223002230
B1754013838285N11205294WA0222802228
B1754023838287N11205303WA0222602226
B1754033838290N11205311WA0222202222
B1754043838292N11205321WA0221802218
B1754053838295N11205331WA0221402214
B1754063838298N11205342WA0221202212
B1754073838300N11205352WA0221102211
B1754083838302N11205361WA0221002210
B1754093838304N11205369WA0221002210
B1754103838306N11205378WA0220902209
B1754113838308N11205387WA0220702207
B1754123838310N11205396WA0220502205
B1754133838312N11205406WA0220302203
B1754143838313N11205415WA0220302203
B1754153838315N11205423WA0220302203
B1754163838317N11205431WA0220302203
B1754173838319N11205439WA0220202202
B1754183838322N11205447WA0220102201
B1754193838325N11205455WA0219902199
B1754203838330N11205463WA0219702197
B1754213838335N11205471WA0219602196
B1754223838339N11205479WA0219502195
B1754233838343N11205487WA0219402194
B1754243838346N11205495WA0219202192
B1754253838349N11205504WA0219002190
B1754263838351N11205513WA0218902189
B1754273838353N11205522WA0218702187
B1754283838355N11205531WA0218702187
B1754293838358N11205540WA0218602186
B1754303838362N11205548WA0218602186
B1754313838366N11205556WA0218502185
B1754323838371N11205563WA0218302183
B1754333838377N11205571WA0218102181
B1754343838384N11205578WA0217802178
B1754353838392N11205585WA0217702177
B1754363838399N11205591WA0217602176
B1754373838405N11205598WA0217502175
B1754383838410N11205604WA0217302173
B1754393838416N11205610WA0217202172
B1754403838422N11205617WA0216902169
B1754413838429N11205623WA0216702167
B1754423838436N11205630WA0216502165
B1754433838443N11205636WA0216302163
B1754443838450N11205642WA0216202162
B1754453838457N11205648WA0216102161
B1754463838464N11205653WA0216002160
B1754473838470N11205659WA0216002160
B1754483838477N11205664WA0215802158
B1754493838484N11205670WA0215602156
B1754503838491N11205676WA0215302153
B1754513838498N11205683WA0215002150
B1754523838506N11205690WA0214702147
B1754533838513N11205697WA0214702147
B1754543838519N11205704WA0214602146
B1754553838524N11205711WA0214702147
B1754563838527N11205718WA0214802148
B1754573838528N11205726WA0214902149
B1754583838527N11205732WA0214802148
B1754593838524N11205739WA0214702147
B1755003838521N11205746WA0214502145
B1755013838518N11205753WA0214502145
B1755023838516N11205759WA0214602146
B1755033838513N11205765WA0214602146
B1755043838510N11205770WA0214702147
B1755053838507N11205776WA0214702147
B1755063838504N11205780WA0214702147
B1755073838501N11205785WA0214802148
B1755083838498N11205790WA0214902149
B1755093838495N11205794WA0214902149
B1755103838491N11205799WA0214802148
B1755113838488N11205805WA0214702147
B1755123838484N11205810WA0214702147
B1755133838480N11205815WA0214602146
B1755143838477N11205820WA0214602146
B1755153838473N11205826WA0214502145
B1755163838470N11205832WA0214502145
B1755173838467N11205838WA0214402144
B1755183838464N11205844WA0214302143
B1755193838460N11205850WA0214202142
B1755203838456N11205855WA0214202142
B1755213838452N11205861WA0214202142
B1755223838448N11205866WA0214302143
B1755233838444N11205871WA0214402144
B1755243838441N11205874WA0214402144
B1755253838437N11205878WA0214402144
B1755263838434N11205882WA0214202142
B1755273838431N11205887WA0214002140
B1755283838427N11205893WA0213802138
B1755293838423N11205898WA0213602136
B1755303838420N11205903WA0213402134
B1755313838416N11205908WA0213302133
B1755323838412N11205912WA0213202132
B1755333838408N11205918WA0213002130
B1755343838404N11205923WA0212802128
B1755353838400N11205928WA0212702127
B1755363838396N11205932WA0212702127
B1755373838393N11205937WA0212702127
B1755383838390N11205942WA0212702127
B1755393838388N11205947WA0212702127
B1755403838385N11205952WA0212602126
B1755413838382N11205956WA0212602126
B1755423838378N11205960WA0212402124
B1755433838374N11205964WA0212202122
B1755443838371N11205968WA0212002120
B1755453838368N11205972WA0211802118
B1755463838365N11205976WA0211602116
B1755473838362N11205980WA0211302113
B1755483838358N11205984WA0210902109
B1755493838354N11205987WA0210502105
B1755503838350N11205990WA0210202102
B1755513838346N11205994WA0210002100
B1755523838342N11205997WA0209902099
B1755533838339N11206000WA0209702097
B1755543838336N11206004WA0209402094
B1755553838332N11206007WA0209102091
B1755563838328N11206010WA0208802088
B1755573838324N11206012WA0208602086
B1755583838320N11206014WA0208302083
B1755593838315N11206017WA0208102081
B1756003838312N11206021WA0208002080
B1756013838308N11206024WA0207802078
B1756023838305N11206028WA0207702077
B1756033838301N11206032WA0207502075
B1756043838298N11206036WA0207402074
B1756053838294N11206040WA0207202072
B1756063838291N11206045WA0207102071
B1756073838288N11206051WA0206902069
B1756083838286N11206057WA0206802068
B1756093838284N11206064WA0206702067
B1756103838282N11206070WA0206602066
B1756113838281N11206076WA0206502065
B1756123838279N11206082WA0206402064
B1756133838277N11206088WA0206302063
B1756143838275N11206093WA0206202062
B1756153838273N11206098WA0206002060
B1756163838271N11206103WA0205802058
B1756173838269N11206109WA0205702057
B1756183838267N11206114WA0205502055
B1756193838264N11206120WA0205402054
B1756203838262N11206125WA0205202052
B1756213838259N11206130WA0205102051
B1756223838255N11206134WA0204802048
B1756233838252N11206139WA0204602046
B1756243838248N11206144WA0204402044
B1756253838246N11206149WA0204302043
B1756263838243N11206154WA0204302043
B1756273838241N11206159WA0204202042
B1756283838238N11206164WA0204002040
B1756293838235N11206170WA0203702037
B1756303838232N11206176WA0203302033
B1756313838229N11206182WA0203002030
B1756323838225N11206188WA0202602026
B1756333838222N11206195WA0202302023
B1756343838219N11206201WA0202002020
B1756353838216N11206208WA0201802018
B1756363838213N11206214WA0201602016
B1756373838210N11206220WA0201302013
B1756383838207N11206225WA0201102011
B1756393838203N11206230WA0200802008
B1756403838199N11206235WA0200502005
B1756413838196N11206240WA0200202002
B1756423838191N11206245WA0199901999
B1756433838187N11206250WA0199701997
B1756443838184N11206254WA0199501995
B1756453838180N11206259WA0199501995
B1756463838177N11206263WA0199401994
B1756473838173N11206266WA0199201992
B1756483838170N11206269WA0198901989
B1756493838166N11206272WA0198601986
B1756503838161N11206276WA0198201982
B1756513838157N11206280WA0197701977
B1756523838152N11206284WA0197401974
B1756533838148N11206288WA0197101971
B1756543838144N11206292WA0196901969
B1756553838140N11206296WA0196601966
B1756563838136N11206301WA0196301963
B1756573838132N11206306WA0196001960
B1756583838129N11206311WA0195701957
B1756593838125N11206317WA0195301953
B1757003838122N11206323WA0195001950
B1757013838118N11206328WA0194801948
B1757023838115N11206334WA0194501945
B1757033838111N11206340WA0194401944
B1757043838107N11206345WA0194201942
B1757053838103N11206351WA0194101941
B1757063838098N11206356WA0194001940
B1757073838094N11206361WA0193901939
B1757083838089N11206366WA0193701937
B1757093838084N11206371WA0193401934
B1757103838078N11206375WA0193101931
B1757113838072N11206379WA0192801928
B1757123838067N11206382WA0192501925
B1757133838062N11206386WA0192301923
B1757143838057N11206391WA0192201922
B1757153838054N11206396WA0192001920
B1757163838050N11206402WA0191901919
B1757173838046N11206407WA0191601916
B1757183838041N11206411WA0191401914
B1757193838035N11206415WA0191101911
B1757203838029N11206417WA0190801908
B1757213838024N11206419WA0190701907
B1757223838020N11206421WA0190801908
B1757233838017N11206421WA0190901909
B1757243838015N11206422WA0190801908
B1757253838012N11206423WA0190601906
B1757263838009N11206425WA0190201902
B1757273838005N11206428WA0189801898
B1757283838002N11206431WA0189601896
B1757293838000N11206435WA0189501895
B1757303837999N11206440WA0189301893
B1757313837999N11206446WA0189201892
B1757323837999N11206451WA0188901889
B1757333838001N11206458WA0188701887
B1757343838003N11206465WA0188301883
B1757353838005N11206472WA0188001880
B1757363838008N11206479WA0187901879
B1757373838010N11206485WA0187701877
B1757383838012N11206492WA0187501875
B1757393838015N11206499WA0187301873
B1757403838018N11206506WA0187101871
B1757413838021N11206513WA0186901869
B1757423838024N11206520WA0186601866
B1757433838026N11206528WA0186501865
B1757443838029N11206535WA0186301863
B1757453838032N11206542WA0186201862
B1757463838035N11206550WA0186001860
B1757473838037N11206558WA0185801858
B1757483838039N11206565WA0185601856
B1757493838042N11206573WA0185401854
B1757503838044N11206580WA0185301853
B1757513838046N11206587WA0185101851
B1757523838048N11206593WA0185001850
B1757533838049N11206599WA0184801848
B1757543838051N11206606WA0184601846
B1757553838053N11206613WA0184301843
B1757563838055N11206621WA0184001840
B1757573838057N11206628WA0183801838
B1757583838058N11206635WA0183501835
B1757593838060N11206643WA0183301833
B1758003838061N11206650WA0183001830
B1758013838063N11206657WA0182801828
B1758023838064N11206664WA0182701827
B1758033838066N11206670WA0182601826
B1758043838067N11206677WA0182401824
B1758053838069N11206683WA0182301823
B1758063838071N11206690WA0182101821
B1758073838073N11206697WA0181901819
B1758083838076N11206704WA0181701817
B1758093838078N11206711WA0181601816
B1758103838080N11206719WA0181401814
B1758113838081N11206726WA0181301813
B1758123838083N11206733WA0181101811
B1758133838085N11206741WA0180901809
B1758143838087N11206748WA0180701807
B1758153838089N11206756WA0180501805
B1758163838090N11206765WA0180301803
B1758173838092N11206773WA0180201802
B1758183838093N11206780WA0180201802
B1758193838094N11206787WA0180201802
B1758203838094N11206794WA0180201802
B1758213838095N11206802WA0180101801
B1758223838095N11206810WA0180001800
B1758233838096N11206818WA0180001800
B1758243838098N11206825WA0180101801
B1758253838098N11206833WA0180201802
B1758263838098N11206840WA0180301803
B1758273838097N11206847WA0180301803
B1758283838097N11206854WA0180301803
B1758293838097N11206861WA0180301803
B1758303838097N11206867WA0180201802
B1758313838098N11206874WA0180001800
B1758323838098N11206881WA0179801798
B1758333838097N11206888WA0179501795
B1758343838095N11206895WA0179301793
B1758353838091N11206898WA0179101791
B1758363838086N11206896WA0178801788
B1758373838083N11206890WA0178301783
B1758383838083N11206882WA0177801778
B1758393838084N11206874WA0177601776
B1758403838086N11206868WA0177701777
B1758413838088N11206862WA0177701777
B1758423838089N11206858WA0177601776
B1758433838090N11206852WA0177501775
B1758443838092N11206846WA0177101771
B1758453838095N11206839WA0176801768
B1758463838098N11206832WA0176601766
B1758473838101N11206825WA0176601766
B1758483838103N11206819WA0176601766
B1758493838106N11206814WA0176701767
B1758503838107N11206808WA0176701767
B1758513838109N11206803WA0176801768
B1758523838110N11206797WA0176701767
B1758533838111N11206792WA0176701767
B1758543838110N11206786WA0176601766
B1758553838110N11206779WA0176501765
B1758563838109N11206773WA0176501765
B1758573838108N11206767WA0176501765
B1758583838107N11206761WA0176501765
B1758593838106N11206756WA0176501765
B1759003838104N11206751WA0176501765
B1759013838099N11206749WA0176301763
B1759023838094N11206749WA0176101761
B1759033838089N11206753WA0176101761
B1759043838086N11206758WA0176201762
B1759053838086N11206763WA0176401764
B1759063838087N11206769WA0176401764
B1759073838087N11206775WA0176501765
B1759083838087N11206781WA0176401764
B1759093838087N11206789WA0176201762
B1759103838087N11206796WA0176301763
B1759113838087N11206802WA0176501765
B1759123838086N11206806WA0176601766
B1759133838083N11206809WA0176701767
B1759143838079N11206811WA0176501765
B1759153838075N11206809WA0176301763
B1759163838070N11206805WA0176101761
B1759173838068N11206799WA0175901759
B1759183838067N11206793WA0176001760
B1759193838067N11206788WA0176001760
B1759203838067N11206783WA0175901759
B1759213838068N11206777WA0175601756
B1759223838068N11206770WA0175201752
B1759233838068N11206762WA0174901749
B1759243838068N11206756WA0174801748
B1759253838069N11206750WA0174901749
B1759263838069N11206746WA0174901749
B1759273838067N11206742WA0174701747
B1759283838063N11206740WA0174401744
B1759293838057N11206739WA0173901739
B1759303838051N11206740WA0173801738
B1759313838046N11206739WA0173901739
B1759323838043N11206738WA0174201742
B1759333838040N11206736WA0174401744
B1759343838037N11206734WA0174401744
B1759353838034N11206731WA0174401744
B1759363838031N11206726WA0174401744
B1759373838029N11206722WA0174401744
B1759383838028N11206717WA0174501745
B1759393838027N11206712WA0174501745
B1759403838026N11206707WA0174401744
B1759413838024N11206701WA0174201742
B1759423838022N11206695WA0173901739
B1759433838020N11206689WA0173801738
B1759443838018N11206684WA0173701737
B1759453838016N11206680WA0173701737
B1759463838015N11206676WA0173601736
B1759473838014N11206671WA0173501735
B1759483838013N11206665WA0173201732
B1759493838013N11206658WA0172901729
B1759503838013N11206651WA0172801728
B1759513838013N11206645WA0172901729
B1759523838013N11206640WA0172901729
B1759533838012N11206635WA0172801728
B1759543838011N11206631WA0172501725
B1759553838007N11206629WA0172201722
B1759563838004N11206628WA0171901719
B1759573838000N11206630WA0171701717
B1759583837997N11206634WA0171401714
B1759593837996N11206640WA0171201712
B1800003837994N11206646WA0170901709
B1800013837993N11206652WA0170701707
B1800023837991N11206657WA0170501705
B1800033837987N11206662WA0170401704
B1800043837984N11206666WA0170201702
B1800053837980N11206667WA0170101701
B1800063837975N11206665WA0170001700
B1800073837972N11206660WA0169801698
B1800083837971N11206652WA0169601696
B1800093837971N11206645WA0169501695
B1800103837971N11206639WA0169601696
B1800113837970N11206633WA0169501695
B1800123837968N11206629WA0169301693
B1800133837965N11206626WA0169001690
B1800143837961N11206627WA0168801688
B1800153837957N11206631WA0168501685
B1800163837955N11206637WA0168401684
B1800173837954N11206643WA0168301683
B1800183837954N11206649WA0168301683
B1800193837953N11206654WA0168401684
B1800203837950N11206659WA0168301683
B1800213837947N11206662WA0168201682
B1800223837944N11206665WA0168101681
B1800233837941N11206668WA0168101681
B1800243837939N11206672WA0168001680
B1800253837936N11206676WA0167901679
B1800263837934N11206680WA0167901679
B1800273837931N11206683WA0167801678
B1800283837928N11206685WA0167801678
B1800293837926N11206686WA0167801678
B1800303837924N11206688WA0167701677
B1800313837922N11206691WA0167401674
B1800323837920N11206695WA0167201672
B1800333837918N11206698WA0167001670
B1800343837915N11206701WA0166701667
B1800353837913N11206704WA0166301663
B1800363837910N11206707WA0166201662
B1800373837909N11206709WA0166201662
B1800383837909N11206712WA0166301663
B1800393837908N11206714WA0166201662
B1800403837908N11206716WA0166201662
B1800413837908N11206717WA0166101661
B1800423837908N11206718WA0166101661
B1800433837908N11206718WA0166201662
B1800443837908N11206719WA0166201662
B1800453837908N11206719WA0166201662
B1800463837908N11206720WA0166201662
B1800473837908N11206720WA0166201662
B1800483837908N11206720WA0166201662
B1800493837908N11206720WA0166201662
