AXFMFLYMASTER LIVETRACK
HFDTE250926
HFFXA010
HFPLTPILOT:Roman Pelepei
HFGTYGLIDERTYPE:Niviuk Ikuma 3P / Niviuk
HFCIDCOMPETITIONID:7777
HFDTM100GPSDATUM:WGS-1984
HFRFWFIRMWAREVERSION:lt.flymaster.net bsGetPilotTrack
B1812423838057N11203633WA0266302663
B1812433838057N11203635WA0266202662
B1812443838058N11203637WA0266202662
B1812453838059N11203639WA0266102661
B1812463838059N11203641WA0266102661
B1812473838060N11203644WA0266002660
B1812483838061N11203648WA0265802658
B1812493838062N11203652WA0265702657
B1812503838063N11203657WA0265502655
B1812513838063N11203662WA0265302653
B1812523838062N11203666WA0265302653
B1812533838060N11203668WA0265502655
B1812543838059N11203669WA0265502655
B1812553838056N11203671WA0265502655
B1812563838054N11203673WA0265502655
B1812573838051N11203674WA0265402654
B1812583838049N11203675WA0265502655
B1812593838047N11203677WA0265602656
B1813003838046N11203678WA0265702657
B1813013838044N11203681WA0265702657
B1813023838042N11203683WA0265502655
B1813033838040N11203684WA0265302653
B1813043838038N11203687WA0265302653
B1813053838037N11203690WA0265202652
B1813063838035N11203693WA0265202652
B1813073838034N11203694WA0265202652
B1813083838033N11203696WA0265202652
B1813093838032N11203699WA0265102651
B1813103838030N11203701WA0264902649
B1813113838028N11203704WA0264802648
B1813123838027N11203707WA0264602646
B1813133838025N11203710WA0264502645
B1813143838023N11203713WA0264302643
B1813153838020N11203717WA0264202642
B1813163838017N11203720WA0264102641
B1813173838015N11203722WA0264102641
B1813183838013N11203725WA0264202642
B1813193838012N11203726WA0264202642
B1813203838011N11203728WA0264302643
B1813213838010N11203730WA0264202642
B1813223838007N11203731WA0264002640
B1813233838005N11203732WA0263902639
B1813243838002N11203733WA0263702637
B1813253838000N11203733WA0263602636
B1813263837998N11203734WA0263602636
B1813273837996N11203736WA0263502635
B1813283837994N11203739WA0263402634
B1813293837991N11203741WA0263302633
B1813303837988N11203743WA0263302633
B1813313837986N11203743WA0263202632
B1813323837984N11203744WA0263302633
B1813333837983N11203747WA0263102631
B1813343837981N11203750WA0262902629
B1813353837979N11203753WA0262702627
B1813363837976N11203755WA0262502625
B1813373837972N11203756WA0262402624
B1813383837969N11203757WA0262302623
B1813393837966N11203758WA0262202622
B1813403837964N11203758WA0262102621
B1813413837961N11203760WA0261902619
B1813423837958N11203762WA0261702617
B1813433837955N11203764WA0261702617
B1813443837952N11203768WA0261602616
B1813453837950N11203771WA0261502615
B1813463837947N11203774WA0261502615
B1813473837945N11203777WA0261502615
B1813483837943N11203781WA0261602616
B1813493837941N11203784WA0261502615
B1813503837940N11203788WA0261602616
B1813513837938N11203792WA0261502615
B1813523837935N11203795WA0261502615
B1813533837933N11203797WA0261402614
B1813543837932N11203801WA0261302613
B1813553837930N11203806WA0261102611
B1813563837928N11203811WA0260902609
B1813573837925N11203815WA0260702607
B1813583837921N11203820WA0260602606
B1813593837919N11203824WA0260602606
B1814003837917N11203829WA0260602606
B1814013837916N11203833WA0260602606
B1814023837915N11203836WA0260602606
B1814033837913N11203840WA0260602606
B1814043837912N11203843WA0260502605
B1814053837912N11203847WA0260302603
B1814063837911N11203850WA0260302603
B1814073837909N11203854WA0260202602
B1814083837908N11203858WA0260202602
B1814093837906N11203862WA0260302603
B1814103837904N11203866WA0260402604
B1814113837903N11203869WA0260502605
B1814123837902N11203873WA0260402604
B1814133837901N11203877WA0260402604
B1814143837899N11203881WA0260302603
B1814153837897N11203886WA0260302603
B1814163837894N11203892WA0260502605
B1814173837890N11203896WA0260702607
B1814183837887N11203901WA0260902609
B1814193837886N11203905WA0261102611
B1814203837884N11203910WA0261302613
B1814213837883N11203915WA0261602616
B1814223837881N11203920WA0261702617
B1814233837880N11203924WA0262002620
B1814243837879N11203927WA0262202622
B1814253837878N11203930WA0262402624
B1814263837876N11203933WA0262502625
B1814273837875N11203938WA0262602626
B1814283837873N11203942WA0262702627
B1814293837870N11203947WA0262802628
B1814303837868N11203950WA0263102631
B1814313837866N11203953WA0263402634
B1814323837864N11203955WA0263702637
B1814333837862N11203957WA0263902639
B1814343837860N11203958WA0264002640
B1814353837858N11203959WA0264202642
B1814363837855N11203959WA0264302643
B1814373837852N11203956WA0264302643
B1814383837850N11203951WA0264502645
B1814393837848N11203944WA0264502645
B1814403837849N11203936WA0264402644
B1814413837851N11203927WA0264402644
B1814423837854N11203919WA0264502645
B1814433837858N11203911WA0264602646
B1814443837861N11203906WA0264802648
B1814453837865N11203902WA0265002650
B1814463837869N11203899WA0265202652
B1814473837873N11203895WA0265302653
B1814483837877N11203891WA0265302653
B1814493837881N11203887WA0265402654
B1814503837888N11203886WA0265602656
B1814513837893N11203889WA0265702657
B1814523837897N11203894WA0265802658
B1814533837898N11203902WA0266002660
B1814543837896N11203908WA0266202662
B1814553837893N11203909WA0266402664
B1814563837889N11203905WA0266702667
B1814573837887N11203898WA0266902669
B1814583837887N11203890WA0267002670
B1814593837887N11203883WA0267302673
B1815003837889N11203876WA0267502675
B1815013837891N11203870WA0267702677
B1815023837894N11203864WA0267802678
B1815033837898N11203859WA0268002680
B1815043837903N11203856WA0268102681
B1815053837910N11203855WA0268302683
B1815063837917N11203857WA0268502685
B1815073837923N11203861WA0268802688
B1815083837926N11203866WA0269102691
B1815093837928N11203872WA0269602696
B1815103837929N11203876WA0269702697
B1815113837928N11203881WA0270002700
B1815123837927N11203883WA0269902699
B1815133837924N11203883WA0270102701
B1815143837922N11203880WA0270302703
B1815153837920N11203875WA0270402704
B1815163837918N11203870WA0270602706
B1815173837917N11203864WA0270802708
B1815183837915N11203859WA0271002710
B1815193837914N11203854WA0271202712
B1815203837915N11203847WA0271202712
B1815213837917N11203840WA0271302713
B1815223837919N11203833WA0271502715
B1815233837922N11203828WA0271802718
B1815243837926N11203824WA0272002720
B1815253837930N11203821WA0272102721
B1815263837935N11203819WA0272202722
B1815273837943N11203820WA0272202722
B1815283837950N11203822WA0272402724
B1815293837955N11203827WA0272702727
B1815303837959N11203831WA0273102731
B1815313837963N11203834WA0273402734
B1815323837966N11203836WA0273602736
B1815333837970N11203839WA0273802738
B1815343837973N11203843WA0274002740
B1815353837974N11203846WA0274202742
B1815363837973N11203847WA0274402744
B1815373837971N11203846WA0274402744
B1815383837970N11203841WA0274502745
B1815393837969N11203833WA0274502745
B1815403837970N11203824WA0274602746
B1815413837973N11203815WA0274802748
B1815423837975N11203807WA0275002750
B1815433837976N11203799WA0275302753
B1815443837977N11203792WA0275502755
B1815453837977N11203784WA0275802758
B1815463837980N11203777WA0276002760
B1815473837984N11203772WA0276102761
B1815483837990N11203769WA0276302763
B1815493837997N11203770WA0276402764
B1815503838002N11203775WA0276602766
B1815513838004N11203780WA0276802768
B1815523838003N11203784WA0277002770
B1815533837999N11203785WA0277502775
B1815543837995N11203782WA0277802778
B1815553837992N11203776WA0278102781
B1815563837991N11203769WA0278202782
B1815573837991N11203760WA0278502785
B1815583837993N11203753WA0278702787
B1815593837997N11203746WA0278802788
B1816003838003N11203742WA0279102791
B1816013838009N11203739WA0279302793
B1816023838015N11203740WA0279502795
B1816033838021N11203743WA0279602796
B1816043838024N11203747WA0279802798
B1816053838025N11203752WA0280102801
B1816063838024N11203755WA0280502805
B1816073838021N11203755WA0280802808
B1816083838019N11203752WA0281102811
B1816093838017N11203745WA0281202812
B1816103838016N11203738WA0281302813
B1816113838015N11203730WA0281502815
B1816123838015N11203722WA0281702817
B1816133838018N11203714WA0281802818
B1816143838021N11203706WA0281902819
B1816153838027N11203701WA0282102821
B1816163838033N11203699WA0282402824
B1816173838040N11203700WA0282602826
B1816183838045N11203703WA0282802828
B1816193838049N11203707WA0283102831
B1816203838050N11203712WA0283402834
B1816213838049N11203714WA0283602836
B1816223838046N11203715WA0283902839
B1816233838044N11203713WA0284102841
B1816243838041N11203709WA0284302843
B1816253838039N11203702WA0284402844
B1816263838038N11203694WA0284302843
B1816273838037N11203685WA0284402844
B1816283838039N11203675WA0284702847
B1816293838043N11203667WA0284902849
B1816303838049N11203662WA0285102851
B1816313838055N11203660WA0285302853
B1816323838061N11203659WA0285502855
B1816333838065N11203660WA0285702857
B1816343838069N11203661WA0285802858
B1816353838072N11203664WA0285902859
B1816363838074N11203669WA0286002860
B1816373838075N11203673WA0286202862
B1816383838076N11203675WA0286502865
B1816393838077N11203677WA0286802868
B1816403838079N11203678WA0287002870
B1816413838080N11203679WA0287102871
B1816423838080N11203681WA0287202872
B1816433838079N11203684WA0287302873
B1816443838079N11203687WA0287502875
B1816453838078N11203688WA0287802878
B1816463838077N11203689WA0288102881
B1816473838075N11203688WA0288102881
B1816483838072N11203684WA0287902879
B1816493838070N11203678WA0287902879
B1816503838068N11203670WA0287802878
B1816513838067N11203662WA0288002880
B1816523838069N11203654WA0288002880
B1816533838072N11203646WA0288002880
B1816543838078N11203637WA0287802878
B1816553838085N11203629WA0287702877
B1816563838092N11203623WA0287802878
B1816573838099N11203619WA0287902879
B1816583838106N11203617WA0288102881
B1816593838111N11203617WA0288202882
B1817003838116N11203618WA0288102881
B1817013838122N11203620WA0288002880
B1817023838128N11203623WA0287902879
B1817033838132N11203627WA0288002880
B1817043838135N11203630WA0288202882
B1817053838136N11203633WA0288402884
B1817063838137N11203633WA0288602886
B1817073838138N11203634WA0288602886
B1817083838138N11203635WA0288602886
B1817093838138N11203638WA0288502885
B1817103838136N11203641WA0288402884
B1817113838134N11203643WA0288402884
B1817123838133N11203644WA0288602886
B1817133838131N11203645WA0288602886
B1817143838130N11203646WA0288602886
B1817153838128N11203647WA0288402884
B1817163838126N11203649WA0288302883
B1817173838125N11203651WA0288102881
B1817183838124N11203652WA0288002880
B1817193838123N11203654WA0287902879
B1817203838122N11203656WA0287702877
B1817213838120N11203658WA0287402874
B1817223838118N11203660WA0287202872
B1817233838116N11203661WA0287102871
B1817243838115N11203663WA0287002870
B1817253838113N11203665WA0286902869
B1817263838110N11203666WA0286802868
B1817273838107N11203666WA0286602866
B1817283838105N11203667WA0286502865
B1817293838102N11203668WA0286502865
B1817303838101N11203670WA0286602866
B1817313838100N11203671WA0286702867
B1817323838098N11203673WA0286802868
B1817333838096N11203675WA0286802868
B1817343838093N11203676WA0286902869
B1817353838090N11203677WA0287002870
B1817363838087N11203679WA0287102871
B1817373838085N11203680WA0287302873
B1817383838082N11203681WA0287502875
B1817393838080N11203680WA0287802878
B1817403838077N11203677WA0287902879
B1817413838074N11203673WA0288002880
B1817423838072N11203668WA0288102881
B1817433838070N11203664WA0288302883
B1817443838069N11203658WA0288402884
B1817453838070N11203651WA0288502885
B1817463838073N11203642WA0288502885
B1817473838077N11203633WA0288602886
B1817483838084N11203626WA0288602886
B1817493838091N11203622WA0288802888
B1817503838098N11203622WA0289002890
B1817513838105N11203624WA0289102891
B1817523838109N11203630WA0289302893
B1817533838111N11203636WA0289602896
B1817543838110N11203639WA0289902899
B1817553838108N11203642WA0290302903
B1817563838106N11203641WA0290502905
B1817573838103N11203639WA0290802908
B1817583838101N11203636WA0291002910
B1817593838098N11203632WA0291102911
B1818003838095N11203626WA0291202912
B1818013838093N11203619WA0291302913
B1818023838093N11203611WA0291502915
B1818033838095N11203602WA0291602916
B1818043838099N11203593WA0291802918
B1818053838102N11203584WA0292002920
B1818063838107N11203577WA0292202922
B1818073838112N11203572WA0292402924
B1818083838117N11203567WA0292502925
B1818093838123N11203562WA0292602926
B1818103838130N11203559WA0292702927
B1818113838136N11203555WA0292902929
B1818123838143N11203553WA0293002930
B1818133838148N11203552WA0293102931
B1818143838154N11203553WA0293202932
B1818153838159N11203556WA0293202932
B1818163838162N11203561WA0293402934
B1818173838162N11203565WA0293602936
B1818183838159N11203566WA0293702937
B1818193838156N11203565WA0293802938
B1818203838153N11203560WA0293902939
B1818213838150N11203554WA0294002940
B1818223838149N11203545WA0294102941
B1818233838152N11203537WA0294402944
B1818243838157N11203529WA0294402944
B1818253838164N11203523WA0294502945
B1818263838172N11203521WA0294702947
B1818273838179N11203522WA0295002950
B1818283838183N11203523WA0295202952
B1818293838186N11203526WA0295202952
B1818303838188N11203530WA0295402954
B1818313838189N11203533WA0295502955
B1818323838189N11203535WA0295602956
B1818333838188N11203537WA0295502955
B1818343838185N11203536WA0295302953
B1818353838180N11203532WA0295002950
B1818363838176N11203525WA0295002950
B1818373838173N11203517WA0295102951
B1818383838171N11203510WA0295402954
B1818393838170N11203504WA0295702957
B1818403838169N11203498WA0295802958
B1818413838168N11203492WA0295802958
B1818423838169N11203483WA0295802958
B1818433838172N11203474WA0295602956
B1818443838178N11203466WA0295402954
B1818453838187N11203461WA0295302953
B1818463838194N11203456WA0295702957
B1818473838200N11203453WA0296002960
B1818483838205N11203450WA0296202962
B1818493838210N11203449WA0296202962
B1818503838217N11203448WA0296102961
B1818513838224N11203451WA0295802958
B1818523838231N11203456WA0295602956
B1818533838235N11203462WA0295602956
B1818543838236N11203466WA0295702957
B1818553838237N11203469WA0295902959
B1818563838237N11203470WA0296002960
B1818573838237N11203471WA0295802958
B1818583838235N11203472WA0295602956
B1818593838233N11203472WA0295202952
B1819003838229N11203472WA0295002950
B1819013838226N11203473WA0294902949
B1819023838223N11203473WA0294902949
B1819033838220N11203474WA0295002950
B1819043838218N11203474WA0295102951
B1819053838215N11203475WA0295202952
B1819063838212N11203476WA0295102951
B1819073838209N11203477WA0295102951
B1819083838205N11203478WA0295202952
B1819093838202N11203478WA0295202952
B1819103838199N11203476WA0295202952
B1819113838195N11203475WA0295202952
B1819123838192N11203474WA0295302953
B1819133838190N11203474WA0295302953
B1819143838187N11203474WA0295202952
B1819153838184N11203472WA0295202952
B1819163838180N11203468WA0295002950
B1819173838176N11203461WA0294802948
B1819183838174N11203454WA0294602946
B1819193838172N11203444WA0294502945
B1819203838172N11203435WA0294202942
B1819213838173N11203426WA0294002940
B1819223838173N11203416WA0293802938
B1819233838173N11203407WA0293502935
B1819243838173N11203398WA0293202932
B1819253838174N11203389WA0292902929
B1819263838176N11203380WA0292502925
B1819273838179N11203371WA0292102921
B1819283838183N11203363WA0291702917
B1819293838188N11203356WA0291202912
B1819303838195N11203350WA0290702907
B1819313838204N11203346WA0290302903
B1819323838211N11203344WA0290102901
B1819333838218N11203341WA0290302903
B1819343838224N11203338WA0290402904
B1819353838229N11203333WA0290502905
B1819363838235N11203328WA0290402904
B1819373838241N11203324WA0290202902
B1819383838249N11203321WA0290102901
B1819393838256N11203319WA0289902899
B1819403838263N11203318WA0289802898
B1819413838270N11203318WA0289702897
B1819423838277N11203318WA0289702897
B1819433838283N11203318WA0289802898
B1819443838288N11203318WA0289802898
B1819453838294N11203317WA0290002900
B1819463838299N11203316WA0290102901
B1819473838304N11203315WA0290102901
B1819483838309N11203316WA0290102901
B1819493838312N11203318WA0289902899
B1819503838313N11203322WA0289702897
B1819513838312N11203325WA0289602896
B1819523838309N11203327WA0289502895
B1819533838306N11203328WA0289602896
B1819543838304N11203328WA0289802898
B1819553838302N11203328WA0289902899
B1819563838300N11203328WA0290002900
B1819573838297N11203327WA0289902899
B1819583838294N11203324WA0289802898
B1819593838290N11203320WA0289602896
B1820003838286N11203313WA0289502895
B1820013838284N11203304WA0289402894
B1820023838283N11203294WA0289202892
B1820033838283N11203284WA0289202892
B1820043838284N11203275WA0289302893
B1820053838285N11203267WA0289302893
B1820063838287N11203258WA0289302893
B1820073838290N11203249WA0289202892
B1820083838294N11203240WA0289002890
B1820093838297N11203230WA0288802888
B1820103838301N11203221WA0288702887
B1820113838304N11203212WA0288502885
B1820123838306N11203203WA0288402884
B1820133838309N11203193WA0288202882
B1820143838313N11203183WA0288002880
B1820153838317N11203173WA0287902879
B1820163838321N11203164WA0287902879
B1820173838324N11203154WA0287902879
B1820183838327N11203145WA0288002880
B1820193838330N11203136WA0288102881
B1820203838333N11203128WA0288102881
B1820213838336N11203119WA0288102881
B1820223838340N11203109WA0288002880
B1820233838344N11203099WA0288002880
B1820243838347N11203089WA0288002880
B1820253838349N11203079WA0288002880
B1820263838351N11203069WA0288102881
B1820273838354N11203059WA0287902879
B1820283838356N11203048WA0287902879
B1820293838359N11203039WA0287902879
B1820303838362N11203030WA0288002880
B1820313838365N11203021WA0288002880
B1820323838368N11203012WA0287802878
B1820333838372N11203003WA0287602876
B1820343838376N11202994WA0287402874
B1820353838378N11202984WA0287302873
B1820363838379N11202975WA0287202872
B1820373838379N11202964WA0287202872
B1820383838380N11202954WA0287002870
B1820393838380N11202945WA0287102871
B1820403838381N11202936WA0287102871
B1820413838382N11202928WA0287002870
B1820423838384N11202919WA0286902869
B1820433838386N11202910WA0286702867
B1820443838389N11202899WA0286502865
B1820453838391N11202889WA0286502865
B1820463838393N11202880WA0286602866
B1820473838395N11202872WA0286702867
B1820483838398N11202865WA0286702867
B1820493838400N11202857WA0286602866
B1820503838404N11202850WA0286502865
B1820513838410N11202844WA0286302863
B1820523838416N11202839WA0286102861
B1820533838422N11202836WA0286002860
B1820543838429N11202834WA0285902859
B1820553838435N11202833WA0285802858
B1820563838441N11202834WA0285702857
B1820573838447N11202835WA0285702857
B1820583838452N11202837WA0285602856
B1820593838456N11202840WA0285602856
B1821003838460N11202843WA0285502855
B1821013838461N11202848WA0285502855
B1821023838462N11202852WA0285502855
B1821033838461N11202856WA0285402854
B1821043838460N11202859WA0285402854
B1821053838457N11202861WA0285402854
B1821063838454N11202862WA0285402854
B1821073838450N11202859WA0285402854
B1821083838446N11202855WA0285202852
B1821093838443N11202850WA0285202852
B1821103838439N11202844WA0285102851
B1821113838436N11202838WA0285002850
B1821123838434N11202830WA0284802848
B1821133838432N11202822WA0284802848
B1821143838432N11202814WA0284902849
B1821153838431N11202807WA0285002850
B1821163838429N11202800WA0285102851
B1821173838428N11202794WA0285202852
B1821183838426N11202788WA0285302853
B1821193838426N11202780WA0285302853
B1821203838428N11202773WA0285202852
B1821213838431N11202765WA0285002850
B1821223838437N11202758WA0284802848
B1821233838443N11202753WA0284702847
B1821243838449N11202751WA0284602846
B1821253838455N11202752WA0284402844
B1821263838460N11202756WA0284302843
B1821273838464N11202761WA0284202842
B1821283838466N11202765WA0284202842
B1821293838468N11202770WA0284202842
B1821303838470N11202774WA0284302843
B1821313838472N11202778WA0284302843
B1821323838473N11202782WA0284402844
B1821333838473N11202786WA0284402844
B1821343838473N11202789WA0284302843
B1821353838470N11202792WA0284102841
B1821363838467N11202793WA0284002840
B1821373838463N11202792WA0283802838
B1821383838458N11202789WA0283602836
B1821393838454N11202784WA0283302833
B1821403838449N11202777WA0283102831
B1821413838446N11202769WA0283002830
B1821423838443N11202761WA0283102831
B1821433838441N11202753WA0283102831
B1821443838440N11202745WA0283102831
B1821453838438N11202738WA0283302833
B1821463838436N11202732WA0283402834
B1821473838433N11202727WA0283502835
B1821483838432N11202721WA0283502835
B1821493838432N11202714WA0283502835
B1821503838433N11202707WA0283602836
B1821513838434N11202700WA0283702837
B1821523838433N11202693WA0283802838
B1821533838432N11202687WA0283902839
B1821543838432N11202682WA0284002840
B1821553838434N11202676WA0283802838
B1821563838438N11202670WA0283502835
B1821573838443N11202664WA0283202832
B1821583838449N11202658WA0283202832
B1821593838453N11202653WA0283102831
B1822003838456N11202649WA0283102831
B1822013838460N11202645WA0283002830
B1822023838466N11202642WA0282702827
B1822033838472N11202639WA0282302823
B1822043838479N11202637WA0282102821
B1822053838485N11202634WA0282202822
B1822063838490N11202631WA0282302823
B1822073838494N11202626WA0282202822
B1822083838499N11202621WA0282002820
B1822093838505N11202616WA0281802818
B1822103838511N11202610WA0281502815
B1822113838517N11202604WA0281302813
B1822123838523N11202599WA0281202812
B1822133838529N11202595WA0281202812
B1822143838534N11202591WA0281202812
B1822153838539N11202587WA0281102811
B1822163838545N11202585WA0281002810
B1822173838551N11202584WA0280702807
B1822183838557N11202583WA0280502805
B1822193838564N11202580WA0280302803
B1822203838569N11202574WA0280102801
B1822213838574N11202567WA0279902799
B1822223838578N11202560WA0279802798
B1822233838581N11202552WA0279602796
B1822243838583N11202544WA0279502795
B1822253838586N11202535WA0279302793
B1822263838589N11202527WA0279102791
B1822273838593N11202518WA0278902789
B1822283838596N11202510WA0278702787
B1822293838600N11202503WA0278602786
B1822303838603N11202494WA0278302783
B1822313838607N11202486WA0277902779
B1822323838611N11202477WA0277502775
B1822333838616N11202468WA0277202772
B1822343838620N11202460WA0276902769
B1822353838625N11202452WA0276802768
B1822363838631N11202445WA0276602766
B1822373838636N11202437WA0276302763
B1822383838642N11202430WA0276102761
B1822393838648N11202423WA0275802758
B1822403838654N11202416WA0275602756
B1822413838660N11202408WA0275402754
B1822423838665N11202401WA0275202752
B1822433838670N11202392WA0275002750
B1822443838674N11202384WA0274802748
B1822453838679N11202376WA0274702747
B1822463838683N11202369WA0274602746
B1822473838688N11202362WA0274402744
B1822483838693N11202355WA0274102741
B1822493838698N11202347WA0273902739
B1822503838703N11202340WA0273702737
B1822513838709N11202333WA0273502735
B1822523838715N11202325WA0273502735
B1822533838720N11202318WA0273402734
B1822543838724N11202311WA0273302733
B1822553838729N11202303WA0273102731
B1822563838734N11202296WA0273002730
B1822573838738N11202288WA0272802728
B1822583838743N11202280WA0272502725
B1822593838748N11202272WA0272302723
B1823003838754N11202264WA0272102721
B1823013838759N11202256WA0271902719
B1823023838764N11202249WA0271702717
B1823033838769N11202241WA0271602716
B1823043838774N11202234WA0271502715
B1823053838779N11202226WA0271502715
B1823063838784N11202218WA0271402714
B1823073838788N11202211WA0271302713
B1823083838792N11202203WA0271202712
B1823093838797N11202196WA0271002710
B1823103838803N11202189WA0270902709
B1823113838808N11202182WA0270702707
B1823123838813N11202175WA0270702707
B1823133838818N11202168WA0270602706
B1823143838823N11202162WA0270602706
B1823153838828N11202156WA0270502705
B1823163838834N11202149WA0270402704
B1823173838839N11202142WA0270302703
B1823183838845N11202135WA0270202702
B1823193838850N11202128WA0270202702
B1823203838855N11202121WA0270202702
B1823213838860N11202113WA0270202702
B1823223838865N11202106WA0270202702
B1823233838870N11202099WA0270202702
B1823243838875N11202092WA0270102701
B1823253838882N11202086WA0270102701
B1823263838888N11202081WA0270002700
B1823273838894N11202076WA0269902699
B1823283838900N11202071WA0269902699
B1823293838906N11202066WA0269802698
B1823303838912N11202062WA0269702697
B1823313838919N11202059WA0269602696
B1823323838926N11202056WA0269402694
B1823333838933N11202055WA0269402694
B1823343838940N11202054WA0269302693
B1823353838947N11202054WA0269402694
B1823363838953N11202053WA0269502695
B1823373838959N11202052WA0269402694
B1823383838965N11202052WA0269402694
B1823393838971N11202053WA0269302693
B1823403838977N11202055WA0269402694
B1823413838983N11202057WA0269302693
B1823423838989N11202058WA0269302693
B1823433838994N11202059WA0269302693
B1823443838998N11202060WA0269202692
B1823453839003N11202062WA0269102691
B1823463839008N11202065WA0268802688
B1823473839013N11202068WA0268502685
B1823483839017N11202072WA0268302683
B1823493839023N11202075WA0268302683
B1823503839028N11202077WA0268302683
B1823513839033N11202079WA0268202682
B1823523839039N11202081WA0268202682
B1823533839044N11202083WA0268102681
B1823543839050N11202084WA0268102681
B1823553839056N11202085WA0268102681
B1823563839062N11202086WA0268102681
B1823573839068N11202086WA0267902679
B1823583839074N11202088WA0267602676
B1823593839080N11202090WA0267302673
B1824003839086N11202093WA0267002670
B1824013839092N11202096WA0266802668
B1824023839097N11202099WA0266802668
B1824033839102N11202101WA0266702667
B1824043839107N11202104WA0266602666
B1824053839112N11202107WA0266402664
B1824063839118N11202109WA0266102661
B1824073839124N11202111WA0265902659
B1824083839130N11202112WA0265702657
B1824093839135N11202114WA0265602656
B1824103839140N11202117WA0265402654
B1824113839145N11202120WA0265202652
B1824123839150N11202122WA0264902649
B1824133839154N11202125WA0264702647
B1824143839159N11202129WA0264402644
B1824153839163N11202132WA0264202642
B1824163839167N11202135WA0264002640
B1824173839171N11202138WA0263802638
B1824183839176N11202141WA0263702637
B1824193839180N11202144WA0263702637
B1824203839183N11202147WA0263602636
B1824213839187N11202151WA0263602636
B1824223839190N11202155WA0263502635
B1824233839194N11202159WA0263402634
B1824243839198N11202163WA0263302633
B1824253839203N11202166WA0263302633
B1824263839207N11202170WA0263202632
B1824273839211N11202174WA0263102631
B1824283839215N11202178WA0263002630
B1824293839218N11202181WA0262902629
B1824303839222N11202185WA0262802628
B1824313839227N11202189WA0262602626
B1824323839232N11202193WA0262402624
B1824333839237N11202196WA0262302623
B1824343839243N11202199WA0262202622
B1824353839249N11202202WA0262202622
B1824363839255N11202204WA0262202622
B1824373839260N11202205WA0262102621
B1824383839266N11202207WA0262102621
B1824393839273N11202207WA0262002620
B1824403839281N11202206WA0261902619
B1824413839288N11202205WA0261802618
B1824423839295N11202205WA0261702617
B1824433839302N11202205WA0261702617
B1824443839309N11202203WA0261702617
B1824453839316N11202202WA0261702617
B1824463839323N11202200WA0261702617
B1824473839330N11202198WA0261702617
B1824483839337N11202196WA0261702617
B1824493839344N11202193WA0261702617
B1824503839351N11202190WA0261802618
B1824513839358N11202187WA0261902619
B1824523839365N11202186WA0262102621
B1824533839371N11202185WA0262302623
B1824543839378N11202186WA0262502625
B1824553839383N11202190WA0262602626
B1824563839387N11202194WA0262802628
B1824573839388N11202198WA0263102631
B1824583839386N11202199WA0263102631
B1824593839383N11202197WA0263502635
B1825003839382N11202193WA0263902639
B1825013839382N11202188WA0264102641
B1825023839383N11202181WA0264302643
B1825033839385N11202173WA0264402644
B1825043839389N11202162WA0264602646
B1825053839395N11202153WA0264802648
B1825063839403N11202147WA0265102651
B1825073839410N11202145WA0265402654
B1825083839416N11202147WA0265602656
B1825093839419N11202151WA0265802658
B1825103839420N11202156WA0266102661
B1825113839417N11202158WA0266502665
B1825123839414N11202157WA0266902669
B1825133839413N11202151WA0267302673
B1825143839413N11202142WA0267702677
B1825153839417N11202133WA0268102681
B1825163839421N11202123WA0268502685
B1825173839426N11202116WA0268802688
B1825183839434N11202112WA0269202692
B1825193839441N11202111WA0269502695
B1825203839447N11202112WA0269702697
B1825213839452N11202115WA0270002700
B1825223839456N11202120WA0270302703
B1825233839457N11202124WA0270502705
B1825243839457N11202126WA0270802708
B1825253839456N11202127WA0271202712
B1825263839455N11202126WA0271502715
B1825273839454N11202124WA0271802718
B1825283839454N11202122WA0272002720
B1825293839454N11202120WA0272202722
B1825303839453N11202116WA0272302723
B1825313839452N11202111WA0272202722
B1825323839452N11202103WA0272402724
B1825333839455N11202095WA0272602726
B1825343839461N11202087WA0272902729
B1825353839469N11202081WA0273102731
B1825363839477N11202077WA0273302733
B1825373839484N11202075WA0273502735
B1825383839490N11202075WA0273702737
B1825393839496N11202076WA0273902739
B1825403839501N11202077WA0274002740
B1825413839506N11202080WA0274002740
B1825423839510N11202084WA0274002740
B1825433839514N11202089WA0274002740
B1825443839516N11202093WA0274202742
B1825453839518N11202096WA0274402744
B1825463839519N11202096WA0274602746
B1825473839520N11202097WA0274602746
B1825483839520N11202098WA0274402744
B1825493839519N11202099WA0274002740
B1825503839519N11202102WA0273902739
B1825513839519N11202105WA0274002740
B1825523839521N11202108WA0274102741
B1825533839523N11202110WA0274102741
B1825543839526N11202112WA0274102741
B1825553839528N11202114WA0274002740
B1825563839529N11202116WA0273802738
B1825573839530N11202117WA0273802738
B1825583839532N11202119WA0273702737
B1825593839535N11202122WA0273602736
B1826003839539N11202123WA0273502735
B1826013839544N11202123WA0273502735
B1826023839548N11202123WA0273502735
B1826033839553N11202122WA0273402734
B1826043839557N11202122WA0273302733
B1826053839562N11202123WA0273002730
B1826063839567N11202124WA0272502725
B1826073839572N11202125WA0272002720
B1826083839578N11202125WA0271802718
B1826093839583N11202125WA0271602716
B1826103839589N11202126WA0271302713
B1826113839594N11202127WA0270902709
B1826123839598N11202131WA0270702707
B1826133839600N11202134WA0270602706
B1826143839603N11202136WA0270602706
B1826153839605N11202137WA0270502705
B1826163839608N11202140WA0270302703
B1826173839612N11202142WA0269902699
B1826183839615N11202145WA0269602696
B1826193839619N11202147WA0269402694
B1826203839623N11202150WA0269102691
B1826213839627N11202153WA0268702687
B1826223839631N11202157WA0268302683
B1826233839633N11202161WA0268002680
B1826243839635N11202165WA0267702677
B1826253839637N11202168WA0267402674
B1826263839639N11202170WA0267202672
B1826273839641N11202171WA0267002670
B1826283839643N11202172WA0266702667
B1826293839646N11202174WA0266302663
B1826303839649N11202176WA0265802658
B1826313839651N11202179WA0265302653
B1826323839652N11202182WA0265002650
B1826333839653N11202185WA0264902649
B1826343839654N11202186WA0264602646
B1826353839656N11202187WA0264402644
B1826363839659N11202190WA0263902639
B1826373839663N11202192WA0263402634
B1826383839668N11202195WA0262802628
B1826393839672N11202198WA0262502625
B1826403839675N11202201WA0262202622
B1826413839678N11202202WA0262002620
B1826423839681N11202204WA0261702617
B1826433839685N11202206WA0261302613
B1826443839688N11202208WA0260902609
B1826453839691N11202211WA0260402604
B1826463839695N11202213WA0260102601
B1826473839698N11202215WA0259802598
B1826483839701N11202217WA0259602596
B1826493839703N11202219WA0259302593
B1826503839705N11202221WA0259002590
B1826513839708N11202223WA0258702587
B1826523839711N11202225WA0258402584
B1826533839715N11202227WA0258002580
B1826543839719N11202228WA0257702577
B1826553839723N11202228WA0257402574
B1826563839726N11202229WA0257102571
B1826573839729N11202230WA0256702567
B1826583839731N11202232WA0256302563
B1826593839732N11202234WA0255902559
B1827003839734N11202237WA0255602556
B1827013839735N11202239WA0255302553
B1827023839737N11202242WA0255202552
B1827033839738N11202246WA0254902549
B1827043839739N11202251WA0254802548
B1827053839741N11202254WA0254602546
B1827063839743N11202258WA0254802548
B1827073839744N11202261WA0254902549
B1827083839745N11202263WA0255002550
B1827093839747N11202265WA0255002550
B1827103839748N11202266WA0254902549
B1827113839749N11202269WA0254902549
B1827123839749N11202271WA0254802548
B1827133839750N11202275WA0254702547
B1827143839752N11202278WA0254502545
B1827153839754N11202282WA0254502545
B1827163839756N11202286WA0254502545
B1827173839758N11202289WA0254502545
B1827183839760N11202291WA0254502545
B1827193839763N11202294WA0254602546
B1827203839765N11202297WA0254602546
B1827213839767N11202301WA0254702547
B1827223839767N11202304WA0254802548
B1827233839768N11202306WA0255002550
B1827243839770N11202309WA0255202552
B1827253839772N11202312WA0255502555
B1827263839775N11202314WA0255702557
B1827273839778N11202317WA0255802558
B1827283839780N11202319WA0256002560
B1827293839781N11202322WA0256202562
B1827303839783N11202325WA0256502565
B1827313839785N11202329WA0256702567
B1827323839788N11202332WA0256902569
B1827333839791N11202336WA0257102571
B1827343839793N11202339WA0257402574
B1827353839794N11202343WA0257702577
B1827363839793N11202345WA0257802578
B1827373839790N11202346WA0257902579
B1827383839786N11202344WA0258002580
B1827393839783N11202338WA0258202582
B1827403839782N11202329WA0258402584
B1827413839783N11202321WA0258702587
B1827423839786N11202313WA0258902589
B1827433839791N11202308WA0259002590
B1827443839797N11202307WA0259202592
B1827453839803N11202309WA0259502595
B1827463839807N11202312WA0259802598
B1827473839810N11202315WA0260202602
B1827483839814N11202316WA0260502605
B1827493839817N11202317WA0260602606
B1827503839820N11202319WA0260602606
B1827513839823N11202321WA0260602606
B1827523839828N11202324WA0260502605
B1827533839832N11202326WA0260502605
B1827543839837N11202328WA0260702607
B1827553839840N11202330WA0260902609
B1827563839843N11202333WA0261002610
B1827573839846N11202335WA0261002610
B1827583839849N11202337WA0261002610
B1827593839853N11202339WA0261002610
B1828003839858N11202342WA0261002610
B1828013839861N11202345WA0261002610
B1828023839864N11202349WA0261102611
B1828033839867N11202352WA0261302613
B1828043839870N11202354WA0261402614
B1828053839873N11202355WA0261502615
B1828063839876N11202357WA0261602616
B1828073839880N11202358WA0261602616
B1828083839883N11202360WA0261602616
B1828093839886N11202363WA0261502615
B1828103839889N11202366WA0261502615
B1828113839892N11202369WA0261602616
B1828123839895N11202372WA0261702617
B1828133839899N11202374WA0261802618
B1828143839901N11202375WA0261902619
B1828153839903N11202378WA0261902619
B1828163839905N11202381WA0262002620
B1828173839906N11202384WA0262002620
B1828183839907N11202388WA0262102621
B1828193839908N11202391WA0262102621
B1828203839909N11202394WA0262202622
B1828213839912N11202397WA0262102621
B1828223839915N11202400WA0262102621
B1828233839918N11202403WA0262002620
B1828243839921N11202406WA0262002620
B1828253839923N11202407WA0262102621
B1828263839925N11202409WA0262202622
B1828273839927N11202411WA0262202622
B1828283839927N11202413WA0262102621
B1828293839924N11202415WA0261902619
B1828303839919N11202416WA0261702617
B1828313839913N11202413WA0261702617
B1828323839908N11202407WA0261902619
B1828333839907N11202399WA0262102621
B1828343839907N11202390WA0262102621
B1828353839907N11202381WA0262202622
B1828363839910N11202371WA0262102621
B1828373839913N11202363WA0262202622
B1828383839918N11202357WA0262202622
B1828393839924N11202354WA0262202622
B1828403839928N11202353WA0262202622
B1828413839932N11202354WA0262202622
B1828423839935N11202356WA0262302623
B1828433839937N11202357WA0262302623
B1828443839939N11202359WA0262302623
B1828453839940N11202362WA0262302623
B1828463839942N11202365WA0262202622
B1828473839944N11202368WA0262102621
B1828483839946N11202371WA0262102621
B1828493839949N11202374WA0262002620
B1828503839953N11202376WA0262002620
B1828513839957N11202379WA0261902619
B1828523839961N11202381WA0261902619
B1828533839966N11202382WA0261902619
B1828543839969N11202383WA0262002620
B1828553839972N11202384WA0262002620
B1828563839975N11202384WA0261802618
B1828573839978N11202386WA0261702617
B1828583839981N11202389WA0261402614
B1828593839985N11202393WA0261102611
B1829003839989N11202397WA0260902609
B1829013839992N11202401WA0260802608
B1829023839996N11202404WA0260602606
B1829033839999N11202406WA0260502605
B1829043840003N11202409WA0260202602
B1829053840008N11202412WA0259802598
B1829063840012N11202416WA0259502595
B1829073840016N11202422WA0259202592
B1829083840018N11202427WA0259102591
B1829093840019N11202431WA0259002590
B1829103840021N11202435WA0258902589
B1829113840023N11202438WA0258702587
B1829123840025N11202440WA0258402584
B1829133840028N11202443WA0258102581
B1829143840032N11202446WA0257802578
B1829153840036N11202448WA0257502575
B1829163840040N11202451WA0257302573
B1829173840043N11202454WA0257002570
B1829183840046N11202457WA0256702567
B1829193840049N11202460WA0256402564
B1829203840053N11202463WA0256102561
B1829213840056N11202467WA0255702557
B1829223840059N11202470WA0255402554
B1829233840062N11202473WA0254902549
B1829243840065N11202477WA0254502545
B1829253840067N11202482WA0254102541
B1829263840070N11202486WA0253702537
B1829273840072N11202491WA0253302533
B1829283840075N11202496WA0253002530
B1829293840077N11202500WA0252602526
B1829303840080N11202504WA0252302523
B1829313840084N11202508WA0252102521
B1829323840087N11202512WA0251802518
B1829333840091N11202516WA0251602516
B1829343840094N11202520WA0251402514
B1829353840098N11202524WA0251202512
B1829363840102N11202528WA0250902509
B1829373840107N11202532WA0250702507
B1829383840110N11202537WA0250602506
B1829393840111N11202540WA0250602506
B1829403840113N11202543WA0250602506
B1829413840115N11202545WA0250502505
B1829423840118N11202546WA0250402504
B1829433840121N11202548WA0250202502
B1829443840124N11202551WA0250002500
B1829453840128N11202554WA0249802498
B1829463840133N11202556WA0249702497
B1829473840137N11202559WA0249602496
B1829483840141N11202561WA0249602496
B1829493840145N11202563WA0249602496
B1829503840149N11202564WA0249502495
B1829513840152N11202567WA0249302493
B1829523840156N11202570WA0249102491
B1829533840161N11202574WA0248702487
B1829543840165N11202579WA0248502485
B1829553840170N11202582WA0248502485
B1829563840174N11202584WA0248502485
B1829573840178N11202586WA0248502485
B1829583840183N11202589WA0248302483
B1829593840188N11202591WA0248102481
B1830003840194N11202593WA0247902479
B1830013840200N11202595WA0247602476
B1830023840206N11202597WA0247502475
B1830033840212N11202599WA0247302473
B1830043840218N11202600WA0247202472
B1830053840224N11202599WA0247002470
B1830063840231N11202598WA0246902469
B1830073840238N11202595WA0246702467
B1830083840245N11202592WA0246502465
B1830093840252N11202589WA0246402464
B1830103840260N11202585WA0246302463
B1830113840266N11202582WA0246202462
B1830123840273N11202579WA0246102461
B1830133840279N11202577WA0246102461
B1830143840285N11202573WA0245902459
B1830153840291N11202570WA0245702457
B1830163840298N11202567WA0245502455
B1830173840305N11202564WA0245302453
B1830183840312N11202561WA0245102451
B1830193840318N11202558WA0245002450
B1830203840325N11202555WA0244802448
B1830213840331N11202552WA0244702447
B1830223840338N11202548WA0244502445
B1830233840344N11202544WA0244302443
B1830243840350N11202540WA0244102441
B1830253840357N11202535WA0243902439
B1830263840363N11202531WA0243702437
B1830273840370N11202528WA0243502435
B1830283840376N11202525WA0243302433
B1830293840383N11202522WA0243002430
B1830303840390N11202520WA0242902429
B1830313840396N11202518WA0242702427
B1830323840403N11202515WA0242502425
B1830333840410N11202513WA0242302423
B1830343840416N11202509WA0242202422
B1830353840423N11202506WA0242002420
B1830363840429N11202503WA0241802418
B1830373840436N11202500WA0241502415
B1830383840443N11202497WA0241302413
B1830393840450N11202494WA0241102411
B1830403840456N11202491WA0240902409
B1830413840463N11202488WA0240702407
B1830423840469N11202486WA0240402404
B1830433840476N11202484WA0240102401
B1830443840483N11202482WA0239802398
B1830453840490N11202480WA0239602396
B1830463840496N11202479WA0239402394
B1830473840503N11202477WA0239102391
B1830483840510N11202476WA0238902389
B1830493840516N11202475WA0238702387
B1830503840523N11202476WA0238402384
B1830513840529N11202476WA0238102381
B1830523840536N11202477WA0237902379
B1830533840542N11202478WA0237702377
B1830543840548N11202479WA0237502375
B1830553840553N11202480WA0237202372
B1830563840559N11202482WA0237002370
B1830573840565N11202484WA0236702367
B1830583840570N11202487WA0236502365
B1830593840575N11202489WA0236302363
B1831003840580N11202492WA0236102361
B1831013840586N11202494WA0235802358
B1831023840591N11202497WA0235602356
B1831033840596N11202500WA0235402354
B1831043840601N11202502WA0235202352
B1831053840605N11202505WA0235002350
B1831063840610N11202508WA0234902349
B1831073840614N11202511WA0234602346
B1831083840619N11202514WA0234402344
B1831093840624N11202517WA0234202342
B1831103840628N11202520WA0234002340
B1831113840633N11202523WA0233802338
B1831123840638N11202526WA0233702337
B1831133840643N11202528WA0233502335
B1831143840649N11202530WA0233402334
B1831153840654N11202533WA0233102331
B1831163840659N11202535WA0232902329
B1831173840665N11202538WA0232602326
B1831183840671N11202541WA0232402324
B1831193840678N11202543WA0232302323
B1831203840684N11202544WA0232202322
B1831213840690N11202545WA0232102321
B1831223840695N11202546WA0232102321
B1831233840701N11202547WA0231902319
B1831243840707N11202547WA0231702317
B1831253840714N11202548WA0231502315
B1831263840722N11202548WA0231202312
B1831273840729N11202549WA0231102311
B1831283840736N11202548WA0231002310
B1831293840743N11202546WA0230902309
B1831303840751N11202545WA0230702307
B1831313840759N11202543WA0230502305
B1831323840767N11202541WA0230302303
B1831333840775N11202539WA0230102301
B1831343840784N11202537WA0229902299
B1831353840792N11202536WA0229802298
B1831363840801N11202535WA0229602296
B1831373840810N11202533WA0229702297
B1831383840818N11202531WA0229802298
B1831393840826N11202530WA0230002300
B1831403840832N11202531WA0230202302
B1831413840835N11202534WA0230302303
B1831423840837N11202538WA0230402304
B1831433840837N11202540WA0230502305
B1831443840834N11202540WA0230602306
B1831453840831N11202536WA0230702307
B1831463840829N11202529WA0231002310
B1831473840829N11202519WA0231102311
B1831483840833N11202509WA0231202312
B1831493840838N11202499WA0231402314
B1831503840845N11202490WA0231602316
B1831513840853N11202485WA0231702317
B1831523840862N11202483WA0231802318
B1831533840869N11202484WA0232002320
B1831543840873N11202488WA0232202322
B1831553840875N11202494WA0232402324
B1831563840874N11202497WA0232702327
B1831573840872N11202497WA0233002330
B1831583840869N11202495WA0233202332
B1831593840865N11202489WA0233302333
B1832003840862N11202482WA0233302333
B1832013840860N11202474WA0233502335
B1832023840860N11202465WA0233802338
B1832033840864N11202455WA0234202342
B1832043840869N11202447WA0234502345
B1832053840875N11202439WA0234602346
B1832063840883N11202433WA0234802348
B1832073840890N11202431WA0235002350
B1832083840897N11202432WA0235302353
B1832093840901N11202435WA0235702357
B1832103840904N11202439WA0236002360
B1832113840904N11202443WA0236202362
B1832123840904N11202446WA0236502365
B1832133840900N11202447WA0236602366
B1832143840896N11202445WA0236802368
B1832153840893N11202439WA0237102371
B1832163840892N11202432WA0237502375
B1832173840894N11202423WA0237802378
B1832183840897N11202415WA0238102381
B1832193840902N11202406WA0238202382
B1832203840908N11202399WA0238402384
B1832213840914N11202394WA0238602386
B1832223840922N11202391WA0238802388
B1832233840928N11202392WA0239002390
B1832243840934N11202395WA0239302393
B1832253840938N11202399WA0239602396
B1832263840940N11202403WA0240002400
B1832273840942N11202407WA0240302403
B1832283840942N11202410WA0240602406
B1832293840940N11202412WA0240902409
B1832303840938N11202411WA0241102411
B1832313840934N11202408WA0241302413
B1832323840932N11202400WA0241402414
B1832333840932N11202391WA0241602416
B1832343840934N11202381WA0241902419
B1832353840936N11202373WA0242302423
B1832363840940N11202366WA0242602426
B1832373840944N11202360WA0242802428
B1832383840949N11202355WA0243002430
B1832393840956N11202351WA0243002430
B1832403840963N11202349WA0243302433
B1832413840970N11202350WA0243602436
B1832423840974N11202353WA0244002440
B1832433840977N11202357WA0244402444
B1832443840977N11202361WA0244602446
B1832453840976N11202364WA0244702447
B1832463840974N11202365WA0245102451
B1832473840971N11202363WA0245402454
B1832483840968N11202359WA0245702457
B1832493840966N11202354WA0246002460
B1832503840964N11202348WA0246502465
B1832513840963N11202342WA0246902469
B1832523840964N11202336WA0247202472
B1832533840967N11202328WA0247302473
B1832543840971N11202320WA0247502475
B1832553840978N11202313WA0247602476
B1832563840986N11202310WA0247802478
B1832573840993N11202310WA0248102481
B1832583840998N11202313WA0248502485
B1832593841001N11202317WA0248802488
B1833003841001N11202321WA0249002490
B1833013841000N11202324WA0249202492
B1833023840997N11202322WA0249402494
B1833033840994N11202317WA0249702497
B1833043840993N11202308WA0250002500
B1833053840996N11202299WA0250402504
B1833063841000N11202291WA0250802508
B1833073841005N11202284WA0251002510
B1833083841010N11202278WA0251202512
B1833093841017N11202274WA0251502515
B1833103841023N11202271WA0251702517
B1833113841030N11202271WA0251902519
B1833123841035N11202273WA0252102521
B1833133841038N11202276WA0252302523
B1833143841039N11202280WA0252502525
B1833153841040N11202283WA0252602526
B1833163841039N11202287WA0252702527
B1833173841038N11202288WA0252802528
B1833183841035N11202288WA0253002530
B1833193841031N11202284WA0252902529
B1833203841026N11202278WA0252802528
B1833213841023N11202271WA0253002530
B1833223841020N11202264WA0253302533
B1833233841018N11202258WA0253602536
B1833243841016N11202252WA0253902539
B1833253841015N11202246WA0254102541
B1833263841015N11202238WA0254302543
B1833273841017N11202229WA0254402544
B1833283841022N11202221WA0254502545
B1833293841028N11202212WA0254602546
B1833303841035N11202205WA0254902549
B1833313841041N11202202WA0255102551
B1833323841047N11202200WA0255402554
B1833333841052N11202201WA0255602556
B1833343841056N11202203WA0255702557
B1833353841059N11202206WA0255802558
B1833363841060N11202210WA0255902559
B1833373841059N11202213WA0256002560
B1833383841056N11202215WA0256302563
B1833393841053N11202214WA0256502565
B1833403841050N11202213WA0256902569
B1833413841049N11202211WA0257302573
B1833423841047N11202211WA0257502575
B1833433841044N11202210WA0257602576
B1833443841041N11202208WA0257602576
B1833453841038N11202204WA0257702577
B1833463841035N11202197WA0257902579
B1833473841035N11202189WA0258102581
B1833483841038N11202180WA0258402584
B1833493841043N11202172WA0258602586
B1833503841050N11202166WA0258702587
B1833513841058N11202164WA0259002590
B1833523841065N11202165WA0259202592
B1833533841070N11202167WA0259502595
B1833543841073N11202172WA0259702597
B1833553841073N11202176WA0259802598
B1833563841070N11202179WA0260102601
B1833573841067N11202178WA0260502605
B1833583841064N11202176WA0260902609
B1833593841061N11202173WA0261202612
B1834003841059N11202171WA0261302613
B1834013841056N11202168WA0261402614
B1834023841053N11202163WA0261502615
B1834033841051N11202156WA0261602616
B1834043841049N11202148WA0261702617
B1834053841049N11202140WA0261902619
B1834063841049N11202131WA0262202622
B1834073841052N11202122WA0262402624
B1834083841056N11202114WA0262602626
B1834093841062N11202109WA0262702627
B1834103841069N11202105WA0262902629
B1834113841076N11202104WA0263102631
B1834123841082N11202106WA0263502635
B1834133841084N11202109WA0263802638
B1834143841085N11202111WA0264102641
B1834153841084N11202114WA0264302643
B1834163841083N11202115WA0264602646
B1834173841080N11202116WA0264802648
B1834183841078N11202115WA0265002650
B1834193841076N11202113WA0265102651
B1834203841073N11202109WA0265202652
B1834213841071N11202104WA0265302653
B1834223841069N11202098WA0265402654
B1834233841069N11202089WA0265502655
B1834243841070N11202080WA0265602656
B1834253841072N11202070WA0265702657
B1834263841076N11202061WA0265902659
B1834273841081N11202055WA0266102661
B1834283841087N11202051WA0266302663
B1834293841094N11202052WA0266502665
B1834303841099N11202054WA0266802668
B1834313841100N11202058WA0267102671
B1834323841101N11202061WA0267402674
B1834333841100N11202063WA0267602676
B1834343841100N11202065WA0267802678
B1834353841100N11202067WA0268002680
B1834363841101N11202069WA0268202682
B1834373841101N11202072WA0268402684
B1834383841101N11202074WA0268502685
B1834393841100N11202076WA0268602686
B1834403841099N11202078WA0268702687
B1834413841097N11202079WA0268902689
B1834423841095N11202079WA0269002690
B1834433841092N11202078WA0269202692
B1834443841089N11202074WA0269202692
B1834453841087N11202068WA0269302693
B1834463841087N11202060WA0269402694
B1834473841089N11202052WA0269602696
B1834483841095N11202044WA0269702697
B1834493841101N11202039WA0269802698
B1834503841108N11202036WA0270002700
B1834513841115N11202037WA0270202702
B1834523841120N11202038WA0270402704
B1834533841123N11202041WA0270702707
B1834543841124N11202044WA0270802708
B1834553841124N11202047WA0270902709
B1834563841122N11202049WA0271102711
B1834573841119N11202050WA0271302713
B1834583841116N11202048WA0271502715
B1834593841113N11202044WA0271602716
B1835003841112N11202039WA0271602716
B1835013841111N11202031WA0271602716
B1835023841111N11202023WA0271602716
B1835033841115N11202015WA0271602716
B1835043841120N11202007WA0271602716
B1835053841127N11202001WA0271602716
B1835063841134N11201998WA0271802718
B1835073841141N11201997WA0272002720
B1835083841145N11201998WA0272202722
B1835093841149N11202000WA0272302723
B1835103841152N11202004WA0272302723
B1835113841152N11202007WA0272402724
B1835123841151N11202010WA0272502725
B1835133841149N11202012WA0272602726
B1835143841147N11202013WA0272802728
B1835153841144N11202014WA0273002730
B1835163841143N11202014WA0273202732
B1835173841141N11202014WA0273302733
B1835183841140N11202015WA0273302733
B1835193841137N11202015WA0273202732
B1835203841133N11202011WA0273002730
B1835213841130N11202006WA0272902729
B1835223841128N11201999WA0273002730
B1835233841127N11201991WA0273102731
B1835243841128N11201983WA0273302733
B1835253841131N11201975WA0273402734
B1835263841136N11201967WA0273402734
B1835273841142N11201960WA0273502735
B1835283841149N11201956WA0273602736
B1835293841156N11201955WA0273702737
B1835303841162N11201956WA0273802738
B1835313841166N11201959WA0273902739
B1835323841169N11201962WA0274002740
B1835333841171N11201966WA0274002740
B1835343841172N11201969WA0274102741
B1835353841172N11201972WA0274202742
B1835363841172N11201975WA0274302743
B1835373841172N11201978WA0274402744
B1835383841172N11201981WA0274502745
B1835393841171N11201983WA0274402744
B1835403841169N11201985WA0274502745
B1835413841167N11201987WA0274602746
B1835423841165N11201987WA0274702747
B1835433841162N11201987WA0274802748
B1835443841160N11201985WA0274802748
B1835453841157N11201982WA0274802748
B1835463841154N11201977WA0274802748
B1835473841152N11201971WA0274802748
B1835483841150N11201964WA0274902749
B1835493841150N11201955WA0274902749
B1835503841152N11201946WA0275002750
B1835513841156N11201938WA0275102751
B1835523841161N11201931WA0275202752
B1835533841168N11201926WA0275202752
B1835543841175N11201924WA0275302753
B1835553841182N11201924WA0275402754
B1835563841186N11201926WA0275602756
B1835573841190N11201930WA0275602756
B1835583841191N11201934WA0275602756
B1835593841191N11201938WA0275702757
B1836003841191N11201940WA0275802758
B1836013841190N11201943WA0276002760
B1836023841188N11201945WA0276102761
B1836033841187N11201947WA0276202762
B1836043841186N11201949WA0276302763
B1836053841185N11201951WA0276302763
B1836063841184N11201954WA0276402764
B1836073841181N11201954WA0276402764
B1836083841178N11201954WA0276402764
B1836093841175N11201950WA0276302763
B1836103841171N11201945WA0276202762
B1836113841169N11201938WA0276202762
B1836123841169N11201929WA0276202762
B1836133841171N11201920WA0276202762
B1836143841175N11201912WA0276202762
B1836153841181N11201905WA0276202762
B1836163841187N11201901WA0276302763
B1836173841194N11201899WA0276402764
B1836183841200N11201899WA0276402764
B1836193841205N11201902WA0276502765
B1836203841208N11201906WA0276602766
B1836213841209N11201910WA0276702767
B1836223841208N11201913WA0276802768
B1836233841206N11201916WA0276902769
B1836243841204N11201916WA0276902769
B1836253841201N11201916WA0276902769
B1836263841197N11201915WA0276902769
B1836273841194N11201913WA0276902769
B1836283841191N11201911WA0277002770
B1836293841188N11201910WA0277102771
B1836303841186N11201911WA0277102771
B1836313841184N11201912WA0277002770
B1836323841181N11201915WA0276902769
B1836333841180N11201918WA0276802768
B1836343841178N11201921WA0276702767
B1836353841176N11201925WA0276702767
B1836363841173N11201927WA0276602766
B1836373841171N11201929WA0276702767
B1836383841170N11201930WA0276702767
B1836393841169N11201932WA0276802768
B1836403841168N11201933WA0276702767
B1836413841166N11201936WA0276602766
B1836423841164N11201938WA0276502765
B1836433841162N11201941WA0276302763
B1836443841160N11201944WA0276202762
B1836453841158N11201947WA0276202762
B1836463841157N11201949WA0276202762
B1836473841155N11201952WA0276102761
B1836483841152N11201955WA0275902759
B1836493841149N11201958WA0275802758
B1836503841146N11201961WA0275702757
B1836513841144N11201963WA0275802758
B1836523841142N11201965WA0275802758
B1836533841141N11201967WA0275902759
B1836543841140N11201968WA0275802758
B1836553841139N11201970WA0275802758
B1836563841137N11201971WA0275802758
B1836573841135N11201972WA0275902759
B1836583841133N11201974WA0275902759
B1836593841131N11201974WA0275902759
B1837003841129N11201976WA0276002760
B1837013841127N11201977WA0276002760
B1837023841126N11201979WA0276002760
B1837033841125N11201981WA0276002760
B1837043841124N11201982WA0276002760
B1837053841124N11201983WA0276002760
B1837063841123N11201986WA0275902759
B1837073841122N11201988WA0275802758
B1837083841121N11201991WA0275702757
B1837093841119N11201993WA0275602756
B1837103841116N11201995WA0275702757
B1837113841114N11201996WA0275702757
B1837123841111N11201997WA0275702757
B1837133841109N11201999WA0275602756
B1837143841107N11202001WA0275502755
B1837153841104N11202003WA0275402754
B1837163841102N11202006WA0275302753
B1837173841100N11202008WA0275202752
B1837183841099N11202011WA0275102751
B1837193841097N11202014WA0275002750
B1837203841094N11202017WA0274902749
B1837213841092N11202020WA0274802748
B1837223841089N11202022WA0274802748
B1837233841087N11202023WA0274902749
B1837243841086N11202024WA0275002750
B1837253841084N11202026WA0274902749
B1837263841082N11202028WA0274802748
B1837273841080N11202031WA0274602746
B1837283841079N11202035WA0274502745
B1837293841077N11202038WA0274402744
B1837303841076N11202041WA0274402744
B1837313841075N11202044WA0274302743
B1837323841073N11202048WA0274202742
B1837333841072N11202052WA0274102741
B1837343841069N11202055WA0273902739
B1837353841066N11202058WA0273802738
B1837363841063N11202061WA0273602736
B1837373841060N11202064WA0273502735
B1837383841057N11202066WA0273502735
B1837393841055N11202069WA0273502735
B1837403841053N11202070WA0273402734
B1837413841051N11202072WA0273302733
B1837423841049N11202074WA0273102731
B1837433841046N11202077WA0272902729
B1837443841043N11202080WA0272602726
B1837453841040N11202084WA0272402724
B1837463841037N11202087WA0272302723
B1837473841035N11202090WA0272202722
B1837483841033N11202093WA0272102721
B1837493841030N11202096WA0271802718
B1837503841028N11202099WA0271602716
B1837513841025N11202102WA0271302713
B1837523841022N11202105WA0271202712
B1837533841019N11202108WA0271102711
B1837543841016N11202111WA0270902709
B1837553841013N11202115WA0270702707
B1837563841010N11202119WA0270502705
B1837573841008N11202123WA0270402704
B1837583841006N11202126WA0270302703
B1837593841003N11202128WA0270202702
B1838003840999N11202130WA0270102701
B1838013840996N11202132WA0270102701
B1838023840994N11202135WA0270002700
B1838033840991N11202137WA0270002700
B1838043840989N11202139WA0270102701
B1838053840987N11202140WA0270102701
B1838063840985N11202141WA0270002700
B1838073840982N11202142WA0269802698
B1838083840979N11202144WA0269702697
B1838093840976N11202146WA0269602696
B1838103840973N11202148WA0269502695
B1838113840971N11202150WA0269502695
B1838123840968N11202151WA0269502695
B1838133840966N11202152WA0269502695
B1838143840965N11202153WA0269502695
B1838153840963N11202154WA0269502695
B1838163840962N11202156WA0269402694
B1838173840960N11202157WA0269302693
B1838183840958N11202158WA0269102691
B1838193840955N11202160WA0268902689
B1838203840952N11202161WA0268702687
B1838213840949N11202163WA0268602686
B1838223840946N11202164WA0268502685
B1838233840944N11202165WA0268402684
B1838243840942N11202167WA0268202682
B1838253840940N11202170WA0268002680
B1838263840937N11202173WA0267902679
B1838273840935N11202175WA0267702677
B1838283840933N11202177WA0267702677
B1838293840929N11202179WA0267502675
B1838303840925N11202180WA0267402674
B1838313840922N11202182WA0267302673
B1838323840918N11202184WA0267302673
B1838333840915N11202186WA0267302673
B1838343840912N11202188WA0267402674
B1838353840910N11202190WA0267402674
B1838363840908N11202192WA0267402674
B1838373840906N11202193WA0267402674
B1838383840904N11202195WA0267402674
B1838393840902N11202197WA0267402674
B1838403840900N11202199WA0267302673
B1838413840898N11202202WA0267302673
B1838423840895N11202204WA0267202672
B1838433840893N11202207WA0267102671
B1838443840891N11202210WA0267002670
B1838453840890N11202212WA0267102671
B1838463840889N11202214WA0267102671
B1838473840888N11202216WA0267102671
B1838483840887N11202218WA0267002670
B1838493840886N11202220WA0266902669
B1838503840884N11202223WA0266702667
B1838513840881N11202225WA0266602666
B1838523840879N11202228WA0266502665
B1838533840876N11202231WA0266402664
B1838543840874N11202234WA0266302663
B1838553840871N11202236WA0266202662
B1838563840869N11202239WA0266202662
B1838573840866N11202241WA0266102661
B1838583840863N11202243WA0266002660
B1838593840860N11202244WA0265902659
B1839003840857N11202245WA0265802658
B1839013840854N11202247WA0265602656
B1839023840852N11202250WA0265402654
B1839033840849N11202252WA0265202652
B1839043840846N11202253WA0265002650
B1839053840843N11202255WA0264802648
B1839063840839N11202257WA0264602646
B1839073840836N11202259WA0264502645
B1839083840833N11202260WA0264402644
B1839093840831N11202262WA0264402644
B1839103840828N11202264WA0264202642
B1839113840826N11202265WA0264102641
B1839123840823N11202267WA0263902639
B1839133840821N11202270WA0263802638
B1839143840819N11202273WA0263602636
B1839153840817N11202276WA0263502635
B1839163840815N11202279WA0263302633
B1839173840812N11202281WA0263202632
B1839183840809N11202284WA0263002630
B1839193840806N11202286WA0262902629
B1839203840804N11202288WA0262702627
B1839213840801N11202290WA0262602626
B1839223840798N11202292WA0262402624
B1839233840795N11202295WA0262202622
B1839243840792N11202297WA0262002620
B1839253840789N11202299WA0261902619
B1839263840786N11202301WA0261702617
B1839273840783N11202302WA0261602616
B1839283840780N11202304WA0261502615
B1839293840778N11202305WA0261302613
B1839303840775N11202307WA0261002610
B1839313840772N11202309WA0260702607
B1839323840770N11202312WA0260502605
B1839333840768N11202315WA0260202602
B1839343840766N11202318WA0260002600
B1839353840764N11202321WA0259802598
B1839363840761N11202323WA0259602596
B1839373840758N11202326WA0259302593
B1839383840755N11202329WA0259002590
B1839393840752N11202332WA0258602586
B1839403840749N11202336WA0258302583
B1839413840746N11202340WA0258102581
B1839423840743N11202343WA0257902579
B1839433840740N11202346WA0257702577
B1839443840737N11202350WA0257402574
B1839453840734N11202354WA0257102571
B1839463840731N11202357WA0256802568
B1839473840727N11202361WA0256502565
B1839483840723N11202363WA0256302563
B1839493840720N11202366WA0256002560
B1839503840718N11202370WA0255702557
B1839513840715N11202374WA0255402554
B1839523840713N11202378WA0255002550
B1839533840710N11202383WA0254602546
B1839543840707N11202387WA0254202542
B1839553840704N11202392WA0253902539
B1839563840703N11202398WA0253702537
B1839573840701N11202403WA0253302533
B1839583840698N11202408WA0253002530
B1839593840695N11202414WA0252702527
B1840003840691N11202419WA0252402524
B1840013840688N11202424WA0252202522
B1840023840686N11202429WA0252302523
B1840033840684N11202434WA0252302523
B1840043840682N11202437WA0252502525
B1840053840680N11202438WA0252602526
B1840063840678N11202440WA0252602526
B1840073840677N11202443WA0252602526
B1840083840676N11202446WA0252402524
B1840093840674N11202449WA0252302523
B1840103840672N11202453WA0252202522
B1840113840670N11202456WA0252102521
B1840123840669N11202458WA0252102521
B1840133840667N11202461WA0251902519
B1840143840665N11202464WA0251702517
B1840153840663N11202467WA0251502515
B1840163840661N11202471WA0251202512
B1840173840659N11202475WA0250902509
B1840183840657N11202479WA0250602506
B1840193840655N11202483WA0250502505
B1840203840653N11202487WA0250202502
B1840213840650N11202492WA0249902499
B1840223840647N11202496WA0249702497
B1840233840643N11202499WA0249602496
B1840243840640N11202501WA0249502495
B1840253840637N11202502WA0249502495
B1840263840635N11202504WA0249402494
B1840273840633N11202506WA0249102491
B1840283840631N11202510WA0248802488
B1840293840629N11202513WA0248402484
B1840303840627N11202517WA0248202482
B1840313840625N11202521WA0248202482
B1840323840623N11202523WA0248102481
B1840333840621N11202525WA0247902479
B1840343840619N11202527WA0247702477
B1840353840617N11202530WA0247502475
B1840363840615N11202533WA0247202472
B1840373840612N11202537WA0247102471
B1840383840610N11202539WA0247102471
B1840393840608N11202542WA0247102471
B1840403840606N11202544WA0247002470
B1840413840604N11202547WA0247002470
B1840423840602N11202550WA0246902469
B1840433840599N11202553WA0246902469
B1840443840596N11202555WA0246802468
B1840453840594N11202557WA0246802468
B1840463840591N11202558WA0246702467
B1840473840588N11202560WA0246602466
B1840483840585N11202561WA0246502465
B1840493840581N11202563WA0246402464
B1840503840578N11202564WA0246302463
B1840513840575N11202566WA0246302463
B1840523840572N11202568WA0246202462
B1840533840569N11202570WA0246002460
B1840543840567N11202573WA0245902459
B1840553840564N11202577WA0245802458
B1840563840560N11202580WA0245702457
B1840573840558N11202583WA0245702457
B1840583840557N11202586WA0245702457
B1840593840557N11202589WA0245902459
B1841003840557N11202591WA0246102461
B1841013840557N11202593WA0246102461
B1841023840556N11202595WA0246002460
B1841033840556N11202598WA0246002460
B1841043840555N11202600WA0245902459
B1841053840553N11202603WA0246002460
B1841063840550N11202604WA0246002460
B1841073840546N11202602WA0245902459
B1841083840541N11202598WA0245802458
B1841093840537N11202591WA0245802458
B1841103840535N11202584WA0245702457
B1841113840533N11202576WA0245702457
B1841123840533N11202567WA0245602456
B1841133840534N11202559WA0245602456
B1841143840537N11202551WA0245402454
B1841153840542N11202544WA0245302453
B1841163840548N11202540WA0245202452
B1841173840553N11202538WA0245102451
B1841183840558N11202540WA0245102451
B1841193840561N11202543WA0245102451
B1841203840562N11202546WA0245102451
B1841213840563N11202548WA0245202452
B1841223840564N11202550WA0245302453
B1841233840565N11202551WA0245402454
B1841243840566N11202553WA0245302453
B1841253840567N11202555WA0245202452
B1841263840566N11202558WA0245002450
B1841273840565N11202561WA0244902449
B1841283840563N11202564WA0244802448
B1841293840561N11202566WA0244702447
B1841303840558N11202568WA0244702447
B1841313840555N11202569WA0244702447
B1841323840552N11202570WA0244602446
B1841333840550N11202572WA0244602446
B1841343840547N11202573WA0244602446
B1841353840545N11202576WA0244402444
B1841363840544N11202579WA0244202442
B1841373840541N11202583WA0243902439
B1841383840539N11202586WA0243702437
B1841393840537N11202590WA0243502435
B1841403840534N11202592WA0243302433
B1841413840531N11202595WA0243102431
B1841423840529N11202598WA0242902429
B1841433840526N11202601WA0242602426
B1841443840523N11202604WA0242402424
B1841453840520N11202607WA0242202422
B1841463840517N11202609WA0242002420
B1841473840514N11202612WA0241902419
B1841483840511N11202614WA0241702417
B1841493840508N11202616WA0241502415
B1841503840506N11202619WA0241302413
B1841513840504N11202622WA0241102411
B1841523840502N11202625WA0240802408
B1841533840499N11202628WA0240602406
B1841543840497N11202631WA0240402404
B1841553840495N11202634WA0240202402
B1841563840493N11202636WA0240002400
B1841573840492N11202639WA0239802398
B1841583840489N11202642WA0239602396
B1841593840487N11202645WA0239402394
B1842003840485N11202648WA0239102391
B1842013840483N11202651WA0238902389
B1842023840480N11202653WA0238702387
B1842033840478N11202656WA0238502385
B1842043840475N11202658WA0238302383
B1842053840473N11202660WA0238102381
B1842063840470N11202663WA0237902379
B1842073840468N11202665WA0237802378
B1842083840465N11202667WA0237602376
B1842093840463N11202668WA0237402374
B1842103840460N11202670WA0237202372
B1842113840457N11202672WA0237002370
B1842123840455N11202674WA0236702367
B1842133840452N11202676WA0236502365
B1842143840450N11202678WA0236402364
B1842153840447N11202680WA0236202362
B1842163840445N11202683WA0236102361
B1842173840443N11202685WA0235902359
B1842183840441N11202688WA0235802358
B1842193840438N11202690WA0235602356
B1842203840436N11202692WA0235402354
B1842213840434N11202694WA0235302353
B1842223840432N11202696WA0235202352
B1842233840430N11202698WA0235002350
B1842243840428N11202700WA0234802348
B1842253840426N11202702WA0234602346
B1842263840424N11202705WA0234302343
B1842273840422N11202708WA0234102341
B1842283840420N11202711WA0233802338
B1842293840418N11202713WA0233702337
B1842303840416N11202716WA0233502335
B1842313840414N11202718WA0233302333
B1842323840413N11202721WA0233202332
B1842333840411N11202724WA0232902329
B1842343840408N11202726WA0232702327
B1842353840405N11202728WA0232402324
B1842363840403N11202730WA0232202322
B1842373840400N11202732WA0232002320
B1842383840398N11202734WA0231902319
B1842393840395N11202735WA0231702317
B1842403840393N11202737WA0231502315
B1842413840390N11202738WA0231302313
B1842423840388N11202739WA0231202312
B1842433840386N11202741WA0231002310
B1842443840383N11202742WA0230802308
B1842453840381N11202745WA0230602306
B1842463840378N11202747WA0230402304
B1842473840376N11202750WA0230302303
B1842483840374N11202751WA0230202302
B1842493840372N11202753WA0230102301
B1842503840370N11202755WA0229902299
B1842513840368N11202757WA0229802298
B1842523840365N11202759WA0229602296
B1842533840363N11202761WA0229402294
B1842543840361N11202763WA0229302293
B1842553840359N11202765WA0229102291
B1842563840358N11202767WA0229002290
B1842573840356N11202770WA0228802288
B1842583840354N11202772WA0228602286
B1842593840352N11202775WA0228502285
B1843003840350N11202777WA0228302283
B1843013840348N11202780WA0228202282
B1843023840346N11202782WA0228002280
B1843033840344N11202785WA0227902279
B1843043840343N11202788WA0227702277
B1843053840343N11202792WA0227502275
B1843063840344N11202797WA0227302273
B1843073840347N11202800WA0227202272
B1843083840350N11202803WA0227202272
B1843093840352N11202805WA0227102271
B1843103840355N11202808WA0226902269
B1843113840358N11202810WA0226802268
B1843123840362N11202813WA0226602266
B1843133840366N11202816WA0226402264
B1843143840370N11202818WA0226302263
B1843153840373N11202822WA0226202262
B1843163840376N11202825WA0226002260
B1843173840379N11202829WA0225902259
B1843183840380N11202832WA0225702257
B1843193840381N11202836WA0225502255
B1843203840382N11202839WA0225302253
B1843213840382N11202843WA0225202252
B1843223840382N11202846WA0225002250
B1843233840381N11202849WA0224802248
B1843243840380N11202852WA0224602246
B1843253840378N11202856WA0224402244
B1843263840376N11202859WA0224202242
B1843273840374N11202861WA0224002240
B1843283840372N11202864WA0223802238
B1843293840370N11202867WA0223702237
B1843303840367N11202869WA0223502235
B1843313840365N11202872WA0223302233
B1843323840363N11202874WA0223202232
B1843333840361N11202877WA0223002230
B1843343840358N11202879WA0222802228
B1843353840357N11202882WA0222702227
B1843363840355N11202885WA0222602226
B1843373840353N11202888WA0222502225
B1843383840351N11202891WA0222502225
B1843393840350N11202893WA0222602226
B1843403840349N11202894WA0222702227
B1843413840348N11202896WA0222602226
B1843423840346N11202897WA0222502225
B1843433840343N11202896WA0222502225
B1843443840339N11202893WA0222402224
B1843453840336N11202884WA0222202222
B1843463840336N11202875WA0222202222
B1843473840339N11202866WA0222102221
B1843483840343N11202858WA0222102221
B1843493840349N11202852WA0222002220
B1843503840357N11202849WA0221902219
B1843513840364N11202849WA0221902219
B1843523840368N11202852WA0221802218
B1843533840371N11202856WA0221902219
B1843543840374N11202859WA0221902219
B1843553840376N11202862WA0222102221
B1843563840379N11202864WA0222102221
B1843573840381N11202866WA0222102221
B1843583840383N11202869WA0222102221
B1843593840383N11202872WA0222002220
B1844003840382N11202876WA0221902219
B1844013840381N11202878WA0221902219
B1844023840379N11202878WA0221902219
B1844033840376N11202878WA0221802218
B1844043840373N11202877WA0221702217
B1844053840370N11202877WA0221402214
B1844063840367N11202879WA0221302213
B1844073840364N11202882WA0221102211
B1844083840362N11202884WA0221102211
B1844093840360N11202887WA0221002210
B1844103840358N11202889WA0220902209
B1844113840357N11202892WA0220802208
B1844123840355N11202895WA0220702207
B1844133840354N11202898WA0220502205
B1844143840352N11202901WA0220302203
B1844153840350N11202904WA0220102201
B1844163840349N11202907WA0219902199
B1844173840348N11202911WA0219702197
B1844183840346N11202914WA0219502195
B1844193840344N11202917WA0219302193
B1844203840341N11202921WA0219002190
B1844213840339N11202924WA0218702187
B1844223840337N11202929WA0218402184
B1844233840335N11202934WA0218102181
B1844243840333N11202938WA0218002180
B1844253840332N11202942WA0217902179
B1844263840330N11202946WA0217802178
B1844273840328N11202950WA0217702177
B1844283840325N11202954WA0217502175
B1844293840323N11202957WA0217502175
B1844303840321N11202961WA0217402174
B1844313840319N11202966WA0217302173
B1844323840316N11202970WA0217202172
B1844333840313N11202974WA0217102171
B1844343840310N11202977WA0217002170
B1844353840307N11202981WA0217002170
B1844363840304N11202985WA0216902169
B1844373840302N11202988WA0216802168
B1844383840300N11202992WA0216702167
B1844393840298N11202995WA0216602166
B1844403840296N11202999WA0216502165
B1844413840294N11203002WA0216402164
B1844423840292N11203006WA0216202162
B1844433840290N11203009WA0216002160
B1844443840288N11203013WA0215902159
B1844453840285N11203016WA0215802158
B1844463840283N11203019WA0215602156
B1844473840280N11203022WA0215502155
B1844483840278N11203025WA0215302153
B1844493840275N11203028WA0215202152
B1844503840274N11203031WA0215002150
B1844513840271N11203034WA0214902149
B1844523840269N11203036WA0214802148
B1844533840266N11203039WA0214702147
B1844543840263N11203042WA0214502145
B1844553840260N11203045WA0214402144
B1844563840257N11203047WA0214402144
B1844573840254N11203048WA0214302143
B1844583840251N11203051WA0214202142
B1844593840248N11203054WA0214102141
B1845003840246N11203058WA0214102141
B1845013840244N11203062WA0214102141
B1845023840242N11203066WA0214002140
B1845033840240N11203070WA0213902139
B1845043840237N11203073WA0213902139
B1845053840234N11203076WA0214002140
B1845063840232N11203078WA0214002140
B1845073840229N11203079WA0214102141
B1845083840225N11203081WA0214102141
B1845093840222N11203083WA0214102141
B1845103840219N11203085WA0214102141
B1845113840216N11203087WA0214302143
B1845123840215N11203088WA0214402144
B1845133840213N11203090WA0214502145
B1845143840211N11203091WA0214502145
B1845153840210N11203092WA0214502145
B1845163840210N11203094WA0214502145
B1845173840209N11203095WA0214602146
B1845183840208N11203095WA0214602146
B1845193840207N11203095WA0214602146
B1845203840205N11203096WA0214502145
B1845213840203N11203098WA0214302143
B1845223840202N11203100WA0214202142
B1845233840200N11203101WA0214102141
B1845243840198N11203102WA0214002140
B1845253840196N11203102WA0213902139
B1845263840195N11203102WA0213702137
B1845273840194N11203104WA0213502135
B1845283840193N11203107WA0213302133
B1845293840192N11203111WA0213202132
B1845303840192N11203114WA0213202132
B1845313840192N11203116WA0213302133
B1845323840192N11203116WA0213302133
B1845333840192N11203117WA0213302133
B1845343840191N11203119WA0213102131
B1845353840190N11203122WA0212902129
B1845363840188N11203126WA0212702127
B1845373840187N11203130WA0212602126
B1845383840186N11203133WA0212502125
B1845393840185N11203135WA0212402124
B1845403840184N11203137WA0212302123
B1845413840182N11203141WA0212002120
B1845423840180N11203143WA0211702117
B1845433840179N11203146WA0211702117
B1845443840178N11203148WA0211602116
B1845453840177N11203150WA0211602116
B1845463840176N11203151WA0211502115
B1845473840174N11203152WA0211302113
B1845483840171N11203151WA0211202112
B1845493840167N11203146WA0211102111
B1845503840165N11203136WA0210902109
B1845513840163N11203127WA0210802108
B1845523840165N11203117WA0210702107
B1845533840167N11203108WA0210602106
B1845543840172N11203102WA0210502105
B1845553840178N11203098WA0210302103
B1845563840183N11203096WA0210202102
B1845573840188N11203095WA0210202102
B1845583840192N11203095WA0210102101
B1845593840196N11203096WA0210002100
B1846003840199N11203097WA0209902099
B1846013840204N11203098WA0209602096
B1846023840209N11203100WA0209402094
B1846033840212N11203103WA0209302093
B1846043840215N11203106WA0209102091
B1846053840218N11203109WA0209002090
B1846063840221N11203112WA0208902089
B1846073840224N11203114WA0208802088
B1846083840226N11203117WA0208702087
B1846093840229N11203120WA0208502085
B1846103840231N11203124WA0208302083
B1846113840235N11203127WA0208102081
B1846123840239N11203130WA0208002080
B1846133840242N11203132WA0207902079
B1846143840245N11203135WA0207802078
B1846153840247N11203139WA0207502075
B1846163840250N11203143WA0207302073
B1846173840253N11203147WA0207102071
B1846183840256N11203150WA0207002070
B1846193840257N11203154WA0206902069
B1846203840259N11203157WA0206802068
B1846213840261N11203160WA0206602066
B1846223840263N11203163WA0206302063
B1846233840264N11203166WA0206002060
B1846243840267N11203170WA0205602056
B1846253840269N11203174WA0205002050
B1846263840271N11203178WA0204502045
B1846273840274N11203182WA0204102041
B1846283840276N11203186WA0203702037
B1846293840279N11203190WA0203302033
B1846303840282N11203195WA0202802028
B1846313840285N11203201WA0202302023
B1846323840288N11203206WA0201902019
B1846333840292N11203211WA0201702017
B1846343840296N11203215WA0201402014
B1846353840299N11203218WA0201302013
B1846363840303N11203221WA0201202012
B1846373840306N11203225WA0201002010
B1846383840309N11203230WA0200702007
B1846393840312N11203234WA0200402004
B1846403840316N11203239WA0200302003
B1846413840319N11203244WA0200202002
B1846423840323N11203248WA0200202002
B1846433840327N11203252WA0200102001
B1846443840331N11203255WA0200102001
B1846453840334N11203259WA0200002000
B1846463840337N11203262WA0200002000
B1846473840339N11203265WA0200102001
B1846483840339N11203270WA0200102001
B1846493840338N11203274WA0200002000
B1846503840336N11203278WA0200002000
B1846513840335N11203282WA0200002000
B1846523840334N11203285WA0200002000
B1846533840332N11203287WA0200002000
B1846543840330N11203288WA0200002000
B1846553840327N11203287WA0200002000
B1846563840322N11203278WA0200102001
B1846573840319N11203269WA0200202002
B1846583840320N11203259WA0200202002
B1846593840323N11203249WA0200302003
B1847003840330N11203243WA0200302003
B1847013840337N11203241WA0200402004
B1847023840344N11203241WA0200302003
B1847033840350N11203244WA0200502005
B1847043840353N11203246WA0200602006
B1847053840355N11203248WA0200802008
B1847063840356N11203250WA0200802008
B1847073840356N11203253WA0200902009
B1847083840355N11203256WA0200702007
B1847093840352N11203257WA0200502005
B1847103840347N11203256WA0200502005
B1847113840342N11203251WA0200702007
B1847123840340N11203244WA0200802008
B1847133840340N11203236WA0201002010
B1847143840343N11203229WA0201002010
B1847153840348N11203221WA0200902009
B1847163840355N11203216WA0200802008
B1847173840361N11203213WA0200902009
B1847183840366N11203213WA0201002010
B1847193840370N11203215WA0201102011
B1847203840373N11203217WA0201202012
B1847213840375N11203218WA0201302013
B1847223840377N11203219WA0201202012
B1847233840378N11203222WA0201202012
B1847243840379N11203225WA0201002010
B1847253840379N11203228WA0200802008
B1847263840377N11203232WA0200602006
B1847273840375N11203234WA0200702007
B1847283840373N11203236WA0200702007
B1847293840372N11203238WA0200802008
B1847303840372N11203241WA0200802008
B1847313840372N11203244WA0200602006
B1847323840374N11203248WA0200602006
B1847333840376N11203252WA0200602006
B1847343840380N11203254WA0200502005
B1847353840383N11203257WA0200502005
B1847363840387N11203259WA0200402004
B1847373840390N11203261WA0200302003
B1847383840394N11203263WA0200102001
B1847393840398N11203266WA0199901999
B1847403840403N11203268WA0199701997
B1847413840407N11203270WA0199601996
B1847423840411N11203272WA0199601996
B1847433840413N11203273WA0199601996
B1847443840416N11203273WA0199601996
B1847453840420N11203273WA0199401994
B1847463840422N11203273WA0199301993
B1847473840425N11203274WA0199101991
B1847483840426N11203277WA0199001990
B1847493840427N11203280WA0198801988
B1847503840429N11203283WA0198801988
B1847513840430N11203285WA0198801988
B1847523840432N11203287WA0198801988
B1847533840434N11203288WA0198801988
B1847543840437N11203289WA0198801988
B1847553840439N11203289WA0198801988
B1847563840442N11203289WA0198801988
B1847573840444N11203289WA0198701987
B1847583840447N11203290WA0198601986
B1847593840451N11203291WA0198501985
B1848003840454N11203291WA0198501985
B1848013840456N11203291WA0198401984
B1848023840459N11203292WA0198301983
B1848033840461N11203292WA0198201982
B1848043840463N11203294WA0197901979
B1848053840464N11203296WA0197701977
B1848063840464N11203300WA0197401974
B1848073840463N11203304WA0197101971
B1848083840462N11203308WA0197201972
B1848093840460N11203310WA0197201972
B1848103840460N11203313WA0197401974
B1848113840460N11203314WA0197501975
B1848123840459N11203315WA0197401974
B1848133840458N11203317WA0197201972
B1848143840457N11203320WA0197001970
B1848153840456N11203323WA0196901969
B1848163840456N11203325WA0196801968
B1848173840456N11203327WA0196901969
B1848183840457N11203328WA0196801968
B1848193840458N11203329WA0196701967
B1848203840459N11203332WA0196401964
B1848213840459N11203334WA0196001960
B1848223840458N11203337WA0195701957
B1848233840456N11203339WA0195401954
B1848243840454N11203341WA0195101951
B1848253840452N11203343WA0194801948
B1848263840449N11203345WA0194501945
B1848273840447N11203347WA0194301943
B1848283840444N11203350WA0194001940
B1848293840442N11203353WA0193901939
B1848303840439N11203356WA0193801938
B1848313840437N11203359WA0193701937
B1848323840436N11203361WA0193701937
B1848333840434N11203362WA0193601936
B1848343840433N11203365WA0193401934
B1848353840433N11203368WA0193101931
B1848363840433N11203371WA0192901929
B1848373840432N11203374WA0192801928
B1848383840432N11203377WA0192701927
B1848393840431N11203379WA0192601926
B1848403840430N11203382WA0192401924
B1848413840430N11203383WA0192301923
B1848423840430N11203384WA0192301923
B1848433840431N11203384WA0192201922
B1848443840432N11203385WA0192201922
B1848453840432N11203385WA0192201922
B1848463840432N11203385WA0192101921
B1848473840433N11203386WA0192101921
B1848483840433N11203386WA0192001920
B1848493840433N11203387WA0192001920
B1848503840433N11203387WA0191901919
B1848513840433N11203387WA0191901919
B1848523840433N11203387WA0191901919
B1848533840433N11203387WA0191801918
B1848543840434N11203387WA0191801918
B1848553840433N11203387WA0191801918
B1848563840433N11203388WA0191801918
B1848573840433N11203388WA0191801918
B1848583840433N11203388WA0191801918
