AXFMSFP Flymaster Live, V1.0
HFFXA010
HFPLTPILOT:Alderik Gastmans
HFGTYGLIDERTYPE:Ozone Enzo 3 / Gin Gr5
HFGIDGLIDERID:
HFDTM100GPSDATUM:WGS-1984
HFCIDCOMPETITIONID:73
HFCCLCOMPETITIONCLASS:
HOSITSITE:LAUNCH
HFGPS:UBLOXNEO6
HFPRSPRESSALTSENSOR:NA
HFRFWFIRMWAREVERSION:202g
HFRHWHARDWAREVERSION:1.0R2
HFFTYFRTYPE:FLYMASTER,LIVE
HFDTE230625
B1931204748237N12002327WA0107601131
B1931214748235N12002328WA0107601131
B1931224748232N12002329WA0107601130
B1931234748229N12002331WA0107601129
B1931244748226N12002332WA0107501128
B1931254748222N12002332WA0107401126
B1931264748218N12002333WA0107401122
B1931274748213N12002334WA0107201121
B1931284748210N12002335WA0107201122
B1931294748207N12002336WA0107101120
B1931304748204N12002337WA0107101120
B1931314748200N12002337WA0106901119
B1931324748196N12002336WA0106901116
B1931334748191N12002334WA0106801114
B1931344748185N12002331WA0106701113
B1931354748181N12002328WA0106701114
B1931364748177N12002325WA0106601115
B1931374748175N12002323WA0106601117
B1931384748173N12002321WA0106601118
B1931394748169N12002319WA0106601117
B1931404748165N12002317WA0106601115
B1931414748160N12002315WA0106601114
B1931424748155N12002313WA0106601113
B1931434748151N12002311WA0106501114
B1931444748147N12002310WA0106501114
B1931454748143N12002308WA0106401112
B1931464748138N12002305WA0106401110
B1931474748133N12002301WA0106301106
B1931484748127N12002298WA0106201104
B1931494748122N12002295WA0106101104
B1931504748117N12002293WA0106101105
B1931514748112N12002291WA0106001106
B1931524748108N12002288WA0106001107
B1931534748103N12002285WA0105901108
B1931544748098N12002282WA0105901108
B1931554748093N12002281WA0105801108
B1931564748087N12002279WA0105801108
B1931574748082N12002277WA0105801108
B1931584748077N12002273WA0105801107
B1931594748073N12002269WA0105801106
B1932004748069N12002264WA0105701105
B1932014748066N12002259WA0105701103
B1932024748062N12002254WA0105601100
B1932034748058N12002249WA0105501097
B1932044748053N12002244WA0105401094
B1932054748048N12002240WA0105301092
B1932064748044N12002236WA0105101091
B1932074748039N12002233WA0105001089
B1932084748035N12002229WA0104901087
B1932094748031N12002225WA0104701085
B1932104748026N12002220WA0104501082
B1932114748021N12002216WA0104301079
B1932124748016N12002212WA0104201077
B1932134748011N12002209WA0104001076
B1932144748007N12002204WA0103801074
B1932154748002N12002199WA0103601072
B1932164747998N12002194WA0103501069
B1932174747994N12002188WA0103201066
B1932184747989N12002183WA0103101063
B1932194747984N12002179WA0102801060
B1932204747980N12002174WA0102601059
B1932214747976N12002168WA0102401056
B1932224747973N12002162WA0102201053
B1932234747970N12002155WA0101901050
B1932244747967N12002148WA0101701047
B1932254747963N12002141WA0101501044
B1932264747960N12002135WA0101301042
B1932274747956N12002128WA0101001040
B1932284747953N12002120WA0100801037
B1932294747950N12002113WA0100501035
B1932304747947N12002106WA0100301033
B1932314747945N12002099WA0100001033
B1932324747943N12002092WA0099901031
B1932334747941N12002084WA0099601029
B1932344747939N12002076WA0099501027
B1932354747936N12002068WA0099301025
B1932364747934N12002060WA0099101024
B1932374747933N12002052WA0098901023
B1932384747932N12002046WA0098801022
B1932394747931N12002040WA0098601021
B1932404747928N12002035WA0098401019
B1932414747925N12002029WA0098201014
B1932424747920N12002023WA0098001009
B1932434747915N12002017WA0097801005
B1932444747911N12002011WA0097601003
B1932454747907N12002005WA0097301002
B1932464747904N12001999WA0097101000
B1932474747901N12001993WA0096800999
B1932484747898N12001986WA0096700996
B1932494747895N12001979WA0096400994
B1932504747892N12001973WA0096200993
B1932514747889N12001966WA0096000993
B1932524747886N12001960WA0095900992
B1932534747883N12001953WA0095700990
B1932544747881N12001946WA0095500989
B1932554747880N12001938WA0095300988
B1932564747879N12001931WA0095200986
B1932574747878N12001923WA0095000985
B1932584747877N12001916WA0094900985
B1932594747874N12001910WA0094700984
B1933004747871N12001904WA0094600982
B1933004747871N12001904WA0094600982
B1933014747868N12001898WA0094500980
B1933024747866N12001892WA0094300979
B1933034747864N12001886WA0094100977
B1933044747862N12001879WA0094000975
B1933054747860N12001873WA0093800973
B1933064747857N12001867WA0093700970
B1933074747855N12001861WA0093500966
B1933084747852N12001854WA0093300963
B1933094747849N12001847WA0093100961
B1933104747846N12001840WA0093000959
B1933114747843N12001834WA0092700959
B1933124747840N12001828WA0092600959
B1933134747837N12001823WA0092400959
B1933144747834N12001817WA0092300958
B1933154747832N12001810WA0092100957
B1933164747829N12001803WA0092000955
B1933174747827N12001797WA0091900954
B1933184747824N12001790WA0091700954
B1933194747822N12001785WA0091600955
B1933204747819N12001780WA0091600956
B1933214747816N12001775WA0091500957
B1933224747814N12001771WA0091500957
B1933234747812N12001765WA0091400957
B1933244747809N12001760WA0091400957
B1933254747807N12001755WA0091400957
B1933264747804N12001749WA0091300958
B1933274747802N12001743WA0091300958
B1933284747800N12001736WA0091300958
B1933294747798N12001730WA0091300959
B1933304747796N12001723WA0091300960
B1933314747793N12001718WA0091300960
B1933324747791N12001712WA0091300961
B1933334747788N12001706WA0091400961
B1933344747785N12001699WA0091400960
B1933354747783N12001692WA0091400960
B1933364747780N12001686WA0091400960
B1933374747778N12001680WA0091400960
B1933384747777N12001675WA0091400961
B1933394747776N12001670WA0091400962
B1933404747774N12001664WA0091400961
B1933414747772N12001658WA0091400960
B1933424747771N12001651WA0091400958
B1933434747769N12001644WA0091400956
B1933444747768N12001638WA0091400955
B1933454747766N12001632WA0091300955
B1933464747764N12001627WA0091200954
B1933474747762N12001621WA0091200952
B1933484747761N12001615WA0091100951
B1933494747760N12001609WA0091000949
B1933504747759N12001603WA0091000948
B1933514747758N12001598WA0090900947
B1933524747757N12001592WA0090800945
B1933534747755N12001587WA0090600943
B1933544747753N12001581WA0090500940
B1933554747752N12001574WA0090400938
B1933564747749N12001566WA0090300936
B1933574747747N12001559WA0090100935
B1933584747745N12001552WA0090000934
B1933594747743N12001545WA0089800933
B1934004747741N12001538WA0089700931
B1934014747740N12001531WA0089600929
B1934024747737N12001523WA0089400926
B1934034747735N12001515WA0089200923
B1934044747734N12001508WA0089000921
B1934044747734N12001508WA0089000921
B1934054747733N12001501WA0088800920
B1934064747733N12001495WA0088700920
B1934074747732N12001487WA0088500920
B1934084747732N12001480WA0088400919
B1934094747731N12001474WA0088300919
B1934104747729N12001468WA0088200919
B1934114747727N12001463WA0088100919
B1934124747725N12001456WA0088000918
B1934134747723N12001449WA0087900916
B1934144747722N12001442WA0087800915
B1934154747721N12001435WA0087700914
B1934164747721N12001429WA0087600914
B1934174747720N12001422WA0087500914
B1934184747720N12001415WA0087500913
B1934194747719N12001407WA0087400912
B1934204747718N12001400WA0087300912
B1934214747718N12001394WA0087300913
B1934224747717N12001389WA0087200913
B1934234747716N12001383WA0087200913
B1934244747716N12001376WA0087100911
B1934254747716N12001368WA0087000909
B1934264747716N12001360WA0087000907
B1934274747716N12001353WA0086900906
B1934284747717N12001346WA0086800905
B1934294747717N12001340WA0086700904
B1934304747716N12001333WA0086600902
B1934314747716N12001326WA0086400899
B1934324747715N12001318WA0086300895
B1934334747716N12001309WA0086100891
B1934344747716N12001300WA0086000888
B1934354747716N12001291WA0085800886
B1934364747717N12001283WA0085600884
B1934374747717N12001275WA0085400884
B1934384747717N12001267WA0085200884
B1934394747716N12001261WA0085100883
B1934404747716N12001254WA0084900881
B1934414747716N12001246WA0084800879
B1934424747716N12001237WA0084700876
B1934434747716N12001228WA0084400874
B1934444747717N12001220WA0084300873
B1934454747718N12001212WA0084100873
B1934464747718N12001205WA0084000873
B1934474747719N12001198WA0083800872
B1934484747719N12001190WA0083700870
B1934494747719N12001182WA0083600868
B1934504747720N12001174WA0083400866
B1934514747721N12001167WA0083300865
B1934524747721N12001160WA0083200864
B1934534747721N12001152WA0083000863
B1934544747720N12001145WA0082900861
B1934554747720N12001138WA0082700859
B1934564747720N12001131WA0082600857
B1934574747720N12001124WA0082400855
B1934584747721N12001116WA0082300853
B1934594747720N12001107WA0082100850
B1935004747720N12001097WA0082000849
B1935014747719N12001088WA0081800850
B1935024747718N12001080WA0081700852
B1935034747717N12001073WA0081600855
B1935044747716N12001067WA0081600858
B1935054747715N12001061WA0081600860
B1935064747714N12001055WA0081600862
B1935074747713N12001048WA0081700863
B1935074747713N12001048WA0081700863
B1935084747711N12001041WA0081700864
B1935094747710N12001034WA0081800863
B1935104747709N12001026WA0081800864
B1935114747709N12001019WA0081900865
B1935124747709N12001014WA0081900867
B1935134747709N12001009WA0082000867
B1935144747709N12001003WA0082000867
B1935154747709N12000996WA0082000864
B1935164747708N12000988WA0082000862
B1935174747708N12000979WA0082000860
B1935184747709N12000971WA0082000860
B1935194747709N12000965WA0082000860
B1935204747708N12000960WA0081900861
B1935214747708N12000955WA0081900860
B1935224747707N12000949WA0081900858
B1935234747706N12000942WA0081800855
B1935244747706N12000935WA0081700851
B1935254747706N12000926WA0081600849
B1935264747706N12000919WA0081500847
B1935274747706N12000912WA0081300846
B1935284747706N12000905WA0081200845
B1935294747706N12000898WA0081100844
B1935304747706N12000890WA0081000841
B1935314747707N12000881WA0080800839
B1935324747706N12000872WA0080700837
B1935334747706N12000863WA0080500838
B1935344747706N12000854WA0080400839
B1935354747706N12000846WA0080300842
B1935364747706N12000839WA0080300845
B1935374747707N12000832WA0080400849
B1935384747707N12000824WA0080400852
B1935394747707N12000816WA0080500855
B1935404747707N12000807WA0080600857
B1935414747707N12000799WA0080700860
B1935424747706N12000792WA0080800864
B1935434747706N12000785WA0081000868
B1935444747707N12000779WA0081200871
B1935454747707N12000772WA0081400873
B1935464747706N12000765WA0081600875
B1935474747705N12000757WA0081800877
B1935484747704N12000752WA0082000881
B1935494747703N12000747WA0082200884
B1935504747703N12000743WA0082400886
B1935514747702N12000739WA0082700887
B1935524747702N12000734WA0082800887
B1935534747702N12000728WA0083000885
B1935544747701N12000720WA0083100883
B1935554747701N12000713WA0083200881
B1935564747700N12000705WA0083300881
B1935574747700N12000698WA0083300882
B1935584747700N12000692WA0083400883
B1935594747701N12000686WA0083500884
B1936004747701N12000681WA0083500884
B1936014747700N12000674WA0083600883
B1936024747699N12000667WA0083600881
B1936034747698N12000657WA0083600879
B1936044747698N12000647WA0083600878
B1936054747698N12000639WA0083500877
B1936064747699N12000632WA0083500879
B1936074747699N12000625WA0083500878
B1936084747700N12000618WA0083500878
B1936094747699N12000611WA0083500876
B1936104747699N12000604WA0083400874
B1936114747699N12000597WA0083400872
B1936114747699N12000597WA0083400872
B1936124747699N12000589WA0083300871
B1936134747698N12000582WA0083200870
B1936144747698N12000575WA0083100868
B1936154747698N12000568WA0083100867
B1936164747698N12000561WA0083000867
B1936174747698N12000556WA0082900867
B1936184747698N12000550WA0082800866
B1936194747697N12000544WA0082700864
B1936204747697N12000537WA0082600860
B1936214747696N12000529WA0082500857
B1936224747697N12000521WA0082400855
B1936234747697N12000513WA0082200852
B1936244747698N12000505WA0082000849
B1936254747699N12000497WA0081800847
B1936264747700N12000489WA0081700846
B1936274747701N12000482WA0081500844
B1936284747702N12000474WA0081300843
B1936294747703N12000467WA0081200842
B1936304747704N12000459WA0081000840
B1936314747704N12000452WA0080800838
B1936324747705N12000445WA0080700837
B1936334747706N12000438WA0080600836
B1936344747707N12000430WA0080400834
B1936354747708N12000423WA0080200832
B1936364747709N12000415WA0080100829
B1936374747710N12000407WA0079900826
B1936384747711N12000398WA0079700824
B1936394747712N12000390WA0079500821
B1936404747713N12000382WA0079400819
B1936414747714N12000374WA0079100817
B1936424747715N12000366WA0079000815
B1936434747716N12000358WA0078700813
B1936444747717N12000349WA0078600811
B1936454747719N12000341WA0078300809
B1936464747721N12000333WA0078200807
B1936474747723N12000325WA0078000807
B1936484747724N12000318WA0077800806
B1936494747726N12000311WA0077600805
B1936504747727N12000303WA0077500804
B1936514747729N12000295WA0077300802
B1936524747730N12000286WA0077200801
B1936534747732N12000278WA0077100801
B1936544747733N12000271WA0077000803
B1936554747734N12000265WA0076900804
B1936564747734N12000259WA0076800804
B1936574747735N12000251WA0076800803
B1936584747735N12000243WA0076700800
B1936594747736N12000234WA0076600797
B1937004747737N12000224WA0076500794
B1937014747738N12000216WA0076300792
B1937024747740N12000209WA0076200792
B1937034747741N12000203WA0076100792
B1937044747742N12000197WA0076000791
B1937054747742N12000190WA0075800788
B1937064747743N12000182WA0075700785
B1937074747744N12000173WA0075500782
B1937084747745N12000165WA0075400780
B1937094747746N12000158WA0075200779
B1937104747747N12000152WA0075100778
B1937114747748N12000145WA0074900776
B1937124747750N12000138WA0074700773
B1937134747751N12000129WA0074500770
B1937144747753N12000121WA0074400767
B1937154747755N12000112WA0074100765
B1937154747755N12000112WA0074100765
B1937164747757N12000105WA0074000763
B1937174747759N12000099WA0073700762
B1937184747761N12000092WA0073600761
B1937194747764N12000085WA0073400759
B1937204747766N12000077WA0073200756
B1937214747768N12000070WA0073000754
B1937224747771N12000062WA0072800752
B1937234747773N12000055WA0072600751
B1937244747775N12000049WA0072500749
B1937254747777N12000042WA0072300748
B1937264747779N12000034WA0072100746
B1937274747781N12000026WA0071900744
B1937284747783N12000018WA0071700742
B1937294747785N12000011WA0071500741
B1937304747787N12000004WA0071400740
B1937314747789N11959997WA0071200739
B1937324747790N11959990WA0071100737
B1937334747792N11959983WA0070900735
B1937344747793N11959974WA0070800733
B1937354747795N11959967WA0070600731
B1937364747797N11959959WA0070400729
B1937374747799N11959952WA0070300728
B1937384747800N11959945WA0070100727
B1937394747802N11959939WA0069900725
B1937404747804N11959931WA0069800723
B1937414747806N11959924WA0069600720
B1937424747808N11959917WA0069500718
B1937434747811N11959910WA0069200717
B1937444747814N11959904WA0069100716
B1937454747816N11959898WA0068900715
B1937464747818N11959891WA0068800713
B1937474747819N11959884WA0068600712
B1937484747820N11959877WA0068500710
B1937494747820N11959869WA0068300708
B1937504747820N11959862WA0068200706
B1937514747821N11959854WA0068000705
B1937524747822N11959848WA0067800704
B1937534747824N11959841WA0067700703
B1937544747825N11959834WA0067500702
B1937554747827N11959828WA0067400700
B1937564747828N11959821WA0067200698
B1937574747830N11959814WA0067100697
B1937584747832N11959807WA0067000696
B1937594747834N11959801WA0066800695
B1938004747836N11959795WA0066700694
B1938014747839N11959789WA0066500692
B1938024747841N11959783WA0066400690
B1938034747844N11959776WA0066200689
B1938044747846N11959770WA0066100687
B1938054747849N11959763WA0066000686
B1938064747851N11959757WA0065900685
B1938074747853N11959750WA0065700684
B1938084747856N11959744WA0065600683
B1938094747858N11959738WA0065500682
B1938104747861N11959731WA0065400681
B1938114747863N11959725WA0065300680
B1938124747865N11959718WA0065200679
B1938134747867N11959712WA0065000679
B1938144747870N11959706WA0064900678
B1938154747872N11959700WA0064800677
B1938164747875N11959694WA0064800677
B1938174747878N11959688WA0064600676
B1938184747881N11959682WA0064600675
B1938194747883N11959676WA0064500674
B1938194747883N11959676WA0064500674
B1938204747884N11959670WA0064400672
B1938214747886N11959663WA0064300670
B1938224747887N11959656WA0064200669
B1938234747888N11959648WA0064000667
B1938244747888N11959641WA0063900665
B1938254747889N11959634WA0063800664
B1938264747891N11959627WA0063700663
B1938274747893N11959620WA0063500662
B1938284747895N11959613WA0063400660
B1938294747897N11959607WA0063200659
B1938304747899N11959600WA0063100657
B1938314747901N11959593WA0063000655
B1938324747903N11959585WA0062900652
B1938334747906N11959576WA0062700650
B1938344747909N11959567WA0062500648
B1938354747911N11959559WA0062400648
B1938364747913N11959551WA0062300649
B1938374747915N11959545WA0062100650
B1938384747917N11959538WA0062100650
B1938394747918N11959530WA0062000649
B1938404747920N11959522WA0061900647
B1938414747921N11959512WA0061700645
B1938424747923N11959503WA0061700644
B1938434747924N11959495WA0061600645
B1938444747925N11959488WA0061500645
B1938454747926N11959480WA0061400645
B1938464747927N11959471WA0061400644
B1938474747928N11959462WA0061300642
B1938484747930N11959453WA0061200641
B1938494747932N11959444WA0061100641
B1938504747933N11959436WA0061100641
B1938514747935N11959429WA0061000641
B1938524747937N11959422WA0061000640
B1938534747940N11959415WA0060900638
B1938544747942N11959406WA0060800636
B1938554747943N11959398WA0060700634
B1938564747944N11959389WA0060600633
B1938574747945N11959380WA0060500632
B1938584747946N11959372WA0060400632
B1938594747947N11959365WA0060300632
B1939004747948N11959358WA0060200631
B1939014747950N11959351WA0060100630
B1939024747951N11959343WA0060000628
B1939034747951N11959335WA0059900627
B1939044747950N11959327WA0059900626
B1939054747950N11959320WA0059800625
B1939064747948N11959313WA0059700624
B1939074747947N11959306WA0059500623
B1939084747946N11959298WA0059500622
B1939094747946N11959291WA0059400621
B1939104747945N11959285WA0059300622
B1939114747945N11959280WA0059200622
B1939124747945N11959274WA0059100620
B1939134747945N11959267WA0059000618
B1939144747945N11959260WA0058900614
B1939154747945N11959251WA0058800611
B1939164747945N11959242WA0058600608
B1939174747945N11959234WA0058400607
B1939184747945N11959227WA0058300606
B1939194747945N11959220WA0058100604
B1939204747945N11959213WA0057900602
B1939214747945N11959205WA0057800600
B1939224747945N11959198WA0057700597
B1939234747945N11959190WA0057400595
B1939234747945N11959190WA0057400595
B1939244747944N11959182WA0057300593
B1939254747943N11959175WA0057000592
B1939264747943N11959168WA0056900591
B1939274747942N11959161WA0056700589
B1939284747941N11959153WA0056600587
B1939294747940N11959145WA0056400585
B1939304747939N11959138WA0056200584
B1939314747938N11959131WA0056000583
B1939324747936N11959126WA0055900583
B1939334747933N11959121WA0055800581
B1939344747930N11959116WA0055600579
B1939354747927N11959111WA0055400576
B1939364747923N11959106WA0055300573
B1939374747919N11959102WA0055000571
B1939384747914N11959098WA0054900569
B1939394747910N11959096WA0054700568
B1939404747906N11959095WA0054600566
B1939414747901N11959095WA0054400564
B1939424747896N11959096WA0054200562
B1939434747891N11959098WA0054000559
B1939444747887N11959102WA0053900557
B1939454747882N11959107WA0053600555
B1939464747879N11959113WA0053500553
B1939474747876N11959121WA0053200552
B1939484747875N11959129WA0053100550
B1939494747876N11959138WA0052900547
B1939504747878N11959147WA0052700545
B1939514747882N11959155WA0052500544
B1939524747887N11959160WA0052300543
B1939534747892N11959161WA0052100543
B1939544747897N11959160WA0052000542
B1939554747902N11959157WA0051900541
B1939564747906N11959152WA0051800540
B1939574747909N11959146WA0051600539
B1939584747911N11959139WA0051500538
B1939594747911N11959132WA0051400537
B1940004747909N11959125WA0051300535
B1940014747906N11959118WA0051100533
B1940024747904N11959111WA0051000531
B1940034747902N11959104WA0050800529
B1940044747901N11959096WA0050700526
B1940054747899N11959088WA0050500524
B1940064747898N11959081WA0050300523
B1940074747896N11959075WA0050200522
B1940084747893N11959070WA0050100521
B1940094747889N11959065WA0049900519
B1940104747886N11959060WA0049800517
B1940114747882N11959054WA0049600514
B1940124747878N11959049WA0049400512
B1940134747874N11959045WA0049200511
B1940144747870N11959042WA0049100511
B1940154747865N11959041WA0048900509
B1940164747859N11959040WA0048800507
B1940174747854N11959039WA0048600505
B1940184747848N11959038WA0048500503
B1940194747843N11959036WA0048300502
B1940204747839N11959037WA0048200502
B1940214747835N11959040WA0048000501
B1940224747831N11959046WA0047900498
B1940234747828N11959054WA0047700495
B1940244747827N11959063WA0047500493
B1940254747828N11959071WA0047300491
B1940264747832N11959077WA0047200489
B1940274747838N11959081WA0047000486
B1940274747838N11959081WA0047000486
B1940284747844N11959080WA0046800483
B1940294747849N11959077WA0046600481
B1940304747853N11959070WA0046400480
B1940314747854N11959063WA0046200478
B1940324747854N11959055WA0046000476
B1940334747851N11959049WA0045800473
B1940344747847N11959043WA0045600471
B1940354747841N11959041WA0045400468
B1940364747836N11959041WA0045200466
B1940374747831N11959045WA0045000465
B1940384747827N11959052WA0044800463
B1940394747825N11959059WA0044600461
B1940404747825N11959068WA0044500459
B1940414747826N11959075WA0044200458
B1940424747828N11959083WA0044100456
B1940434747831N11959090WA0043900454
B1940444747832N11959099WA0043700452
B1940454747834N11959107WA0043500451
B1940464747835N11959115WA0043400450
B1940474747837N11959123WA0043200449
B1940484747840N11959130WA0043100447
B1940494747843N11959136WA0042900446
B1940504747847N11959142WA0042800445
B1940514747851N11959146WA0042600443
B1940524747855N11959150WA0042500442
B1940534747860N11959151WA0042300440
B1940544747865N11959152WA0042100438
B1940554747871N11959153WA0041900436
B1940564747876N11959155WA0041800435
B1940574747880N11959156WA0041600434
B1940584747885N11959155WA0041500434
B1940594747889N11959154WA0041400433
B1941004747893N11959150WA0041300431
B1941014747897N11959145WA0041100429
B1941024747900N11959139WA0041000429
B1941034747901N11959133WA0040800428
B1941044747902N11959126WA0040700426
B1941054747901N11959119WA0040600425
B1941064747900N11959111WA0040500423
B1941074747898N11959104WA0040400421
B1941084747894N11959098WA0040200419
B1941094747890N11959095WA0040000418
B1941104747885N11959092WA0039900416
B1941114747880N11959090WA0039700414
B1941124747875N11959086WA0039600413
B1941134747870N11959083WA0039500411
B1941144747865N11959080WA0039300409
B1941154747860N11959078WA0039100408
B1941164747854N11959079WA0039000406
B1941174747849N11959083WA0038800404
B1941184747845N11959090WA0038700401
B1941194747842N11959097WA0038500400
B1941204747840N11959105WA0038300398
B1941214747839N11959113WA0038100397
B1941224747838N11959120WA0038000396
B1941234747838N11959127WA0037900395
B1941244747838N11959135WA0037800393
B1941254747839N11959143WA0037600391
B1941264747841N11959150WA0037500389
B1941274747844N11959157WA0037300388
B1941284747847N11959161WA0037200387
B1941294747852N11959164WA0037000385
B1941304747856N11959164WA0036900383
B1941304747856N11959164WA0036900383
B1941314747861N11959160WA0036700381
B1941324747865N11959154WA0036600379
B1941334747867N11959146WA0036400377
B1941344747867N11959138WA0036300377
B1941354747866N11959131WA0036100376
B1941364747863N11959124WA0036000376
B1941374747860N11959118WA0035800375
B1941384747856N11959112WA0035700373
B1941394747853N11959106WA0035600372
B1941404747850N11959099WA0035400370
B1941414747850N11959091WA0035300369
B1941424747850N11959083WA0035200367
B1941434747851N11959076WA0035000365
B1941444747853N11959069WA0034900364
B1941454747854N11959062WA0034700363
B1941464747856N11959056WA0034600362
B1941474747859N11959049WA0034400360
B1941484747862N11959043WA0034300358
B1941494747866N11959036WA0034100356
B1941504747871N11959030WA0034000354
B1941514747875N11959025WA0033800353
B1941524747879N11959020WA0033700352
B1941534747883N11959016WA0033600351
B1941544747887N11959011WA0033500350
B1941554747891N11959007WA0033300348
B1941564747896N11959003WA0033200347
B1941574747900N11958998WA0033000345
B1941584747905N11958994WA0032900344
B1941594747909N11958990WA0032700343
B1942004747913N11958985WA0032600342
B1942014747917N11958980WA0032500341
B1942024747920N11958974WA0032300339
B1942034747924N11958968WA0032200338
B1942044747927N11958962WA0032100336
B1942054747932N11958957WA0031900336
B1942064747936N11958954WA0031900335
B1942074747941N11958951WA0031700335
B1942084747946N11958947WA0031600334
B1942094747950N11958944WA0031500332
B1942104747955N11958940WA0031400331
B1942114747960N11958937WA0031300330
B1942124747965N11958935WA0031200329
B1942134747970N11958933WA0031100329
B1942144747974N11958931WA0031000328
B1942154747979N11958930WA0030800327
B1942164747984N11958929WA0030800325
B1942174747989N11958928WA0030600324
B1942184747994N11958928WA0030500322
B1942194747999N11958928WA0030400321
B1942204748004N11958928WA0030300321
B1942214748009N11958927WA0030200320
B1942224748014N11958928WA0030100318
B1942234748019N11958929WA0030000317
B1942244748024N11958932WA0029900316
B1942254748028N11958935WA0029800314
B1942264748031N11958939WA0029700313
B1942274748034N11958944WA0029500312
B1942284748037N11958948WA0029400311
B1942294748040N11958953WA0029300309
B1942304748043N11958959WA0029200307
B1942314748046N11958965WA0029000306
B1942324748049N11958971WA0028900305
B1942334748052N11958978WA0028800304
B1942344748055N11958984WA0028700304
B1942344748055N11958984WA0028700304
B1942354748058N11958989WA0028600305
B1942364748061N11958995WA0028500305
B1942374748063N11959001WA0028400305
B1942384748067N11959008WA0028300304
B1942394748069N11959015WA0028300304
B1942404748071N11959022WA0028200304
B1942414748070N11959030WA0028200304
B1942424748067N11959037WA0028100303
B1942434748061N11959041WA0028100301
B1942444748054N11959040WA0028000299
B1942454748049N11959034WA0027900298
B1942464748047N11959025WA0027900297
B1942474748049N11959015WA0027800296
B1942484748051N11959008WA0027700297
B1942494748053N11959002WA0027600299
B1942504748052N11958996WA0027600301
B1942514748050N11958989WA0027600301
B1942524748048N11958982WA0027600300
B1942534748047N11958974WA0027500299
B1942544748046N11958967WA0027500299
B1942554748043N11958961WA0027400299
B1942564748040N11958956WA0027400299
B1942574748035N11958953WA0027300297
B1942584748029N11958954WA0027300295
B1942594748024N11958961WA0027200292
B1943004748022N11958970WA0027100290
B1943014748024N11958980WA0027000288
B1943024748029N11958986WA0026900287
B1943034748035N11958989WA0026800286
B1943044748040N11958991WA0026800287
B1943054748044N11958995WA0026600288
B1943064748047N11959001WA0026600288
B1943074748050N11959008WA0026500287
B1943084748053N11959014WA0026400286
B1943094748056N11959020WA0026300286
B1943104748058N11959026WA0026300287
B1943114748058N11959032WA0026300287
B1943124748056N11959039WA0026200287
B1943134748052N11959045WA0026200285
B1943144748046N11959046WA0026100282
B1943154748041N11959042WA0026000280
B1943164748038N11959033WA0026000277
B1943174748039N11959023WA0025800275
B1943184748041N11959015WA0025700277
B1943194748040N11959009WA0025700279
B1943204748038N11959004WA0025600280
B1943214748036N11958999WA0025500279
B1943224748033N11958992WA0025500277
B1943234748032N11958985WA0025400276
B1943244748030N11958978WA0025400275
B1943254748027N11958972WA0025300275
B1943264748024N11958967WA0025200274
B1943274748021N11958962WA0025200274
B1943284748018N11958957WA0025100273
B1943294748014N11958953WA0025000273
B1943304748010N11958950WA0025000271
B1943314748005N11958950WA0024900269
B1943324748000N11958953WA0024800266
B1943334747997N11958960WA0024700263
B1943344747996N11958970WA0024600260
B1943354747999N11958978WA0024400258
B1943364748003N11958983WA0024300257
B1943374748007N11958985WA0024200257
B1943384748010N11958988WA0024100257
B1943384748010N11958988WA0024100257
B1943394748013N11958993WA0023900256
B1943404748015N11958999WA0023800254
B1943414748018N11959007WA0023700252
B1943424748019N11959015WA0023500251
B1943434748020N11959021WA0023400251
B1943444748018N11959027WA0023300250
B1943454748015N11959032WA0023200248
B1943464748009N11959034WA0023100244
B1943474748003N11959033WA0022900241
B1943484747999N11959028WA0022700239
B1943494747994N11959025WA0022600241
B1943504747990N11959025WA0022400242
B1943514747985N11959028WA0022300239
B1943524747981N11959033WA0022200237
B1943534747978N11959041WA0022000235
B1943544747976N11959048WA0021900234
B1943554747974N11959054WA0021800235
B1943564747971N11959059WA0021700235
B1943574747967N11959063WA0021600234
B1943584747963N11959067WA0021500233
B1943594747958N11959070WA0021400232
B1944004747954N11959074WA0021400231
B1944014747950N11959078WA0021300231
B1944024747946N11959081WA0021200229
B1944034747942N11959085WA0021100228
B1944044747937N11959089WA0021000226
B1944054747933N11959094WA0020900224
B1944064747929N11959098WA0020800223
B1944074747925N11959102WA0020700223
B1944084747922N11959105WA0020600222
B1944094747919N11959107WA0020500221
B1944104747917N11959109WA0020400221
B1944114747916N11959111WA0020300220
B1944124747916N11959112WA0020300220
B1944134747915N11959113WA0020200219
B1944144747915N11959113WA0020100219
B1944154747915N11959113WA0020100220
B1944164747916N11959114WA0020100220
B1944174747916N11959114WA0020000220
B1944184747916N11959114WA0020000220
B1944194747916N11959114WA0020000219
B1944204747916N11959114WA0020000219
B1944214747916N11959114WA0019900219
B1944224747916N11959114WA0019900220
B1944234747916N11959114WA0019900219
B1944244747916N11959113WA0019900219
B1944254747916N11959113WA0019900219
B1944264747916N11959113WA0019900219
B1944274747916N11959113WA0019800219
B1944284747916N11959114WA0019800219
B1944294747916N11959114WA0019800219
B1944304747916N11959114WA0019800218
B1944314747916N11959114WA0019800218
B1944324747916N11959114WA0019800218
B1944334747916N11959115WA0019800219
B1944344747917N11959115WA0019800219
B1944354747918N11959115WA0019800219
B1944364747918N11959116WA0019800219
B1944374747919N11959117WA0019800220
B1944384747919N11959118WA0019800220
B1944394747919N11959118WA0019800220
B1944404747919N11959119WA0019800220
B1944414747918N11959119WA0019800221
B1944424747918N11959120WA0019800221
B1944424747918N11959120WA0019800221
B1944434747918N11959120WA0019800221
B1944444747918N11959120WA0019800221
B1944454747918N11959121WA0019800222
B1944464747918N11959121WA0019800222
B1944474747918N11959121WA0019800221
B1944484747917N11959122WA0019800222
B1944494747917N11959121WA0019800221
B1944504747917N11959122WA0019800221
B1944514747917N11959122WA0019800221
B1944524747917N11959122WA0019800221
B1944534747917N11959122WA0019800220
B1944544747917N11959123WA0019800220
B1944554747917N11959122WA0019800220
B1944564747917N11959122WA0019800219
B1944574747917N11959122WA0019800219
B1944584747917N11959122WA0019800219
B1944594747917N11959122WA0019800219
B1945004747918N11959122WA0019800219
B1945014747918N11959122WA0019800219
B1945024747918N11959121WA0019800219
B1945034747918N11959121WA0019800219
B1945044747917N11959121WA0019800219
B1945054747917N11959121WA0019800219
B1945064747917N11959121WA0019800219
B1945074747917N11959121WA0019800218
B1945084747917N11959122WA0019800217
B1945094747916N11959122WA0019800217
B1945104747916N11959122WA0019800217
B1945114747916N11959122WA0019800217
B1945124747916N11959122WA0019800217
B1945134747916N11959122WA0019800217
B1945144747916N11959122WA0019800216
B1945154747916N11959122WA0019800216
B1945164747916N11959122WA0019800216
B1945174747916N11959122WA0019800217
B1945184747916N11959122WA0019800216
B1945194747916N11959122WA0019800216
B1945204747916N11959122WA0019800216
B1945214747916N11959122WA0019800216
B1945224747916N11959123WA0019800216
B1945234747916N11959123WA0019800216
B1945244747916N11959124WA0019800216
B1945254747917N11959125WA0019800216
B1945264747917N11959127WA0019800217
B1945274747916N11959128WA0019800217
B1945284747916N11959128WA0019800218
B1945294747916N11959129WA0019800216
B1945304747916N11959130WA0019800215
B1945314747916N11959131WA0019800215
B1945324747917N11959131WA0019800216
B1945334747917N11959132WA0019800216
B1945344747918N11959133WA0019900217
B1945354747918N11959134WA0019900217
B1945364747918N11959135WA0019800217
B1945374747918N11959135WA0019800217
B1945384747919N11959136WA0019900216
B1945394747919N11959136WA0019900216
B1945404747919N11959137WA0019900216
B1945414747919N11959138WA0020000216
B1945424747919N11959139WA0020000216
B1945434747919N11959139WA0020000216
B1945444747918N11959140WA0020000216
B1945454747918N11959141WA0020000216
