AXFMSFP Flymaster Live, V1.0
HFFXA010
HFPLTPILOT:Andrey Yakimov
HFGTYGLIDERTYPE:Ozone Zeno 2 / Gr Tbd
HFGIDGLIDERID:
HFDTM100GPSDATUM:WGS-1984
HFCIDCOMPETITIONID:1
HFCCLCOMPETITIONCLASS:
HOSITSITE:LAUNCH
HFGPS:UBLOXNEO6
HFPRSPRESSALTSENSOR:NA
HFRFWFIRMWAREVERSION:202g
HFRHWHARDWAREVERSION:1.0R2
HFFTYFRTYPE:FLYMASTER,LIVE
HFDTE230625
B1848524748238N12002322WA0107201128
B1848534748238N12002322WA0107201128
B1848544748238N12002322WA0107201128
B1848554748238N12002322WA0107201128
B1848564748238N12002322WA0107201128
B1848574748238N12002323WA0107201128
B1848584748238N12002323WA0107201128
B1848594748238N12002323WA0107201128
B1849004748238N12002323WA0107201128
B1849014748238N12002323WA0107201128
B1849024748237N12002323WA0107201128
B1849034748237N12002323WA0107201127
B1849044748236N12002323WA0107201127
B1849054748235N12002323WA0107201127
B1849064748234N12002323WA0107201127
B1849074748233N12002324WA0107201126
B1849084748230N12002324WA0107101125
B1849094748228N12002324WA0107101124
B1849104748225N12002324WA0107001122
B1849114748222N12002324WA0106901120
B1849124748218N12002323WA0106801119
B1849134748214N12002323WA0106801118
B1849144748211N12002324WA0106701118
B1849154748208N12002327WA0106701118
B1849164748205N12002329WA0106601116
B1849174748202N12002332WA0106501113
B1849184748198N12002334WA0106401111
B1849194748194N12002336WA0106301109
B1849204748189N12002337WA0106201108
B1849214748185N12002337WA0106101107
B1849224748182N12002339WA0106001106
B1849234748177N12002341WA0105901106
B1849244748173N12002343WA0105801104
B1849254748167N12002346WA0105701102
B1849264748162N12002350WA0105601102
B1849274748158N12002356WA0105501101
B1849284748155N12002361WA0105401102
B1849294748152N12002366WA0105401103
B1849304748148N12002370WA0105401103
B1849314748144N12002374WA0105301103
B1849324748140N12002377WA0105301102
B1849334748136N12002379WA0105301101
B1849344748131N12002380WA0105201101
B1849354748126N12002379WA0105201102
B1849364748122N12002376WA0105101102
B1849374748119N12002371WA0105101103
B1849384748116N12002366WA0105101103
B1849394748113N12002360WA0105101104
B1849404748111N12002355WA0105201108
B1849414748110N12002350WA0105201110
B1849424748110N12002346WA0105401113
B1849434748110N12002342WA0105501116
B1849444748111N12002338WA0105601118
B1849454748113N12002333WA0105701120
B1849464748116N12002328WA0105901122
B1849474748119N12002323WA0106101125
B1849484748121N12002319WA0106301128
B1849494748122N12002315WA0106401130
B1849504748121N12002311WA0106701131
B1849514748120N12002307WA0106801132
B1849524748118N12002303WA0107001132
B1849534748115N12002301WA0107101135
B1849544748113N12002302WA0107301137
B1849544748113N12002302WA0107301137
B1849554748110N12002306WA0107401139
B1849564748108N12002311WA0107601139
B1849574748106N12002317WA0107601139
B1849584748104N12002325WA0107801140
B1849594748103N12002334WA0107801141
B1850004748102N12002344WA0108001143
B1850014748099N12002353WA0108101146
B1850024748095N12002360WA0108301148
B1850034748092N12002365WA0108501153
B1850044748089N12002369WA0108801157
B1850054748088N12002375WA0109001161
B1850064748086N12002381WA0109301164
B1850074748085N12002387WA0109501166
B1850084748084N12002394WA0109801167
B1850094748083N12002402WA0110001169
B1850104748084N12002411WA0110301170
B1850114748085N12002421WA0110401170
B1850124748087N12002430WA0110601172
B1850134748090N12002438WA0110801174
B1850144748093N12002443WA0111001177
B1850154748097N12002448WA0111101178
B1850164748102N12002452WA0111301179
B1850174748108N12002456WA0111401179
B1850184748114N12002459WA0111601179
B1850194748121N12002462WA0111601179
B1850204748128N12002462WA0111801181
B1850214748134N12002460WA0111901183
B1850224748140N12002456WA0112001185
B1850234748145N12002452WA0112101187
B1850244748147N12002447WA0112301190
B1850254748147N12002441WA0112401191
B1850264748145N12002437WA0112601193
B1850274748142N12002433WA0112701193
B1850284748137N12002432WA0112901195
B1850294748132N12002433WA0113001197
B1850304748128N12002439WA0113201199
B1850314748127N12002447WA0113301202
B1850324748128N12002455WA0113501204
B1850334748132N12002461WA0113601205
B1850344748138N12002466WA0113801206
B1850354748145N12002469WA0113901206
B1850364748152N12002469WA0114101206
B1850374748159N12002465WA0114101206
B1850384748164N12002459WA0114201207
B1850394748168N12002453WA0114301210
B1850404748172N12002450WA0114501213
B1850414748177N12002449WA0114601216
B1850424748183N12002450WA0114801217
B1850434748189N12002450WA0115001218
B1850444748194N12002445WA0115101219
B1850454748197N12002438WA0115201220
B1850464748197N12002430WA0115401221
B1850474748194N12002425WA0115501223
B1850484748189N12002425WA0115701226
B1850494748185N12002430WA0115801229
B1850504748182N12002438WA0116001232
B1850514748181N12002448WA0116201235
B1850524748183N12002458WA0116401236
B1850534748187N12002467WA0116601237
B1850544748192N12002472WA0116801238
B1850554748199N12002474WA0117001239
B1850564748204N12002470WA0117101238
B1850564748204N12002470WA0117101238
B1850574748208N12002464WA0117201239
B1850584748209N12002456WA0117401240
B1850594748210N12002450WA0117501243
B1851004748210N12002446WA0117701249
B1851014748210N12002443WA0117901253
B1851024748210N12002439WA0118101255
B1851034748209N12002435WA0118301256
B1851044748207N12002430WA0118501255
B1851054748205N12002424WA0118601256
B1851064748202N12002419WA0118801259
B1851074748201N12002412WA0119001261
B1851084748201N12002405WA0119201264
B1851094748200N12002397WA0119401266
B1851104748199N12002391WA0119601269
B1851114748198N12002385WA0119801272
B1851124748199N12002379WA0120101274
B1851134748199N12002373WA0120301276
B1851144748199N12002365WA0120501276
B1851154748199N12002358WA0120701277
B1851164748197N12002353WA0120901280
B1851174748193N12002351WA0121101283
B1851184748189N12002351WA0121401283
B1851194748184N12002355WA0121501283
B1851204748179N12002360WA0121701284
B1851214748174N12002366WA0121901286
B1851224748170N12002372WA0122101289
B1851234748167N12002377WA0122301293
B1851244748164N12002382WA0122501296
B1851254748162N12002388WA0122701298
B1851264748160N12002396WA0122901298
B1851274748159N12002405WA0123101297
B1851284748159N12002415WA0123301296
B1851294748159N12002425WA0123401298
B1851304748160N12002434WA0123601301
B1851314748160N12002441WA0123701305
B1851324748160N12002449WA0124001307
B1851334748160N12002458WA0124101307
B1851344748162N12002469WA0124301307
B1851354748164N12002480WA0124401308
B1851364748169N12002490WA0124601311
B1851374748175N12002497WA0124701313
B1851384748181N12002501WA0125001317
B1851394748187N12002501WA0125101320
B1851404748193N12002499WA0125401322
B1851414748199N12002495WA0125601324
B1851424748203N12002489WA0125801325
B1851434748206N12002482WA0126001327
B1851444748208N12002474WA0126201328
B1851454748208N12002466WA0126301331
B1851464748208N12002458WA0126501333
B1851474748207N12002450WA0126701335
B1851484748205N12002444WA0126901338
B1851494748203N12002439WA0127101340
B1851504748199N12002437WA0127301342
B1851514748194N12002438WA0127501343
B1851524748189N12002440WA0127701345
B1851534748185N12002444WA0127801346
B1851544748181N12002449WA0128001348
B1851554748177N12002456WA0128101349
B1851564748174N12002463WA0128301351
B1851574748172N12002471WA0128401354
B1851584748171N12002479WA0128701357
B1851594748171N12002487WA0128801358
B1851594748171N12002487WA0128801358
B1852004748173N12002495WA0129001359
B1852014748175N12002504WA0129101360
B1852024748180N12002513WA0129301361
B1852034748185N12002520WA0129501363
B1852044748192N12002524WA0129701365
B1852054748199N12002525WA0129801367
B1852064748205N12002522WA0130001369
B1852074748209N12002516WA0130201372
B1852084748210N12002510WA0130401374
B1852094748209N12002504WA0130601377
B1852104748206N12002501WA0130901379
B1852114748202N12002501WA0131001381
B1852124748198N12002504WA0131301382
B1852134748194N12002511WA0131401383
B1852144748192N12002521WA0131701384
B1852154748194N12002532WA0131801385
B1852164748198N12002543WA0132001387
B1852174748202N12002551WA0132201390
B1852184748205N12002558WA0132401394
B1852194748208N12002563WA0132601398
B1852204748211N12002569WA0132901400
B1852214748215N12002574WA0133101401
B1852224748222N12002580WA0133301402
B1852234748230N12002585WA0133401402
B1852244748238N12002586WA0133601403
B1852254748246N12002584WA0133701405
B1852264748252N12002580WA0133901407
B1852274748258N12002575WA0134001410
B1852284748264N12002569WA0134201412
B1852294748269N12002563WA0134401414
B1852304748275N12002556WA0134601416
B1852314748279N12002548WA0134701417
B1852324748283N12002539WA0135001419
B1852334748285N12002531WA0135101422
B1852344748286N12002524WA0135401426
B1852354748286N12002518WA0135601429
B1852364748286N12002513WA0136001432
B1852374748284N12002510WA0136201436
B1852384748282N12002507WA0136601438
B1852394748279N12002505WA0136801440
B1852404748274N12002506WA0137101442
B1852414748269N12002513WA0137301444
B1852424748267N12002523WA0137601446
B1852434748268N12002534WA0137801449
B1852444748272N12002543WA0138101452
B1852454748277N12002550WA0138401455
B1852464748284N12002554WA0138601456
B1852474748292N12002554WA0138801456
B1852484748298N12002551WA0139101459
B1852494748303N12002545WA0139301463
B1852504748305N12002538WA0139601467
B1852514748304N12002532WA0139801470
B1852524748301N12002528WA0140101473
B1852534748297N12002526WA0140301476
B1852544748293N12002530WA0140701479
B1852554748290N12002537WA0140901481
B1852564748288N12002546WA0141201484
B1852574748289N12002557WA0141501486
B1852584748292N12002567WA0141801489
B1852594748299N12002574WA0142001492
B1853004748306N12002578WA0142301494
B1853014748314N12002577WA0142501495
B1853024748321N12002572WA0142901497
B1853024748321N12002572WA0142901497
B1853034748324N12002565WA0143101501
B1853044748325N12002558WA0143401506
B1853054748323N12002553WA0143601509
B1853064748320N12002550WA0144001512
B1853074748315N12002550WA0144201514
B1853084748311N12002553WA0144601517
B1853094748309N12002560WA0144801520
B1853104748308N12002569WA0145201523
B1853114748310N12002579WA0145401526
B1853124748314N12002589WA0145801528
B1853134748320N12002595WA0146001531
B1853144748327N12002598WA0146301534
B1853154748335N12002597WA0146501536
B1853164748341N12002593WA0146901539
B1853174748344N12002586WA0147101542
B1853184748344N12002578WA0147401545
B1853194748342N12002572WA0147601548
B1853204748337N12002570WA0148001552
B1853214748333N12002572WA0148201556
B1853224748329N12002577WA0148501560
B1853234748325N12002583WA0148801565
B1853244748324N12002590WA0149201570
B1853254748323N12002598WA0149401575
B1853264748323N12002606WA0149801579
B1853274748324N12002614WA0150101582
B1853284748325N12002623WA0150501585
B1853294748326N12002632WA0150701588
B1853304748328N12002641WA0151101591
B1853314748331N12002650WA0151401595
B1853324748335N12002658WA0151801598
B1853334748340N12002663WA0152001601
B1853344748347N12002667WA0152401604
B1853354748354N12002669WA0152701606
B1853364748361N12002669WA0153001609
B1853374748368N12002668WA0153301613
B1853384748374N12002667WA0153601617
B1853394748381N12002664WA0153901619
B1853404748387N12002659WA0154201622
B1853414748392N12002652WA0154501625
B1853424748396N12002645WA0154801628
B1853434748398N12002639WA0155101632
B1853444748399N12002634WA0155401636
B1853454748398N12002629WA0155701639
B1853464748397N12002624WA0156001641
B1853474748394N12002620WA0156301644
B1853484748391N12002618WA0156601646
B1853494748386N12002618WA0156901649
B1853504748381N12002621WA0157201652
B1853514748378N12002628WA0157501655
B1853524748376N12002637WA0157901660
B1853534748377N12002646WA0158101664
B1853544748381N12002655WA0158501666
B1853554748387N12002662WA0158801669
B1853564748394N12002667WA0159101671
B1853574748402N12002670WA0159401674
B1853584748410N12002670WA0159801678
B1853594748416N12002666WA0160101682
B1854004748420N12002660WA0160501685
B1854014748421N12002652WA0160701687
B1854024748419N12002646WA0161101688
B1854034748415N12002644WA0161301691
B1854044748410N12002647WA0161601695
B1854054748406N12002654WA0161901699
B1854054748406N12002654WA0161901699
B1854064748405N12002664WA0162201702
B1854074748407N12002675WA0162401705
B1854084748410N12002685WA0162801708
B1854094748416N12002693WA0163101712
B1854104748424N12002697WA0163501717
B1854114748432N12002698WA0163701721
B1854124748439N12002695WA0164101724
B1854134748444N12002688WA0164401727
B1854144748446N12002682WA0164801731
B1854154748445N12002676WA0165101735
B1854164748442N12002673WA0165501739
B1854174748438N12002673WA0165801744
B1854184748433N12002676WA0166201748
B1854194748430N12002681WA0166501752
B1854204748428N12002688WA0166901755
B1854214748427N12002696WA0167201760
B1854224748427N12002706WA0167601763
B1854234748429N12002716WA0167901767
B1854244748434N12002725WA0168301770
B1854254748441N12002732WA0168601773
B1854264748449N12002735WA0169001776
B1854274748456N12002734WA0169201779
B1854284748463N12002729WA0169601781
B1854294748468N12002722WA0169801784
B1854304748471N12002715WA0170201787
B1854314748474N12002708WA0170401792
B1854324748476N12002701WA0170901797
B1854334748476N12002696WA0171201802
B1854344748474N12002691WA0171601807
B1854354748470N12002689WA0171901809
B1854364748465N12002689WA0172401813
B1854374748460N12002693WA0172701816
B1854384748458N12002702WA0173101819
B1854394748457N12002712WA0173401822
B1854404748459N12002722WA0173801826
B1854414748462N12002731WA0174101829
B1854424748466N12002739WA0174501832
B1854434748471N12002747WA0174701835
B1854444748478N12002753WA0175101837
B1854454748485N12002756WA0175401841
B1854464748492N12002756WA0175801843
B1854474748498N12002753WA0176101847
B1854484748504N12002748WA0176501851
B1854494748509N12002743WA0176801856
B1854504748513N12002738WA0177201860
B1854514748516N12002732WA0177501863
B1854524748518N12002727WA0177901866
B1854534748519N12002720WA0178201869
B1854544748520N12002712WA0178601872
B1854554748521N12002704WA0178801876
B1854564748520N12002696WA0179301880
B1854574748519N12002690WA0179501884
B1854584748517N12002685WA0179901888
B1854594748514N12002681WA0180201892
B1855004748510N12002678WA0180601895
B1855014748506N12002676WA0180901897
B1855024748501N12002674WA0181301899
B1855034748495N12002675WA0181501902
B1855044748490N12002678WA0181901905
B1855054748486N12002683WA0182101907
B1855064748483N12002690WA0182501910
B1855074748482N12002699WA0182701912
B1855084748483N12002708WA0183001914
B1855084748483N12002708WA0183001914
B1855094748487N12002717WA0183201916
B1855104748492N12002725WA0183501917
B1855114748499N12002731WA0183701917
B1855124748506N12002736WA0183901919
B1855134748513N12002738WA0184101922
B1855144748520N12002739WA0184301926
B1855154748527N12002738WA0184501929
B1855164748533N12002736WA0184901934
B1855174748538N12002732WA0185101939
B1855184748541N12002727WA0185401943
B1855194748543N12002720WA0185701946
B1855204748543N12002713WA0186101949
B1855214748543N12002705WA0186301952
B1855224748540N12002698WA0186701956
B1855234748536N12002694WA0187001960
B1855244748532N12002693WA0187401964
B1855254748528N12002696WA0187701968
B1855264748525N12002702WA0188101970
B1855274748523N12002711WA0188301972
B1855284748525N12002722WA0188701974
B1855294748530N12002732WA0188901976
B1855304748536N12002738WA0189201978
B1855314748543N12002741WA0189501982
B1855324748549N12002742WA0189801986
B1855334748556N12002740WA0190101990
B1855344748561N12002737WA0190501994
B1855354748566N12002732WA0190701997
B1855364748569N12002725WA0191102001
B1855374748571N12002717WA0191402004
B1855384748571N12002709WA0191802008
B1855394748569N12002702WA0192102011
B1855404748565N12002696WA0192502015
B1855414748561N12002694WA0192802019
B1855424748556N12002694WA0193202023
B1855434748552N12002696WA0193502027
B1855444748549N12002701WA0193902030
B1855454748547N12002708WA0194202033
B1855464748547N12002717WA0194602034
B1855474748549N12002726WA0194802036
B1855484748553N12002735WA0195102037
B1855494748559N12002742WA0195402040
B1855504748566N12002746WA0195702044
B1855514748573N12002746WA0195902047
B1855524748580N12002745WA0196302050
B1855534748585N12002741WA0196502054
B1855544748589N12002735WA0196902058
B1855554748592N12002728WA0197102061
B1855564748592N12002719WA0197502064
B1855574748592N12002711WA0197702066
B1855584748589N12002703WA0198102069
B1855594748586N12002697WA0198302072
B1856004748582N12002691WA0198602075
B1856014748578N12002687WA0198902078
B1856024748574N12002683WA0199202080
B1856034748569N12002681WA0199402083
B1856044748564N12002679WA0199802085
B1856054748560N12002677WA0200002087
B1856064748555N12002675WA0200302090
B1856074748551N12002672WA0200502091
B1856084748546N12002670WA0200802093
B1856094748541N12002667WA0201002094
B1856104748535N12002665WA0201202096
B1856114748529N12002664WA0201402098
B1856114748529N12002664WA0201402098
B1856124748524N12002664WA0201702101
B1856134748520N12002664WA0201902106
B1856144748516N12002664WA0202202110
B1856154748513N12002664WA0202402114
B1856164748510N12002663WA0202802116
B1856174748506N12002662WA0203002117
B1856184748501N12002660WA0203202116
B1856194748496N12002658WA0203402115
B1856204748492N12002655WA0203502114
B1856214748487N12002652WA0203602114
B1856224748483N12002650WA0203702113
B1856234748479N12002648WA0203702112
B1856244748474N12002647WA0203802110
B1856254748469N12002646WA0203802108
B1856264748463N12002647WA0203802106
B1856274748457N12002648WA0203702104
B1856284748450N12002649WA0203702103
B1856294748444N12002649WA0203702102
B1856304748438N12002648WA0203602102
B1856314748432N12002645WA0203502101
B1856324748427N12002643WA0203502100
B1856334748421N12002642WA0203402099
B1856344748416N12002641WA0203302097
B1856354748410N12002640WA0203202095
B1856364748404N12002640WA0203102093
B1856374748398N12002639WA0203002091
B1856384748393N12002639WA0202902090
B1856394748387N12002639WA0202802089
B1856404748382N12002639WA0202602089
B1856414748377N12002639WA0202502088
B1856424748372N12002639WA0202402087
B1856434748367N12002639WA0202302085
B1856444748362N12002640WA0202202083
B1856454748356N12002640WA0202002081
B1856464748351N12002641WA0201902080
B1856474748345N12002641WA0201802079
B1856484748340N12002642WA0201602078
B1856494748334N12002643WA0201502077
B1856504748329N12002643WA0201402076
B1856514748324N12002644WA0201302074
B1856524748319N12002645WA0201102073
B1856534748313N12002645WA0201002071
B1856544748308N12002645WA0200902070
B1856554748302N12002645WA0200802068
B1856564748297N12002645WA0200602067
B1856574748292N12002645WA0200502067
B1856584748288N12002645WA0200402067
B1856594748284N12002644WA0200302067
B1857004748280N12002644WA0200202067
B1857014748276N12002644WA0200102066
B1857024748272N12002644WA0200002064
B1857034748268N12002644WA0200002063
B1857044748264N12002644WA0199802061
B1857054748260N12002643WA0199702060
B1857064748256N12002644WA0199602059
B1857074748252N12002643WA0199502058
B1857084748248N12002643WA0199402056
B1857094748244N12002642WA0199302055
B1857104748239N12002641WA0199102054
B1857114748235N12002641WA0199002052
B1857124748230N12002641WA0198902052
B1857134748226N12002641WA0198802050
B1857134748226N12002641WA0198802050
B1857144748222N12002641WA0198702049
B1857154748218N12002640WA0198602048
B1857164748213N12002639WA0198502047
B1857174748209N12002639WA0198402045
B1857184748204N12002641WA0198302044
B1857194748200N12002642WA0198202043
B1857204748195N12002642WA0198102041
B1857214748190N12002641WA0198002039
B1857224748185N12002638WA0197802038
B1857234748181N12002636WA0197702035
B1857244748176N12002633WA0197502034
B1857254748172N12002631WA0197402033
B1857264748167N12002628WA0197202032
B1857274748163N12002626WA0197102030
B1857284748158N12002623WA0197002028
B1857294748154N12002620WA0196902027
B1857304748149N12002617WA0196702025
B1857314748145N12002614WA0196602024
B1857324748141N12002611WA0196402023
B1857334748137N12002607WA0196302022
B1857344748133N12002603WA0196202020
B1857354748128N12002599WA0196102019
B1857364748124N12002595WA0195902018
B1857374748120N12002592WA0195802017
B1857384748116N12002588WA0195702017
B1857394748112N12002585WA0195602016
B1857404748109N12002582WA0195502015
B1857414748105N12002579WA0195402015
B1857424748101N12002578WA0195302014
B1857434748098N12002577WA0195202015
B1857444748095N12002575WA0195102016
B1857454748091N12002573WA0195102017
B1857464748088N12002571WA0195102017
B1857474748084N12002570WA0195102017
B1857484748081N12002569WA0195002015
B1857494748077N12002568WA0194902013
B1857504748073N12002568WA0194802011
B1857514748068N12002568WA0194802009
B1857524748063N12002568WA0194602007
B1857534748059N12002568WA0194502006
B1857544748054N12002568WA0194402005
B1857554748050N12002568WA0194302005
B1857564748046N12002568WA0194202004
B1857574748041N12002567WA0194102002
B1857584748037N12002566WA0194002001
B1857594748032N12002565WA0193901999
B1858004748027N12002564WA0193701998
B1858014748022N12002563WA0193601996
B1858024748018N12002562WA0193501995
B1858034748014N12002561WA0193401994
B1858044748010N12002560WA0193301993
B1858054748006N12002558WA0193201991
B1858064748001N12002557WA0193001990
B1858074747997N12002555WA0193001988
B1858084747992N12002553WA0192801986
B1858094747987N12002551WA0192701984
B1858104747981N12002548WA0192501983
B1858114747976N12002546WA0192401981
B1858124747971N12002544WA0192301980
B1858134747965N12002541WA0192201980
B1858144747961N12002538WA0192001980
B1858154747956N12002535WA0192001980
B1858154747956N12002535WA0192001980
B1858164747951N12002532WA0191901979
B1858174747946N12002530WA0191801978
B1858184747941N12002528WA0191701978
B1858194747935N12002526WA0191601977
B1858204747930N12002524WA0191501976
B1858214747925N12002523WA0191401976
B1858224747920N12002521WA0191301976
B1858234747915N12002520WA0191301975
B1858244747910N12002519WA0191201974
B1858254747905N12002518WA0191101973
B1858264747901N12002518WA0191001972
B1858274747896N12002517WA0191001971
B1858284747891N12002516WA0190901970
B1858294747886N12002515WA0190801969
B1858304747881N12002514WA0190701968
B1858314747877N12002513WA0190601968
B1858324747872N12002512WA0190501967
B1858334747868N12002511WA0190401965
B1858344747863N12002509WA0190301964
B1858354747858N12002508WA0190201961
B1858364747853N12002507WA0190101960
B1858374747847N12002506WA0190001958
B1858384747842N12002505WA0189801956
B1858394747836N12002505WA0189701956
B1858404747831N12002504WA0189601955
B1858414747826N12002503WA0189501955
B1858424747821N12002502WA0189401955
B1858434747816N12002501WA0189301955
B1858444747811N12002500WA0189201954
B1858454747806N12002498WA0189201954
B1858464747801N12002496WA0189101952
B1858474747796N12002493WA0189001951
B1858484747791N12002491WA0188901950
B1858494747785N12002489WA0188801948
B1858504747780N12002488WA0188601946
B1858514747775N12002487WA0188601945
B1858524747769N12002486WA0188401944
B1858534747765N12002486WA0188301943
B1858544747760N12002485WA0188201942
B1858554747754N12002485WA0188101940
B1858564747749N12002485WA0187901939
B1858574747744N12002485WA0187801937
B1858584747738N12002485WA0187701936
B1858594747733N12002484WA0187601935
B1859004747728N12002483WA0187401934
B1859014747722N12002482WA0187301931
B1859024747717N12002480WA0187101930
B1859034747711N12002478WA0187001928
B1859044747705N12002476WA0186801927
B1859054747700N12002474WA0186701925
B1859064747694N12002471WA0186601924
B1859074747689N12002468WA0186401922
B1859084747683N12002466WA0186301921
B1859094747678N12002463WA0186201920
B1859104747672N12002461WA0186001918
B1859114747666N12002458WA0185901917
B1859124747661N12002456WA0185701915
B1859134747655N12002453WA0185601914
B1859144747650N12002451WA0185401913
B1859154747644N12002449WA0185301911
B1859164747639N12002447WA0185101909
B1859174747633N12002445WA0185001908
B1859184747627N12002443WA0184801906
B1859184747627N12002443WA0184801906
B1859194747621N12002441WA0184701905
B1859204747616N12002440WA0184601904
B1859214747610N12002439WA0184501903
B1859224747605N12002437WA0184301901
B1859234747599N12002435WA0184201900
B1859244747594N12002434WA0184001899
B1859254747588N12002432WA0183901897
B1859264747582N12002431WA0183701896
B1859274747577N12002429WA0183601895
B1859284747571N12002426WA0183501894
B1859294747566N12002425WA0183401893
B1859304747560N12002423WA0183201892
B1859314747555N12002421WA0183101891
B1859324747549N12002420WA0183001890
B1859334747543N12002417WA0182901889
B1859344747537N12002416WA0182701888
B1859354747531N12002414WA0182701886
B1859364747525N12002414WA0182501885
B1859374747519N12002413WA0182401885
B1859384747513N12002412WA0182301884
B1859394747507N12002411WA0182201884
B1859404747502N12002410WA0182101884
B1859414747496N12002409WA0182001883
B1859424747491N12002408WA0181901882
B1859434747485N12002408WA0181801881
B1859444747480N12002407WA0181801881
B1859454747474N12002406WA0181701880
B1859464747469N12002404WA0181601880
B1859474747465N12002404WA0181601879
B1859484747459N12002403WA0181401878
B1859494747454N12002403WA0181401877
B1859504747448N12002402WA0181201875
B1859514747442N12002400WA0181101874
B1859524747437N12002399WA0181001873
B1859534747431N12002398WA0180901873
B1859544747426N12002397WA0180801872
B1859554747420N12002397WA0180701872
B1859564747415N12002397WA0180601870
B1859574747409N12002396WA0180501869
B1859584747404N12002394WA0180401867
B1859594747398N12002393WA0180301866
B1900004747392N12002392WA0180201865
B1900014747387N12002392WA0180101865
B1900024747382N12002392WA0180001865
B1900034747376N12002391WA0180001864
B1900044747371N12002391WA0179901863
B1900054747365N12002391WA0179801862
B1900064747359N12002391WA0179701861
B1900074747354N12002392WA0179701861
B1900084747349N12002392WA0179601861
B1900094747345N12002393WA0179601862
B1900104747342N12002393WA0179501862
B1900114747338N12002394WA0179501861
B1900124747334N12002393WA0179401860
B1900134747329N12002393WA0179401858
B1900144747325N12002393WA0179301856
B1900154747320N12002392WA0179201854
B1900164747315N12002391WA0179101853
B1900174747310N12002391WA0179001852
B1900184747305N12002391WA0178901851
B1900194747300N12002391WA0178801851
B1900204747296N12002391WA0178701850
B1900214747291N12002391WA0178701849
B1900214747291N12002391WA0178701849
B1900224747287N12002392WA0178601848
B1900234747282N12002392WA0178501846
B1900244747276N12002392WA0178401845
B1900254747271N12002391WA0178301844
B1900264747266N12002390WA0178201843
B1900274747261N12002389WA0178201843
B1900284747256N12002388WA0178101842
B1900294747252N12002388WA0178001841
B1900304747247N12002387WA0177901840
B1900314747241N12002387WA0177901838
B1900324747236N12002385WA0177701836
B1900334747231N12002383WA0177601834
B1900344747225N12002382WA0177501832
B1900354747220N12002381WA0177401831
B1900364747216N12002381WA0177301831
B1900374747212N12002380WA0177201829
B1900384747208N12002379WA0177101828
B1900394747204N12002377WA0177001827
B1900404747200N12002375WA0176801825
B1900414747197N12002373WA0176701824
B1900424747193N12002370WA0176601822
B1900434747188N12002368WA0176401819
B1900444747184N12002366WA0176301817
B1900454747179N12002364WA0176101816
B1900464747174N12002362WA0176001815
B1900474747170N12002360WA0175801815
B1900484747166N12002358WA0175701814
B1900494747163N12002356WA0175601814
B1900504747159N12002355WA0175501813
B1900514747154N12002354WA0175401811
B1900524747150N12002353WA0175201809
B1900534747145N12002352WA0175101807
B1900544747141N12002350WA0175001806
B1900554747137N12002348WA0174901805
B1900564747133N12002346WA0174701804
B1900574747129N12002344WA0174601804
B1900584747125N12002342WA0174501804
B1900594747122N12002340WA0174401803
B1901004747119N12002337WA0174301803
B1901014747115N12002335WA0174201801
B1901024747111N12002332WA0174101800
B1901034747107N12002329WA0174001798
B1901044747102N12002325WA0173901797
B1901054747097N12002321WA0173801796
B1901064747092N12002318WA0173601795
B1901074747088N12002315WA0173501795
B1901084747083N12002312WA0173401795
B1901094747079N12002309WA0173401795
B1901104747075N12002306WA0173301795
B1901114747072N12002303WA0173301795
B1901124747068N12002300WA0173201794
B1901134747064N12002297WA0173101792
B1901144747060N12002295WA0173101790
B1901154747056N12002294WA0173001789
B1901164747051N12002293WA0172901788
B1901174747046N12002292WA0172801787
B1901184747042N12002292WA0172701786
B1901194747038N12002291WA0172701785
B1901204747034N12002291WA0172601784
B1901214747030N12002290WA0172501783
B1901224747026N12002289WA0172401782
B1901234747022N12002288WA0172301779
B1901244747017N12002287WA0172101777
B1901244747017N12002287WA0172101777
B1901254747013N12002286WA0172001775
B1901264747008N12002285WA0171801774
B1901274747005N12002284WA0171701773
B1901284747001N12002283WA0171601771
B1901294746997N12002283WA0171401769
B1901304746993N12002282WA0171301767
B1901314746989N12002280WA0171101765
B1901324746984N12002279WA0170901763
B1901334746980N12002277WA0170801761
B1901344746976N12002276WA0170601759
B1901354746972N12002274WA0170501758
B1901364746968N12002273WA0170301757
B1901374746964N12002272WA0170201756
B1901384746960N12002270WA0170001754
B1901394746955N12002268WA0169901753
B1901404746950N12002266WA0169701751
B1901414746946N12002265WA0169601750
B1901424746941N12002263WA0169501749
B1901434746937N12002261WA0169401749
B1901444746933N12002260WA0169201748
B1901454746929N12002258WA0169101747
B1901464746925N12002257WA0169001746
B1901474746920N12002256WA0168901745
B1901484746916N12002255WA0168801743
B1901494746911N12002253WA0168701742
B1901504746907N12002251WA0168601741
B1901514746903N12002249WA0168501741
B1901524746899N12002248WA0168401741
B1901534746895N12002246WA0168301740
B1901544746891N12002245WA0168201739
B1901554746887N12002243WA0168101737
B1901564746883N12002242WA0168001735
B1901574746879N12002240WA0167901733
B1901584746874N12002238WA0167701731
B1901594746870N12002236WA0167601730
B1902004746866N12002234WA0167501728
B1902014746862N12002233WA0167401727
B1902024746858N12002233WA0167201726
B1902034746854N12002232WA0167101725
B1902044746849N12002231WA0167001723
B1902054746845N12002229WA0166901721
B1902064746841N12002227WA0166701720
B1902074746837N12002224WA0166601719
B1902084746834N12002222WA0166401718
B1902094746830N12002219WA0166301717
B1902104746827N12002216WA0166201715
B1902114746823N12002212WA0166101714
B1902124746820N12002210WA0165901714
B1902134746816N12002207WA0165801713
B1902144746813N12002204WA0165701712
B1902154746809N12002201WA0165601710
B1902164746805N12002199WA0165501708
B1902174746801N12002196WA0165301706
B1902184746797N12002194WA0165201705
B1902194746793N12002192WA0165101704
B1902204746789N12002189WA0164901702
B1902214746785N12002187WA0164801701
B1902224746781N12002184WA0164701699
B1902234746777N12002183WA0164601698
B1902244746772N12002182WA0164401696
B1902254746768N12002182WA0164301694
B1902264746763N12002182WA0164201693
B1902274746758N12002182WA0164001691
B1902284746754N12002182WA0163901688
B1902284746754N12002182WA0163901688
B1902294746749N12002182WA0163701686
B1902304746744N12002182WA0163501684
B1902314746739N12002182WA0163401683
B1902324746734N12002181WA0163201682
B1902334746729N12002180WA0163101681
B1902344746725N12002179WA0162901680
B1902354746721N12002178WA0162801680
B1902364746717N12002176WA0162701680
B1902374746713N12002174WA0162601679
B1902384746708N12002172WA0162401677
B1902394746703N12002169WA0162301676
B1902404746698N12002165WA0162101674
B1902414746693N12002161WA0162001671
B1902424746688N12002157WA0161801669
B1902434746682N12002154WA0161601667
B1902444746676N12002153WA0161401666
B1902454746670N12002153WA0161301665
B1902464746665N12002151WA0161201665
B1902474746659N12002149WA0161101665
B1902484746654N12002147WA0160901665
B1902494746649N12002145WA0160901665
B1902504746644N12002143WA0160701664
B1902514746639N12002141WA0160701663
B1902524746633N12002139WA0160501661
B1902534746628N12002137WA0160401660
B1902544746622N12002135WA0160301658
B1902554746616N12002134WA0160201657
B1902564746611N12002132WA0160101656
B1902574746606N12002130WA0160001655
B1902584746601N12002129WA0159901654
B1902594746596N12002127WA0159801651
B1903004746590N12002126WA0159601648
B1903014746584N12002124WA0159401646
B1903024746578N12002123WA0159201643
B1903034746572N12002122WA0159101640
B1903044746566N12002120WA0158801638
B1903054746561N12002119WA0158701636
B1903064746555N12002118WA0158501635
B1903074746550N12002117WA0158301633
B1903084746544N12002116WA0158101631
B1903094746539N12002114WA0157901628
B1903104746533N12002113WA0157701625
B1903114746527N12002111WA0157501622
B1903124746521N12002110WA0157201620
B1903134746515N12002108WA0157101618
B1903144746509N12002106WA0156801616
B1903154746504N12002103WA0156601614
B1903164746498N12002101WA0156401612
B1903174746493N12002098WA0156201609
B1903184746487N12002096WA0155901607
B1903194746482N12002093WA0155801604
B1903204746476N12002091WA0155501602
B1903214746471N12002089WA0155301599
B1903224746465N12002087WA0155001597
B1903234746459N12002084WA0154901594
B1903244746453N12002082WA0154601592
B1903254746447N12002079WA0154401590
B1903264746441N12002077WA0154201589
B1903274746435N12002075WA0154001587
B1903284746430N12002073WA0153801586
B1903294746424N12002070WA0153601584
B1903304746419N12002068WA0153401582
B1903304746419N12002068WA0153401582
B1903314746413N12002065WA0153301580
B1903324746407N12002063WA0153001578
B1903334746402N12002060WA0152901576
B1903344746396N12002056WA0152701574
B1903354746391N12002053WA0152501572
B1903364746386N12002049WA0152301570
B1903374746380N12002046WA0152101568
B1903384746374N12002043WA0151901566
B1903394746369N12002039WA0151701564
B1903404746363N12002036WA0151501562
B1903414746357N12002033WA0151301560
B1903424746352N12002030WA0151101558
B1903434746346N12002027WA0150901556
B1903444746341N12002025WA0150701555
B1903454746335N12002024WA0150601553
B1903464746330N12002022WA0150401552
B1903474746325N12002019WA0150201550
B1903484746319N12002017WA0150001547
B1903494746313N12002014WA0149801544
B1903504746307N12002011WA0149601541
B1903514746301N12002008WA0149401538
B1903524746295N12002005WA0149101535
B1903534746289N12002002WA0149001534
B1903544746284N12001999WA0148701533
B1903554746278N12001996WA0148601531
B1903564746273N12001992WA0148301529
B1903574746268N12001987WA0148101526
B1903584746262N12001982WA0147901523
B1903594746257N12001976WA0147701521
B1904004746251N12001972WA0147501520
B1904014746246N12001968WA0147301520
B1904024746241N12001965WA0147101519
B1904034746236N12001962WA0147001518
B1904044746231N12001958WA0146801516
B1904054746226N12001953WA0146701514
B1904064746220N12001949WA0146501511
B1904074746215N12001945WA0146401510
B1904084746210N12001941WA0146201508
B1904094746205N12001938WA0146101507
B1904104746200N12001934WA0145901506
B1904114746196N12001929WA0145701504
B1904124746191N12001925WA0145601502
B1904134746186N12001921WA0145401500
B1904144746181N12001917WA0145201497
B1904154746176N12001913WA0145101494
B1904164746170N12001908WA0144801492
B1904174746165N12001904WA0144701489
B1904184746159N12001900WA0144401487
B1904194746154N12001896WA0144201484
B1904204746149N12001892WA0144001482
B1904214746143N12001887WA0143801479
B1904224746138N12001883WA0143501475
B1904234746133N12001879WA0143301472
B1904244746127N12001875WA0143001468
B1904254746122N12001871WA0142801465
B1904264746117N12001867WA0142401461
B1904274746111N12001863WA0142201458
B1904284746105N12001859WA0141901455
B1904294746100N12001855WA0141701453
B1904304746095N12001851WA0141301451
B1904314746090N12001848WA0141101449
B1904324746085N12001844WA0140801446
B1904334746080N12001840WA0140601444
B1904334746080N12001840WA0140601444
B1904344746075N12001836WA0140301441
B1904354746070N12001832WA0140101438
B1904364746065N12001827WA0139801436
B1904374746060N12001823WA0139601433
B1904384746055N12001818WA0139301432
B1904394746051N12001814WA0139101430
B1904404746046N12001810WA0138801428
B1904414746041N12001806WA0138601426
B1904424746036N12001802WA0138401424
B1904434746031N12001798WA0138201422
B1904444746026N12001794WA0137901421
B1904454746022N12001791WA0137801420
B1904464746017N12001787WA0137601418
B1904474746013N12001784WA0137401417
B1904484746008N12001780WA0137201414
B1904494746004N12001776WA0137001411
B1904504745999N12001771WA0136801408
B1904514745993N12001767WA0136601405
B1904524745988N12001762WA0136301402
B1904534745983N12001758WA0136101400
B1904544745978N12001752WA0135901398
B1904554745974N12001747WA0135701397
B1904564745970N12001741WA0135501395
B1904574745966N12001735WA0135301392
B1904584745961N12001730WA0135001390
B1904594745956N12001725WA0134901388
B1905004745952N12001719WA0134601386
B1905014745947N12001714WA0134501384
B1905024745942N12001709WA0134201382
B1905034745938N12001704WA0134001380
B1905044745933N12001698WA0133801377
B1905054745928N12001693WA0133601375
B1905064745923N12001687WA0133401373
B1905074745918N12001681WA0133201372
B1905084745913N12001676WA0133001371
B1905094745908N12001670WA0132801369
B1905104745904N12001664WA0132701368
B1905114745900N12001656WA0132501367
B1905124745895N12001649WA0132301365
B1905134745891N12001642WA0132201363
B1905144745886N12001635WA0132001361
B1905154745881N12001629WA0131901360
B1905164745876N12001622WA0131701359
B1905174745872N12001614WA0131601358
B1905184745869N12001606WA0131401358
B1905194745865N12001600WA0131301358
B1905204745861N12001595WA0131201359
B1905214745857N12001591WA0131201359
B1905224745852N12001587WA0131101359
B1905234745848N12001583WA0131101360
B1905244745845N12001580WA0131001361
B1905254745842N12001578WA0131001363
B1905264745839N12001576WA0131001364
B1905274745836N12001574WA0131001364
B1905284745833N12001571WA0131001363
B1905294745830N12001568WA0130901362
B1905304745826N12001565WA0130901360
B1905314745823N12001562WA0130801359
B1905324745819N12001560WA0130701359
B1905334745816N12001557WA0130701357
B1905344745813N12001553WA0130601354
B1905354745809N12001549WA0130501351
B1905364745804N12001545WA0130301347
B1905364745804N12001545WA0130301347
B1905374745799N12001540WA0130101344
B1905384745794N12001536WA0129901341
B1905394745789N12001531WA0129801338
B1905404745785N12001526WA0129501336
B1905414745780N12001521WA0129401334
B1905424745775N12001516WA0129101332
B1905434745771N12001511WA0129001331
B1905444745766N12001506WA0128801329
B1905454745760N12001501WA0128601328
B1905464745755N12001496WA0128501326
B1905474745750N12001491WA0128301325
B1905484745745N12001486WA0128201325
B1905494745740N12001481WA0128101324
B1905504745735N12001477WA0127901323
B1905514745731N12001473WA0127801323
B1905524745726N12001469WA0127701322
B1905534745721N12001465WA0127601320
B1905544745717N12001462WA0127401319
B1905554745712N12001457WA0127301317
B1905564745707N12001452WA0127201314
B1905574745702N12001447WA0127001312
B1905584745697N12001443WA0126901311
B1905594745691N12001439WA0126701309
B1906004745686N12001436WA0126501307
B1906014745680N12001432WA0126401306
B1906024745674N12001429WA0126201305
B1906034745669N12001426WA0126101304
B1906044745663N12001423WA0125901303
B1906054745658N12001420WA0125901302
B1906064745653N12001418WA0125701301
B1906074745647N12001415WA0125601299
B1906084745642N12001411WA0125401297
B1906094745636N12001407WA0125301296
B1906104745630N12001403WA0125101294
B1906114745625N12001398WA0125001292
B1906124745620N12001394WA0124801291
B1906134745615N12001389WA0124701290
B1906144745610N12001385WA0124601289
B1906154745605N12001381WA0124501287
B1906164745600N12001377WA0124301287
B1906174745595N12001374WA0124201286
B1906184745591N12001371WA0124101286
B1906194745587N12001369WA0124001285
B1906204745582N12001366WA0123901284
B1906214745578N12001363WA0123801282
B1906224745573N12001360WA0123701280
B1906234745568N12001358WA0123601279
B1906244745563N12001355WA0123501278
B1906254745558N12001353WA0123401277
B1906264745553N12001350WA0123201276
B1906274745548N12001347WA0123201275
B1906284745543N12001345WA0123001274
B1906294745538N12001343WA0123001273
B1906304745533N12001341WA0122801272
B1906314745528N12001339WA0122801271
B1906324745522N12001337WA0122601268
B1906334745517N12001335WA0122501266
B1906344745512N12001332WA0122301265
B1906354745507N12001329WA0122201264
B1906364745503N12001327WA0122101263
B1906374745498N12001325WA0122001261
B1906384745493N12001324WA0121801259
B1906394745487N12001322WA0121701257
B1906394745487N12001322WA0121701257
B1906404745482N12001320WA0121501255
B1906414745477N12001318WA0121401253
B1906424745473N12001317WA0121201252
B1906434745468N12001315WA0121001250
B1906444745464N12001314WA0120801247
B1906454745460N12001313WA0120701244
B1906464745456N12001311WA0120401241
B1906474745451N12001309WA0120201237
B1906484745446N12001307WA0119901234
B1906494745441N12001304WA0119701231
B1906504745436N12001302WA0119401228
B1906514745431N12001299WA0119201226
B1906524745426N12001297WA0119001224
B1906534745421N12001295WA0118801222
B1906544745416N12001293WA0118501219
B1906554745411N12001291WA0118301215
B1906564745406N12001288WA0118001212
B1906574745401N12001284WA0117801208
B1906584745396N12001280WA0117501205
B1906594745391N12001276WA0117301202
B1907004745386N12001272WA0117001200
B1907014745382N12001268WA0116801197
B1907024745377N12001264WA0116501195
B1907034745373N12001260WA0116301193
B1907044745368N12001255WA0116001190
B1907054745364N12001250WA0115801188
B1907064745359N12001244WA0115601185
B1907074745355N12001238WA0115401183
B1907084745351N12001231WA0115101181
B1907094745346N12001225WA0114901179
B1907104745342N12001220WA0114601177
B1907114745338N12001214WA0114501175
B1907124745334N12001208WA0114201172
B1907134745330N12001203WA0114001170
B1907144745326N12001198WA0113701167
B1907154745322N12001192WA0113601164
B1907164745318N12001185WA0113301161
B1907174745314N12001178WA0113101159
B1907184745309N12001171WA0112801156
B1907194745305N12001164WA0112601154
B1907204745301N12001158WA0112301152
B1907214745296N12001151WA0112101149
B1907224745292N12001145WA0111801147
B1907234745288N12001138WA0111601144
B1907244745283N12001131WA0111301142
B1907254745278N12001124WA0111101139
B1907264745274N12001116WA0110801137
B1907274745270N12001109WA0110601136
B1907284745266N12001102WA0110301134
B1907294745261N12001096WA0110101133
B1907304745257N12001090WA0109901132
B1907314745252N12001084WA0109701130
B1907324745248N12001077WA0109501128
B1907334745245N12001069WA0109301126
B1907344745241N12001063WA0109101125
B1907354745237N12001058WA0108901124
B1907364745234N12001053WA0108701123
B1907374745230N12001049WA0108601122
B1907384745226N12001043WA0108401119
B1907394745222N12001038WA0108201117
B1907404745217N12001032WA0108001114
B1907414745213N12001025WA0107801111
B1907424745209N12001019WA0107501109
B1907424745209N12001019WA0107501109
B1907434745204N12001012WA0107301106
B1907444745200N12001005WA0107101103
B1907454745196N12000998WA0106901101
B1907464745192N12000991WA0106601098
B1907474745187N12000983WA0106401095
B1907484745182N12000975WA0106101093
B1907494745178N12000968WA0105901092
B1907504745173N12000962WA0105701092
B1907514745169N12000956WA0105601092
B1907524745164N12000950WA0105301090
B1907534745160N12000944WA0105201089
B1907544745155N12000937WA0105001087
B1907554745150N12000930WA0104801084
B1907564745145N12000922WA0104601082
B1907574745141N12000914WA0104401079
B1907584745136N12000906WA0104101076
B1907594745131N12000898WA0104001074
B1908004745126N12000891WA0103701072
B1908014745121N12000884WA0103501071
B1908024745116N12000877WA0103301070
B1908034745112N12000871WA0103201068
B1908044745107N12000864WA0102901066
B1908054745102N12000858WA0102801064
B1908064745097N12000851WA0102601062
B1908074745091N12000845WA0102401061
B1908084745086N12000839WA0102201060
B1908094745081N12000833WA0102101059
B1908104745076N12000827WA0101901057
B1908114745071N12000821WA0101801056
B1908124745066N12000815WA0101601054
B1908134745061N12000808WA0101401052
B1908144745056N12000802WA0101301051
B1908154745050N12000796WA0101101050
B1908164745045N12000790WA0101001049
B1908174745039N12000783WA0100901048
B1908184745034N12000777WA0100701047
B1908194745028N12000770WA0100601046
B1908204745023N12000763WA0100401045
B1908214745018N12000757WA0100301044
B1908224745012N12000750WA0100201043
B1908234745007N12000744WA0100101042
B1908244745001N12000738WA0099901041
B1908254744995N12000733WA0099801039
B1908264744989N12000726WA0099701037
B1908274744983N12000720WA0099601035
B1908284744977N12000713WA0099401034
B1908294744971N12000707WA0099301034
B1908304744965N12000700WA0099201032
B1908314744959N12000694WA0099101031
B1908324744953N12000687WA0099001029
B1908334744947N12000681WA0098901028
B1908344744941N12000674WA0098701027
B1908354744936N12000668WA0098601026
B1908364744930N12000661WA0098501025
B1908374744924N12000655WA0098401023
B1908384744918N12000648WA0098301022
B1908394744912N12000641WA0098201021
B1908404744905N12000635WA0098101020
B1908414744900N12000629WA0098001021
B1908424744894N12000623WA0097901022
B1908434744889N12000618WA0097901023
B1908444744885N12000613WA0097901024
B1908454744880N12000608WA0097901024
B1908454744880N12000608WA0097901024
B1908464744875N12000603WA0097801024
B1908474744869N12000599WA0097801023
B1908484744864N12000595WA0097801022
B1908494744858N12000591WA0097701021
B1908504744852N12000587WA0097601021
B1908514744846N12000583WA0097601021
B1908524744841N12000580WA0097501021
B1908534744836N12000577WA0097501020
B1908544744830N12000574WA0097501020
B1908554744825N12000571WA0097401019
B1908564744819N12000569WA0097401019
B1908574744813N12000567WA0097301018
B1908584744807N12000565WA0097201018
B1908594744802N12000563WA0097201019
B1909004744796N12000561WA0097201018
B1909014744790N12000559WA0097101018
B1909024744785N12000557WA0097101018
B1909034744779N12000556WA0097001018
B1909044744773N12000554WA0096901016
B1909054744768N12000552WA0096901014
B1909064744762N12000551WA0096801012
B1909074744756N12000549WA0096701010
B1909084744750N12000548WA0096601009
B1909094744745N12000547WA0096501009
B1909104744739N12000547WA0096301008
B1909114744734N12000546WA0096301007
B1909124744728N12000545WA0096201007
B1909134744723N12000543WA0096101006
B1909144744718N12000540WA0096001006
B1909154744713N12000536WA0096001005
B1909164744708N12000531WA0095901004
B1909174744703N12000525WA0095801004
B1909184744699N12000519WA0095701003
B1909194744696N12000512WA0095601002
B1909204744692N12000504WA0095501000
B1909214744690N12000496WA0095400997
B1909224744688N12000486WA0095200994
B1909234744688N12000477WA0095100992
B1909244744688N12000468WA0094900990
B1909254744689N12000459WA0094800988
B1909264744690N12000451WA0094600986
B1909274744691N12000443WA0094500983
B1909284744692N12000435WA0094300981
B1909294744694N12000426WA0094100978
B1909304744696N12000418WA0093900976
B1909314744698N12000410WA0093800973
B1909324744701N12000402WA0093600971
B1909334744703N12000394WA0093400968
B1909344744706N12000386WA0093200966
B1909354744708N12000378WA0093000964
B1909364744711N12000370WA0092800962
B1909374744713N12000361WA0092600960
B1909384744716N12000353WA0092400958
B1909394744718N12000345WA0092200956
B1909404744721N12000338WA0092000954
B1909414744724N12000331WA0091800951
B1909424744729N12000324WA0091600948
B1909434744733N12000316WA0091500946
B1909444744737N12000308WA0091200946
B1909454744740N12000301WA0091100948
B1909464744742N12000296WA0091000951
B1909474744744N12000291WA0091000950
B1909484744746N12000286WA0090800948
B1909494744749N12000279WA0090800945
B1909504744752N12000272WA0090600942
B1909514744755N12000264WA0090400939
B1909524744758N12000256WA0090300937
B1909534744760N12000249WA0090100936
B1909544744763N12000243WA0089900934
B1909554744766N12000236WA0089800932
B1909564744769N12000229WA0089600930
B1909574744772N12000222WA0089500927
B1909584744775N12000215WA0089300925
B1909594744779N12000209WA0089100923
B1910004744782N12000204WA0088900921
B1910014744786N12000198WA0088800920
B1910024744790N12000193WA0088600918
B1910034744793N12000188WA0088400916
B1910044744796N12000183WA0088200914
B1910054744800N12000179WA0088100911
B1910064744804N12000174WA0087900909
B1910074744808N12000169WA0087700907
B1910084744812N12000164WA0087500904
B1910094744817N12000158WA0087400902
B1910104744821N12000153WA0087200901
B1910114744825N12000148WA0087000901
B1910124744829N12000142WA0086900901
B1910134744832N12000136WA0086700900
B1910144744835N12000129WA0086600898
B1910154744836N12000120WA0086500897
B1910164744836N12000109WA0086300895
B1910174744833N12000100WA0086200894
B1910184744829N12000093WA0086000892
B1910194744824N12000089WA0085900891
B1910204744820N12000088WA0085700890
B1910214744817N12000088WA0085600890
B1910224744814N12000090WA0085500889
B1910234744813N12000093WA0085400888
B1910244744812N12000097WA0085300887
B1910254744812N12000101WA0085200886
B1910264744812N12000104WA0085000885
B1910274744813N12000107WA0084900884
B1910284744813N12000109WA0084700883
B1910294744813N12000109WA0084700882
B1910304744813N12000109WA0084600882
B1910314744813N12000109WA0084500883
B1910324744813N12000109WA0084400884
B1910334744814N12000109WA0084400884
B1910344744814N12000108WA0084300884
B1910354744814N12000108WA0084300885
B1910364744814N12000108WA0084200884
B1910374744814N12000108WA0084200884
B1910384744814N12000108WA0084100884
B1910394744815N12000108WA0084100885
B1910404744815N12000108WA0084100885
B1910414744815N12000108WA0084100885
B1910424744815N12000108WA0084100885
B1910434744815N12000108WA0084000885
B1910444744815N12000108WA0084000885
B1910454744815N12000108WA0084000885
B1910464744815N12000108WA0084000885
B1910474744815N12000108WA0084000885
B1910484744815N12000108WA0084000885
B1910494744815N12000108WA0084000885
B1910504744815N12000108WA0084000885
B1910514744815N12000108WA0084000885
B1910524744815N12000108WA0084000885
B1910534744815N12000108WA0084000885
B1910544744815N12000108WA0084000885
B1910554744815N12000108WA0084000884
B1910564744815N12000108WA0084000885
B1910574744815N12000108WA0083900885
B1910584744815N12000108WA0083900885
B1910594744815N12000108WA0083900885
B1911004744815N12000108WA0083900885
B1911014744815N12000108WA0083900885
B1911024744814N12000108WA0083900885
B1911034744814N12000108WA0083900885
B1911044744814N12000108WA0083900885
B1911054744814N12000108WA0083900885
B1911064744814N12000108WA0083900885
B1911074744814N12000108WA0083900885
B1911084744814N12000108WA0083900885
B1911094744815N12000108WA0083900885
B1911104744815N12000108WA0083900885
B1911114744815N12000108WA0083900885
B1911124744815N12000108WA0083900885
B1911134744815N12000108WA0083900885
B1911144744815N12000108WA0083900885
B1911154744815N12000108WA0083900885
B1911164744815N12000108WA0083900885
B1911174744815N12000108WA0083900885
B1911184744815N12000108WA0083900885
B1911194744815N12000108WA0083900885
B1911204744815N12000108WA0083900885
B1911214744815N12000108WA0083900885
B1911224744815N12000108WA0083900885
B1911234744815N12000108WA0083900885
B1911244744815N12000108WA0083900885
B1911254744815N12000108WA0083900885
B1911264744815N12000108WA0083900885
B1911274744815N12000108WA0083900885
B1911284744815N12000108WA0083900885
B1911294744815N12000108WA0083900885
B1911304744815N12000108WA0083900885
B1911314744814N12000108WA0083900885
B1911324744814N12000108WA0083900885
B1911334744814N12000108WA0083900885
B1911344744814N12000108WA0083900885
B1911354744814N12000108WA0083900885
B1911364744814N12000108WA0083900886
B1911374744814N12000108WA0083900886
B1911384744814N12000108WA0083900886
B1911394744814N12000108WA0083900886
B1911404744814N12000108WA0083900886
B1911414744814N12000108WA0083900886
B1911424744814N12000108WA0083900885
B1911434744814N12000108WA0083900886
B1911444744814N12000108WA0083900885
B1911454744814N12000108WA0083900885
B1911464744814N12000108WA0083900885
B1911474744814N12000108WA0083900885
B1911484744814N12000108WA0083900885
B1911494744814N12000108WA0083900885
B1911504744814N12000108WA0083900885
B1911514744813N12000108WA0083900885
B1911524744813N12000108WA0083900885
B1911534744813N12000108WA0083900885
B1911544744813N12000108WA0083900885
