AXFMSFP Flymaster Live, V1.0
HFFXA010
HFPLTPILOT:Esa Alaraudanjoki
HFGTYGLIDERTYPE:Mac Para Elan 3  / Woody Valley  Xalps Gto 2 Light
HFGIDGLIDERID:
HFDTM100GPSDATUM:WGS-1984
HFCIDCOMPETITIONID:67
HFCCLCOMPETITIONCLASS:
HOSITSITE:LAUNCH
HFGPS:UBLOXNEO6
HFPRSPRESSALTSENSOR:NA
HFRFWFIRMWAREVERSION:202g
HFRHWHARDWAREVERSION:1.0R2
HFFTYFRTYPE:FLYMASTER,LIVE
HFDTE230625
B1943384748238N12002321WA0107601127
B1943394748238N12002322WA0107501128
B1943404748238N12002322WA0107501128
B1943414748238N12002323WA0107301128
B1943424748237N12002324WA0107301128
B1943434748236N12002325WA0107301128
B1943444748235N12002326WA0107201127
B1943454748233N12002327WA0107201126
B1943464748231N12002328WA0107201125
B1943474748229N12002329WA0107401125
B1943484748226N12002331WA0107501122
B1943494748224N12002334WA0107501122
B1943504748221N12002336WA0107501124
B1943514748219N12002337WA0107501126
B1943524748217N12002336WA0107501127
B1943534748215N12002334WA0107501129
B1943544748213N12002332WA0107501128
B1943554748211N12002331WA0107501127
B1943564748208N12002331WA0107501125
B1943574748206N12002330WA0107501124
B1943584748203N12002330WA0107501124
B1943594748202N12002329WA0107501127
B1944004748200N12002328WA0107501128
B1944014748198N12002326WA0107601129
B1944024748196N12002325WA0107601129
B1944034748193N12002325WA0107701129
B1944044748190N12002325WA0107701129
B1944054748187N12002325WA0107801131
B1944064748185N12002325WA0107801133
B1944074748184N12002324WA0107901134
B1944084748182N12002324WA0107901135
B1944094748181N12002324WA0108001135
B1944104748178N12002324WA0108101134
B1944114748176N12002325WA0108101135
B1944124748173N12002325WA0108201135
B1944134748170N12002325WA0108201135
B1944144748168N12002324WA0108301135
B1944154748166N12002323WA0108401135
B1944164748163N12002322WA0108401135
B1944174748160N12002322WA0108401134
B1944184748156N12002322WA0108401134
B1944194748153N12002323WA0108401134
B1944204748151N12002322WA0108501136
B1944214748148N12002321WA0108501139
B1944224748146N12002318WA0108601141
B1944234748143N12002315WA0108701143
B1944244748141N12002313WA0108701144
B1944254748140N12002313WA0108801146
B1944264748138N12002315WA0108801146
B1944274748137N12002319WA0108901146
B1944284748136N12002324WA0109001143
B1944294748137N12002331WA0109001142
B1944304748139N12002338WA0109001141
B1944314748143N12002344WA0109101140
B1944324748148N12002348WA0109101140
B1944334748153N12002352WA0109101140
B1944344748158N12002354WA0109201141
B1944354748164N12002357WA0109201140
B1944364748169N12002362WA0109201139
B1944374748173N12002369WA0109201137
B1944384748176N12002376WA0109201137
B1944394748180N12002382WA0109201137
B1944404748183N12002388WA0109201138
B1944414748186N12002394WA0109201139
B1944424748188N12002400WA0109201139
B1944424748188N12002400WA0109201139
B1944434748190N12002408WA0109201136
B1944444748191N12002417WA0109201135
B1944454748192N12002425WA0109101135
B1944464748194N12002431WA0109101136
B1944474748195N12002435WA0109101138
B1944484748196N12002438WA0109101138
B1944494748197N12002441WA0109101137
B1944504748197N12002446WA0109101135
B1944514748195N12002449WA0109001133
B1944524748192N12002451WA0109001131
B1944534748189N12002450WA0108901130
B1944544748186N12002447WA0108801129
B1944554748184N12002442WA0108701129
B1944564748182N12002436WA0108601128
B1944574748181N12002431WA0108501127
B1944584748179N12002426WA0108401126
B1944594748177N12002421WA0108301125
B1945004748174N12002416WA0108201124
B1945014748172N12002411WA0108101124
B1945024748169N12002406WA0108001125
B1945034748167N12002401WA0107901126
B1945044748166N12002397WA0107901126
B1945054748165N12002393WA0107801127
B1945064748164N12002389WA0107801127
B1945074748163N12002385WA0107701124
B1945084748161N12002381WA0107701122
B1945094748158N12002377WA0107601119
B1945104748154N12002374WA0107601118
B1945114748150N12002372WA0107501117
B1945124748147N12002370WA0107401118
B1945134748145N12002368WA0107301118
B1945144748142N12002365WA0107301118
B1945154748140N12002362WA0107201116
B1945164748136N12002360WA0107101115
B1945174748133N12002358WA0107001112
B1945184748128N12002357WA0106901109
B1945194748124N12002355WA0106801106
B1945204748120N12002353WA0106701104
B1945214748115N12002351WA0106501103
B1945224748111N12002349WA0106301101
B1945234748107N12002347WA0106101100
B1945244748103N12002346WA0106001098
B1945254748099N12002344WA0105801097
B1945264748095N12002343WA0105701095
B1945274748091N12002341WA0105501094
B1945284748087N12002340WA0105401093
B1945294748083N12002339WA0105201091
B1945304748079N12002339WA0105101089
B1945314748076N12002341WA0104901087
B1945324748073N12002344WA0104801085
B1945334748071N12002350WA0104601081
B1945344748070N12002356WA0104501078
B1945354748068N12002362WA0104201075
B1945364748066N12002367WA0104001073
B1945374748063N12002369WA0103801072
B1945384748059N12002369WA0103601069
B1945394748054N12002367WA0103401066
B1945404748049N12002364WA0103201064
B1945414748045N12002358WA0103001062
B1945424748042N12002352WA0102801060
B1945434748040N12002344WA0102501057
B1945444748037N12002336WA0102401055
B1945454748033N12002329WA0102101052
B1945454748033N12002329WA0102101052
B1945464748029N12002322WA0101901050
B1945474748025N12002316WA0101701048
B1945484748021N12002309WA0101501046
B1945494748018N12002302WA0101301045
B1945504748014N12002296WA0101101044
B1945514748011N12002289WA0100901042
B1945524748007N12002282WA0100701041
B1945534748002N12002276WA0100501040
B1945544747998N12002269WA0100401041
B1945554747994N12002264WA0100301043
B1945564747990N12002259WA0100201045
B1945574747986N12002254WA0100101048
B1945584747983N12002251WA0100101051
B1945594747979N12002247WA0100101054
B1946004747976N12002245WA0100201057
B1946014747971N12002244WA0100301059
B1946024747967N12002245WA0100301063
B1946034747963N12002248WA0100501066
B1946044747960N12002252WA0100601069
B1946054747958N12002258WA0100901072
B1946064747957N12002264WA0101001075
B1946074747959N12002270WA0101301078
B1946084747962N12002275WA0101501079
B1946094747967N12002277WA0101801081
B1946104747972N12002278WA0101901082
B1946114747978N12002276WA0102201083
B1946124747983N12002273WA0102301086
B1946134747987N12002268WA0102601088
B1946144747990N12002262WA0102701091
B1946154747991N12002255WA0103001093
B1946164747991N12002248WA0103201097
B1946174747990N12002243WA0103401100
B1946184747989N12002237WA0103601103
B1946194747987N12002231WA0103901106
B1946204747987N12002226WA0104101111
B1946214747986N12002221WA0104401116
B1946224747985N12002216WA0104701121
B1946234747983N12002212WA0105101125
B1946244747979N12002210WA0105301128
B1946254747974N12002211WA0105701131
B1946264747971N12002215WA0106001134
B1946274747969N12002221WA0106401137
B1946284747968N12002228WA0106601140
B1946294747969N12002235WA0107001145
B1946304747971N12002241WA0107301150
B1946314747975N12002245WA0107701154
B1946324747980N12002246WA0108001158
B1946334747985N12002245WA0108401162
B1946344747989N12002243WA0108701166
B1946354747994N12002238WA0109101168
B1946364747998N12002234WA0109401172
B1946374748002N12002229WA0109801177
B1946384748005N12002224WA0110101183
B1946394748007N12002220WA0110601190
B1946404748007N12002213WA0110901195
B1946414748006N12002207WA0111401200
B1946424748004N12002202WA0111701205
B1946434748001N12002199WA0112201210
B1946444747997N12002199WA0112601215
B1946454747993N12002202WA0113101219
B1946464747989N12002206WA0113501223
B1946474747987N12002210WA0114001229
B1946484747985N12002214WA0114401235
B1946494747986N12002218WA0115001241
B1946504747987N12002222WA0115401246
B1946504747987N12002222WA0115401246
B1946514747991N12002227WA0116001248
B1946524747995N12002231WA0116301251
B1946534748000N12002235WA0116901255
B1946544748005N12002238WA0117201259
B1946554748010N12002242WA0117801264
B1946564748014N12002245WA0118101268
B1946574748019N12002250WA0118601273
B1946584748023N12002255WA0119001278
B1946594748027N12002261WA0119501283
B1947004748032N12002266WA0119801289
B1947014748036N12002269WA0120401295
B1947024748041N12002270WA0120701299
B1947034748046N12002269WA0121301303
B1947044748051N12002266WA0121601306
B1947054748055N12002262WA0122101307
B1947064748059N12002257WA0122501309
B1947074748061N12002250WA0122901311
B1947084748064N12002243WA0123201312
B1947094748066N12002235WA0123601315
B1947104748068N12002228WA0123801320
B1947114748070N12002222WA0124301325
B1947124748070N12002217WA0124501330
B1947134748069N12002213WA0125001335
B1947144748067N12002210WA0125301340
B1947154748065N12002209WA0125801344
B1947164748062N12002210WA0126101349
B1947174748058N12002214WA0126601352
B1947184748056N12002220WA0126901355
B1947194748054N12002228WA0127401358
B1947204748054N12002238WA0127701363
B1947214748056N12002246WA0128201368
B1947224748061N12002253WA0128501372
B1947234748066N12002258WA0129101376
B1947244748072N12002261WA0129401379
B1947254748078N12002262WA0129901383
B1947264748084N12002260WA0130301385
B1947274748090N12002256WA0130701387
B1947284748096N12002251WA0131001389
B1947294748100N12002245WA0131401392
B1947304748104N12002239WA0131701396
B1947314748107N12002233WA0132101399
B1947324748111N12002226WA0132401402
B1947334748113N12002219WA0132801404
B1947344748114N12002212WA0133001408
B1947354748113N12002206WA0133401412
B1947364748112N12002202WA0133701416
B1947374748110N12002200WA0134101420
B1947384748108N12002199WA0134401425
B1947394748105N12002199WA0134801429
B1947404748101N12002200WA0135101432
B1947414748098N12002203WA0135601436
B1947424748095N12002207WA0135901439
B1947434748092N12002212WA0136301442
B1947444748090N12002217WA0136601444
B1947454748088N12002223WA0137001446
B1947464748085N12002229WA0137201449
B1947474748083N12002237WA0137601453
B1947484748082N12002245WA0137901459
B1947494748083N12002252WA0138301463
B1947504748086N12002259WA0138601468
B1947514748090N12002264WA0139101471
B1947524748096N12002268WA0139401474
B1947534748102N12002270WA0139801478
B1947544748109N12002270WA0140101482
B1947544748109N12002270WA0140101482
B1947554748114N12002267WA0140501486
B1947564748119N12002263WA0140801490
B1947574748124N12002257WA0141201493
B1947584748128N12002251WA0141501496
B1947594748131N12002244WA0141901499
B1948004748133N12002237WA0142201502
B1948014748134N12002230WA0142601506
B1948024748133N12002223WA0142901509
B1948034748133N12002217WA0143301513
B1948044748131N12002213WA0143501517
B1948054748129N12002210WA0144001523
B1948064748127N12002209WA0144201526
B1948074748124N12002208WA0144701528
B1948084748121N12002209WA0144901530
B1948094748117N12002210WA0145301533
B1948104748114N12002214WA0145601536
B1948114748111N12002219WA0145901539
B1948124748109N12002224WA0146201543
B1948134748108N12002230WA0146601547
B1948144748107N12002236WA0146801552
B1948154748107N12002243WA0147201556
B1948164748107N12002251WA0147501559
B1948174748110N12002258WA0147901563
B1948184748114N12002264WA0148201567
B1948194748118N12002271WA0148601569
B1948204748123N12002277WA0148901571
B1948214748128N12002281WA0149301573
B1948224748134N12002284WA0149501576
B1948234748141N12002284WA0149901578
B1948244748148N12002283WA0150101579
B1948254748155N12002280WA0150401582
B1948264748160N12002276WA0150601586
B1948274748164N12002271WA0150901589
B1948284748167N12002264WA0151101590
B1948294748169N12002258WA0151401592
B1948304748170N12002252WA0151701594
B1948314748170N12002247WA0152001598
B1948324748170N12002244WA0152201601
B1948334748169N12002240WA0152501603
B1948344748168N12002236WA0152801605
B1948354748166N12002232WA0153101608
B1948364748163N12002227WA0153301610
B1948374748160N12002224WA0153601613
B1948384748157N12002221WA0153801616
B1948394748154N12002220WA0154101619
B1948404748150N12002221WA0154401623
B1948414748146N12002224WA0154701624
B1948424748141N12002229WA0154901626
B1948434748137N12002235WA0155201629
B1948444748134N12002242WA0155401635
B1948454748134N12002248WA0155701642
B1948464748134N12002254WA0156001647
B1948474748134N12002261WA0156401651
B1948484748135N12002268WA0156701654
B1948494748135N12002275WA0157101657
B1948504748136N12002283WA0157301659
B1948514748139N12002292WA0157701661
B1948524748143N12002300WA0158001663
B1948534748148N12002307WA0158301665
B1948544748154N12002312WA0158601669
B1948554748159N12002315WA0158901673
B1948564748164N12002315WA0159201677
B1948574748169N12002314WA0159601679
B1948584748174N12002311WA0159801680
B1948584748174N12002311WA0159801680
B1948594748180N12002308WA0160101680
B1949004748184N12002304WA0160301681
B1949014748188N12002298WA0160601682
B1949024748190N12002291WA0160801684
B1949034748192N12002284WA0161001685
B1949044748193N12002277WA0161201686
B1949054748193N12002271WA0161401688
B1949064748192N12002265WA0161501690
B1949074748190N12002258WA0161701692
B1949084748189N12002252WA0161901694
B1949094748187N12002247WA0162101697
B1949104748185N12002243WA0162201700
B1949114748183N12002239WA0162501703
B1949124748181N12002235WA0162701706
B1949134748179N12002232WA0163001709
B1949144748177N12002229WA0163101711
B1949154748175N12002226WA0163401712
B1949164748172N12002222WA0163601714
B1949174748168N12002218WA0163801717
B1949184748165N12002217WA0164001720
B1949194748161N12002218WA0164301723
B1949204748157N12002220WA0164501725
B1949214748153N12002224WA0164801727
B1949224748149N12002229WA0164901729
B1949234748146N12002236WA0165201731
B1949244748144N12002244WA0165401734
B1949254748143N12002252WA0165601737
B1949264748144N12002261WA0165801739
B1949274748146N12002270WA0166101740
B1949284748150N12002278WA0166301741
B1949294748154N12002285WA0166501742
B1949304748160N12002289WA0166701743
B1949314748165N12002290WA0166901745
B1949324748170N12002290WA0167101746
B1949334748175N12002289WA0167301748
B1949344748180N12002287WA0167401751
B1949354748183N12002285WA0167701754
B1949364748187N12002281WA0167801756
B1949374748190N12002276WA0168001758
B1949384748192N12002270WA0168201760
B1949394748193N12002265WA0168501763
B1949404748193N12002260WA0168601765
B1949414748191N12002256WA0168901767
B1949424748189N12002251WA0169101768
B1949434748186N12002247WA0169301770
B1949444748183N12002244WA0169501772
B1949454748179N12002242WA0169701776
B1949464748176N12002242WA0169901779
B1949474748171N12002242WA0170201781
B1949484748167N12002243WA0170401783
B1949494748162N12002243WA0170601785
B1949504748157N12002243WA0170801787
B1949514748153N12002243WA0171101790
B1949524748149N12002244WA0171301792
B1949534748146N12002248WA0171601794
B1949544748142N12002254WA0171701794
B1949554748140N12002261WA0172001795
B1949564748138N12002270WA0172101796
B1949574748137N12002279WA0172301798
B1949584748138N12002287WA0172501800
B1949594748140N12002295WA0172701802
B1950004748143N12002303WA0172801803
B1950014748146N12002309WA0173001805
B1950024748151N12002315WA0173101806
B1950024748151N12002315WA0173101806
B1950034748155N12002319WA0173301808
B1950044748161N12002321WA0173401810
B1950054748166N12002323WA0173601811
B1950064748172N12002323WA0173801812
B1950074748178N12002323WA0173901813
B1950084748184N12002321WA0174101813
B1950094748191N12002319WA0174201815
B1950104748198N12002317WA0174301817
B1950114748204N12002313WA0174501821
B1950124748209N12002309WA0174701825
B1950134748214N12002305WA0174901830
B1950144748217N12002300WA0175101833
B1950154748220N12002295WA0175401836
B1950164748223N12002288WA0175601838
B1950174748225N12002281WA0175901840
B1950184748226N12002274WA0176101843
B1950194748226N12002269WA0176401846
B1950204748225N12002265WA0176501847
B1950214748223N12002261WA0176801848
B1950224748219N12002258WA0177001849
B1950234748215N12002254WA0177201849
B1950244748210N12002251WA0177301851
B1950254748207N12002249WA0177501854
B1950264748204N12002246WA0177701857
B1950274748201N12002244WA0177901859
B1950284748198N12002241WA0178001860
B1950294748193N12002240WA0178201860
B1950304748189N12002240WA0178401860
B1950314748184N12002241WA0178501861
B1950324748179N12002242WA0178701862
B1950334748174N12002245WA0178801863
B1950344748170N12002249WA0178901864
B1950354748165N12002254WA0179001864
B1950364748161N12002260WA0179101865
B1950374748157N12002267WA0179201867
B1950384748155N12002275WA0179301868
B1950394748153N12002283WA0179501870
B1950404748152N12002291WA0179501870
B1950414748151N12002299WA0179701871
B1950424748152N12002307WA0179801873
B1950434748153N12002315WA0179901875
B1950444748155N12002322WA0180001876
B1950454748159N12002329WA0180201878
B1950464748163N12002335WA0180301879
B1950474748167N12002340WA0180501881
B1950484748172N12002344WA0180601882
B1950494748178N12002348WA0180801884
B1950504748183N12002350WA0180901886
B1950514748189N12002353WA0181101888
B1950524748195N12002354WA0181201891
B1950534748201N12002355WA0181401893
B1950544748207N12002354WA0181501895
B1950554748213N12002352WA0181701897
B1950564748218N12002349WA0181901900
B1950574748223N12002345WA0182101902
B1950584748228N12002340WA0182201905
B1950594748232N12002334WA0182501908
B1951004748236N12002327WA0182701911
B1951014748238N12002320WA0182901914
B1951024748238N12002313WA0183101917
B1951034748237N12002307WA0183401920
B1951044748235N12002301WA0183601923
B1951054748233N12002297WA0183901925
B1951064748229N12002295WA0184101927
B1951064748229N12002295WA0184101927
B1951074748226N12002293WA0184401928
B1951084748222N12002293WA0184601930
B1951094748217N12002295WA0184801931
B1951104748213N12002298WA0185001933
B1951114748210N12002302WA0185201935
B1951124748207N12002308WA0185401937
B1951134748205N12002314WA0185701939
B1951144748205N12002322WA0185801941
B1951154748205N12002330WA0186001942
B1951164748207N12002339WA0186201945
B1951174748210N12002346WA0186401948
B1951184748214N12002351WA0186601952
B1951194748217N12002354WA0186901956
B1951204748221N12002355WA0187101959
B1951214748226N12002357WA0187401961
B1951224748233N12002357WA0187601961
B1951234748239N12002357WA0187901962
B1951244748246N12002355WA0188001966
B1951254748252N12002352WA0188301971
B1951264748256N12002348WA0188601977
B1951274748259N12002343WA0188901982
B1951284748262N12002338WA0189201985
B1951294748265N12002332WA0189501988
B1951304748268N12002327WA0189801990
B1951314748271N12002320WA0190201992
B1951324748272N12002314WA0190401993
B1951334748271N12002307WA0190701993
B1951344748269N12002301WA0190901994
B1951354748265N12002297WA0191201994
B1951364748261N12002294WA0191301996
B1951374748257N12002292WA0191601997
B1951384748254N12002293WA0191701998
B1951394748250N12002295WA0191901998
B1951404748246N12002300WA0192101998
B1951414748244N12002306WA0192201998
B1951424748243N12002314WA0192301999
B1951434748242N12002323WA0192501999
B1951444748243N12002331WA0192602000
B1951454748244N12002338WA0192702002
B1951464748247N12002346WA0192802003
B1951474748251N12002353WA0192902004
B1951484748255N12002361WA0193002005
B1951494748259N12002367WA0193202007
B1951504748264N12002372WA0193302010
B1951514748269N12002375WA0193502011
B1951524748275N12002377WA0193602013
B1951534748281N12002378WA0193702016
B1951544748286N12002377WA0193902018
B1951554748291N12002375WA0194002020
B1951564748296N12002371WA0194202022
B1951574748300N12002366WA0194402024
B1951584748303N12002360WA0194502026
B1951594748304N12002354WA0194702029
B1952004748305N12002349WA0194802030
B1952014748305N12002343WA0195002032
B1952024748305N12002337WA0195202033
B1952034748304N12002330WA0195302034
B1952044748304N12002322WA0195502034
B1952054748303N12002315WA0195602035
B1952064748303N12002308WA0195702036
B1952074748302N12002302WA0195902038
B1952084748302N12002296WA0196002038
B1952094748301N12002290WA0196102038
B1952104748301N12002283WA0196202038
B1952104748301N12002283WA0196202038
B1952114748299N12002275WA0196302039
B1952124748298N12002269WA0196402041
B1952134748297N12002263WA0196502043
B1952144748296N12002257WA0196602045
B1952154748295N12002251WA0196802046
B1952164748293N12002246WA0196902046
B1952174748291N12002240WA0197002046
B1952184748288N12002234WA0197102045
B1952194748284N12002229WA0197202046
B1952204748281N12002224WA0197302048
B1952214748278N12002220WA0197402049
B1952224748275N12002215WA0197502050
B1952234748272N12002209WA0197602050
B1952244748269N12002203WA0197702050
B1952254748267N12002197WA0197802050
B1952264748265N12002191WA0197902052
B1952274748263N12002184WA0198002054
B1952284748263N12002178WA0198002055
B1952294748262N12002172WA0198102056
B1952304748261N12002165WA0198202056
B1952314748261N12002158WA0198302056
B1952324748259N12002152WA0198302055
B1952334748258N12002145WA0198402056
B1952344748256N12002139WA0198502056
B1952354748254N12002133WA0198502057
B1952364748251N12002127WA0198602057
B1952374748249N12002121WA0198602057
B1952384748246N12002115WA0198702056
B1952394748242N12002109WA0198702056
B1952404748239N12002104WA0198702056
B1952414748235N12002098WA0198702056
B1952424748232N12002093WA0198802056
B1952434748229N12002087WA0198802058
B1952444748226N12002082WA0198802060
B1952454748224N12002077WA0198902063
B1952464748221N12002073WA0199002064
B1952474748218N12002070WA0199102065
B1952484748215N12002066WA0199102065
B1952494748210N12002064WA0199202064
B1952504748206N12002064WA0199302064
B1952514748201N12002065WA0199302064
B1952524748198N12002069WA0199402065
B1952534748195N12002073WA0199402066
B1952544748193N12002078WA0199502067
B1952554748193N12002084WA0199602070
B1952564748194N12002091WA0199602072
B1952574748196N12002097WA0199802074
B1952584748198N12002103WA0199802075
B1952594748200N12002109WA0200002077
B1953004748203N12002114WA0200102079
B1953014748206N12002118WA0200202080
B1953024748211N12002120WA0200302081
B1953034748216N12002121WA0200502081
B1953044748221N12002119WA0200502083
B1953054748225N12002117WA0200702085
B1953064748229N12002115WA0200802086
B1953074748233N12002113WA0201002088
B1953084748235N12002109WA0201102089
B1953094748238N12002103WA0201202088
B1953104748241N12002095WA0201302086
B1953114748244N12002087WA0201402085
B1953124748247N12002079WA0201402085
B1953134748249N12002072WA0201502087
B1953134748249N12002072WA0201502087
B1953144748250N12002066WA0201502088
B1953154748250N12002060WA0201602089
B1953164748249N12002053WA0201702089
B1953174748248N12002046WA0201702088
B1953184748246N12002038WA0201802088
B1953194748243N12002030WA0201802088
B1953204748240N12002024WA0201802089
B1953214748237N12002018WA0201802089
B1953224748234N12002012WA0201902090
B1953234748231N12002007WA0201902090
B1953244748228N12002001WA0202002089
B1953254748224N12001994WA0202002090
B1953264748221N12001987WA0202102089
B1953274748217N12001980WA0202102091
B1953284748213N12001975WA0202102091
B1953294748209N12001970WA0202202091
B1953304748204N12001966WA0202202091
B1953314748200N12001963WA0202302093
B1953324748195N12001961WA0202302094
B1953334748191N12001959WA0202402094
B1953344748188N12001959WA0202402094
B1953354748184N12001959WA0202402094
B1953364748181N12001960WA0202502094
B1953374748177N12001962WA0202502093
B1953384748174N12001964WA0202502092
B1953394748171N12001967WA0202502091
B1953404748168N12001971WA0202502090
B1953414748167N12001977WA0202502090
B1953424748166N12001982WA0202502089
B1953434748165N12001988WA0202502089
B1953444748163N12001992WA0202402090
B1953454748161N12001996WA0202402090
B1953464748158N12002000WA0202402089
B1953474748155N12002005WA0202302088
B1953484748153N12002010WA0202302088
B1953494748151N12002015WA0202202088
B1953504748149N12002019WA0202202088
B1953514748147N12002024WA0202202088
B1953524748145N12002029WA0202102088
B1953534748142N12002033WA0202102088
B1953544748139N12002038WA0202102088
B1953554748137N12002042WA0202102088
B1953564748136N12002047WA0202102087
B1953574748135N12002053WA0202002087
B1953584748135N12002060WA0202002087
B1953594748136N12002066WA0202002088
B1954004748137N12002070WA0202002089
B1954014748139N12002073WA0202002090
B1954024748141N12002075WA0202102090
B1954034748144N12002078WA0202102088
B1954044748147N12002083WA0202102086
B1954054748150N12002088WA0202002084
B1954064748153N12002093WA0202002084
B1954074748156N12002097WA0202002085
B1954084748159N12002100WA0202002088
B1954094748162N12002102WA0202002089
B1954104748165N12002106WA0202002090
B1954114748168N12002109WA0202002089
B1954124748172N12002113WA0202002088
B1954134748177N12002115WA0202002087
B1954144748182N12002116WA0201902086
B1954154748187N12002115WA0201902087
B1954164748191N12002114WA0201902087
B1954174748195N12002113WA0201902087
B1954174748195N12002113WA0201902087
B1954184748200N12002110WA0201902086
B1954194748204N12002107WA0201902083
B1954204748209N12002101WA0201802081
B1954214748214N12002094WA0201702079
B1954224748218N12002085WA0201702080
B1954234748220N12002075WA0201602081
B1954244748222N12002066WA0201602081
B1954254748225N12002057WA0201602081
B1954264748227N12002047WA0201502081
B1954274748229N12002037WA0201502081
B1954284748230N12002028WA0201402082
B1954294748231N12002020WA0201402083
B1954304748232N12002013WA0201402084
B1954314748233N12002004WA0201402084
B1954324748235N12001994WA0201402083
B1954334748236N12001984WA0201402082
B1954344748236N12001974WA0201402082
B1954354748236N12001964WA0201402082
B1954364748235N12001956WA0201402083
B1954374748233N12001948WA0201402083
B1954384748232N12001940WA0201402083
B1954394748231N12001931WA0201402083
B1954404748230N12001922WA0201302081
B1954414748228N12001913WA0201302081
B1954424748226N12001905WA0201302081
B1954434748224N12001899WA0201302081
B1954444748222N12001893WA0201302081
B1954454748219N12001888WA0201202081
B1954464748216N12001883WA0201202079
B1954474748213N12001877WA0201202077
B1954484748209N12001871WA0201102076
B1954494748205N12001866WA0201102076
B1954504748201N12001862WA0201002076
B1954514748196N12001858WA0200902075
B1954524748192N12001855WA0200902074
B1954534748187N12001852WA0200802073
B1954544748182N12001848WA0200702072
B1954554748178N12001845WA0200602072
B1954564748173N12001842WA0200602071
B1954574748168N12001839WA0200502071
B1954584748164N12001837WA0200502070
B1954594748159N12001833WA0200402069
B1955004748154N12001829WA0200302067
B1955014748149N12001824WA0200202065
B1955024748144N12001820WA0200102063
B1955034748139N12001816WA0199902062
B1955044748135N12001813WA0199802060
B1955054748131N12001810WA0199702058
B1955064748127N12001808WA0199602055
B1955074748122N12001805WA0199302050
B1955084748117N12001802WA0199202045
B1955094748112N12001799WA0198902041
B1955104748107N12001797WA0198702038
B1955114748102N12001796WA0198402036
B1955124748097N12001794WA0198202033
B1955134748092N12001792WA0197902030
B1955144748087N12001790WA0197702027
B1955154748081N12001789WA0197402023
B1955164748075N12001787WA0197102018
B1955174748068N12001785WA0196802014
B1955184748061N12001783WA0196502012
B1955194748056N12001781WA0196102010
B1955204748052N12001780WA0195902010
B1955204748052N12001780WA0195902010
B1955214748048N12001779WA0195602009
B1955224748044N12001778WA0195402006
B1955234748040N12001776WA0195102002
B1955244748035N12001775WA0194901997
B1955254748030N12001776WA0194501993
B1955264748026N12001778WA0194301989
B1955274748022N12001781WA0193901985
B1955284748018N12001783WA0193701983
B1955294748014N12001784WA0193401981
B1955304748009N12001785WA0193101977
B1955314748003N12001785WA0192701973
B1955324747997N12001784WA0192501970
B1955334747992N12001784WA0192101967
B1955344747987N12001783WA0191901965
B1955354747982N12001782WA0191501964
B1955364747977N12001781WA0191301963
B1955374747972N12001780WA0191001960
B1955384747967N12001780WA0190801959
B1955394747962N12001779WA0190501957
B1955404747958N12001778WA0190301955
B1955414747953N12001777WA0190101954
B1955424747949N12001777WA0189901952
B1955434747945N12001777WA0189601950
B1955444747940N12001777WA0189501948
B1955454747936N12001778WA0189201946
B1955464747931N12001778WA0189001944
B1955474747927N12001778WA0188801942
B1955484747923N12001777WA0188601942
B1955494747919N12001776WA0188401941
B1955504747916N12001775WA0188301940
B1955514747912N12001775WA0188101939
B1955524747908N12001775WA0188001937
B1955534747903N12001775WA0187801936
B1955544747899N12001775WA0187701934
B1955554747895N12001774WA0187501933
B1955564747891N12001774WA0187401932
B1955574747887N12001775WA0187201931
B1955584747883N12001776WA0187101929
B1955594747879N12001777WA0186901928
B1956004747875N12001779WA0186801927
B1956014747871N12001780WA0186601926
B1956024747867N12001782WA0186501926
B1956034747863N12001784WA0186401924
B1956044747859N12001787WA0186301922
B1956054747855N12001789WA0186101921
B1956064747850N12001791WA0186001919
B1956074747844N12001792WA0185801917
B1956084747839N12001794WA0185701916
B1956094747834N12001795WA0185501914
B1956104747830N12001796WA0185401913
B1956114747826N12001797WA0185301913
B1956124747821N12001798WA0185201912
B1956134747816N12001798WA0185101911
B1956144747811N12001798WA0185001910
B1956154747806N12001798WA0184901909
B1956164747801N12001799WA0184801909
B1956174747797N12001799WA0184701910
B1956184747793N12001799WA0184701910
B1956194747789N12001801WA0184601909
B1956204747784N12001802WA0184601909
B1956214747780N12001803WA0184501907
B1956224747775N12001803WA0184401906
B1956234747770N12001804WA0184301905
B1956234747770N12001804WA0184301905
B1956244747765N12001804WA0184301905
B1956254747761N12001805WA0184201905
B1956264747757N12001805WA0184101905
B1956274747752N12001805WA0184001903
B1956284747748N12001805WA0183901902
B1956294747743N12001805WA0183801899
B1956304747738N12001804WA0183801897
B1956314747733N12001803WA0183601894
B1956324747728N12001801WA0183501892
B1956334747724N12001799WA0183301891
B1956344747719N12001798WA0183201890
B1956354747715N12001797WA0183001889
B1956364747711N12001795WA0182901887
B1956374747706N12001794WA0182801885
B1956384747701N12001792WA0182701883
B1956394747695N12001790WA0182501881
B1956404747690N12001788WA0182401880
B1956414747685N12001787WA0182201880
B1956424747681N12001787WA0182101880
B1956434747676N12001786WA0182001879
B1956444747671N12001786WA0181901878
B1956454747666N12001785WA0181801876
B1956464747660N12001784WA0181701875
B1956474747655N12001783WA0181501874
B1956484747650N12001783WA0181401874
B1956494747645N12001782WA0181301874
B1956504747641N12001781WA0181201873
B1956514747636N12001779WA0181101873
B1956524747632N12001776WA0181101871
B1956534747627N12001774WA0180901869
B1956544747621N12001772WA0180801867
B1956554747616N12001771WA0180701866
B1956564747610N12001770WA0180601865
B1956574747605N12001770WA0180401864
B1956584747600N12001769WA0180301862
B1956594747594N12001767WA0180201861
B1957004747589N12001766WA0180101859
B1957014747583N12001765WA0179901856
B1957024747578N12001764WA0179801855
B1957034747572N12001764WA0179601854
B1957044747567N12001763WA0179501853
B1957054747562N12001762WA0179401853
B1957064747557N12001761WA0179301853
B1957074747551N12001761WA0179201851
B1957084747546N12001761WA0179101850
B1957094747540N12001761WA0179001848
B1957104747534N12001761WA0178901848
B1957114747528N12001761WA0178801848
B1957124747522N12001760WA0178701848
B1957134747517N12001760WA0178601847
B1957144747511N12001760WA0178501845
B1957154747505N12001761WA0178401843
B1957164747499N12001761WA0178301841
B1957174747492N12001762WA0178201840
B1957184747486N12001762WA0178101838
B1957194747481N12001762WA0178001837
B1957204747475N12001762WA0177901836
B1957214747469N12001762WA0177701835
B1957224747463N12001762WA0177601834
B1957234747457N12001762WA0177501832
B1957244747451N12001763WA0177401830
B1957254747445N12001763WA0177201829
B1957264747439N12001763WA0177101828
B1957274747432N12001763WA0176901827
B1957274747432N12001763WA0176901827
B1957284747426N12001763WA0176801826
B1957294747420N12001763WA0176701824
B1957304747414N12001762WA0176501822
B1957314747408N12001763WA0176401819
B1957324747401N12001763WA0176201817
B1957334747395N12001763WA0176001815
B1957344747388N12001763WA0175901814
B1957354747382N12001764WA0175701813
B1957364747376N12001766WA0175601811
B1957374747370N12001769WA0175401810
B1957384747364N12001771WA0175301808
B1957394747358N12001773WA0175101807
B1957404747353N12001776WA0175001805
B1957414747347N12001779WA0174801804
B1957424747342N12001783WA0174601802
B1957434747336N12001786WA0174401801
B1957444747331N12001789WA0174301799
B1957454747325N12001791WA0174101797
B1957464747319N12001793WA0174001795
B1957474747313N12001795WA0173801795
B1957484747307N12001797WA0173701794
B1957494747302N12001799WA0173501793
B1957504747297N12001801WA0173401792
B1957514747291N12001803WA0173201791
B1957524747286N12001805WA0173101790
B1957534747280N12001808WA0172901789
B1957544747274N12001810WA0172801788
B1957554747269N12001812WA0172701787
B1957564747264N12001814WA0172601787
B1957574747259N12001816WA0172401786
B1957584747254N12001818WA0172401785
B1957594747249N12001820WA0172201784
B1958004747244N12001822WA0172101782
B1958014747239N12001823WA0172001781
B1958024747233N12001824WA0171901780
B1958034747228N12001825WA0171801779
B1958044747222N12001826WA0171701778
B1958054747216N12001827WA0171501777
B1958064747211N12001828WA0171501777
B1958074747205N12001828WA0171401777
B1958084747200N12001827WA0171301778
B1958094747195N12001827WA0171201778
B1958104747189N12001827WA0171201779
B1958114747185N12001827WA0171101779
B1958124747180N12001826WA0171101779
B1958134747176N12001825WA0171001779
B1958144747171N12001825WA0171001777
B1958154747166N12001825WA0171001776
B1958164747161N12001825WA0170901774
B1958174747157N12001825WA0170801773
B1958184747153N12001826WA0170801773
B1958194747150N12001826WA0170701772
B1958204747146N12001827WA0170601770
B1958214747142N12001827WA0170601768
B1958224747138N12001826WA0170501765
B1958234747133N12001826WA0170401763
B1958244747128N12001827WA0170301762
B1958254747122N12001829WA0170101760
B1958264747116N12001830WA0170101758
B1958274747110N12001832WA0169901757
B1958284747105N12001833WA0169801758
B1958294747100N12001833WA0169701758
B1958304747094N12001834WA0169601758
B1958314747089N12001836WA0169501757
B1958314747089N12001836WA0169501757
B1958324747083N12001837WA0169401756
B1958334747078N12001837WA0169301756
B1958344747072N12001838WA0169301756
B1958354747066N12001838WA0169201756
B1958364747061N12001838WA0169201756
B1958374747056N12001839WA0169101757
B1958384747051N12001840WA0169101757
B1958394747048N12001841WA0169001759
B1958404747045N12001842WA0169001761
B1958414747043N12001843WA0169101763
B1958424747041N12001843WA0169101763
B1958434747038N12001844WA0169201763
B1958444747034N12001845WA0169201762
B1958454747029N12001845WA0169201762
B1958464747026N12001843WA0169201762
B1958474747023N12001839WA0169201763
B1958484747021N12001833WA0169201762
B1958494747020N12001826WA0169201762
B1958504747020N12001818WA0169201761
B1958514747022N12001809WA0169101759
B1958524747027N12001801WA0169101758
B1958534747033N12001795WA0169001756
B1958544747040N12001793WA0169001755
B1958554747047N12001793WA0168901755
B1958564747052N12001796WA0168901755
B1958574747057N12001801WA0168801755
B1958584747061N12001807WA0168801755
B1958594747063N12001813WA0168701756
B1959004747064N12001820WA0168701756
B1959014747064N12001828WA0168701755
B1959024747063N12001836WA0168701754
B1959034747063N12001843WA0168601754
B1959044747062N12001850WA0168601755
B1959054747061N12001856WA0168601756
B1959064747060N12001862WA0168601756
B1959074747058N12001867WA0168601755
B1959084747056N12001872WA0168601755
B1959094747054N12001877WA0168601755
B1959104747051N12001881WA0168601754
B1959114747049N12001884WA0168601755
B1959124747045N12001888WA0168601754
B1959134747042N12001891WA0168501752
B1959144747038N12001894WA0168501751
B1959154747034N12001896WA0168501751
B1959164747030N12001898WA0168401751
B1959174747026N12001900WA0168401752
B1959184747024N12001902WA0168401753
B1959194747022N12001905WA0168401754
B1959204747020N12001908WA0168401754
B1959214747017N12001912WA0168401753
B1959224747015N12001915WA0168401753
B1959234747011N12001919WA0168401753
B1959244747008N12001922WA0168401754
B1959254747005N12001924WA0168401754
B1959264747002N12001925WA0168401755
B1959274746998N12001926WA0168501754
B1959284746995N12001929WA0168501754
B1959294746992N12001932WA0168501754
B1959304746990N12001936WA0168501755
B1959314746989N12001941WA0168501755
B1959324746989N12001946WA0168501756
B1959334746990N12001952WA0168601756
B1959344746991N12001958WA0168601756
B1959354746993N12001965WA0168601756
B1959364746993N12001972WA0168601756
B1959364746993N12001972WA0168601756
B1959374746993N12001978WA0168601757
B1959384746992N12001984WA0168701757
B1959394746989N12001988WA0168701756
B1959404746986N12001991WA0168701756
B1959414746983N12001992WA0168701756
B1959424746979N12001992WA0168701756
B1959434746976N12001991WA0168701756
B1959444746972N12001990WA0168701757
B1959454746970N12001988WA0168801758
B1959464746968N12001985WA0168801759
B1959474746966N12001981WA0168901759
B1959484746964N12001975WA0168901759
B1959494746963N12001967WA0168901758
B1959504746964N12001959WA0168901758
B1959514746965N12001950WA0168901757
B1959524746969N12001941WA0168901757
B1959534746975N12001935WA0169001757
B1959544746981N12001931WA0169001757
B1959554746988N12001929WA0168901757
B1959564746994N12001930WA0168901757
B1959574747000N12001932WA0168901757
B1959584747005N12001937WA0168901757
B1959594747009N12001942WA0168901756
B2000004747011N12001949WA0168901755
B2000014747011N12001956WA0168901755
B2000024747010N12001963WA0168901754
B2000034747008N12001969WA0168901754
B2000044747007N12001974WA0168801755
B2000054747006N12001980WA0168801755
B2000064747005N12001986WA0168801756
B2000074747004N12001991WA0168801756
B2000084747002N12001997WA0168801756
B2000094747001N12002003WA0168801756
B2000104747000N12002010WA0168801756
B2000114746999N12002016WA0168801756
B2000124746998N12002023WA0168801757
B2000134746998N12002029WA0168801758
B2000144746997N12002035WA0168901759
B2000154746996N12002040WA0168901759
B2000164746994N12002045WA0168901759
B2000174746992N12002050WA0169001758
B2000184746990N12002055WA0169001757
B2000194746987N12002060WA0169001757
B2000204746983N12002064WA0169001757
B2000214746979N12002066WA0169001756
B2000224746975N12002067WA0169001756
B2000234746971N12002068WA0169001756
B2000244746966N12002068WA0169001756
B2000254746962N12002068WA0169001755
B2000264746957N12002068WA0168901753
B2000274746951N12002069WA0168901751
B2000284746946N12002069WA0168801750
B2000294746941N12002070WA0168701749
B2000304746936N12002070WA0168701749
B2000314746932N12002069WA0168601749
B2000324746927N12002067WA0168601749
B2000334746922N12002066WA0168501748
B2000344746917N12002066WA0168501746
B2000354746912N12002065WA0168401744
B2000364746907N12002064WA0168301741
B2000374746901N12002062WA0168201740
B2000384746896N12002060WA0168101738
B2000394746890N12002058WA0168001736
B2000404746884N12002057WA0167801734
B2000404746884N12002057WA0167801734
B2000414746878N12002056WA0167701733
B2000424746872N12002055WA0167601732
B2000434746867N12002053WA0167401733
B2000444746861N12002052WA0167301732
B2000454746856N12002050WA0167201733
B2000464746850N12002048WA0167101732
B2000474746844N12002048WA0167001732
B2000484746839N12002047WA0167001733
B2000494746834N12002046WA0166901736
B2000504746830N12002045WA0166901738
B2000514746826N12002044WA0166901739
B2000524746823N12002044WA0166901739
B2000534746819N12002044WA0167001738
B2000544746815N12002045WA0167001736
B2000554746811N12002048WA0166901734
B2000564746807N12002052WA0166901732
B2000574746804N12002057WA0166901731
B2000584746802N12002062WA0166801731
B2000594746801N12002068WA0166801731
B2001004746802N12002074WA0166801731
B2001014746804N12002080WA0166701730
B2001024746808N12002086WA0166701729
B2001034746812N12002090WA0166601729
B2001044746817N12002094WA0166601729
B2001054746821N12002095WA0166601729
B2001064746826N12002096WA0166601730
B2001074746831N12002096WA0166501731
B2001084746836N12002095WA0166601732
B2001094746839N12002094WA0166601732
B2001104746843N12002092WA0166601732
B2001114746847N12002087WA0166601731
B2001124746851N12002079WA0166601729
B2001134746854N12002070WA0166601728
B2001144746855N12002062WA0166601726
B2001154746857N12002054WA0166601727
B2001164746859N12002046WA0166601728
B2001174746861N12002038WA0166601728
B2001184746863N12002029WA0166501728
B2001194746866N12002020WA0166501727
B2001204746867N12002011WA0166501728
B2001214746869N12002003WA0166501728
B2001224746869N12001994WA0166501728
B2001234746870N12001985WA0166501729
B2001244746870N12001976WA0166501729
B2001254746870N12001968WA0166501728
B2001264746868N12001960WA0166501727
B2001274746865N12001953WA0166501727
B2001284746861N12001947WA0166501726
B2001294746856N12001942WA0166401725
B2001304746851N12001938WA0166401724
B2001314746847N12001935WA0166301723
B2001324746843N12001931WA0166301722
B2001334746837N12001929WA0166201721
B2001344746832N12001927WA0166201720
B2001354746827N12001924WA0166101718
B2001364746822N12001921WA0166001717
B2001374746816N12001918WA0165901714
B2001384746811N12001914WA0165801713
B2001394746806N12001910WA0165701712
B2001404746801N12001907WA0165601712
B2001414746796N12001904WA0165501710
B2001424746791N12001901WA0165401709
B2001434746785N12001898WA0165301708
B2001434746785N12001898WA0165301708
B2001444746780N12001896WA0165201707
B2001454746774N12001893WA0165001706
B2001464746769N12001890WA0165001705
B2001474746764N12001887WA0164801704
B2001484746759N12001884WA0164801703
B2001494746753N12001881WA0164601702
B2001504746748N12001878WA0164501701
B2001514746743N12001875WA0164401700
B2001524746739N12001871WA0164301700
B2001534746735N12001868WA0164201699
B2001544746731N12001864WA0164201698
B2001554746726N12001862WA0164001695
B2001564746721N12001859WA0163901692
B2001574746715N12001857WA0163801689
B2001584746709N12001855WA0163601686
B2001594746704N12001852WA0163401685
B2002004746699N12001848WA0163301685
B2002014746694N12001845WA0163101684
B2002024746690N12001842WA0163001683
B2002034746684N12001839WA0162801682
B2002044746679N12001836WA0162701680
B2002054746673N12001833WA0162501678
B2002064746668N12001830WA0162401677
B2002074746662N12001827WA0162201677
B2002084746658N12001824WA0162101676
B2002094746653N12001822WA0161901675
B2002104746649N12001819WA0161801674
B2002114746644N12001817WA0161701672
B2002124746639N12001815WA0161601670
B2002134746633N12001813WA0161401669
B2002144746628N12001812WA0161301668
B2002154746623N12001811WA0161101667
B2002164746618N12001811WA0161001666
B2002174746613N12001810WA0160901666
B2002184746608N12001809WA0160801665
B2002194746603N12001808WA0160601663
B2002204746597N12001807WA0160501660
B2002214746591N12001807WA0160401658
B2002224746585N12001807WA0160201656
B2002234746579N12001808WA0160001655
B2002244746574N12001808WA0159901655
B2002254746569N12001807WA0159801655
B2002264746564N12001806WA0159701654
B2002274746559N12001805WA0159501652
B2002284746554N12001804WA0159401650
B2002294746548N12001803WA0159301649
B2002304746542N12001802WA0159201648
B2002314746537N12001801WA0159101648
B2002324746532N12001800WA0159001648
B2002334746527N12001800WA0158901647
B2002344746522N12001799WA0158801646
B2002354746517N12001798WA0158701646
B2002364746512N12001798WA0158601645
B2002374746506N12001797WA0158501645
B2002384746502N12001796WA0158401646
B2002394746498N12001794WA0158301647
B2002404746494N12001792WA0158301648
B2002414746489N12001791WA0158301648
B2002424746484N12001789WA0158301648
B2002434746479N12001787WA0158201647
B2002444746474N12001786WA0158201647
B2002454746470N12001784WA0158201646
B2002464746465N12001782WA0158101645
B2002464746465N12001782WA0158101645
B2002474746460N12001780WA0158101644
B2002484746455N12001778WA0158001642
B2002494746449N12001777WA0158001640
B2002504746443N12001775WA0157901638
B2002514746438N12001774WA0157801637
B2002524746432N12001772WA0157701636
B2002534746427N12001770WA0157501635
B2002544746423N12001768WA0157401634
B2002554746418N12001766WA0157301632
B2002564746413N12001766WA0157201630
B2002574746409N12001766WA0157001628
B2002584746405N12001765WA0156901625
B2002594746400N12001765WA0156701622
B2003004746396N12001764WA0156601619
B2003014746391N12001764WA0156401615
B2003024746386N12001764WA0156201612
B2003034746382N12001764WA0156001610
B2003044746378N12001765WA0155801608
B2003054746374N12001764WA0155501605
B2003064746370N12001764WA0155301603
B2003074746365N12001764WA0155101599
B2003084746361N12001763WA0154901596
B2003094746356N12001762WA0154601595
B2003104746352N12001761WA0154401593
B2003114746349N12001762WA0154101591
B2003124746345N12001762WA0154001589
B2003134746341N12001763WA0153701586
B2003144746337N12001763WA0153501582
B2003154746333N12001764WA0153201581
B2003164746330N12001764WA0153001580
B2003174746326N12001766WA0152701578
B2003184746323N12001768WA0152601575
B2003194746319N12001770WA0152301573
B2003204746315N12001772WA0152101571
B2003214746311N12001774WA0151801569
B2003224746307N12001776WA0151701567
B2003234746304N12001777WA0151401565
B2003244746301N12001778WA0151201564
B2003254746298N12001779WA0151001562
B2003264746294N12001780WA0150801559
B2003274746291N12001780WA0150501555
B2003284746287N12001779WA0150301551
B2003294746283N12001778WA0150001548
B2003304746278N12001777WA0149801545
B2003314746274N12001776WA0149501542
B2003324746269N12001775WA0149301538
B2003334746265N12001775WA0148901534
B2003344746260N12001775WA0148701530
B2003354746255N12001776WA0148301526
B2003364746251N12001778WA0148101522
B2003374746247N12001780WA0147701518
B2003384746242N12001783WA0147501513
B2003394746237N12001786WA0147001509
B2003404746232N12001788WA0146801504
B2003414746227N12001791WA0146301500
B2003424746223N12001793WA0146001497
B2003434746218N12001795WA0145601493
B2003444746214N12001797WA0145301489
B2003454746209N12001799WA0144901485
B2003464746204N12001800WA0144601480
B2003474746199N12001801WA0144101475
B2003484746193N12001802WA0143801471
B2003494746189N12001804WA0143301467
B2003494746189N12001804WA0143301467
B2003504746184N12001806WA0143001463
B2003514746179N12001808WA0142601459
B2003524746174N12001810WA0142301456
B2003534746170N12001812WA0141801452
B2003544746165N12001813WA0141501449
B2003554746161N12001816WA0141101446
B2003564746156N12001818WA0140801442
B2003574746152N12001821WA0140401438
B2003584746147N12001823WA0140101435
B2003594746143N12001824WA0139701433
B2004004746138N12001825WA0139401430
B2004014746134N12001826WA0139101428
B2004024746130N12001828WA0138801425
B2004034746126N12001829WA0138401422
B2004044746121N12001830WA0138201419
B2004054746116N12001830WA0137801416
B2004064746112N12001831WA0137601414
B2004074746107N12001832WA0137201411
B2004084746103N12001833WA0137001409
B2004094746099N12001834WA0136701407
B2004104746094N12001834WA0136501404
B2004114746090N12001834WA0136201402
B2004124746085N12001834WA0136001399
B2004134746080N12001835WA0135601396
B2004144746076N12001837WA0135401393
B2004154746071N12001838WA0135101391
B2004164746067N12001840WA0134901389
B2004174746063N12001842WA0134601386
B2004184746059N12001844WA0134401383
B2004194746054N12001846WA0134101379
B2004204746050N12001848WA0133901376
B2004214746045N12001850WA0133601372
B2004224746040N12001852WA0133301368
B2004234746035N12001855WA0133001364
B2004244746030N12001858WA0132701361
B2004254746026N12001861WA0132401359
B2004264746022N12001864WA0132101356
B2004274746019N12001866WA0131801353
B2004284746014N12001869WA0131501348
B2004294746009N12001871WA0131101342
B2004304746004N12001874WA0130801336
B2004314745999N12001877WA0130401332
B2004324745994N12001879WA0130101330
B2004334745991N12001881WA0129701329
B2004344745987N12001883WA0129501326
B2004354745984N12001885WA0129101322
B2004364745980N12001888WA0128801317
B2004374745974N12001892WA0128401311
B2004384745968N12001896WA0128101306
B2004394745963N12001899WA0127601303
B2004404745958N12001901WA0127301302
B2004414745955N12001903WA0127001301
B2004424745951N12001905WA0126701299
B2004434745947N12001907WA0126301295
B2004444745942N12001910WA0126101291
B2004454745938N12001912WA0125701286
B2004464745933N12001915WA0125401283
B2004474745928N12001917WA0125001280
B2004484745924N12001919WA0124801277
B2004494745919N12001921WA0124401275
B2004504745915N12001922WA0124201273
B2004514745912N12001924WA0123801272
B2004524745908N12001926WA0123601270
B2004534745905N12001927WA0123301267
B2004534745905N12001927WA0123301267
B2004544745900N12001929WA0123101264
B2004554745895N12001931WA0122801260
B2004564745890N12001932WA0122501258
B2004574745886N12001933WA0122201257
B2004584745882N12001935WA0122001257
B2004594745879N12001936WA0121801256
B2005004745876N12001937WA0121601255
B2005014745873N12001938WA0121401253
B2005024745870N12001940WA0121201249
B2005034745866N12001941WA0121001247
B2005044745862N12001943WA0120801244
B2005054745859N12001944WA0120501241
B2005064745856N12001945WA0120401239
B2005074745853N12001945WA0120101237
B2005084745850N12001946WA0119901235
B2005094745847N12001947WA0119701232
B2005104745845N12001948WA0119501228
B2005114745841N12001948WA0119201225
B2005124745838N12001949WA0119001221
B2005134745835N12001951WA0118701219
B2005144745832N12001952WA0118501216
B2005154745829N12001953WA0118101213
B2005164745826N12001953WA0117901210
B2005174745822N12001954WA0117601205
B2005184745818N12001955WA0117401202
B2005194745814N12001958WA0117001200
B2005204745811N12001962WA0116801197
B2005214745808N12001966WA0116501196
B2005224745804N12001969WA0116301194
B2005234745801N12001971WA0116001191
B2005244745798N12001973WA0115801188
B2005254745794N12001975WA0115501185
B2005264745789N12001978WA0115301183
B2005274745785N12001981WA0115001180
B2005284745781N12001983WA0114801178
B2005294745777N12001985WA0114501176
B2005304745773N12001988WA0114301175
B2005314745769N12001990WA0114001173
B2005324745765N12001993WA0113801170
B2005334745761N12001996WA0113601168
B2005344745757N12001998WA0113401166
B2005354745753N12002000WA0113101164
B2005364745750N12002002WA0112901162
B2005374745746N12002004WA0112701159
B2005384745741N12002006WA0112501155
B2005394745736N12002007WA0112201152
B2005404745730N12002007WA0112001149
B2005414745725N12002007WA0111701148
B2005424745721N12002007WA0111501148
B2005434745717N12002006WA0111301149
B2005444745712N12002007WA0111201148
B2005454745707N12002007WA0111001148
B2005464745701N12002008WA0110901148
B2005474745696N12002009WA0110701149
B2005484745692N12002010WA0110601150
B2005494745688N12002012WA0110501151
B2005504745684N12002013WA0110501153
B2005514745680N12002014WA0110401153
B2005524745676N12002015WA0110401153
B2005534745672N12002017WA0110401153
B2005544745668N12002018WA0110401153
B2005554745663N12002019WA0110301153
B2005564745659N12002020WA0110301154
B2005574745655N12002021WA0110301156
B2005574745655N12002021WA0110301156
B2005584745651N12002022WA0110401157
B2005594745647N12002022WA0110401159
B2006004745644N12002023WA0110501160
B2006014745642N12002026WA0110501161
B2006024745638N12002030WA0110601161
B2006034745635N12002035WA0110601160
B2006044745633N12002043WA0110701161
B2006054745633N12002051WA0110701160
B2006064745635N12002061WA0110701159
B2006074745639N12002071WA0110701159
B2006084745643N12002078WA0110801160
B2006094745647N12002082WA0110801163
B2006104745652N12002085WA0110901163
B2006114745657N12002086WA0110901163
B2006124745664N12002087WA0111001163
B2006134745670N12002087WA0111101164
B2006144745675N12002086WA0111101166
B2006154745678N12002082WA0111201168
B2006164745682N12002078WA0111301169
B2006174745684N12002074WA0111401172
B2006184745686N12002069WA0111501174
B2006194745686N12002065WA0111601176
B2006204745686N12002062WA0111701178
B2006214745684N12002060WA0111901178
B2006224745681N12002059WA0112001177
B2006234745676N12002061WA0112101176
B2006244745671N12002066WA0112101176
B2006254745668N12002072WA0112201177
B2006264745665N12002080WA0112301180
B2006274745664N12002087WA0112401182
B2006284745664N12002094WA0112401185
B2006294745664N12002102WA0112601186
B2006304745665N12002111WA0112601187
B2006314745666N12002121WA0112801187
B2006324745669N12002131WA0112801188
B2006334745672N12002140WA0113001190
B2006344745676N12002148WA0113101191
B2006354745679N12002155WA0113201193
B2006364745683N12002161WA0113301194
B2006374745688N12002165WA0113501194
B2006384745692N12002168WA0113501193
B2006394745697N12002170WA0113601192
B2006404745702N12002170WA0113701191
B2006414745707N12002168WA0113701190
B2006424745710N12002165WA0113801189
B2006434745713N12002160WA0113801188
B2006444745714N12002154WA0113801187
B2006454745715N12002148WA0113801187
B2006464745714N12002142WA0113801186
B2006474745712N12002137WA0113801187
B2006484745709N12002134WA0113701187
B2006494745706N12002132WA0113801190
B2006504745704N12002129WA0113801194
B2006514745702N12002127WA0113901196
B2006524745699N12002125WA0113901197
B2006534745696N12002122WA0114001198
B2006544745693N12002119WA0114101199
B2006554745688N12002117WA0114201200
B2006564745684N12002113WA0114201202
B2006574745681N12002110WA0114401204
B2006584745677N12002107WA0114501207
B2006594745674N12002105WA0114601209
B2007004745669N12002103WA0114701211
B2007014745665N12002100WA0114901213
B2007024745661N12002094WA0115001215
B2007024745661N12002094WA0115001215
B2007034745659N12002086WA0115201216
B2007044745658N12002077WA0115301219
B2007054745658N12002070WA0115501222
B2007064745659N12002062WA0115701224
B2007074745659N12002055WA0115901226
B2007084745659N12002049WA0116001227
B2007094745657N12002043WA0116201228
B2007104745653N12002038WA0116301228
B2007114745648N12002037WA0116501229
B2007124745644N12002040WA0116601229
B2007134745640N12002046WA0116701229
B2007144745638N12002054WA0116701230
B2007154745638N12002062WA0116801232
B2007164745640N12002070WA0116901233
B2007174745644N12002076WA0117001234
B2007184745647N12002081WA0117101236
B2007194745652N12002084WA0117301239
B2007204745656N12002085WA0117401240
B2007214745661N12002085WA0117601241
B2007224745666N12002083WA0117701242
B2007234745671N12002081WA0117801242
B2007244745675N12002078WA0117901244
B2007254745678N12002074WA0118101245
B2007264745680N12002069WA0118201246
B2007274745682N12002063WA0118301246
B2007284745683N12002058WA0118401246
B2007294745682N12002053WA0118501247
B2007304745681N12002049WA0118601249
B2007314745678N12002047WA0118701249
B2007324745675N12002046WA0118801249
B2007334745671N12002047WA0118901248
B2007344745667N12002050WA0119001248
B2007354745663N12002054WA0119001248
B2007364745660N12002060WA0119001248
B2007374745658N12002068WA0119101248
B2007384745658N12002076WA0119101248
B2007394745658N12002086WA0119201249
B2007404745660N12002095WA0119201251
B2007414745662N12002103WA0119301254
B2007424745663N12002109WA0119401257
B2007434745665N12002114WA0119501260
B2007444745666N12002118WA0119601262
B2007454745668N12002124WA0119801263
B2007464745671N12002130WA0119901263
B2007474745673N12002137WA0120101264
B2007484745675N12002144WA0120201266
B2007494745678N12002148WA0120401269
B2007504745681N12002150WA0120501271
B2007514745685N12002151WA0120701272
B2007524745690N12002149WA0120801273
B2007534745694N12002145WA0121001275
B2007544745697N12002140WA0121101276
B2007554745698N12002134WA0121301278
B2007564745698N12002127WA0121401280
B2007574745696N12002120WA0121601281
B2007584745693N12002115WA0121701283
B2007594745691N12002111WA0121901287
B2008004745688N12002110WA0122101291
B2008014745686N12002110WA0122301293
B2008024745683N12002110WA0122401293
B2008034745679N12002111WA0122601292
B2008044745675N12002113WA0122701290
B2008054745670N12002118WA0122801290
B2008064745664N12002122WA0122901292
B2008064745664N12002122WA0122901292
B2008074745660N12002127WA0123101294
B2008084745658N12002132WA0123201298
B2008094745656N12002138WA0123301301
B2008104745656N12002144WA0123501301
B2008114745656N12002151WA0123601301
B2008124745657N12002158WA0123701303
B2008134745659N12002163WA0123901304
B2008144745662N12002169WA0124001305
B2008154745665N12002174WA0124201306
B2008164745669N12002179WA0124301307
B2008174745673N12002182WA0124401310
B2008184745677N12002183WA0124501312
B2008194745681N12002182WA0124701313
B2008204745684N12002178WA0124801315
B2008214745687N12002172WA0125001315
B2008224745688N12002164WA0125101317
B2008234745688N12002157WA0125301318
B2008244745687N12002151WA0125401322
B2008254745685N12002147WA0125601324
B2008264745683N12002142WA0125701326
B2008274745680N12002137WA0125901328
B2008284745678N12002131WA0126101329
B2008294745676N12002124WA0126301330
B2008304745674N12002118WA0126401333
B2008314745672N12002114WA0126601336
B2008324745669N12002110WA0126801339
B2008334745666N12002106WA0127001342
B2008344745664N12002102WA0127201344
B2008354745661N12002097WA0127401346
B2008364745657N12002094WA0127601347
B2008374745652N12002093WA0127801349
B2008384745647N12002095WA0128001349
B2008394745641N12002099WA0128201351
B2008404745637N12002104WA0128301355
B2008414745636N12002110WA0128601360
B2008424745637N12002115WA0128701363
B2008434745639N12002120WA0129001365
B2008444745641N12002125WA0129101366
B2008454745644N12002129WA0129401367
B2008464745648N12002132WA0129501369
B2008474745652N12002133WA0129801371
B2008484745656N12002132WA0129901372
B2008494745660N12002129WA0130101374
B2008504745663N12002125WA0130301375
B2008514745666N12002119WA0130501376
B2008524745669N12002113WA0130701378
B2008534745672N12002105WA0130901381
B2008544745673N12002097WA0131001384
B2008554745674N12002090WA0131301386
B2008564745673N12002084WA0131401389
B2008574745672N12002078WA0131701391
B2008584745670N12002073WA0131901392
B2008594745667N12002068WA0132101393
B2009004745663N12002064WA0132201393
B2009014745659N12002061WA0132401393
B2009024745654N12002060WA0132501394
B2009034745649N12002061WA0132701395
B2009044745644N12002063WA0132801396
B2009054745640N12002067WA0132901398
B2009064745637N12002070WA0133001400
B2009074745635N12002073WA0133201403
B2009084745635N12002077WA0133301405
B2009094745635N12002081WA0133501406
B2009104745635N12002086WA0133601405
B2009104745635N12002086WA0133601405
B2009114745637N12002091WA0133801404
B2009124745639N12002096WA0133901404
B2009134745641N12002100WA0134001404
B2009144745645N12002102WA0134001405
B2009154745650N12002103WA0134101406
B2009164745656N12002103WA0134201406
B2009174745661N12002103WA0134301409
B2009184745666N12002102WA0134401412
B2009194745670N12002101WA0134501415
B2009204745673N12002098WA0134601417
B2009214745677N12002095WA0134801419
B2009224745681N12002090WA0134901420
B2009234745684N12002083WA0135101420
B2009244745685N12002076WA0135201421
B2009254745685N12002068WA0135401421
B2009264745683N12002061WA0135501423
B2009274745681N12002056WA0135701424
B2009284745678N12002051WA0135801424
B2009294745674N12002047WA0136001426
B2009304745671N12002043WA0136101426
B2009314745666N12002040WA0136201427
B2009324745662N12002037WA0136301427
B2009334745657N12002038WA0136401428
B2009344745653N12002040WA0136501428
B2009354745650N12002044WA0136701429
B2009364745649N12002047WA0136801432
B2009374745648N12002051WA0136901434
B2009384745647N12002054WA0137001436
B2009394745648N12002057WA0137201437
B2009404745649N12002062WA0137201437
B2009414745650N12002066WA0137401437
B2009424745652N12002071WA0137401436
B2009434745654N12002076WA0137501436
B2009444745655N12002080WA0137601437
B2009454745657N12002083WA0137701437
B2009464745659N12002086WA0137701436
B2009474745663N12002089WA0137701435
B2009484745667N12002091WA0137701434
B2009494745672N12002093WA0137701433
B2009504745677N12002094WA0137701435
B2009514745681N12002096WA0137801438
B2009524745684N12002097WA0137801440
B2009534745689N12002098WA0137901441
B2009544745694N12002097WA0137901441
B2009554745700N12002095WA0138001441
B2009564745705N12002091WA0138001442
B2009574745709N12002087WA0138101444
B2009584745713N12002082WA0138201446
B2009594745715N12002077WA0138301448
B2010004745718N12002071WA0138401448
B2010014745721N12002065WA0138501448
B2010024745724N12002057WA0138601448
B2010034745726N12002048WA0138701448
B2010044745726N12002039WA0138701450
B2010054745725N12002031WA0138801451
B2010064745723N12002024WA0138901451
B2010074745720N12002019WA0139001453
B2010084745716N12002016WA0139001452
B2010094745711N12002015WA0139101450
B2010104745706N12002017WA0139101448
B2010114745702N12002021WA0139101447
B2010124745698N12002025WA0139101447
B2010134745697N12002031WA0139001447
B2010134745697N12002031WA0139001447
B2010144745695N12002037WA0139001447
B2010154745694N12002044WA0139001448
B2010164745693N12002052WA0139001448
B2010174745693N12002058WA0139001451
B2010184745693N12002063WA0139001454
B2010194745693N12002068WA0139101456
B2010204745693N12002073WA0139201457
B2010214745693N12002079WA0139301457
B2010224745695N12002085WA0139301456
B2010234745697N12002091WA0139401456
B2010244745699N12002097WA0139401457
B2010254745702N12002101WA0139501458
B2010264745706N12002104WA0139501458
B2010274745710N12002105WA0139601458
B2010284745715N12002106WA0139601458
B2010294745720N12002106WA0139601457
B2010304745725N12002104WA0139701457
B2010314745730N12002100WA0139701456
B2010324745734N12002094WA0139701457
B2010334745737N12002088WA0139701457
B2010344745740N12002080WA0139701457
B2010354745743N12002073WA0139701457
B2010364745745N12002065WA0139701458
B2010374745748N12002057WA0139801459
B2010384745751N12002049WA0139801460
B2010394745753N12002041WA0139901462
B2010404745755N12002033WA0139901463
B2010414745755N12002025WA0140001464
B2010424745754N12002018WA0140101464
B2010434745753N12002011WA0140101464
B2010444745751N12002005WA0140201464
B2010454745748N12002000WA0140201464
B2010464745746N12001994WA0140301463
B2010474745742N12001989WA0140301463
B2010484745738N12001985WA0140301461
B2010494745733N12001982WA0140301459
B2010504745729N12001980WA0140301458
B2010514745726N12001979WA0140201457
B2010524745721N12001980WA0140201455
B2010534745716N12001980WA0140101453
B2010544745710N12001982WA0140001450
B2010554745705N12001984WA0139901448
B2010564745699N12001986WA0139801447
B2010574745694N12001988WA0139701447
B2010584745689N12001991WA0139601446
B2010594745685N12001994WA0139501445
B2011004745681N12001999WA0139401445
B2011014745678N12002005WA0139301445
B2011024745675N12002011WA0139201445
B2011034745673N12002017WA0139101445
B2011044745671N12002022WA0139101446
B2011054745669N12002026WA0139001447
B2011064745668N12002030WA0139001447
B2011074745666N12002034WA0138901447
B2011084745664N12002040WA0138901446
B2011094745662N12002046WA0138901445
B2011104745659N12002051WA0138801445
B2011114745657N12002056WA0138801446
B2011124745654N12002061WA0138801447
B2011134745651N12002066WA0138801448
B2011144745649N12002071WA0138801449
B2011154745647N12002075WA0138801449
B2011164745645N12002080WA0138901450
B2011164745645N12002080WA0138901450
B2011174745644N12002085WA0138901449
B2011184745643N12002091WA0138901448
B2011194745642N12002098WA0138901447
B2011204745642N12002105WA0138901447
B2011214745642N12002112WA0138901447
B2011224745642N12002118WA0138901447
B2011234745642N12002124WA0138901447
B2011244745641N12002130WA0138901447
B2011254745641N12002137WA0138801447
B2011264745641N12002143WA0138801446
B2011274745641N12002151WA0138801447
B2011284745640N12002157WA0138801448
B2011294745639N12002163WA0138801450
B2011304745639N12002169WA0138901451
B2011314745638N12002175WA0138901453
B2011324745638N12002181WA0139001454
B2011334745638N12002188WA0139001455
B2011344745638N12002194WA0139101456
B2011354745640N12002200WA0139201457
B2011364745642N12002207WA0139201457
B2011374745645N12002212WA0139301458
B2011384745649N12002218WA0139301458
B2011394745654N12002223WA0139401458
B2011404745659N12002227WA0139401458
B2011414745665N12002230WA0139501458
B2011424745672N12002232WA0139501457
B2011434745680N12002233WA0139501457
B2011444745687N12002232WA0139601457
B2011454745694N12002229WA0139601457
B2011464745699N12002224WA0139601457
B2011474745703N12002219WA0139601456
B2011484745707N12002212WA0139601455
B2011494745709N12002205WA0139701455
B2011504745710N12002199WA0139601454
B2011514745710N12002191WA0139601453
B2011524745708N12002185WA0139601452
B2011534745706N12002178WA0139601452
B2011544745704N12002171WA0139601451
B2011554745702N12002165WA0139601451
B2011564745699N12002161WA0139601452
B2011574745696N12002158WA0139601451
B2011584745692N12002156WA0139501450
B2011594745687N12002156WA0139501448
B2012004745682N12002156WA0139401445
B2012014745677N12002156WA0139401444
B2012024745672N12002157WA0139301444
B2012034745667N12002159WA0139201444
B2012044745662N12002161WA0139201443
B2012054745657N12002163WA0139101444
B2012064745653N12002165WA0139101446
B2012074745650N12002167WA0139101448
B2012084745647N12002169WA0139101449
B2012094745644N12002171WA0139101448
B2012104745641N12002174WA0139101447
B2012114745637N12002176WA0139001443
B2012124745632N12002179WA0139001440
B2012134745628N12002182WA0138901438
B2012144745624N12002184WA0138801437
B2012154745621N12002187WA0138701436
B2012164745618N12002190WA0138701434
B2012174745615N12002193WA0138501431
B2012184745612N12002196WA0138401428
B2012194745609N12002200WA0138201424
B2012204745605N12002202WA0138101421
B2012204745605N12002202WA0138101421
B2012214745601N12002206WA0137901418
B2012224745597N12002209WA0137701415
B2012234745594N12002213WA0137501412
B2012244745591N12002217WA0137301409
B2012254745587N12002221WA0137001406
B2012264745583N12002224WA0136801403
B2012274745579N12002227WA0136501401
B2012284745576N12002230WA0136301400
B2012294745572N12002231WA0136101400
B2012304745568N12002232WA0135901398
B2012314745564N12002233WA0135601397
B2012324745560N12002233WA0135501396
B2012334745556N12002233WA0135301396
B2012344745552N12002232WA0135201397
B2012354745549N12002232WA0135001397
B2012364745545N12002230WA0134901396
B2012374745541N12002229WA0134701394
B2012384745536N12002227WA0134601392
B2012394745531N12002226WA0134501390
B2012404745527N12002226WA0134401390
B2012414745522N12002228WA0134201390
B2012424745519N12002229WA0134201391
B2012434745515N12002230WA0134101392
B2012444745512N12002230WA0134001392
B2012454745507N12002231WA0134001391
B2012464745503N12002233WA0133901390
B2012474745498N12002236WA0133901390
B2012484745494N12002239WA0133801390
B2012494745489N12002241WA0133801391
B2012504745485N12002241WA0133801392
B2012514745480N12002242WA0133701392
B2012524745475N12002243WA0133701392
B2012534745470N12002246WA0133701392
B2012544745465N12002248WA0133701392
B2012554745461N12002251WA0133701393
B2012564745456N12002253WA0133701395
B2012574745452N12002255WA0133701397
B2012584745448N12002257WA0133701397
B2012594745444N12002261WA0133701397
B2013004745440N12002265WA0133801397
B2013014745436N12002269WA0133801397
B2013024745432N12002273WA0133801397
B2013034745429N12002278WA0133801397
B2013044745425N12002282WA0133801396
B2013054745421N12002287WA0133801395
B2013064745416N12002290WA0133801393
B2013074745410N12002292WA0133801391
B2013084745404N12002293WA0133701389
B2013094745399N12002293WA0133601387
B2013104745393N12002294WA0133601385
B2013114745388N12002296WA0133401383
B2013124745382N12002298WA0133401381
B2013134745375N12002299WA0133201378
B2013144745369N12002299WA0133101377
B2013154745364N12002299WA0132901378
B2013164745359N12002299WA0132901379
B2013174745354N12002300WA0132701378
B2013184745349N12002301WA0132701377
B2013194745343N12002301WA0132601376
B2013204745337N12002301WA0132501375
B2013214745332N12002299WA0132401374
B2013224745327N12002297WA0132301374
B2013234745323N12002294WA0132201373
B2013244745318N12002292WA0132101373
B2013254745313N12002290WA0132001372
B2013254745313N12002290WA0132001372
B2013264745308N12002290WA0132001371
B2013274745302N12002290WA0131901370
B2013284745297N12002290WA0131801370
B2013294745292N12002290WA0131701369
B2013304745287N12002289WA0131701368
B2013314745282N12002287WA0131601367
B2013324745277N12002286WA0131501365
B2013334745271N12002285WA0131401364
B2013344745266N12002285WA0131401364
B2013354745261N12002285WA0131301364
B2013364745256N12002284WA0131201363
B2013374745251N12002282WA0131101362
B2013384745246N12002280WA0131101362
B2013394745242N12002278WA0131001361
B2013404745237N12002278WA0131001361
B2013414745232N12002278WA0130901361
B2013424745226N12002280WA0130801360
B2013434745221N12002281WA0130801359
B2013444745215N12002283WA0130701359
B2013454745210N12002284WA0130601358
B2013464745205N12002285WA0130601357
B2013474745199N12002287WA0130501356
B2013484745193N12002290WA0130401355
B2013494745187N12002294WA0130301353
B2013504745182N12002298WA0130301351
B2013514745176N12002302WA0130201349
B2013524745170N12002307WA0130101347
B2013534745164N12002311WA0129901345
B2013544745158N12002315WA0129801342
B2013554745152N12002319WA0129601340
B2013564745146N12002324WA0129501338
B2013574745141N12002328WA0129301336
B2013584745135N12002332WA0129101334
B2013594745130N12002337WA0128901333
B2014004745124N12002342WA0128801331
B2014014745119N12002348WA0128601330
B2014024745114N12002353WA0128501329
B2014034745109N12002359WA0128301328
B2014044745104N12002365WA0128201327
B2014054745100N12002371WA0128101327
B2014064745095N12002377WA0128001325
B2014074745090N12002383WA0127801323
B2014084745083N12002388WA0127701320
B2014094745077N12002392WA0127601319
B2014104745071N12002395WA0127401318
B2014114745066N12002399WA0127301318
B2014124745062N12002403WA0127201318
B2014134745057N12002407WA0127101318
B2014144745053N12002412WA0127001317
B2014154745048N12002417WA0126901316
B2014164745043N12002422WA0126801316
B2014174745039N12002427WA0126701316
B2014184745036N12002431WA0126701317
B2014194745032N12002433WA0126601317
B2014204745029N12002435WA0126601316
B2014214745024N12002437WA0126501314
B2014224745019N12002439WA0126401312
B2014234745014N12002442WA0126301310
B2014244745009N12002445WA0126301308
B2014254745005N12002447WA0126101307
B2014264745000N12002449WA0126101304
B2014274744995N12002452WA0125901302
B2014284744990N12002455WA0125801298
B2014294744984N12002458WA0125601296
B2014294744984N12002458WA0125601296
B2014304744979N12002464WA0125401294
B2014314744975N12002469WA0125301293
B2014324744971N12002475WA0125101293
B2014334744967N12002480WA0125001293
B2014344744964N12002485WA0124901292
B2014354744960N12002490WA0124701292
B2014364744956N12002495WA0124601291
B2014374744952N12002500WA0124501290
B2014384744948N12002504WA0124401290
B2014394744944N12002508WA0124301289
B2014404744939N12002511WA0124201287
B2014414744934N12002515WA0124101286
B2014424744929N12002518WA0124001285
B2014434744924N12002522WA0123901283
B2014444744919N12002527WA0123801282
B2014454744914N12002532WA0123701280
B2014464744910N12002537WA0123601280
B2014474744906N12002541WA0123501280
B2014484744902N12002544WA0123401280
B2014494744898N12002548WA0123301279
B2014504744894N12002552WA0123201279
B2014514744891N12002556WA0123101278
B2014524744886N12002562WA0123101277
B2014534744882N12002567WA0123001277
B2014544744877N12002571WA0122901277
B2014554744873N12002574WA0122901278
B2014564744869N12002577WA0122801279
B2014574744865N12002581WA0122801280
B2014584744862N12002584WA0122801281
B2014594744858N12002588WA0122801280
B2015004744854N12002591WA0122801279
B2015014744849N12002593WA0122801278
B2015024744844N12002594WA0122801278
B2015034744839N12002595WA0122701278
B2015044744834N12002597WA0122701279
B2015054744829N12002599WA0122701280
B2015064744824N12002603WA0122701280
B2015074744820N12002607WA0122701280
B2015084744815N12002611WA0122701280
B2015094744811N12002613WA0122701281
B2015104744806N12002615WA0122701281
B2015114744801N12002616WA0122701280
B2015124744797N12002618WA0122701280
B2015134744792N12002621WA0122701279
B2015144744787N12002623WA0122701279
B2015154744782N12002626WA0122701279
B2015164744777N12002628WA0122601279
B2015174744773N12002631WA0122601280
B2015184744770N12002634WA0122601280
B2015194744766N12002638WA0122601279
B2015204744762N12002642WA0122601279
B2015214744757N12002645WA0122601279
B2015224744753N12002649WA0122601279
B2015234744749N12002652WA0122601279
B2015244744744N12002655WA0122601279
B2015254744740N12002659WA0122601280
B2015264744736N12002662WA0122601280
B2015274744731N12002666WA0122601280
B2015284744727N12002669WA0122601281
B2015294744722N12002672WA0122601281
B2015304744718N12002676WA0122701282
B2015314744713N12002679WA0122701283
B2015324744708N12002682WA0122701283
B2015324744708N12002682WA0122701283
B2015334744703N12002685WA0122701284
B2015344744697N12002688WA0122801285
B2015354744692N12002690WA0122801286
B2015364744686N12002692WA0122901288
B2015374744681N12002692WA0122901289
B2015384744675N12002692WA0123001289
B2015394744670N12002693WA0123001290
B2015404744665N12002695WA0123101290
B2015414744660N12002698WA0123201290
B2015424744656N12002701WA0123201290
B2015434744652N12002706WA0123201289
B2015444744647N12002710WA0123201289
B2015454744643N12002713WA0123301289
B2015464744638N12002716WA0123301288
B2015474744633N12002720WA0123301288
B2015484744629N12002724WA0123301288
B2015494744625N12002728WA0123301289
B2015504744621N12002731WA0123301290
B2015514744617N12002733WA0123401291
B2015524744612N12002736WA0123401291
B2015534744607N12002739WA0123401291
B2015544744601N12002743WA0123501292
B2015554744596N12002747WA0123501294
B2015564744591N12002749WA0123601295
B2015574744586N12002751WA0123601297
B2015584744581N12002753WA0123701297
B2015594744576N12002756WA0123801297
B2016004744572N12002759WA0123801298
B2016014744568N12002765WA0123901299
B2016024744565N12002770WA0123901301
B2016034744564N12002775WA0124101303
B2016044744564N12002779WA0124101305
B2016054744565N12002785WA0124301306
B2016064744566N12002791WA0124401306
B2016074744565N12002798WA0124501305
B2016084744563N12002804WA0124501306
B2016094744559N12002809WA0124601306
B2016104744554N12002811WA0124701308
B2016114744550N12002810WA0124801309
B2016124744545N12002806WA0124801310
B2016134744541N12002800WA0124901311
B2016144744538N12002793WA0125001311
B2016154744537N12002785WA0125101312
B2016164744537N12002775WA0125101313
B2016174744539N12002765WA0125201313
B2016184744542N12002756WA0125301314
B2016194744545N12002748WA0125301315
B2016204744548N12002742WA0125401317
B2016214744551N12002738WA0125501320
B2016224744556N12002735WA0125601322
B2016234744561N12002733WA0125701322
B2016244744567N12002734WA0125801322
B2016254744572N12002736WA0125901322
B2016264744577N12002739WA0126001323
B2016274744582N12002744WA0126001323
B2016284744585N12002750WA0126101323
B2016294744587N12002757WA0126101324
B2016304744588N12002765WA0126201324
B2016314744588N12002772WA0126201324
B2016324744586N12002779WA0126301324
B2016334744583N12002786WA0126301324
B2016344744580N12002791WA0126301325
B2016354744576N12002796WA0126401326
B2016364744571N12002799WA0126401326
B2016364744571N12002799WA0126401326
B2016374744566N12002800WA0126401326
B2016384744561N12002798WA0126501328
B2016394744557N12002795WA0126501331
B2016404744554N12002790WA0126601332
B2016414744551N12002783WA0126701333
B2016424744549N12002775WA0126701332
B2016434744547N12002767WA0126801332
B2016444744546N12002758WA0126801333
B2016454744545N12002749WA0126901334
B2016464744546N12002741WA0126901335
B2016474744547N12002731WA0127001335
B2016484744550N12002722WA0127001335
B2016494744554N12002714WA0127001335
B2016504744559N12002708WA0127001336
B2016514744564N12002703WA0127101337
B2016524744570N12002700WA0127101339
B2016534744575N12002699WA0127201341
B2016544744580N12002698WA0127301342
B2016554744585N12002700WA0127401343
B2016564744590N12002702WA0127501343
B2016574744595N12002706WA0127601343
B2016584744599N12002712WA0127701344
B2016594744603N12002718WA0127801345
B2017004744605N12002724WA0127901346
B2017014744607N12002731WA0127901347
B2017024744608N12002737WA0128001347
B2017034744610N12002744WA0128101348
B2017044744612N12002750WA0128201349
B2017054744616N12002755WA0128201348
B2017064744621N12002759WA0128301348
B2017074744627N12002760WA0128301349
B2017084744633N12002760WA0128401349
B2017094744639N12002758WA0128401350
B2017104744643N12002754WA0128501350
B2017114744647N12002751WA0128501351
B2017124744651N12002747WA0128601351
B2017134744655N12002741WA0128601351
B2017144744659N12002736WA0128701351
B2017154744662N12002729WA0128701351
B2017164744664N12002723WA0128701352
B2017174744666N12002717WA0128801353
B2017184744668N12002711WA0128801353
B2017194744669N12002704WA0128901354
B2017204744668N12002697WA0128901355
B2017214744665N12002690WA0128901355
B2017224744661N12002684WA0128901354
B2017234744656N12002680WA0129001355
B2017244744651N12002680WA0129001355
B2017254744646N12002680WA0129001356
B2017264744642N12002682WA0129001356
B2017274744639N12002686WA0129001357
B2017284744637N12002691WA0129101357
B2017294744636N12002697WA0129101356
B2017304744635N12002705WA0129101355
B2017314744634N12002712WA0129101355
B2017324744634N12002718WA0129101356
B2017334744635N12002724WA0129101357
B2017344744637N12002729WA0129201357
B2017354744639N12002735WA0129201357
B2017364744643N12002740WA0129201357
B2017374744646N12002746WA0129301356
B2017384744650N12002752WA0129301356
B2017394744653N12002757WA0129301357
B2017394744653N12002757WA0129301357
B2017404744656N12002762WA0129301356
B2017414744659N12002765WA0129301356
B2017424744663N12002768WA0129301356
B2017434744667N12002769WA0129301356
B2017444744671N12002768WA0129301356
B2017454744674N12002766WA0129301357
B2017464744677N12002762WA0129301357
B2017474744680N12002756WA0129301357
B2017484744682N12002750WA0129301357
B2017494744684N12002743WA0129301357
B2017504744685N12002738WA0129401358
B2017514744686N12002733WA0129401357
B2017524744687N12002727WA0129401356
B2017534744688N12002721WA0129401355
B2017544744689N12002712WA0129401355
B2017554744689N12002704WA0129301354
B2017564744687N12002696WA0129301356
B2017574744683N12002691WA0129201354
B2017584744678N12002689WA0129101352
B2017594744673N12002687WA0129101352
B2018004744669N12002688WA0129001352
B2018014744666N12002690WA0129001353
B2018024744664N12002694WA0129001353
B2018034744662N12002699WA0128901352
B2018044744660N12002705WA0128901351
B2018054744659N12002711WA0128901350
B2018064744657N12002717WA0128801349
B2018074744657N12002724WA0128801348
B2018084744657N12002730WA0128701348
B2018094744658N12002737WA0128701347
B2018104744660N12002743WA0128701347
B2018114744662N12002749WA0128601347
B2018124744665N12002753WA0128601347
B2018134744669N12002756WA0128501347
B2018144744673N12002757WA0128501348
B2018154744676N12002758WA0128501348
B2018164744680N12002758WA0128501347
B2018174744683N12002758WA0128501346
B2018184744687N12002757WA0128401344
B2018194744691N12002755WA0128401341
B2018204744695N12002751WA0128301339
B2018214744698N12002745WA0128201337
B2018224744701N12002738WA0128201335
B2018234744703N12002731WA0128001334
B2018244744704N12002724WA0127901332
B2018254744704N12002716WA0127801331
B2018264744702N12002709WA0127701330
B2018274744699N12002704WA0127501328
B2018284744695N12002700WA0127501326
B2018294744691N12002697WA0127301325
B2018304744686N12002694WA0127201324
B2018314744682N12002693WA0127101323
B2018324744677N12002691WA0127001321
B2018334744672N12002690WA0126801320
B2018344744668N12002690WA0126801319
B2018354744663N12002689WA0126601318
B2018364744659N12002688WA0126501318
B2018374744654N12002686WA0126401317
B2018384744649N12002685WA0126401317
B2018394744644N12002683WA0126301316
B2018404744639N12002681WA0126201316
B2018414744636N12002680WA0126101316
B2018424744633N12002680WA0126101316
B2018424744633N12002680WA0126101316
B2018434744631N12002682WA0126001315
B2018444744629N12002687WA0125901312
B2018454744627N12002693WA0125801308
B2018464744626N12002700WA0125701306
B2018474744625N12002706WA0125501304
B2018484744626N12002711WA0125401303
B2018494744627N12002717WA0125301301
B2018504744628N12002723WA0125201299
B2018514744631N12002729WA0125001297
B2018524744633N12002737WA0124901294
B2018534744635N12002744WA0124701293
B2018544744637N12002751WA0124601293
B2018554744639N12002757WA0124501294
B2018564744641N12002762WA0124401294
B2018574744644N12002767WA0124301293
B2018584744647N12002771WA0124201291
B2018594744652N12002776WA0124101289
B2019004744657N12002778WA0124001287
B2019014744663N12002780WA0123901287
B2019024744669N12002781WA0123801287
B2019034744673N12002780WA0123701286
B2019044744678N12002779WA0123601283
B2019054744684N12002778WA0123501280
B2019064744691N12002778WA0123401277
B2019074744697N12002778WA0123201275
B2019084744702N12002777WA0123101275
B2019094744706N12002775WA0122901273
B2019104744711N12002772WA0122801271
B2019114744716N12002767WA0122601268
B2019124744720N12002761WA0122501268
B2019134744723N12002754WA0122301269
B2019144744724N12002746WA0122201270
B2019154744724N12002738WA0122101269
B2019164744724N12002730WA0122001269
B2019174744723N12002722WA0121901269
B2019184744722N12002716WA0121801269
B2019194744720N12002709WA0121701269
B2019204744718N12002703WA0121701269
B2019214744715N12002699WA0121601268
B2019224744712N12002695WA0121501267
B2019234744709N12002693WA0121401266
B2019244744705N12002693WA0121401264
B2019254744701N12002694WA0121301262
B2019264744698N12002695WA0121201261
B2019274744695N12002698WA0121101260
B2019284744692N12002701WA0121001259
B2019294744691N12002704WA0120901258
B2019304744690N12002709WA0120801257
B2019314744690N12002715WA0120701255
B2019324744691N12002721WA0120601255
B2019334744693N12002726WA0120501256
B2019344744696N12002730WA0120501257
B2019354744699N12002734WA0120401257
B2019364744704N12002738WA0120301255
B2019374744709N12002743WA0120301255
B2019384744715N12002745WA0120201255
B2019394744721N12002746WA0120201255
B2019404744727N12002745WA0120101254
B2019414744732N12002745WA0120101252
B2019424744739N12002743WA0120101248
B2019434744746N12002741WA0120001245
B2019444744752N12002736WA0119901244
B2019454744757N12002729WA0119701241
B2019454744757N12002729WA0119701241
B2019464744762N12002721WA0119701240
B2019474744765N12002712WA0119601241
B2019484744767N12002705WA0119501243
B2019494744769N12002699WA0119401245
B2019504744770N12002694WA0119401246
B2019514744770N12002688WA0119301244
B2019524744769N12002682WA0119301241
B2019534744767N12002675WA0119101238
B2019544744764N12002667WA0119101235
B2019554744761N12002661WA0118901234
B2019564744758N12002656WA0118801233
B2019574744755N12002652WA0118701233
B2019584744753N12002649WA0118601232
B2019594744750N12002646WA0118401230
B2020004744746N12002641WA0118301226
B2020014744743N12002636WA0118101223
B2020024744739N12002632WA0118001221
B2020034744735N12002628WA0117801220
B2020044744731N12002624WA0117701220
B2020054744728N12002621WA0117501220
B2020064744724N12002617WA0117401219
B2020074744721N12002613WA0117201217
B2020084744717N12002610WA0117101214
B2020094744713N12002606WA0116901211
B2020104744709N12002602WA0116801209
B2020114744705N12002599WA0116601208
B2020124744701N12002596WA0116501207
B2020134744698N12002594WA0116301207
B2020144744695N12002593WA0116201205
B2020154744691N12002592WA0116101204
B2020164744687N12002591WA0115901203
B2020174744684N12002592WA0115801202
B2020184744680N12002593WA0115701201
B2020194744676N12002595WA0115501201
B2020204744672N12002598WA0115401199
B2020214744669N12002601WA0115301199
B2020224744666N12002603WA0115201197
B2020234744663N12002605WA0115101195
B2020244744659N12002608WA0115001193
B2020254744655N12002611WA0114801191
B2020264744652N12002614WA0114701189
B2020274744649N12002618WA0114601187
B2020284744646N12002623WA0114401185
B2020294744644N12002629WA0114301183
B2020304744643N12002635WA0114101181
B2020314744641N12002641WA0113901178
B2020324744639N12002647WA0113801177
B2020334744637N12002653WA0113601174
B2020344744635N12002659WA0113401172
B2020354744633N12002665WA0113201170
B2020364744631N12002671WA0113101168
B2020374744629N12002677WA0112901166
B2020384744627N12002684WA0112701163
B2020394744625N12002691WA0112401160
B2020404744622N12002698WA0112201157
B2020414744620N12002704WA0112001155
B2020424744617N12002710WA0111801153
B2020434744616N12002716WA0111501151
B2020444744614N12002722WA0111401149
B2020454744613N12002729WA0111101147
B2020464744612N12002736WA0110901144
B2020474744610N12002742WA0110601142
B2020484744607N12002748WA0110501139
B2020484744607N12002748WA0110501139
B2020494744605N12002754WA0110201136
B2020504744604N12002760WA0110001134
B2020514744603N12002766WA0109701132
B2020524744603N12002774WA0109501129
B2020534744603N12002781WA0109201126
B2020544744603N12002789WA0109001124
B2020554744602N12002795WA0108701122
B2020564744599N12002801WA0108501119
B2020574744596N12002805WA0108201115
B2020584744592N12002809WA0108001111
B2020594744588N12002812WA0107701109
B2021004744584N12002814WA0107501107
B2021014744580N12002815WA0107201106
B2021024744577N12002815WA0107001104
B2021034744573N12002813WA0106701103
B2021044744570N12002811WA0106501100
B2021054744566N12002808WA0106201098
B2021064744563N12002805WA0106101096
B2021074744560N12002804WA0105801094
B2021084744558N12002803WA0105601093
B2021094744555N12002803WA0105401091
B2021104744552N12002805WA0105301088
B2021114744548N12002808WA0105001085
B2021124744546N12002813WA0104901082
B2021134744544N12002819WA0104601080
B2021144744543N12002826WA0104401077
B2021154744543N12002834WA0104301074
B2021164744544N12002842WA0104001071
B2021174744546N12002849WA0103701069
B2021184744547N12002856WA0103501067
B2021194744548N12002863WA0103201064
B2021204744549N12002870WA0103001062
B2021214744547N12002877WA0102701058
B2021224744544N12002884WA0102501054
B2021234744540N12002890WA0102201050
B2021244744535N12002893WA0101901048
B2021254744530N12002894WA0101601047
B2021264744526N12002894WA0101401045
B2021274744522N12002891WA0101101042
B2021284744518N12002887WA0100901038
B2021294744514N12002882WA0100601035
B2021304744513N12002876WA0100301033
B2021314744512N12002871WA0100001031
B2021324744512N12002866WA0099801029
B2021334744512N12002862WA0099601028
B2021344744511N12002858WA0099401025
B2021354744509N12002853WA0099101022
B2021364744506N12002849WA0098901018
B2021374744503N12002844WA0098601015
B2021384744500N12002839WA0098401011
B2021394744497N12002834WA0098101008
B2021404744495N12002830WA0097801006
B2021414744493N12002827WA0097501004
B2021424744492N12002824WA0097301003
B2021434744489N12002822WA0097001002
B2021444744485N12002822WA0096801001
B2021454744480N12002825WA0096600999
B2021464744476N12002831WA0096400997
B2021474744471N12002839WA0096200995
B2021484744467N12002847WA0096000995
B2021494744464N12002854WA0095800995
B2021504744462N12002860WA0095700994
B2021514744460N12002866WA0095600991
B2021524744457N12002874WA0095400987
B2021524744457N12002874WA0095400987
B2021534744452N12002883WA0095200984
B2021544744447N12002890WA0095100982
B2021554744442N12002896WA0094900983
B2021564744438N12002901WA0094800983
B2021574744433N12002904WA0094600982
B2021584744428N12002905WA0094500979
B2021594744423N12002904WA0094300976
B2022004744418N12002900WA0094100974
B2022014744415N12002894WA0093900972
B2022024744414N12002887WA0093800971
B2022034744413N12002882WA0093600971
B2022044744413N12002876WA0093500971
B2022054744412N12002870WA0093400970
B2022064744412N12002864WA0093300970
B2022074744412N12002857WA0093100969
B2022084744413N12002850WA0093000969
B2022094744413N12002843WA0092900970
B2022104744412N12002837WA0092800971
B2022114744410N12002832WA0092700971
B2022124744406N12002826WA0092600970
B2022134744402N12002823WA0092500970
B2022144744397N12002822WA0092500969
B2022154744392N12002824WA0092400969
B2022164744389N12002829WA0092300969
B2022174744388N12002834WA0092300968
B2022184744388N12002841WA0092200967
B2022194744389N12002850WA0092100965
B2022204744391N12002858WA0092100963
B2022214744393N12002866WA0092000963
B2022224744395N12002872WA0091900964
B2022234744397N12002878WA0091800965
B2022244744399N12002884WA0091800965
B2022254744401N12002891WA0091800965
B2022264744402N12002898WA0091700964
B2022274744402N12002906WA0091700962
B2022284744400N12002912WA0091600961
B2022294744395N12002918WA0091500958
B2022304744390N12002920WA0091500956
B2022314744384N12002920WA0091400953
B2022324744378N12002917WA0091300951
B2022334744373N12002912WA0091100950
B2022344744369N12002906WA0091000949
B2022354744366N12002899WA0090900951
B2022364744364N12002893WA0090800952
B2022374744364N12002888WA0090800953
B2022384744364N12002882WA0090700953
B2022394744364N12002877WA0090700953
B2022404744364N12002871WA0090600952
B2022414744364N12002864WA0090500951
B2022424744365N12002858WA0090500950
B2022434744367N12002851WA0090400949
B2022444744370N12002845WA0090400948
B2022454744375N12002841WA0090300947
B2022464744380N12002840WA0090200947
B2022474744384N12002843WA0090200946
B2022484744387N12002848WA0090100946
B2022494744389N12002855WA0090000945
B2022504744388N12002862WA0090000946
B2022514744386N12002868WA0090000945
B2022524744382N12002872WA0089900945
B2022534744378N12002875WA0089900944
B2022544744373N12002877WA0089800943
B2022554744369N12002878WA0089800943
B2022554744369N12002878WA0089800943
B2022564744365N12002880WA0089700943
B2022574744361N12002881WA0089700943
B2022584744358N12002883WA0089700943
B2022594744354N12002886WA0089700941
B2023004744351N12002891WA0089600940
B2023014744349N12002897WA0089500938
B2023024744347N12002903WA0089500936
B2023034744345N12002909WA0089400934
B2023044744344N12002912WA0089300932
B2023054744344N12002913WA0089200932
B2023064744344N12002913WA0089100931
B2023074744344N12002913WA0089000931
B2023084744345N12002912WA0088900931
B2023094744345N12002913WA0088900931
B2023104744344N12002912WA0088900931
B2023114744345N12002912WA0088800930
B2023124744345N12002912WA0088800930
B2023134744345N12002912WA0088800930
B2023144744345N12002912WA0088700931
B2023154744346N12002913WA0088700932
B2023164744346N12002914WA0088700933
B2023174744346N12002914WA0088600933
B2023184744346N12002915WA0088600935
B2023194744346N12002915WA0088600935
B2023204744346N12002915WA0088600935
B2023214744346N12002915WA0088600934
B2023224744346N12002915WA0088600934
B2023234744345N12002915WA0088600934
B2023244744345N12002915WA0088600934
B2023254744346N12002915WA0088600934
B2023264744345N12002915WA0088600934
B2023274744345N12002915WA0088600934
B2023284744345N12002916WA0088600934
B2023294744345N12002916WA0088600934
B2023304744345N12002916WA0088600933
B2023314744345N12002916WA0088600933
B2023324744345N12002916WA0088600933
B2023334744345N12002915WA0088600933
B2023344744345N12002915WA0088600933
B2023354744345N12002915WA0088600933
B2023364744345N12002915WA0088600932
B2023374744345N12002916WA0088600932
B2023384744346N12002916WA0088600932
B2023394744346N12002917WA0088500932
B2023404744346N12002918WA0088500932
B2023414744346N12002919WA0088500932
B2023424744346N12002920WA0088500931
B2023434744346N12002921WA0088500931
B2023444744346N12002921WA0088500931
B2023454744346N12002922WA0088500931
B2023464744346N12002923WA0088500931
B2023474744346N12002923WA0088500931
B2023484744346N12002923WA0088500932
B2023494744346N12002923WA0088500931
B2023504744346N12002923WA0088500931
B2023514744346N12002923WA0088500931
B2023524744346N12002923WA0088500931
B2023534744345N12002923WA0088500930
B2023544744345N12002922WA0088500930
B2023554744345N12002921WA0088500930
B2023564744345N12002921WA0088500930
B2023574744345N12002920WA0088500930
B2023584744345N12002919WA0088500930
B2023594744344N12002919WA0088500930
