AXFMSFP Flymaster Live, V1.0
HFFXA010
HFPLTPILOT:Alba Damaris  Lillo 
HFGTYGLIDERTYPE:Ozone Photon / Ozone  Delight 3 
HFGIDGLIDERID:
HFDTM100GPSDATUM:WGS-1984
HFCIDCOMPETITIONID:123
HFCCLCOMPETITIONCLASS:
HOSITSITE:LAUNCH
HFGPS:UBLOXNEO6
HFPRSPRESSALTSENSOR:NA
HFRFWFIRMWAREVERSION:202g
HFRHWHARDWAREVERSION:1.0R2
HFFTYFRTYPE:FLYMASTER,LIVE
HFDTE250625
B1842404748257N12002348WA0111001134
B1842414748257N12002348WA0111001134
B1842424748257N12002348WA0111001134
B1842434748257N12002348WA0111001134
B1842444748257N12002348WA0111001134
B1842454748257N12002348WA0111001134
B1842464748257N12002348WA0111001133
B1842474748257N12002348WA0111001133
B1842484748257N12002348WA0111101133
B1842494748257N12002348WA0111001133
B1842504748257N12002348WA0111001133
B1842514748257N12002348WA0111001133
B1842524748257N12002348WA0111001133
B1842534748256N12002349WA0111001134
B1842544748256N12002349WA0111001134
B1842554748256N12002349WA0111001133
B1842564748257N12002348WA0111001133
B1842574748257N12002348WA0111001134
B1842584748258N12002349WA0111001135
B1842594748258N12002351WA0111001134
B1843004748259N12002353WA0111001134
B1843014748259N12002355WA0111001134
B1843024748258N12002357WA0111001134
B1843034748257N12002359WA0111001133
B1843044748256N12002361WA0111001133
B1843054748254N12002364WA0111001131
B1843064748252N12002367WA0110901131
B1843074748250N12002369WA0110901131
B1843084748248N12002372WA0110901132
B1843094748248N12002374WA0110901133
B1843104748248N12002376WA0110901134
B1843114748247N12002378WA0110901133
B1843124748246N12002381WA0110901131
B1843134748244N12002385WA0110801128
B1843144748242N12002390WA0110801126
B1843154748240N12002395WA0110701125
B1843164748239N12002398WA0110701127
B1843174748238N12002401WA0110601129
B1843184748238N12002403WA0110601130
B1843194748237N12002407WA0110601130
B1843204748237N12002412WA0110701131
B1843214748237N12002415WA0110701133
B1843224748237N12002417WA0110801136
B1843234748238N12002418WA0110901140
B1843244748238N12002420WA0110901142
B1843254748239N12002421WA0111101142
B1843264748239N12002423WA0111101142
B1843274748239N12002424WA0111201142
B1843284748239N12002426WA0111301143
B1843294748239N12002427WA0111401146
B1843304748238N12002428WA0111501148
B1843314748238N12002429WA0111701150
B1843324748238N12002429WA0111801151
B1843334748237N12002430WA0112001153
B1843344748237N12002431WA0112101155
B1843354748236N12002432WA0112201157
B1843364748234N12002432WA0112401158
B1843374748231N12002430WA0112501160
B1843384748228N12002428WA0112601161
B1843394748225N12002427WA0112801163
B1843404748223N12002426WA0112901165
B1843414748221N12002426WA0113101165
B1843424748221N12002429WA0113201165
B1843434748221N12002433WA0113301167
B1843434748221N12002433WA0113301167
B1843444748221N12002435WA0113401169
B1843454748221N12002436WA0113601171
B1843464748220N12002436WA0113701172
B1843474748218N12002437WA0113801171
B1843484748216N12002438WA0113801170
B1843494748213N12002439WA0113901169
B1843504748210N12002439WA0113901169
B1843514748207N12002438WA0114001170
B1843524748203N12002437WA0114001169
B1843534748199N12002435WA0114001168
B1843544748195N12002434WA0114001166
B1843554748190N12002432WA0114001165
B1843564748185N12002429WA0114001164
B1843574748181N12002425WA0113901164
B1843584748176N12002421WA0113901163
B1843594748172N12002417WA0113901162
B1844004748167N12002414WA0113901161
B1844014748162N12002412WA0113801161
B1844024748158N12002410WA0113801161
B1844034748155N12002409WA0113801161
B1844044748152N12002410WA0113801161
B1844054748150N12002411WA0113801160
B1844064748148N12002413WA0113701158
B1844074748146N12002415WA0113701158
B1844084748144N12002416WA0113601158
B1844094748142N12002417WA0113601158
B1844104748140N12002418WA0113601157
B1844114748139N12002420WA0113501156
B1844124748139N12002422WA0113501155
B1844134748138N12002425WA0113401153
B1844144748140N12002429WA0113301152
B1844154748142N12002433WA0113201150
B1844164748144N12002439WA0113201148
B1844174748146N12002444WA0113001147
B1844184748147N12002449WA0113001146
B1844194748148N12002455WA0112901146
B1844204748149N12002460WA0112801145
B1844214748150N12002467WA0112701145
B1844224748151N12002473WA0112701146
B1844234748151N12002479WA0112701148
B1844244748150N12002484WA0112701150
B1844254748149N12002488WA0112701153
B1844264748148N12002492WA0112701154
B1844274748147N12002496WA0112801154
B1844284748145N12002501WA0112801154
B1844294748143N12002506WA0112801153
B1844304748142N12002512WA0112801153
B1844314748143N12002518WA0112901154
B1844324748144N12002523WA0112901155
B1844334748146N12002526WA0112901157
B1844344748147N12002529WA0112901157
B1844354748148N12002532WA0112901157
B1844364748150N12002537WA0112901156
B1844374748153N12002542WA0112901154
B1844384748157N12002546WA0112801153
B1844394748161N12002550WA0112701152
B1844404748166N12002554WA0112701152
B1844414748171N12002559WA0112601152
B1844424748176N12002563WA0112601152
B1844434748180N12002568WA0112601152
B1844444748184N12002574WA0112601153
B1844454748186N12002580WA0112601154
B1844464748188N12002585WA0112601155
B1844464748188N12002585WA0112601155
B1844474748191N12002590WA0112701157
B1844484748194N12002593WA0112701159
B1844494748199N12002595WA0112801159
B1844504748205N12002597WA0112801159
B1844514748212N12002596WA0112901158
B1844524748219N12002594WA0112901158
B1844534748226N12002589WA0113001159
B1844544748232N12002582WA0113001160
B1844554748236N12002573WA0113101159
B1844564748239N12002561WA0113101159
B1844574748241N12002550WA0113201160
B1844584748242N12002541WA0113201162
B1844594748242N12002533WA0113301163
B1845004748240N12002526WA0113401164
B1845014748238N12002521WA0113501164
B1845024748234N12002518WA0113501164
B1845034748230N12002518WA0113601165
B1845044748227N12002519WA0113701167
B1845054748225N12002519WA0113801168
B1845064748223N12002518WA0113901170
B1845074748220N12002516WA0114001170
B1845084748217N12002513WA0114001170
B1845094748214N12002512WA0114101170
B1845104748211N12002512WA0114101170
B1845114748208N12002513WA0114201171
B1845124748207N12002517WA0114301172
B1845134748207N12002522WA0114401173
B1845144748208N12002527WA0114401175
B1845154748211N12002531WA0114501176
B1845164748215N12002534WA0114601177
B1845174748221N12002536WA0114601177
B1845184748227N12002537WA0114701177
B1845194748234N12002536WA0114801177
B1845204748242N12002533WA0114801177
B1845214748249N12002529WA0114901178
B1845224748255N12002523WA0114901179
B1845234748260N12002516WA0115001179
B1845244748264N12002507WA0115001179
B1845254748266N12002497WA0115001179
B1845264748265N12002488WA0115101179
B1845274748263N12002480WA0115101178
B1845284748259N12002475WA0115101179
B1845294748256N12002472WA0115101179
B1845304748253N12002472WA0115101180
B1845314748251N12002473WA0115101180
B1845324748249N12002474WA0115101181
B1845334748249N12002477WA0115201181
B1845344748249N12002480WA0115201181
B1845354748251N12002483WA0115201182
B1845364748253N12002487WA0115301182
B1845374748257N12002491WA0115301182
B1845384748262N12002496WA0115301182
B1845394748268N12002500WA0115301183
B1845404748273N12002505WA0115301184
B1845414748278N12002508WA0115401187
B1845424748284N12002510WA0115501189
B1845434748291N12002511WA0115601190
B1845444748299N12002512WA0115701191
B1845454748305N12002511WA0115801191
B1845464748310N12002512WA0115901192
B1845474748315N12002514WA0116001192
B1845484748318N12002516WA0116101192
B1845494748319N12002519WA0116101192
B1845494748319N12002519WA0116101192
B1845504748318N12002522WA0116101191
B1845514748316N12002524WA0116101190
B1845524748313N12002525WA0116101189
B1845534748310N12002525WA0116001187
B1845544748307N12002526WA0116001187
B1845554748304N12002527WA0115901185
B1845564748301N12002529WA0115901184
B1845574748298N12002530WA0115801183
B1845584748295N12002530WA0115701181
B1845594748292N12002529WA0115501180
B1846004748289N12002530WA0115401178
B1846014748285N12002530WA0115301177
B1846024748281N12002530WA0115201176
B1846034748277N12002529WA0115101176
B1846044748273N12002529WA0115001177
B1846054748271N12002529WA0114901177
B1846064748270N12002527WA0114901177
B1846074748267N12002524WA0114801176
B1846084748264N12002521WA0114801175
B1846094748260N12002519WA0114701173
B1846104748257N12002520WA0114601174
B1846114748256N12002522WA0114601174
B1846124748257N12002526WA0114501175
B1846134748257N12002529WA0114501174
B1846144748258N12002532WA0114401174
B1846154748259N12002535WA0114401173
B1846164748260N12002539WA0114301171
B1846174748260N12002544WA0114201170
B1846184748259N12002550WA0114101168
B1846194748258N12002556WA0114001166
B1846204748257N12002562WA0113901166
B1846214748256N12002566WA0113801165
B1846224748255N12002570WA0113701165
B1846234748254N12002573WA0113601165
B1846244748253N12002576WA0113601163
B1846254748251N12002580WA0113401162
B1846264748249N12002584WA0113401160
B1846274748246N12002587WA0113201158
B1846284748244N12002590WA0113101157
B1846294748241N12002590WA0113001157
B1846304748238N12002590WA0112901155
B1846314748235N12002589WA0112801153
B1846324748231N12002589WA0112701151
B1846334748227N12002588WA0112501149
B1846344748223N12002587WA0112301147
B1846354748219N12002585WA0112101145
B1846364748216N12002584WA0112001144
B1846374748213N12002586WA0111701141
B1846384748209N12002590WA0111601138
B1846394748205N12002594WA0111301136
B1846404748202N12002599WA0111101134
B1846414748198N12002601WA0110901135
B1846424748195N12002603WA0110801135
B1846434748192N12002604WA0110701135
B1846444748188N12002605WA0110601134
B1846454748184N12002606WA0110401132
B1846464748180N12002606WA0110301129
B1846474748175N12002604WA0110101127
B1846484748170N12002602WA0110001126
B1846494748166N12002598WA0109801124
B1846504748161N12002594WA0109701121
B1846514748155N12002591WA0109501119
B1846524748150N12002588WA0109301117
B1846534748145N12002585WA0109101116
B1846534748145N12002585WA0109101116
B1846544748140N12002581WA0109001114
B1846554748135N12002576WA0108801111
B1846564748129N12002571WA0108601109
B1846574748125N12002566WA0108401108
B1846584748120N12002560WA0108301106
B1846594748115N12002555WA0108101105
B1847004748111N12002548WA0108001103
B1847014748107N12002542WA0107801101
B1847024748103N12002535WA0107701099
B1847034748099N12002527WA0107501097
B1847044748094N12002520WA0107401095
B1847054748090N12002513WA0107201093
B1847064748085N12002507WA0107101092
B1847074748081N12002501WA0106901090
B1847084748077N12002494WA0106801087
B1847094748072N12002487WA0106601086
B1847104748068N12002480WA0106501084
B1847114748063N12002476WA0106401082
B1847124748058N12002471WA0106301082
B1847134748053N12002467WA0106101080
B1847144748048N12002463WA0106001079
B1847154748043N12002459WA0105901078
B1847164748038N12002456WA0105801076
B1847174748032N12002452WA0105601073
B1847184748027N12002448WA0105501071
B1847194748022N12002445WA0105301068
B1847204748016N12002441WA0105101067
B1847214748011N12002438WA0104901065
B1847224748006N12002435WA0104801064
B1847234748000N12002431WA0104601062
B1847244747995N12002427WA0104501061
B1847254747990N12002422WA0104301059
B1847264747984N12002418WA0104201058
B1847274747979N12002414WA0104001057
B1847284747974N12002409WA0103901056
B1847294747969N12002405WA0103801055
B1847304747964N12002400WA0103701054
B1847314747958N12002395WA0103601054
B1847324747953N12002390WA0103501053
B1847334747948N12002385WA0103401053
B1847344747943N12002381WA0103301052
B1847354747938N12002377WA0103201051
B1847364747933N12002373WA0103201050
B1847374747928N12002370WA0103101050
B1847384747923N12002367WA0103101051
B1847394747918N12002365WA0103101052
B1847404747913N12002362WA0103101052
B1847414747908N12002360WA0103101053
B1847424747903N12002358WA0103101053
B1847434747899N12002356WA0103201054
B1847444747895N12002355WA0103201054
B1847454747890N12002357WA0103301053
B1847464747887N12002361WA0103301052
B1847474747885N12002366WA0103301051
B1847484747885N12002371WA0103301050
B1847494747887N12002374WA0103301050
B1847504747892N12002376WA0103301051
B1847514747897N12002376WA0103301050
B1847524747903N12002374WA0103301050
B1847534747908N12002370WA0103201051
B1847544747913N12002365WA0103201051
B1847554747916N12002359WA0103201052
B1847564747919N12002351WA0103201051
B1847564747919N12002351WA0103201051
B1847574747922N12002342WA0103201050
B1847584747925N12002333WA0103201051
B1847594747928N12002325WA0103201053
B1848004747930N12002317WA0103301055
B1848014747932N12002309WA0103301056
B1848024747931N12002300WA0103301056
B1848034747930N12002290WA0103401055
B1848044747927N12002280WA0103401054
B1848054747923N12002272WA0103401056
B1848064747920N12002268WA0103501060
B1848074747917N12002265WA0103601062
B1848084747914N12002263WA0103601061
B1848094747911N12002262WA0103701061
B1848104747907N12002261WA0103701060
B1848114747903N12002261WA0103701060
B1848124747900N12002261WA0103701060
B1848134747897N12002262WA0103701060
B1848144747894N12002266WA0103701060
B1848154747892N12002271WA0103701059
B1848164747892N12002276WA0103601059
B1848174747893N12002282WA0103601058
B1848184747895N12002287WA0103601058
B1848194747897N12002292WA0103601058
B1848204747899N12002296WA0103601058
B1848214747900N12002299WA0103601059
B1848224747901N12002301WA0103601059
B1848234747902N12002304WA0103601058
B1848244747902N12002309WA0103601056
B1848254747904N12002315WA0103501054
B1848264747906N12002320WA0103501054
B1848274747909N12002324WA0103501055
B1848284747913N12002326WA0103501057
B1848294747918N12002327WA0103501057
B1848304747924N12002327WA0103501056
B1848314747930N12002326WA0103501056
B1848324747937N12002324WA0103501056
B1848334747943N12002319WA0103501056
B1848344747948N12002312WA0103601058
B1848354747953N12002304WA0103601060
B1848364747957N12002295WA0103701061
B1848374747959N12002286WA0103701061
B1848384747961N12002277WA0103801062
B1848394747962N12002269WA0103901062
B1848404747961N12002259WA0103901062
B1848414747960N12002250WA0103901061
B1848424747957N12002241WA0103901061
B1848434747954N12002233WA0104001061
B1848444747950N12002227WA0104001062
B1848454747946N12002223WA0104001063
B1848464747942N12002221WA0104101063
B1848474747938N12002220WA0104101062
B1848484747934N12002220WA0104101063
B1848494747931N12002221WA0104101063
B1848504747929N12002223WA0104201063
B1848514747927N12002226WA0104201064
B1848524747927N12002229WA0104201065
B1848534747928N12002233WA0104301065
B1848544747931N12002237WA0104301064
B1848554747935N12002240WA0104301064
B1848564747939N12002243WA0104301064
B1848574747945N12002246WA0104301063
B1848584747951N12002246WA0104301063
B1848594747957N12002244WA0104301064
B1849004747963N12002240WA0104301064
B1849004747963N12002240WA0104301064
B1849014747969N12002235WA0104301063
B1849024747974N12002229WA0104301064
B1849034747978N12002221WA0104401065
B1849044747981N12002213WA0104401066
B1849054747983N12002204WA0104401066
B1849064747984N12002194WA0104401065
B1849074747984N12002184WA0104401065
B1849084747982N12002174WA0104401065
B1849094747980N12002165WA0104401065
B1849104747977N12002158WA0104401065
B1849114747973N12002152WA0104401065
B1849124747968N12002148WA0104501065
B1849134747964N12002146WA0104501064
B1849144747960N12002146WA0104501064
B1849154747956N12002147WA0104401063
B1849164747953N12002148WA0104401063
B1849174747950N12002150WA0104401063
B1849184747947N12002153WA0104401062
B1849194747945N12002155WA0104401062
B1849204747943N12002158WA0104401062
B1849214747940N12002161WA0104401061
B1849224747938N12002163WA0104301060
B1849234747936N12002165WA0104301060
B1849244747933N12002167WA0104301059
B1849254747931N12002169WA0104201059
B1849264747930N12002172WA0104201060
B1849274747931N12002175WA0104201060
B1849284747932N12002180WA0104201060
B1849294747933N12002184WA0104201060
B1849304747934N12002188WA0104201061
B1849314747935N12002192WA0104201062
B1849324747937N12002196WA0104201062
B1849334747938N12002199WA0104201061
B1849344747940N12002203WA0104301061
B1849354747940N12002207WA0104301061
B1849364747940N12002213WA0104301060
B1849374747940N12002218WA0104301061
B1849384747940N12002224WA0104301062
B1849394747942N12002228WA0104401064
B1849404747945N12002231WA0104401065
B1849414747949N12002233WA0104501066
B1849424747954N12002235WA0104501065
B1849434747960N12002235WA0104501065
B1849444747966N12002234WA0104601066
B1849454747972N12002231WA0104601067
B1849464747977N12002225WA0104701069
B1849474747982N12002218WA0104801071
B1849484747986N12002209WA0104901073
B1849494747990N12002200WA0105001074
B1849504747992N12002190WA0105001075
B1849514747994N12002181WA0105201076
B1849524747995N12002171WA0105201078
B1849534747994N12002161WA0105401080
B1849544747991N12002153WA0105501081
B1849554747988N12002147WA0105601081
B1849564747983N12002142WA0105701081
B1849574747979N12002139WA0105801082
B1849584747976N12002138WA0105801083
B1849594747972N12002140WA0105901083
B1850004747970N12002143WA0106001083
B1850014747968N12002147WA0106101084
B1850024747967N12002152WA0106101085
B1850034747967N12002156WA0106201087
B1850034747967N12002156WA0106201087
B1850044747969N12002160WA0106301088
B1850054747972N12002164WA0106401088
B1850064747975N12002168WA0106501088
B1850074747977N12002172WA0106501088
B1850084747980N12002176WA0106601088
B1850094747982N12002180WA0106601088
B1850104747985N12002185WA0106601087
B1850114747986N12002189WA0106701086
B1850124747987N12002193WA0106701084
B1850134747987N12002197WA0106701083
B1850144747987N12002199WA0106601084
B1850154747987N12002202WA0106701085
B1850164747987N12002204WA0106701085
B1850174747987N12002207WA0106701086
B1850184747988N12002210WA0106701085
B1850194747989N12002212WA0106701085
B1850204747991N12002215WA0106701083
B1850214747993N12002218WA0106601081
B1850224747995N12002221WA0106601079
B1850234747996N12002225WA0106501078
B1850244747997N12002228WA0106501078
B1850254747999N12002230WA0106401078
B1850264748001N12002232WA0106401077
B1850274748002N12002235WA0106301076
B1850284748003N12002238WA0106201074
B1850294748002N12002240WA0106101072
B1850304747999N12002242WA0106001070
B1850314747996N12002242WA0105901069
B1850324747992N12002240WA0105801068
B1850334747989N12002238WA0105701067
B1850344747985N12002237WA0105601066
B1850354747981N12002236WA0105501065
B1850364747978N12002235WA0105401063
B1850374747974N12002234WA0105201062
B1850384747971N12002234WA0105101060
B1850394747967N12002233WA0105001057
B1850404747962N12002233WA0104801054
B1850414747957N12002233WA0104601050
B1850424747952N12002232WA0104501047
B1850434747948N12002232WA0104201044
B1850444747943N12002230WA0104001041
B1850454747939N12002229WA0103801037
B1850464747933N12002229WA0103501032
B1850474747927N12002228WA0103201026
B1850484747921N12002228WA0102901021
B1850494747914N12002230WA0102601018
B1850504747909N12002231WA0102301016
B1850514747905N12002228WA0102101018
B1850524747902N12002222WA0101901019
B1850534747899N12002214WA0101701018
B1850544747895N12002204WA0101501015
B1850554747890N12002196WA0101301013
B1850564747885N12002190WA0101201013
B1850574747880N12002186WA0101101016
B1850584747877N12002182WA0101001019
B1850594747874N12002177WA0101001021
B1851004747870N12002172WA0100901022
B1851014747865N12002166WA0100901021
B1851024747859N12002161WA0100901020
B1851034747855N12002158WA0100901022
B1851044747851N12002157WA0100901026
B1851054747849N12002156WA0101001031
B1851064747848N12002154WA0101101035
B1851064747848N12002154WA0101101035
B1851074747845N12002151WA0101301038
B1851084747841N12002147WA0101401039
B1851094747837N12002143WA0101501041
B1851104747832N12002140WA0101701043
B1851114747829N12002140WA0101801045
B1851124747826N12002143WA0101901045
B1851134747825N12002148WA0102101046
B1851144747826N12002153WA0102201049
B1851154747830N12002157WA0102401052
B1851164747835N12002157WA0102601056
B1851174747840N12002156WA0102801058
B1851184747846N12002153WA0103001060
B1851194747851N12002149WA0103201062
B1851204747857N12002144WA0103301063
B1851214747863N12002137WA0103501064
B1851224747868N12002127WA0103701064
B1851234747872N12002115WA0103801065
B1851244747874N12002102WA0103901066
B1851254747873N12002090WA0104101068
B1851264747870N12002080WA0104201069
B1851274747866N12002071WA0104401069
B1851284747861N12002064WA0104501070
B1851294747856N12002061WA0104601071
B1851304747852N12002061WA0104701072
B1851314747848N12002063WA0104901074
B1851324747846N12002066WA0105001076
B1851334747845N12002069WA0105101078
B1851344747843N12002072WA0105301082
B1851354747841N12002073WA0105501085
B1851364747838N12002074WA0105601087
B1851374747835N12002074WA0105901089
B1851384747831N12002075WA0106001091
B1851394747829N12002077WA0106201092
B1851404747829N12002083WA0106301092
B1851414747831N12002089WA0106501094
B1851424747834N12002093WA0106601097
B1851434747839N12002094WA0106901100
B1851444747844N12002092WA0107001103
B1851454747850N12002088WA0107201105
B1851464747855N12002083WA0107301105
B1851474747861N12002076WA0107501105
B1851484747866N12002068WA0107601104
B1851494747871N12002057WA0107701103
B1851504747873N12002044WA0107701103
B1851514747873N12002032WA0107801104
B1851524747871N12002021WA0107901104
B1851534747868N12002012WA0108001105
B1851544747864N12002006WA0108001105
B1851554747860N12002001WA0108101106
B1851564747855N12001999WA0108201107
B1851574747850N12001999WA0108301108
B1851584747846N12002001WA0108301110
B1851594747842N12002002WA0108501112
B1852004747839N12002003WA0108601115
B1852014747836N12002005WA0108701116
B1852024747832N12002008WA0108801117
B1852034747829N12002011WA0109001119
B1852044747827N12002014WA0109101122
B1852054747827N12002018WA0109301124
B1852064747828N12002022WA0109401124
B1852074747830N12002027WA0109601123
B1852084747832N12002033WA0109701123
B1852094747833N12002037WA0109801123
B1852094747833N12002037WA0109801123
B1852104747836N12002040WA0109901124
B1852114747839N12002041WA0110001124
B1852124747843N12002039WA0110001123
B1852134747848N12002035WA0110001119
B1852144747854N12002029WA0110001114
B1852154747859N12002020WA0109801110
B1852164747863N12002009WA0109801108
B1852174747864N12001998WA0109701108
B1852184747864N12001988WA0109601108
B1852194747862N12001978WA0109501108
B1852204747858N12001970WA0109501108
B1852214747854N12001964WA0109401109
B1852224747850N12001958WA0109401110
B1852234747847N12001953WA0109401111
B1852244747843N12001949WA0109301112
B1852254747840N12001946WA0109401112
B1852264747837N12001943WA0109401113
B1852274747834N12001943WA0109301112
B1852284747832N12001943WA0109301112
B1852294747830N12001945WA0109301111
B1852304747828N12001947WA0109301110
B1852314747826N12001949WA0109201108
B1852324747824N12001952WA0109201107
B1852334747822N12001955WA0109101105
B1852344747822N12001957WA0109001105
B1852354747823N12001959WA0108901103
B1852364747824N12001962WA0108801101
B1852374747827N12001964WA0108701098
B1852384747830N12001966WA0108601095
B1852394747833N12001966WA0108401093
B1852404747838N12001964WA0108201090
B1852414747843N12001961WA0108001086
B1852424747848N12001955WA0107801081
B1852434747852N12001946WA0107501076
B1852444747856N12001935WA0107301072
B1852454747858N12001923WA0106901067
B1852464747860N12001910WA0106701063
B1852474747861N12001897WA0106301060
B1852484747861N12001885WA0106101058
B1852494747861N12001872WA0105701057
B1852504747861N12001860WA0105501055
B1852514747860N12001847WA0105201053
B1852524747859N12001835WA0105101052
B1852534747859N12001823WA0104801051
B1852544747859N12001813WA0104701052
B1852554747859N12001803WA0104501054
B1852564747859N12001795WA0104501055
B1852574747858N12001786WA0104401055
B1852584747857N12001775WA0104301054
B1852594747856N12001763WA0104201054
B1853004747854N12001752WA0104201056
B1853014747852N12001743WA0104201058
B1853024747849N12001735WA0104201060
B1853034747844N12001728WA0104201060
B1853044747839N12001721WA0104301060
B1853054747833N12001716WA0104301061
B1853064747829N12001712WA0104401064
B1853074747825N12001711WA0104501066
B1853084747823N12001712WA0104501066
B1853094747821N12001714WA0104601067
B1853104747819N12001716WA0104601066
B1853114747819N12001720WA0104701067
B1853124747822N12001725WA0104701066
B1853124747822N12001725WA0104701066
B1853134747825N12001728WA0104701065
B1853144747830N12001731WA0104701067
B1853154747836N12001730WA0104801069
B1853164747841N12001728WA0104901070
B1853174747847N12001723WA0104901071
B1853184747853N12001717WA0105001072
B1853194747858N12001710WA0105101072
B1853204747863N12001701WA0105101073
B1853214747866N12001692WA0105201075
B1853224747867N12001681WA0105301078
B1853234747867N12001671WA0105501080
B1853244747866N12001661WA0105501082
B1853254747863N12001652WA0105701084
B1853264747861N12001643WA0105801085
B1853274747857N12001634WA0106001086
B1853284747852N12001627WA0106101086
B1853294747846N12001622WA0106201086
B1853304747841N12001619WA0106301089
B1853314747838N12001619WA0106501091
B1853324747837N12001621WA0106501091
B1853334747837N12001625WA0106601090
B1853344747839N12001630WA0106701090
B1853354747842N12001635WA0106801090
B1853364747845N12001638WA0106801091
B1853374747850N12001639WA0107001093
B1853384747855N12001637WA0107001095
B1853394747861N12001634WA0107101096
B1853404747867N12001629WA0107201095
B1853414747873N12001622WA0107301096
B1853424747877N12001614WA0107401098
B1853434747881N12001604WA0107501100
B1853444747883N12001595WA0107601102
B1853454747883N12001586WA0107701105
B1853464747883N12001577WA0107801107
B1853474747882N12001568WA0108001108
B1853484747879N12001560WA0108101109
B1853494747875N12001551WA0108201110
B1853504747870N12001544WA0108301111
B1853514747864N12001539WA0108501112
B1853524747859N12001536WA0108601114
B1853534747855N12001535WA0108801117
B1853544747853N12001536WA0108901119
B1853554747852N12001538WA0109101120
B1853564747851N12001542WA0109201120
B1853574747852N12001546WA0109301119
B1853584747854N12001550WA0109401120
B1853594747857N12001553WA0109501122
B1854004747861N12001554WA0109601123
B1854014747866N12001554WA0109701125
B1854024747871N12001554WA0109801125
B1854034747877N12001552WA0109901125
B1854044747884N12001550WA0110001125
B1854054747889N12001547WA0110101126
B1854064747895N12001542WA0110101127
B1854074747900N12001536WA0110201127
B1854084747905N12001528WA0110301127
B1854094747908N12001518WA0110301126
B1854104747910N12001508WA0110301126
B1854114747911N12001497WA0110401128
B1854124747910N12001487WA0110401129
B1854134747909N12001477WA0110501130
B1854144747906N12001468WA0110601132
B1854154747902N12001461WA0110701133
B1854164747898N12001457WA0110801135
B1854164747898N12001457WA0110801135
B1854174747892N12001456WA0110901136
B1854184747888N12001457WA0111001137
B1854194747885N12001461WA0111101138
B1854204747884N12001464WA0111201141
B1854214747885N12001468WA0111401143
B1854224747887N12001471WA0111501144
B1854234747888N12001475WA0111601144
B1854244747890N12001479WA0111701144
B1854254747892N12001484WA0111801144
B1854264747893N12001488WA0111901145
B1854274747894N12001493WA0112001145
B1854284747895N12001497WA0112001145
B1854294747897N12001500WA0112101146
B1854304747900N12001501WA0112201147
B1854314747904N12001501WA0112301147
B1854324747909N12001500WA0112301147
B1854334747916N12001497WA0112301144
B1854344747922N12001493WA0112301144
B1854354747927N12001488WA0112301144
B1854364747932N12001482WA0112301144
B1854374747937N12001474WA0112301144
B1854384747941N12001466WA0112301143
B1854394747944N12001455WA0112301142
B1854404747945N12001444WA0112201140
B1854414747945N12001433WA0112201138
B1854424747944N12001424WA0112101138
B1854434747942N12001416WA0112101138
B1854444747940N12001411WA0112101139
B1854454747937N12001407WA0112001138
B1854464747934N12001403WA0112001137
B1854474747930N12001399WA0111901135
B1854484747925N12001396WA0111901133
B1854494747921N12001394WA0111801132
B1854504747916N12001393WA0111701130
B1854514747912N12001392WA0111601129
B1854524747908N12001391WA0111501129
B1854534747905N12001392WA0111501130
B1854544747903N12001393WA0111401130
B1854554747902N12001394WA0111301130
B1854564747901N12001397WA0111301129
B1854574747901N12001399WA0111201129
B1854584747902N12001402WA0111201129
B1854594747905N12001404WA0111101129
B1855004747909N12001406WA0111101129
B1855014747913N12001406WA0111101129
B1855024747918N12001405WA0111101129
B1855034747923N12001402WA0111101130
B1855044747928N12001396WA0111101131
B1855054747934N12001389WA0111101131
B1855064747939N12001380WA0111101130
B1855074747943N12001369WA0111001130
B1855084747946N12001357WA0111001130
B1855094747948N12001345WA0111001131
B1855104747948N12001331WA0111001131
B1855114747946N12001319WA0111101131
B1855124747944N12001307WA0111101131
B1855134747940N12001298WA0111101132
B1855144747935N12001290WA0111101132
B1855154747930N12001285WA0111101132
B1855164747926N12001281WA0111101133
B1855174747922N12001280WA0111201133
B1855184747919N12001280WA0111201132
B1855194747917N12001282WA0111201132
B1855194747917N12001282WA0111201132
B1855204747916N12001285WA0111201131
B1855214747919N12001287WA0111101131
B1855224747922N12001288WA0111101131
B1855234747927N12001288WA0111201132
B1855244747931N12001287WA0111201132
B1855254747936N12001286WA0111201132
B1855264747941N12001283WA0111201132
B1855274747947N12001280WA0111201132
B1855284747952N12001277WA0111201132
B1855294747959N12001272WA0111201132
B1855304747965N12001266WA0111201132
B1855314747970N12001257WA0111201133
B1855324747974N12001247WA0111201133
B1855334747976N12001236WA0111301134
B1855344747978N12001223WA0111301134
B1855354747979N12001210WA0111301134
B1855364747980N12001198WA0111301135
B1855374747980N12001186WA0111401136
B1855384747979N12001174WA0111401137
B1855394747976N12001164WA0111501137
B1855404747973N12001154WA0111501135
B1855414747968N12001147WA0111501135
B1855424747963N12001141WA0111501135
B1855434747959N12001137WA0111501136
B1855444747956N12001136WA0111601138
B1855454747953N12001136WA0111601138
B1855464747951N12001137WA0111701139
B1855474747950N12001140WA0111701139
B1855484747949N12001143WA0111801139
B1855494747951N12001146WA0111801139
B1855504747953N12001148WA0111801140
B1855514747957N12001149WA0111901140
B1855524747961N12001149WA0111901139
B1855534747967N12001147WA0111901138
B1855544747973N12001145WA0111901137
B1855554747979N12001141WA0111901137
B1855564747985N12001135WA0111901138
B1855574747990N12001127WA0111901138
B1855584747994N12001117WA0111901138
B1855594747999N12001106WA0111901138
B1856004748003N12001095WA0111901137
B1856014748006N12001083WA0111901138
B1856024748009N12001071WA0111901138
B1856034748012N12001059WA0111901138
B1856044748013N12001046WA0111901139
B1856054748013N12001033WA0111901139
B1856064748011N12001021WA0111901138
B1856074748008N12001010WA0111901138
B1856084748005N12001000WA0111901137
B1856094748001N12000991WA0111901138
B1856104747997N12000983WA0111901139
B1856114747993N12000978WA0112001141
B1856124747989N12000974WA0112001142
B1856134747986N12000972WA0112001141
B1856144747982N12000972WA0112001140
B1856154747978N12000974WA0112001139
B1856164747976N12000977WA0112001138
B1856174747976N12000980WA0112001140
B1856184747978N12000982WA0112001142
B1856194747982N12000983WA0112001142
B1856204747986N12000983WA0112101142
B1856214747991N12000981WA0112101142
B1856224747997N12000979WA0112101142
B1856234748002N12000975WA0112101142
B1856234748002N12000975WA0112101142
B1856244748008N12000969WA0112101142
B1856254748014N12000962WA0112101141
B1856264748020N12000954WA0112101140
B1856274748025N12000945WA0112101140
B1856284748031N12000935WA0112101139
B1856294748036N12000926WA0112001139
B1856304748041N12000917WA0112001139
B1856314748047N12000907WA0112001138
B1856324748052N12000898WA0112001137
B1856334748057N12000889WA0112001139
B1856344748061N12000881WA0112001141
B1856354748065N12000873WA0112001142
B1856364748070N12000864WA0112001142
B1856374748075N12000854WA0112001141
B1856384748079N12000842WA0112001140
B1856394748083N12000830WA0112001141
B1856404748084N12000819WA0112101143
B1856414748084N12000809WA0112101144
B1856424748082N12000799WA0112101143
B1856434748079N12000791WA0112201141
B1856444748075N12000783WA0112101139
B1856454748071N12000777WA0112101138
B1856464748067N12000771WA0112101136
B1856474748062N12000767WA0112001136
B1856484748058N12000764WA0112001135
B1856494748053N12000760WA0111901134
B1856504748048N12000757WA0111801134
B1856514748044N12000754WA0111801133
B1856524748039N12000750WA0111701132
B1856534748035N12000747WA0111701133
B1856544748031N12000743WA0111701134
B1856554748029N12000741WA0111601133
B1856564748025N12000739WA0111601132
B1856574748021N12000738WA0111501130
B1856584748016N12000737WA0111401129
B1856594748012N12000736WA0111301130
B1857004748008N12000735WA0111301133
B1857014748006N12000734WA0111301135
B1857024748004N12000733WA0111301136
B1857034748000N12000730WA0111401136
B1857044747995N12000728WA0111301134
B1857054747990N12000726WA0111301132
B1857064747985N12000725WA0111301132
B1857074747981N12000726WA0111201132
B1857084747978N12000728WA0111201132
B1857094747976N12000730WA0111201133
B1857104747975N12000733WA0111201132
B1857114747973N12000735WA0111201131
B1857124747971N12000739WA0111101130
B1857134747968N12000743WA0111101129
B1857144747965N12000746WA0111101129
B1857154747963N12000749WA0111101129
B1857164747961N12000752WA0111001130
B1857174747959N12000754WA0111001130
B1857184747957N12000756WA0111001129
B1857194747954N12000758WA0111001127
B1857204747951N12000760WA0110901125
B1857214747947N12000762WA0110801123
B1857224747943N12000764WA0110801122
B1857234747939N12000764WA0110701122
B1857244747935N12000764WA0110601121
B1857254747930N12000763WA0110501121
B1857264747926N12000761WA0110501120
B1857264747926N12000761WA0110501120
B1857274747921N12000761WA0110401121
B1857284747918N12000761WA0110401123
B1857294747915N12000761WA0110501125
B1857304747913N12000762WA0110501126
B1857314747911N12000762WA0110501126
B1857324747907N12000762WA0110501125
B1857334747903N12000761WA0110501123
B1857344747900N12000760WA0110501123
B1857354747897N12000761WA0110501124
B1857364747895N12000763WA0110501125
B1857374747894N12000767WA0110501124
B1857384747895N12000772WA0110501123
B1857394747896N12000777WA0110501124
B1857404747898N12000781WA0110501125
B1857414747901N12000783WA0110501126
B1857424747906N12000784WA0110601127
B1857434747911N12000783WA0110601127
B1857444747917N12000780WA0110701128
B1857454747922N12000775WA0110701129
B1857464747928N12000768WA0110801130
B1857474747933N12000760WA0110901132
B1857484747936N12000751WA0110901133
B1857494747938N12000742WA0111001134
B1857504747939N12000732WA0111101134
B1857514747940N12000721WA0111101133
B1857524747939N12000711WA0111101132
B1857534747937N12000702WA0111201132
B1857544747934N12000696WA0111201133
B1857554747931N12000693WA0111201132
B1857564747928N12000694WA0111201130
B1857574747926N12000696WA0111201129
B1857584747925N12000700WA0111201128
B1857594747924N12000704WA0111101128
B1858004747925N12000708WA0111101127
B1858014747928N12000712WA0111101127
B1858024747932N12000715WA0111101127
B1858034747936N12000717WA0111001126
B1858044747941N12000717WA0111001126
B1858054747946N12000717WA0111001127
B1858064747950N12000716WA0111001128
B1858074747956N12000715WA0111001129
B1858084747962N12000712WA0111001129
B1858094747968N12000708WA0111001129
B1858104747974N12000702WA0111001130
B1858114747978N12000694WA0111001131
B1858124747982N12000685WA0111101132
B1858134747984N12000675WA0111101132
B1858144747985N12000665WA0111101133
B1858154747985N12000655WA0111201133
B1858164747983N12000646WA0111201133
B1858174747980N12000637WA0111201133
B1858184747976N12000631WA0111301133
B1858194747973N12000627WA0111301133
B1858204747970N12000625WA0111301134
B1858214747968N12000626WA0111301133
B1858224747966N12000630WA0111301132
B1858234747965N12000634WA0111301130
B1858244747964N12000639WA0111201129
B1858254747964N12000644WA0111201129
B1858264747965N12000648WA0111201130
B1858274747968N12000652WA0111201131
B1858284747972N12000655WA0111201131
B1858294747977N12000658WA0111201131
B1858304747982N12000659WA0111201132
B1858304747982N12000659WA0111201132
B1858314747988N12000659WA0111201133
B1858324747994N12000656WA0111201134
B1858334748000N12000651WA0111301134
B1858344748007N12000645WA0111301134
B1858354748013N12000638WA0111301135
B1858364748019N12000630WA0111301137
B1858374748023N12000622WA0111401138
B1858384748025N12000611WA0111401139
B1858394748026N12000601WA0111501139
B1858404748026N12000589WA0111501139
B1858414748024N12000580WA0111601140
B1858424748022N12000572WA0111701141
B1858434748019N12000567WA0111701143
B1858444748015N12000564WA0111801144
B1858454748012N12000562WA0111901144
B1858464748009N12000563WA0111901144
B1858474748007N12000564WA0111901143
B1858484748005N12000566WA0111901143
B1858494748004N12000570WA0112001142
B1858504748003N12000575WA0112001141
B1858514748003N12000580WA0112001140
B1858524748002N12000583WA0112001142
B1858534748004N12000585WA0112101144
B1858544748007N12000586WA0112101146
B1858554748011N12000586WA0112101145
B1858564748016N12000587WA0112201143
B1858574748022N12000587WA0112201143
B1858584748027N12000586WA0112201144
B1858594748033N12000582WA0112201145
B1859004748039N12000576WA0112301145
B1859014748044N12000569WA0112301144
B1859024748050N12000561WA0112301143
B1859034748056N12000552WA0112201142
B1859044748060N12000543WA0112201141
B1859054748063N12000532WA0112201140
B1859064748065N12000520WA0112201139
B1859074748066N12000507WA0112101138
B1859084748067N12000495WA0112101137
B1859094748066N12000484WA0112001137
B1859104748063N12000475WA0112001138
B1859114748060N12000468WA0112001138
B1859124748057N12000463WA0112001139
B1859134748053N12000461WA0112001139
B1859144748051N12000459WA0112001139
B1859154748048N12000458WA0112001140
B1859164748046N12000457WA0111901139
B1859174748043N12000457WA0111901137
B1859184748039N12000456WA0111901136
B1859194748035N12000454WA0111901136
B1859204748031N12000452WA0111801136
B1859214748027N12000450WA0111801137
B1859224748024N12000448WA0111801136
B1859234748020N12000447WA0111801136
B1859244748016N12000446WA0111801135
B1859254748012N12000445WA0111801136
B1859264748009N12000444WA0111801138
B1859274748006N12000443WA0111801139
B1859284748003N12000443WA0111801139
B1859294747999N12000443WA0111801138
B1859304747995N12000444WA0111901138
B1859314747992N12000445WA0111901139
B1859324747992N12000447WA0111901140
B1859334747993N12000449WA0111901139
B1859334747993N12000449WA0111901139
B1859344747995N12000452WA0111901137
B1859354748000N12000454WA0111801135
B1859364748005N12000455WA0111801134
B1859374748011N12000454WA0111701133
B1859384748018N12000451WA0111701133
B1859394748025N12000446WA0111601132
B1859404748031N12000440WA0111601131
B1859414748037N12000432WA0111501130
B1859424748043N12000423WA0111501129
B1859434748048N12000413WA0111401128
B1859444748051N12000401WA0111301127
B1859454748054N12000388WA0111201126
B1859464748055N12000375WA0111201125
B1859474748056N12000362WA0111101126
B1859484748055N12000351WA0111101126
B1859494748054N12000339WA0111001126
B1859504748051N12000328WA0111001126
B1859514748049N12000319WA0110901126
B1859524748045N12000310WA0110901126
B1859534748042N12000302WA0110901126
B1859544748037N12000295WA0110801125
B1859554748033N12000290WA0110801126
B1859564748030N12000287WA0110801127
B1859574748027N12000285WA0110801127
B1859584748025N12000285WA0110801127
B1859594748022N12000285WA0110801126
B1900004748019N12000285WA0110701125
B1900014748016N12000286WA0110701123
B1900024748013N12000286WA0110701123
B1900034748010N12000287WA0110601122
B1900044748007N12000289WA0110601122
B1900054748005N12000291WA0110601124
B1900064748004N12000291WA0110601126
B1900074748004N12000291WA0110601129
B1900084748005N12000290WA0110601129
B1900094748004N12000291WA0110701127
B1900104748004N12000293WA0110601124
B1900114748002N12000296WA0110601121
B1900124748000N12000297WA0110501120
B1900134747998N12000297WA0110501120
B1900144747997N12000296WA0110401120
B1900154747996N12000296WA0110401119
B1900164747994N12000296WA0110301117
B1900174747992N12000296WA0110201114
B1900184747989N12000296WA0110101111
B1900194747987N12000297WA0110001110
B1900204747986N12000297WA0109901110
B1900214747984N12000296WA0109701109
B1900224747981N12000294WA0109701108
B1900234747978N12000292WA0109501106
B1900244747975N12000290WA0109401105
B1900254747971N12000290WA0109301104
B1900264747967N12000289WA0109201104
B1900274747963N12000286WA0109101105
B1900284747960N12000283WA0109101107
B1900294747957N12000278WA0109101108
B1900304747954N12000273WA0109101108
B1900314747951N12000266WA0109001107
B1900324747947N12000258WA0109001104
B1900334747943N12000250WA0108901103
B1900344747940N12000243WA0108901102
B1900354747936N12000236WA0108801102
B1900364747931N12000230WA0108701100
B1900374747926N12000224WA0108601099
B1900374747926N12000224WA0108601099
B1900384747921N12000220WA0108501099
B1900394747917N12000219WA0108501098
B1900404747913N12000218WA0108401098
B1900414747910N12000217WA0108301098
B1900424747908N12000215WA0108301098
B1900434747905N12000213WA0108201096
B1900444747902N12000210WA0108101093
B1900454747898N12000207WA0108001090
B1900464747894N12000205WA0107901088
B1900474747890N12000203WA0107801088
B1900484747886N12000198WA0107701088
B1900494747883N12000193WA0107601089
B1900504747881N12000187WA0107601090
B1900514747878N12000180WA0107501091
B1900524747875N12000173WA0107501092
B1900534747873N12000165WA0107501092
B1900544747869N12000158WA0107501092
B1900554747866N12000152WA0107501093
B1900564747862N12000148WA0107501093
B1900574747858N12000147WA0107501093
B1900584747855N12000148WA0107501094
B1900594747854N12000150WA0107601095
B1901004747853N12000153WA0107601096
B1901014747855N12000156WA0107701097
B1901024747857N12000159WA0107701098
B1901034747861N12000162WA0107701098
B1901044747865N12000164WA0107801098
B1901054747871N12000163WA0107801097
B1901064747877N12000161WA0107801097
B1901074747883N12000156WA0107801097
B1901084747889N12000150WA0107801097
B1901094747893N12000143WA0107801097
B1901104747897N12000135WA0107801096
B1901114747901N12000126WA0107801096
B1901124747906N12000117WA0107801095
B1901134747910N12000107WA0107801094
B1901144747914N12000097WA0107801095
B1901154747916N12000086WA0107801096
B1901164747915N12000077WA0107801097
B1901174747913N12000070WA0107801097
B1901184747910N12000064WA0107801096
B1901194747906N12000059WA0107801095
B1901204747903N12000054WA0107801095
B1901214747900N12000048WA0107701093
B1901224747897N12000040WA0107701092
B1901234747894N12000033WA0107601090
B1901244747891N12000027WA0107601089
B1901254747888N12000022WA0107501088
B1901264747885N12000019WA0107401087
B1901274747882N12000018WA0107301085
B1901284747878N12000018WA0107301083
B1901294747875N12000017WA0107201083
B1901304747871N12000015WA0107101083
B1901314747867N12000012WA0107101084
B1901324747864N12000009WA0107001085
B1901334747860N12000004WA0107001086
B1901344747856N11959999WA0107001085
B1901354747852N11959994WA0107001085
B1901364747848N11959988WA0106901083
B1901374747846N11959983WA0106901083
B1901384747843N11959978WA0106801081
B1901394747839N11959972WA0106701078
B1901404747834N11959966WA0106601073
B1901414747830N11959961WA0106401071
B1901414747830N11959961WA0106401071
B1901424747826N11959958WA0106301070
B1901434747823N11959955WA0106201069
B1901444747820N11959953WA0106101068
B1901454747817N11959951WA0105901066
B1901464747813N11959951WA0105801063
B1901474747809N11959952WA0105601060
B1901484747805N11959953WA0105401057
B1901494747802N11959954WA0105201056
B1901504747799N11959956WA0105101055
B1901514747797N11959957WA0104901054
B1901524747795N11959959WA0104801053
B1901534747793N11959962WA0104601050
B1901544747790N11959965WA0104401048
B1901554747788N11959967WA0104201045
B1901564747785N11959969WA0104101044
B1901574747783N11959971WA0103801041
B1901584747781N11959973WA0103701039
B1901594747778N11959975WA0103401035
B1902004747776N11959977WA0103301033
B1902014747773N11959979WA0103001030
B1902024747771N11959980WA0102801028
B1902034747768N11959981WA0102501025
B1902044747765N11959981WA0102401022
B1902054747762N11959982WA0102101019
B1902064747760N11959983WA0101901017
B1902074747757N11959984WA0101601013
B1902084747754N11959984WA0101401010
B1902094747751N11959985WA0101101007
B1902104747748N11959985WA0100801004
B1902114747745N11959986WA0100501001
B1902124747742N11959986WA0100300997
B1902134747739N11959987WA0099900992
B1902144747736N11959987WA0099700988
B1902154747732N11959988WA0099300984
B1902164747729N11959988WA0099000980
B1902174747726N11959988WA0098600976
B1902184747722N11959988WA0098300972
B1902194747718N11959989WA0097900968
B1902204747716N11959990WA0097600964
B1902214747714N11959992WA0097200961
B1902224747712N11959993WA0096900958
B1902234747710N11959995WA0096500954
B1902244747708N11959996WA0096200950
B1902254747705N11959997WA0095800945
B1902264747701N11959999WA0095500940
B1902274747698N12000000WA0095000936
B1902284747694N12000001WA0094700932
B1902294747690N12000002WA0094300929
B1902304747685N12000000WA0094000925
B1902314747679N11959995WA0093500920
B1902324747674N11959987WA0093200915
B1902334747669N11959975WA0092700910
B1902344747665N11959963WA0092400904
B1902354747661N11959951WA0091900901
B1902364747657N11959940WA0091600898
B1902374747653N11959929WA0091100894
B1902384747650N11959917WA0090800891
B1902394747647N11959905WA0090400887
B1902404747644N11959893WA0090100884
B1902414747641N11959883WA0089700883
B1902424747638N11959873WA0089400880
B1902434747635N11959864WA0089100878
B1902444747632N11959855WA0088800874
B1902444747632N11959855WA0088800874
B1902454747629N11959847WA0088400870
B1902464747625N11959839WA0088100867
B1902474747621N11959830WA0087800863
B1902484747618N11959822WA0087500861
B1902494747615N11959813WA0087100859
B1902504747612N11959805WA0086900855
B1902514747608N11959796WA0086500851
B1902524747605N11959787WA0086200847
B1902534747601N11959776WA0085800843
B1902544747597N11959766WA0085600839
B1902554747593N11959755WA0085200838
B1902564747590N11959745WA0085000837
B1902574747586N11959734WA0084700836
B1902584747583N11959725WA0084500835
B1902594747580N11959715WA0084200832
B1903004747576N11959706WA0084000828
B1903014747572N11959697WA0083700824
B1903024747567N11959689WA0083500821
B1903034747563N11959681WA0083200820
B1903044747560N11959672WA0083000819
B1903054747558N11959662WA0082700818
B1903064747555N11959651WA0082500815
B1903074747553N11959640WA0082300813
B1903084747549N11959629WA0082100811
B1903094747547N11959619WA0081900810
B1903104747545N11959610WA0081700810
B1903114747543N11959602WA0081500810
B1903124747540N11959593WA0081400808
B1903134747537N11959585WA0081100805
B1903144747534N11959575WA0081000801
B1903154747530N11959565WA0080700799
B1903164747527N11959556WA0080600798
B1903174747525N11959546WA0080400798
B1903184747523N11959537WA0080300797
B1903194747521N11959527WA0080100796
B1903204747519N11959516WA0080000794
B1903214747517N11959505WA0079800792
B1903224747516N11959495WA0079600790
B1903234747514N11959485WA0079400788
B1903244747513N11959475WA0079300786
B1903254747511N11959466WA0079100783
B1903264747508N11959456WA0078900780
B1903274747505N11959448WA0078700777
B1903284747501N11959440WA0078500775
B1903294747498N11959433WA0078300773
B1903304747494N11959426WA0078100771
B1903314747491N11959419WA0077900768
B1903324747487N11959410WA0077700765
B1903334747483N11959402WA0077400763
B1903344747479N11959393WA0077300761
B1903354747476N11959385WA0077000760
B1903364747473N11959376WA0076900759
B1903374747471N11959366WA0076600757
B1903384747469N11959357WA0076500754
B1903394747466N11959347WA0076300752
B1903404747464N11959338WA0076100750
B1903414747461N11959328WA0075900747
B1903424747458N11959318WA0075700745
B1903434747456N11959308WA0075500743
B1903444747454N11959298WA0075300742
B1903454747452N11959288WA0075100740
B1903464747450N11959279WA0074900738
B1903474747447N11959268WA0074700736
B1903484747445N11959258WA0074500734
B1903484747445N11959258WA0074500734
B1903494747443N11959247WA0074300732
B1903504747442N11959236WA0074200730
B1903514747441N11959225WA0073900728
B1903524747440N11959215WA0073800726
B1903534747439N11959204WA0073600724
B1903544747438N11959192WA0073400722
B1903554747438N11959181WA0073200720
B1903564747437N11959170WA0073000719
B1903574747437N11959159WA0072800717
B1903584747436N11959148WA0072600715
B1903594747435N11959138WA0072400713
B1904004747434N11959127WA0072300711
B1904014747434N11959115WA0072000709
B1904024747435N11959104WA0071900707
B1904034747436N11959092WA0071600705
B1904044747437N11959081WA0071500704
B1904054747438N11959070WA0071200701
B1904064747439N11959059WA0071100699
B1904074747441N11959047WA0070800696
B1904084747443N11959035WA0070600692
B1904094747445N11959023WA0070400690
B1904104747449N11959012WA0070200688
B1904114747453N11959002WA0069900686
B1904124747457N11958991WA0069700683
B1904134747461N11958980WA0069500681
B1904144747465N11958970WA0069300678
B1904154747470N11958959WA0069000676
B1904164747475N11958949WA0068800673
B1904174747479N11958939WA0068500671
B1904184747484N11958929WA0068300669
B1904194747489N11958919WA0068100667
B1904204747494N11958909WA0067900665
B1904214747499N11958899WA0067600662
B1904224747504N11958888WA0067400660
B1904234747509N11958878WA0067200658
B1904244747514N11958867WA0067000656
B1904254747519N11958857WA0066700654
B1904264747523N11958846WA0066600652
B1904274747528N11958836WA0066300650
B1904284747533N11958826WA0066200649
B1904294747538N11958816WA0065900647
B1904304747543N11958806WA0065800645
B1904314747548N11958796WA0065500643
B1904324747553N11958786WA0065400641
B1904334747558N11958775WA0065200639
B1904344747563N11958765WA0065000638
B1904354747568N11958756WA0064800637
B1904364747572N11958746WA0064700637
B1904374747577N11958737WA0064500636
B1904384747582N11958729WA0064400635
B1904394747587N11958720WA0064200634
B1904404747592N11958711WA0064100633
B1904414747597N11958705WA0064000633
B1904424747603N11958701WA0063900631
B1904434747610N11958701WA0063700629
B1904444747615N11958703WA0063600626
B1904454747619N11958707WA0063500627
B1904464747621N11958709WA0063400628
B1904474747622N11958711WA0063400630
B1904484747624N11958713WA0063300628
B1904494747625N11958716WA0063200626
B1904504747627N11958721WA0063100623
B1904514747629N11958726WA0063000621
B1904514747629N11958726WA0063000621
B1904524747629N11958730WA0062900621
B1904534747629N11958734WA0062800621
B1904544747629N11958737WA0062700621
B1904554747629N11958740WA0062600620
B1904564747628N11958744WA0062500618
B1904574747628N11958748WA0062400616
B1904584747627N11958752WA0062300615
B1904594747626N11958756WA0062100614
B1905004747626N11958760WA0062000613
B1905014747626N11958765WA0061900612
B1905024747627N11958769WA0061800610
B1905034747628N11958774WA0061700609
B1905044747629N11958779WA0061600608
B1905054747630N11958784WA0061500607
B1905064747631N11958788WA0061400606
B1905074747632N11958792WA0061200604
B1905084747633N11958797WA0061100602
B1905094747635N11958802WA0060900600
B1905104747636N11958807WA0060800598
B1905114747637N11958813WA0060600596
B1905124747638N11958819WA0060500594
B1905134747639N11958824WA0060300593
B1905144747640N11958829WA0060200591
B1905154747640N11958835WA0060000590
B1905164747642N11958841WA0059900588
B1905174747643N11958848WA0059700586
B1905184747645N11958855WA0059600585
B1905194747647N11958861WA0059400584
B1905204747649N11958867WA0059300584
B1905214747652N11958872WA0059200584
B1905224747655N11958876WA0059200585
B1905234747656N11958880WA0059100587
B1905244747658N11958884WA0059100587
B1905254747657N11958888WA0059100587
B1905264747656N11958891WA0059000587
B1905274747653N11958894WA0059000587
B1905284747650N11958895WA0059000588
B1905294747648N11958898WA0059000589
B1905304747647N11958902WA0059000592
B1905314747649N11958907WA0059100592
B1905324747652N11958913WA0059100592
B1905334747656N11958919WA0059100593
B1905344747660N11958923WA0059200594
B1905354747666N11958926WA0059200594
B1905364747673N11958927WA0059200594
B1905374747680N11958926WA0059300593
B1905384747687N11958923WA0059300594
B1905394747693N11958917WA0059300595
B1905404747697N11958908WA0059300595
B1905414747700N11958899WA0059400594
B1905424747700N11958888WA0059400594
B1905434747699N11958880WA0059400595
B1905444747696N11958873WA0059500596
B1905454747693N11958869WA0059500597
B1905464747690N11958867WA0059500598
B1905474747686N11958867WA0059600599
B1905484747684N11958869WA0059700600
B1905494747682N11958872WA0059700600
B1905504747681N11958876WA0059800602
B1905514747682N11958880WA0059900602
B1905524747683N11958886WA0059900602
B1905534747686N11958892WA0060000602
B1905544747691N11958898WA0060000602
B1905544747691N11958898WA0060000602
B1905554747695N11958901WA0060100604
B1905564747701N11958903WA0060100605
B1905574747706N11958903WA0060200605
B1905584747713N11958902WA0060200604
B1905594747720N11958898WA0060200603
B1906004747727N11958892WA0060200602
B1906014747733N11958885WA0060200602
B1906024747738N11958877WA0060200603
B1906034747741N11958868WA0060200603
B1906044747743N11958859WA0060300603
B1906054747744N11958849WA0060300603
B1906064747744N11958839WA0060300603
B1906074747744N11958830WA0060300604
B1906084747744N11958821WA0060300604
B1906094747744N11958812WA0060400606
B1906104747743N11958803WA0060400606
B1906114747742N11958794WA0060400607
B1906124747741N11958787WA0060500608
B1906134747739N11958780WA0060600609
B1906144747736N11958775WA0060600609
B1906154747733N11958773WA0060600608
B1906164747730N11958773WA0060700608
B1906174747728N11958776WA0060700607
B1906184747728N11958780WA0060700607
B1906194747729N11958786WA0060700607
B1906204747731N11958792WA0060700606
B1906214747734N11958798WA0060700606
B1906224747738N11958804WA0060700606
B1906234747741N11958810WA0060700606
B1906244747744N11958815WA0060700607
B1906254747746N11958821WA0060800608
B1906264747747N11958827WA0060800608
B1906274747748N11958832WA0060800608
B1906284747747N11958836WA0060800607
B1906294747744N11958838WA0060800606
B1906304747741N11958839WA0060800606
B1906314747738N11958839WA0060800606
B1906324747735N11958839WA0060800607
B1906334747733N11958840WA0060800608
B1906344747732N11958842WA0060800608
B1906354747731N11958846WA0060800607
B1906364747730N11958851WA0060800606
B1906374747729N11958855WA0060800605
B1906384747730N11958859WA0060800607
B1906394747732N11958862WA0060800607
B1906404747734N11958866WA0060800605
B1906414747738N11958870WA0060700603
B1906424747742N11958874WA0060700602
B1906434747746N11958877WA0060600601
B1906444747751N11958877WA0060600601
B1906454747757N11958876WA0060500600
B1906464747763N11958873WA0060500598
B1906474747768N11958867WA0060400596
B1906484747774N11958860WA0060300595
B1906494747778N11958851WA0060200594
B1906504747780N11958842WA0060200594
B1906514747781N11958832WA0060100593
B1906524747780N11958822WA0060100593
B1906534747778N11958812WA0060000593
B1906544747777N11958803WA0060000593
B1906554747775N11958795WA0059900595
B1906564747774N11958788WA0059900595
B1906574747772N11958780WA0059900595
B1906574747772N11958780WA0059900595
B1906584747770N11958773WA0059900595
B1906594747768N11958764WA0059800594
B1907004747766N11958756WA0059800594
B1907014747763N11958748WA0059800593
B1907024747760N11958741WA0059800593
B1907034747757N11958735WA0059700593
B1907044747754N11958729WA0059700593
B1907054747750N11958724WA0059700592
B1907064747746N11958720WA0059600591
B1907074747742N11958717WA0059600590
B1907084747739N11958715WA0059600590
B1907094747736N11958714WA0059500590
B1907104747733N11958715WA0059500589
B1907114747732N11958717WA0059400586
B1907124747731N11958722WA0059300583
B1907134747732N11958728WA0059100580
B1907144747733N11958733WA0059000580
B1907154747735N11958738WA0058900580
B1907164747736N11958741WA0058800579
B1907174747737N11958745WA0058700578
B1907184747739N11958749WA0058600576
B1907194747741N11958754WA0058400575
B1907204747743N11958760WA0058300574
B1907214747744N11958765WA0058100573
B1907224747745N11958769WA0058000572
B1907234747746N11958773WA0057900572
B1907244747746N11958777WA0057800570
B1907254747747N11958780WA0057700568
B1907264747747N11958785WA0057500564
B1907274747747N11958789WA0057300561
B1907284747748N11958794WA0057200560
B1907294747749N11958798WA0057000559
B1907304747751N11958802WA0056900558
B1907314747753N11958807WA0056700556
B1907324747756N11958812WA0056600554
B1907334747758N11958817WA0056400551
B1907344747759N11958823WA0056300550
B1907354747760N11958828WA0056100549
B1907364747760N11958831WA0056000550
B1907374747760N11958834WA0055800550
B1907384747759N11958836WA0055700549
B1907394747759N11958839WA0055600547
B1907404747759N11958844WA0055400543
B1907414747758N11958849WA0055200539
B1907424747757N11958855WA0055100538
B1907434747757N11958859WA0054900536
B1907444747758N11958863WA0054800535
B1907454747758N11958867WA0054600534
B1907464747759N11958872WA0054400531
B1907474747759N11958878WA0054200529
B1907484747759N11958884WA0054100527
B1907494747760N11958889WA0053900525
B1907504747761N11958893WA0053700524
B1907514747762N11958898WA0053600523
B1907524747762N11958902WA0053400521
B1907534747762N11958907WA0053300519
B1907544747762N11958912WA0053100517
B1907554747761N11958918WA0052900516
B1907564747762N11958923WA0052800515
B1907574747762N11958928WA0052600514
B1907584747762N11958933WA0052500512
B1907594747763N11958939WA0052300511
B1908004747763N11958944WA0052200510
B1908004747763N11958944WA0052200510
B1908014747764N11958950WA0052100508
B1908024747764N11958956WA0051900506
B1908034747764N11958961WA0051800505
B1908044747763N11958966WA0051700504
B1908054747762N11958971WA0051500503
B1908064747761N11958976WA0051400501
B1908074747760N11958982WA0051200500
B1908084747760N11958988WA0051100498
B1908094747760N11958994WA0051000497
B1908104747760N11959001WA0050900496
B1908114747760N11959007WA0050700494
B1908124747760N11959013WA0050600493
B1908134747758N11959019WA0050400492
B1908144747757N11959024WA0050300491
B1908154747755N11959028WA0050200490
B1908164747754N11959033WA0050100489
B1908174747753N11959038WA0050000487
B1908184747751N11959043WA0049900485
B1908194747750N11959048WA0049700484
B1908204747749N11959053WA0049600482
B1908214747747N11959057WA0049400481
B1908224747746N11959062WA0049300479
B1908234747745N11959066WA0049100477
B1908244747743N11959070WA0048900474
B1908254747742N11959075WA0048700472
B1908264747740N11959080WA0048600470
B1908274747739N11959085WA0048400469
B1908284747738N11959089WA0048200467
B1908294747738N11959094WA0048000466
B1908304747739N11959099WA0047900465
B1908314747740N11959105WA0047700463
B1908324747742N11959112WA0047600461
B1908334747744N11959118WA0047400459
B1908344747746N11959125WA0047200458
B1908354747748N11959131WA0047000457
B1908364747750N11959137WA0046900455
B1908374747753N11959143WA0046700454
B1908384747755N11959149WA0046600452
B1908394747756N11959156WA0046400450
B1908404747758N11959162WA0046300449
B1908414747759N11959168WA0046100448
B1908424747761N11959174WA0046000448
B1908434747763N11959179WA0045800447
B1908444747765N11959184WA0045700445
B1908454747768N11959190WA0045500444
B1908464747770N11959197WA0045400442
B1908474747773N11959203WA0045200440
B1908484747776N11959209WA0045100439
B1908494747778N11959215WA0044900438
B1908504747781N11959220WA0044800436
B1908514747783N11959227WA0044600434
B1908524747785N11959233WA0044500432
B1908534747788N11959239WA0044300430
B1908544747790N11959244WA0044200429
B1908554747793N11959250WA0043900427
B1908564747797N11959256WA0043800424
B1908574747802N11959263WA0043600421
B1908584747806N11959270WA0043400419
B1908594747812N11959276WA0043200419
B1909004747817N11959280WA0043100419
B1909014747822N11959283WA0043000420
B1909024747827N11959287WA0042900419
B1909034747833N11959292WA0042700417
B1909044747838N11959299WA0042700416
B1909044747838N11959299WA0042700416
B1909054747844N11959305WA0042500415
B1909064747850N11959310WA0042500416
B1909074747856N11959314WA0042400417
B1909084747863N11959315WA0042400418
B1909094747871N11959315WA0042300417
B1909104747879N11959313WA0042300416
B1909114747886N11959309WA0042200415
B1909124747892N11959304WA0042200415
B1909134747898N11959297WA0042100413
B1909144747902N11959290WA0042100412
B1909154747905N11959283WA0042000411
B1909164747907N11959276WA0042000410
B1909174747907N11959269WA0041900408
B1909184747906N11959263WA0041800406
B1909194747904N11959260WA0041700404
B1909204747901N11959259WA0041600402
B1909214747898N11959260WA0041500402
B1909224747895N11959261WA0041400403
B1909234747894N11959261WA0041400404
B1909244747893N11959261WA0041300404
B1909254747891N11959261WA0041300403
B1909264747889N11959261WA0041200401
B1909274747886N11959261WA0041100400
B1909284747884N11959261WA0041100399
B1909294747882N11959260WA0041000399
B1909304747880N11959260WA0040900398
B1909314747879N11959257WA0040900397
B1909324747878N11959254WA0040800395
B1909334747876N11959249WA0040600392
B1909344747874N11959245WA0040500390
B1909354747872N11959240WA0040400388
B1909364747871N11959235WA0040300387
B1909374747869N11959229WA0040100385
B1909384747868N11959223WA0040000384
B1909394747868N11959217WA0039900382
B1909404747867N11959211WA0039700380
B1909414747866N11959206WA0039600379
B1909424747865N11959201WA0039400376
B1909434747863N11959196WA0039200374
B1909444747862N11959193WA0039100371
B1909454747860N11959191WA0038900369
B1909464747858N11959192WA0038700367
B1909474747857N11959196WA0038500364
B1909484747858N11959202WA0038300361
B1909494747859N11959209WA0038100359
B1909504747861N11959214WA0037900358
B1909514747863N11959218WA0037700357
B1909524747866N11959223WA0037600356
B1909534747870N11959228WA0037400354
B1909544747874N11959234WA0037200350
B1909554747880N11959239WA0037000349
B1909564747886N11959244WA0036900347
B1909574747893N11959247WA0036600345
B1909584747900N11959248WA0036500343
B1909594747907N11959249WA0036300341
B1910004747915N11959250WA0036100339
B1910014747923N11959249WA0035900338
B1910024747931N11959247WA0035800336
B1910034747939N11959245WA0035600333
B1910044747946N11959241WA0035400331
B1910054747952N11959234WA0035200329
B1910064747957N11959225WA0035000327
B1910074747960N11959215WA0034800324
B1910084747963N11959206WA0034700322
B1910084747963N11959206WA0034700322
B1910094747966N11959198WA0034500321
B1910104747969N11959191WA0034300320
B1910114747972N11959184WA0034200318
B1910124747975N11959176WA0034000316
B1910134747978N11959167WA0033800313
B1910144747981N11959158WA0033700311
B1910154747984N11959150WA0033500310
B1910164747987N11959142WA0033400309
B1910174747990N11959134WA0033200308
B1910184747992N11959126WA0033100306
B1910194747995N11959116WA0032900303
B1910204747998N11959107WA0032800302
B1910214748000N11959099WA0032600300
B1910224748002N11959090WA0032500299
B1910234748004N11959081WA0032300297
B1910244748006N11959072WA0032200295
B1910254748008N11959063WA0032000293
B1910264748009N11959054WA0031900292
B1910274748010N11959046WA0031700291
B1910284748011N11959039WA0031600290
B1910294748011N11959031WA0031500289
B1910304748011N11959024WA0031400288
B1910314748010N11959018WA0031200287
B1910324748008N11959015WA0031100285
B1910334748006N11959017WA0031000283
B1910344748005N11959022WA0030800280
B1910354748007N11959030WA0030600278
B1910364748009N11959037WA0030500278
B1910374748011N11959042WA0030400279
B1910384748012N11959045WA0030300279
B1910394748011N11959047WA0030100276
B1910404748008N11959047WA0030000271
B1910414748006N11959045WA0029800269
B1910424748004N11959041WA0029700270
B1910434748003N11959036WA0029600270
B1910444748002N11959031WA0029500269
B1910454748001N11959027WA0029300268
B1910464747999N11959024WA0029200266
B1910474747997N11959023WA0029100265
B1910484747996N11959025WA0028900264
B1910494747996N11959031WA0028800262
B1910504747998N11959038WA0028600260
B1910514747999N11959045WA0028500259
B1910524748000N11959049WA0028400260
B1910534747998N11959050WA0028200257
B1910544747995N11959049WA0028100254
B1910554747992N11959045WA0027900252
B1910564747990N11959042WA0027800251
B1910574747989N11959040WA0027600251
B1910584747988N11959038WA0027500249
B1910594747986N11959038WA0027300247
B1911004747983N11959038WA0027200244
B1911014747981N11959040WA0027000242
B1911024747979N11959044WA0026900241
B1911034747978N11959050WA0026700240
B1911044747978N11959057WA0026600238
B1911054747977N11959061WA0026400237
B1911064747975N11959063WA0026300238
B1911074747972N11959064WA0026100236
B1911084747969N11959065WA0026000234
B1911094747966N11959066WA0025800232
B1911104747964N11959070WA0025700231
B1911114747961N11959074WA0025500230
B1911124747959N11959077WA0025400229
B1911124747959N11959077WA0025400229
B1911134747957N11959079WA0025200228
B1911144747955N11959080WA0025100227
B1911154747953N11959080WA0025000227
B1911164747951N11959080WA0025000225
B1911174747949N11959081WA0024900224
B1911184747947N11959081WA0024800223
B1911194747945N11959082WA0024700222
B1911204747944N11959082WA0024700222
B1911214747942N11959082WA0024600221
B1911224747940N11959082WA0024600220
B1911234747938N11959083WA0024500220
B1911244747937N11959083WA0024500219
B1911254747935N11959084WA0024500219
B1911264747933N11959084WA0024400217
B1911274747932N11959084WA0024400217
B1911284747931N11959085WA0024400216
B1911294747930N11959084WA0024400216
B1911304747929N11959084WA0024300216
B1911314747929N11959084WA0024300216
B1911324747929N11959083WA0024300216
B1911334747929N11959084WA0024300216
B1911344747929N11959084WA0024300217
B1911354747930N11959085WA0024300217
B1911364747930N11959085WA0024200218
B1911374747930N11959085WA0024200218
B1911384747930N11959085WA0024200218
B1911394747930N11959085WA0024200218
B1911404747930N11959085WA0024200218
B1911414747930N11959085WA0024200218
B1911424747930N11959085WA0024200218
B1911434747930N11959085WA0024200218
B1911444747930N11959085WA0024200217
B1911454747930N11959086WA0024200217
B1911464747929N11959086WA0024200217
B1911474747929N11959086WA0024200217
B1911484747929N11959086WA0024200216
B1911494747929N11959086WA0024200216
B1911504747929N11959086WA0024200216
B1911514747929N11959086WA0024200216
B1911524747929N11959086WA0024200216
B1911534747929N11959086WA0024200216
B1911544747929N11959086WA0024200217
B1911554747929N11959086WA0024200217
B1911564747929N11959086WA0024200217
B1911574747929N11959086WA0024200217
B1911584747929N11959086WA0024200217
B1911594747929N11959086WA0024200217
B1912004747929N11959086WA0024200217
B1912014747929N11959086WA0024200218
B1912024747929N11959087WA0024200218
B1912034747929N11959087WA0024200218
B1912044747929N11959087WA0024200218
B1912054747929N11959087WA0024200218
B1912064747929N11959087WA0024200218
B1912074747929N11959087WA0024200218
B1912084747929N11959088WA0024200219
B1912094747929N11959088WA0024200219
B1912104747929N11959089WA0024200219
B1912114747929N11959089WA0024200219
B1912124747929N11959089WA0024200219
B1912134747929N11959089WA0024200219
B1912144747929N11959089WA0024200219
B1912154747929N11959089WA0024200219
