AXFMSFP Flymaster Live, V1.0
HFFXA010
HFPLTPILOT:Andria Lea Monteleone
HFGTYGLIDERTYPE:Triple Seven Queen 3 / Supair Delight 4 Sport
HFGIDGLIDERID:
HFDTM100GPSDATUM:WGS-1984
HFCIDCOMPETITIONID:7771
HFCCLCOMPETITIONCLASS:
HOSITSITE:LAUNCH
HFGPS:UBLOXNEO6
HFPRSPRESSALTSENSOR:NA
HFRFWFIRMWAREVERSION:202g
HFRHWHARDWAREVERSION:1.0R2
HFFTYFRTYPE:FLYMASTER,LIVE
HFDTE250625
B1855094748167N12002458WA0111401136
B1855104748165N12002460WA0111401138
B1855114748163N12002463WA0111401138
B1855124748161N12002466WA0111401139
B1855134748160N12002469WA0111401139
B1855144748159N12002473WA0111501139
B1855154748158N12002477WA0111501139
B1855164748158N12002481WA0111501138
B1855174748157N12002485WA0111501137
B1855184748156N12002488WA0111501137
B1855194748154N12002490WA0111501135
B1855204748150N12002492WA0111501133
B1855214748146N12002492WA0111401133
B1855224748142N12002491WA0111401133
B1855234748137N12002488WA0111401133
B1855244748134N12002483WA0111301133
B1855254748131N12002477WA0111301132
B1855264748129N12002470WA0111301132
B1855274748127N12002462WA0111301130
B1855284748124N12002456WA0111201128
B1855294748121N12002451WA0111101126
B1855304748116N12002450WA0111001124
B1855314748112N12002454WA0110901122
B1855324748110N12002459WA0110701119
B1855334748109N12002465WA0110601117
B1855344748110N12002469WA0110401118
B1855354748111N12002471WA0110301119
B1855364748113N12002474WA0110101119
B1855374748115N12002477WA0110001118
B1855384748117N12002482WA0109801115
B1855394748118N12002488WA0109701112
B1855404748119N12002494WA0109501108
B1855414748119N12002499WA0109401106
B1855424748119N12002503WA0109201105
B1855434748120N12002508WA0109101104
B1855444748121N12002513WA0108901103
B1855454748122N12002518WA0108801101
B1855464748123N12002524WA0108601099
B1855474748124N12002529WA0108501097
B1855484748126N12002534WA0108401096
B1855494748128N12002538WA0108301096
B1855504748130N12002543WA0108101095
B1855514748133N12002547WA0108001094
B1855524748136N12002552WA0107901092
B1855534748139N12002557WA0107801091
B1855544748142N12002561WA0107701091
B1855554748146N12002565WA0107601091
B1855564748150N12002568WA0107601090
B1855574748154N12002571WA0107501089
B1855584748159N12002575WA0107401089
B1855594748162N12002580WA0107401090
B1856004748166N12002584WA0107401093
B1856014748168N12002587WA0107401096
B1856024748171N12002590WA0107501098
B1856034748173N12002593WA0107601099
B1856044748175N12002597WA0107601101
B1856054748175N12002601WA0107701101
B1856064748174N12002606WA0107701101
B1856074748172N12002609WA0107701100
B1856084748170N12002612WA0107701100
B1856094748168N12002615WA0107701100
B1856104748167N12002619WA0107701100
B1856114748168N12002624WA0107701100
B1856124748170N12002629WA0107701101
B1856134748172N12002634WA0107701100
B1856144748174N12002639WA0107701101
B1856154748177N12002643WA0107701102
B1856164748179N12002647WA0107701103
B1856174748181N12002651WA0107801103
B1856184748183N12002655WA0107801104
B1856194748184N12002659WA0107801104
B1856204748185N12002662WA0107801104
B1856214748185N12002665WA0107801103
B1856224748184N12002668WA0107801102
B1856234748182N12002671WA0107801100
B1856234748182N12002671WA0107801100
B1856244748180N12002674WA0107801099
B1856254748176N12002675WA0107701098
B1856264748173N12002676WA0107701096
B1856274748169N12002675WA0107601095
B1856284748167N12002677WA0107501093
B1856294748166N12002680WA0107401091
B1856304748166N12002686WA0107201090
B1856314748167N12002692WA0107101087
B1856324748170N12002698WA0106901086
B1856334748174N12002702WA0106701085
B1856344748177N12002705WA0106601086
B1856354748179N12002708WA0106401085
B1856364748183N12002711WA0106301083
B1856374748187N12002715WA0106201081
B1856384748190N12002720WA0106001076
B1856394748193N12002725WA0105901074
B1856404748194N12002731WA0105701073
B1856414748195N12002735WA0105601072
B1856424748195N12002740WA0105501071
B1856434748194N12002744WA0105401071
B1856444748192N12002747WA0105301071
B1856454748189N12002748WA0105301071
B1856464748185N12002746WA0105201071
B1856474748181N12002743WA0105201070
B1856484748178N12002738WA0105101071
B1856494748175N12002732WA0105101072
B1856504748172N12002726WA0105101073
B1856514748169N12002718WA0105101074
B1856524748165N12002711WA0105001074
B1856534748161N12002705WA0105001075
B1856544748157N12002699WA0105001075
B1856554748154N12002693WA0105001076
B1856564748151N12002686WA0105001077
B1856574748148N12002678WA0105001077
B1856584748146N12002668WA0105001076
B1856594748145N12002659WA0105001077
B1857004748144N12002649WA0105001078
B1857014748142N12002641WA0105001077
B1857024748140N12002634WA0105001077
B1857034748136N12002628WA0104901075
B1857044748131N12002624WA0104801072
B1857054748127N12002620WA0104701071
B1857064748122N12002619WA0104601069
B1857074748118N12002619WA0104501067
B1857084748113N12002619WA0104401064
B1857094748109N12002619WA0104301062
B1857104748104N12002619WA0104101058
B1857114748099N12002618WA0103901057
B1857124748094N12002615WA0103801055
B1857134748089N12002611WA0103601053
B1857144748085N12002606WA0103501051
B1857154748080N12002600WA0103301048
B1857164748076N12002594WA0103101046
B1857174748071N12002589WA0103001043
B1857184748066N12002585WA0102801040
B1857194748061N12002582WA0102601038
B1857204748056N12002579WA0102401035
B1857214748051N12002576WA0102301033
B1857224748045N12002574WA0102001030
B1857234748040N12002571WA0101901028
B1857244748034N12002567WA0101701026
B1857254748028N12002563WA0101501023
B1857264748022N12002558WA0101301021
B1857264748022N12002558WA0101301021
B1857274748017N12002554WA0101101019
B1857284748012N12002550WA0100901017
B1857294748006N12002548WA0100801015
B1857304748001N12002546WA0100601015
B1857314747996N12002545WA0100501015
B1857324747991N12002543WA0100401016
B1857334747986N12002542WA0100301016
B1857344747981N12002541WA0100201016
B1857354747976N12002541WA0100101016
B1857364747971N12002541WA0100001016
B1857374747967N12002542WA0099901016
B1857384747962N12002543WA0099901016
B1857394747957N12002544WA0099801016
B1857404747952N12002545WA0099801016
B1857414747947N12002546WA0099701017
B1857424747943N12002548WA0099701018
B1857434747940N12002551WA0099801019
B1857444747936N12002554WA0099801021
B1857454747933N12002559WA0099801022
B1857464747931N12002564WA0099901024
B1857474747931N12002569WA0100001025
B1857484747932N12002575WA0100101026
B1857494747935N12002579WA0100101027
B1857504747939N12002582WA0100201028
B1857514747943N12002583WA0100301030
B1857524747948N12002583WA0100401032
B1857534747952N12002580WA0100501034
B1857544747957N12002576WA0100601034
B1857554747961N12002569WA0100701036
B1857564747963N12002561WA0100901038
B1857574747965N12002553WA0101001041
B1857584747966N12002545WA0101101043
B1857594747966N12002536WA0101201043
B1858004747964N12002526WA0101301044
B1858014747962N12002517WA0101401046
B1858024747958N12002510WA0101501048
B1858034747954N12002506WA0101701052
B1858044747950N12002504WA0101901055
B1858054747946N12002503WA0102001057
B1858064747941N12002502WA0102201059
B1858074747936N12002503WA0102401061
B1858084747931N12002506WA0102601062
B1858094747927N12002509WA0102701064
B1858104747923N12002512WA0102901067
B1858114747920N12002516WA0103101069
B1858124747918N12002520WA0103301072
B1858134747918N12002525WA0103401074
B1858144747918N12002531WA0103601074
B1858154747921N12002536WA0103801074
B1858164747925N12002539WA0104001075
B1858174747930N12002538WA0104101076
B1858184747934N12002534WA0104301078
B1858194747937N12002527WA0104401079
B1858204747937N12002519WA0104601081
B1858214747936N12002510WA0104701083
B1858224747932N12002502WA0104901085
B1858234747928N12002496WA0105101086
B1858244747923N12002492WA0105301089
B1858254747918N12002489WA0105501092
B1858264747914N12002488WA0105701094
B1858274747910N12002489WA0105801095
B1858284747905N12002491WA0106101098
B1858294747902N12002492WA0106301101
B1858304747899N12002494WA0106501105
B1858304747899N12002494WA0106501105
B1858314747896N12002495WA0106701107
B1858324747893N12002496WA0106901108
B1858334747891N12002499WA0107101108
B1858344747890N12002503WA0107301109
B1858354747890N12002507WA0107401108
B1858364747890N12002512WA0107501108
B1858374747890N12002517WA0107601107
B1858384747891N12002522WA0107701107
B1858394747893N12002526WA0107801107
B1858404747897N12002530WA0107901107
B1858414747902N12002532WA0108001107
B1858424747907N12002534WA0108101107
B1858434747913N12002532WA0108201110
B1858444747918N12002529WA0108401113
B1858454747923N12002525WA0108501115
B1858464747928N12002518WA0108601117
B1858474747933N12002510WA0108701118
B1858484747937N12002500WA0108901119
B1858494747939N12002489WA0109001121
B1858504747939N12002478WA0109101123
B1858514747938N12002467WA0109201124
B1858524747935N12002457WA0109401126
B1858534747931N12002448WA0109501128
B1858544747927N12002440WA0109601130
B1858554747924N12002432WA0109701133
B1858564747921N12002425WA0109901135
B1858574747918N12002420WA0110001136
B1858584747914N12002417WA0110201136
B1858594747909N12002416WA0110301137
B1859004747906N12002416WA0110401138
B1859014747903N12002417WA0110501138
B1859024747901N12002419WA0110601139
B1859034747901N12002422WA0110701138
B1859044747901N12002427WA0110801137
B1859054747903N12002432WA0110801135
B1859064747906N12002437WA0110901133
B1859074747911N12002441WA0110901132
B1859084747916N12002444WA0110901132
B1859094747922N12002444WA0111001132
B1859104747928N12002443WA0111001133
B1859114747934N12002439WA0111001134
B1859124747940N12002434WA0111101134
B1859134747945N12002427WA0111201136
B1859144747948N12002419WA0111301139
B1859154747951N12002410WA0111401141
B1859164747952N12002400WA0111501142
B1859174747953N12002388WA0111601143
B1859184747952N12002377WA0111701144
B1859194747950N12002367WA0111701145
B1859204747948N12002359WA0111801147
B1859214747946N12002352WA0111901149
B1859224747942N12002346WA0112001148
B1859234747938N12002339WA0112001146
B1859244747934N12002333WA0112101144
B1859254747929N12002328WA0112101145
B1859264747925N12002325WA0112201146
B1859274747921N12002322WA0112201147
B1859284747918N12002322WA0112301148
B1859294747915N12002323WA0112301149
B1859304747912N12002326WA0112401150
B1859314747911N12002331WA0112401150
B1859324747911N12002336WA0112401150
B1859334747911N12002341WA0112501151
B1859334747911N12002341WA0112501151
B1859344747913N12002345WA0112501151
B1859354747916N12002348WA0112501152
B1859364747920N12002352WA0112601153
B1859374747925N12002354WA0112601153
B1859384747931N12002356WA0112601154
B1859394747937N12002356WA0112601155
B1859404747942N12002355WA0112701155
B1859414747948N12002354WA0112701155
B1859424747954N12002352WA0112701154
B1859434747960N12002348WA0112701155
B1859444747966N12002343WA0112801157
B1859454747970N12002337WA0112801159
B1859464747975N12002330WA0112901161
B1859474747978N12002321WA0113001163
B1859484747980N12002311WA0113101165
B1859494747980N12002301WA0113201166
B1859504747979N12002291WA0113301168
B1859514747976N12002283WA0113401168
B1859524747972N12002276WA0113401168
B1859534747967N12002273WA0113501170
B1859544747962N12002271WA0113501171
B1859554747958N12002271WA0113601171
B1859564747955N12002273WA0113601172
B1859574747952N12002277WA0113701173
B1859584747951N12002281WA0113701173
B1859594747950N12002285WA0113701172
B1900004747951N12002290WA0113801171
B1900014747953N12002295WA0113801171
B1900024747955N12002300WA0113801172
B1900034747959N12002304WA0113801171
B1900044747964N12002307WA0113901172
B1900054747970N12002309WA0113901172
B1900064747977N12002308WA0113901173
B1900074747983N12002305WA0114001174
B1900084747990N12002299WA0114001175
B1900094747995N12002291WA0114001175
B1900104747999N12002281WA0114101175
B1900114748001N12002270WA0114101175
B1900124748001N12002259WA0114201177
B1900134747999N12002250WA0114301178
B1900144747996N12002243WA0114401180
B1900154747992N12002239WA0114501181
B1900164747988N12002236WA0114601183
B1900174747984N12002234WA0114601184
B1900184747980N12002236WA0114701183
B1900194747977N12002239WA0114801181
B1900204747976N12002243WA0114901182
B1900214747976N12002248WA0114901185
B1900224747977N12002252WA0115001186
B1900234747980N12002256WA0115101186
B1900244747985N12002259WA0115201185
B1900254747990N12002261WA0115201183
B1900264747997N12002262WA0115301183
B1900274748005N12002261WA0115301184
B1900284748012N12002258WA0115301184
B1900294748018N12002252WA0115401185
B1900304748023N12002245WA0115401186
B1900314748028N12002237WA0115501186
B1900324748031N12002228WA0115601187
B1900334748034N12002218WA0115601188
B1900344748034N12002208WA0115701189
B1900354748034N12002200WA0115801189
B1900364748032N12002193WA0115801192
B1900374748029N12002188WA0115901191
B1900374748029N12002188WA0115901191
B1900384748025N12002186WA0116001191
B1900394748021N12002186WA0116101191
B1900404748019N12002189WA0116201192
B1900414748018N12002194WA0116201193
B1900424748020N12002199WA0116301194
B1900434748024N12002203WA0116401196
B1900444748029N12002206WA0116501198
B1900454748034N12002208WA0116601199
B1900464748041N12002207WA0116601199
B1900474748048N12002205WA0116701200
B1900484748054N12002201WA0116801201
B1900494748060N12002194WA0116801202
B1900504748064N12002187WA0116901204
B1900514748067N12002177WA0117001205
B1900524748069N12002168WA0117101205
B1900534748068N12002160WA0117101206
B1900544748065N12002153WA0117201207
B1900554748062N12002149WA0117301208
B1900564748058N12002147WA0117301208
B1900574748054N12002148WA0117401207
B1900584748051N12002152WA0117401207
B1900594748051N12002156WA0117501208
B1901004748052N12002161WA0117601210
B1901014748055N12002165WA0117701211
B1901024748059N12002168WA0117701212
B1901034748064N12002171WA0117801212
B1901044748070N12002171WA0117801211
B1901054748077N12002169WA0117901211
B1901064748084N12002164WA0117901210
B1901074748090N12002157WA0117901211
B1901084748094N12002148WA0118001212
B1901094748097N12002139WA0118101213
B1901104748099N12002130WA0118201215
B1901114748101N12002120WA0118201217
B1901124748100N12002112WA0118301217
B1901134748099N12002103WA0118401218
B1901144748097N12002095WA0118501217
B1901154748095N12002087WA0118501219
B1901164748091N12002082WA0118601220
B1901174748087N12002080WA0118701221
B1901184748083N12002080WA0118701223
B1901194748080N12002082WA0118801222
B1901204748076N12002085WA0118801223
B1901214748075N12002088WA0118901224
B1901224748074N12002091WA0118901224
B1901234748073N12002095WA0119001224
B1901244748071N12002099WA0119001223
B1901254748070N12002103WA0119001223
B1901264748070N12002106WA0119101224
B1901274748069N12002109WA0119101225
B1901284748069N12002111WA0119201225
B1901294748069N12002114WA0119301225
B1901304748070N12002116WA0119301223
B1901314748070N12002120WA0119301220
B1901324748071N12002125WA0119201218
B1901334748072N12002130WA0119201216
B1901344748073N12002134WA0119101215
B1901354748074N12002136WA0119101215
B1901364748076N12002139WA0119001214
B1901374748078N12002141WA0119001213
B1901384748081N12002144WA0118901213
B1901394748084N12002148WA0118901213
B1901404748085N12002151WA0118801212
B1901414748085N12002154WA0118801213
B1901414748085N12002154WA0118801213
B1901424748085N12002156WA0118801214
B1901434748085N12002158WA0118901215
B1901444748085N12002159WA0118901217
B1901454748084N12002160WA0119001219
B1901464748084N12002162WA0119101221
B1901474748084N12002163WA0119201223
B1901484748084N12002165WA0119301225
B1901494748085N12002166WA0119401227
B1901504748085N12002168WA0119501229
B1901514748084N12002170WA0119701230
B1901524748084N12002173WA0119801231
B1901534748083N12002175WA0119901232
B1901544748083N12002177WA0120101234
B1901554748083N12002180WA0120201236
B1901564748083N12002183WA0120401238
B1901574748083N12002187WA0120601241
B1901584748083N12002191WA0120801243
B1901594748082N12002194WA0121001247
B1902004748081N12002197WA0121201249
B1902014748081N12002200WA0121401251
B1902024748081N12002204WA0121601251
B1902034748081N12002208WA0121701250
B1902044748081N12002212WA0121901250
B1902054748080N12002218WA0121901250
B1902064748080N12002222WA0122101251
B1902074748079N12002226WA0122201253
B1902084748078N12002228WA0122301255
B1902094748077N12002231WA0122401255
B1902104748075N12002234WA0122501255
B1902114748074N12002237WA0122601255
B1902124748074N12002241WA0122701255
B1902134748075N12002244WA0122701256
B1902144748077N12002247WA0122801257
B1902154748080N12002250WA0122801257
B1902164748083N12002252WA0122901258
B1902174748087N12002253WA0122901258
B1902184748091N12002254WA0123001259
B1902194748094N12002254WA0123001258
B1902204748098N12002254WA0123001258
B1902214748100N12002255WA0123001257
B1902224748103N12002256WA0123001255
B1902234748104N12002259WA0123001252
B1902244748105N12002263WA0122901250
B1902254748105N12002268WA0122801247
B1902264748104N12002273WA0122701246
B1902274748102N12002278WA0122701246
B1902284748100N12002282WA0122601245
B1902294748097N12002282WA0122501245
B1902304748094N12002282WA0122401243
B1902314748091N12002281WA0122401242
B1902324748087N12002280WA0122201239
B1902334748083N12002281WA0122101235
B1902344748079N12002282WA0121901232
B1902354748075N12002283WA0121801230
B1902364748073N12002285WA0121601229
B1902374748072N12002287WA0121501229
B1902384748071N12002290WA0121301227
B1902394748072N12002293WA0121201226
B1902404748072N12002296WA0121001224
B1902414748074N12002299WA0120901222
B1902424748076N12002302WA0120701220
B1902434748078N12002304WA0120501218
B1902444748082N12002307WA0120301215
B1902444748082N12002307WA0120301215
B1902454748086N12002309WA0120201213
B1902464748091N12002310WA0120001211
B1902474748097N12002308WA0119801210
B1902484748102N12002306WA0119601208
B1902494748107N12002301WA0119501206
B1902504748113N12002294WA0119201204
B1902514748117N12002285WA0119101201
B1902524748122N12002272WA0118801197
B1902534748125N12002258WA0118601195
B1902544748127N12002245WA0118301196
B1902554748128N12002233WA0118201198
B1902564748130N12002222WA0118001200
B1902574748132N12002210WA0117901199
B1902584748133N12002198WA0117701197
B1902594748135N12002185WA0117601196
B1903004748137N12002172WA0117501196
B1903014748138N12002161WA0117401197
B1903024748139N12002149WA0117401199
B1903034748140N12002138WA0117301199
B1903044748140N12002129WA0117301199
B1903054748140N12002119WA0117201198
B1903064748139N12002107WA0117101197
B1903074748139N12002094WA0117001195
B1903084748138N12002080WA0116901193
B1903094748136N12002067WA0116801192
B1903104748135N12002055WA0116701192
B1903114748134N12002042WA0116601191
B1903124748134N12002030WA0116501192
B1903134748134N12002019WA0116501192
B1903144748133N12002008WA0116401191
B1903154748132N12001997WA0116301189
B1903164748130N12001986WA0116301188
B1903174748127N12001977WA0116201187
B1903184748124N12001969WA0116101187
B1903194748121N12001962WA0116101187
B1903204748118N12001957WA0116001186
B1903214748116N12001952WA0116001183
B1903224748113N12001945WA0115801179
B1903234748109N12001937WA0115701174
B1903244748105N12001929WA0115401164
B1903254748101N12001922WA0115301162
B1903264748096N12001916WA0115001160
B1903274748093N12001909WA0114801157
B1903284748090N12001903WA0114501154
B1903294748088N12001896WA0114301149
B1903304748085N12001888WA0113901144
B1903314748082N12001879WA0113701138
B1903324748078N12001870WA0113201133
B1903334748075N12001859WA0112901128
B1903344748071N12001849WA0112501124
B1903354748067N12001839WA0112201120
B1903364748063N12001829WA0111801117
B1903374748059N12001819WA0111501116
B1903384748055N12001810WA0111201113
B1903394748051N12001801WA0110901111
B1903404748046N12001792WA0110601110
B1903414748042N12001785WA0110401109
B1903424748038N12001777WA0110101108
B1903434748034N12001770WA0110001106
B1903444748031N12001763WA0109701104
B1903454748027N12001755WA0109601103
B1903464748023N12001747WA0109301101
B1903474748019N12001738WA0109201099
B1903484748015N12001730WA0108901097
B1903484748015N12001730WA0108901097
B1903494748011N12001722WA0108801095
B1903504748007N12001714WA0108501093
B1903514748002N12001706WA0108401092
B1903524747998N12001698WA0108201092
B1903534747995N12001691WA0108101091
B1903544747992N12001684WA0107901090
B1903554747988N12001677WA0107801088
B1903564747984N12001668WA0107601085
B1903574747980N12001660WA0107401082
B1903584747976N12001651WA0107201079
B1903594747973N12001644WA0107001078
B1904004747970N12001637WA0106801076
B1904014747967N12001631WA0106701074
B1904024747964N12001624WA0106401072
B1904034747960N12001617WA0106201069
B1904044747956N12001609WA0106001064
B1904054747953N12001602WA0105801061
B1904064747950N12001596WA0105501062
B1904074747947N12001590WA0105301061
B1904084747945N12001585WA0105101059
B1904094747942N12001579WA0104901056
B1904104747938N12001571WA0104501051
B1904114747934N12001563WA0104301047
B1904124747929N12001556WA0104001043
B1904134747925N12001549WA0103801041
B1904144747922N12001543WA0103501040
B1904154747920N12001536WA0103301040
B1904164747917N12001530WA0103001037
B1904174747915N12001522WA0102801034
B1904184747911N12001513WA0102501030
B1904194747908N12001504WA0102301028
B1904204747905N12001496WA0102001028
B1904214747903N12001489WA0101901028
B1904224747900N12001482WA0101601026
B1904234747898N12001475WA0101501025
B1904244747895N12001467WA0101201023
B1904254747891N12001457WA0101001019
B1904264747888N12001448WA0100701017
B1904274747885N12001439WA0100601017
B1904284747881N12001432WA0100301016
B1904294747878N12001425WA0100201014
B1904304747874N12001417WA0100001012
B1904314747870N12001410WA0099801009
B1904324747866N12001403WA0099601007
B1904334747862N12001395WA0099401005
B1904344747858N12001387WA0099201003
B1904354747855N12001379WA0099101002
B1904364747852N12001370WA0098901000
B1904374747849N12001362WA0098700998
B1904384747845N12001353WA0098500996
B1904394747842N12001344WA0098300993
B1904404747838N12001334WA0098100989
B1904414747835N12001323WA0097900986
B1904424747831N12001312WA0097600982
B1904434747828N12001301WA0097400979
B1904444747824N12001290WA0097100976
B1904454747821N12001280WA0096900974
B1904464747817N12001271WA0096700973
B1904474747814N12001261WA0096500971
B1904484747812N12001252WA0096300969
B1904494747810N12001243WA0096100968
B1904504747808N12001234WA0095900967
B1904514747806N12001224WA0095800966
B1904514747806N12001224WA0095800966
B1904524747804N12001216WA0095600965
B1904534747803N12001208WA0095500964
B1904544747802N12001200WA0095200962
B1904554747800N12001192WA0095100958
B1904564747798N12001182WA0094800954
B1904574747794N12001172WA0094600949
B1904584747791N12001161WA0094300947
B1904594747788N12001151WA0094200948
B1905004747785N12001140WA0094000949
B1905014747783N12001130WA0093900950
B1905024747780N12001120WA0093700949
B1905034747777N12001109WA0093600949
B1905044747773N12001098WA0093500949
B1905054747769N12001088WA0093400949
B1905064747765N12001078WA0093400950
B1905074747761N12001068WA0093400953
B1905084747758N12001059WA0093400957
B1905094747754N12001049WA0093400960
B1905104747751N12001040WA0093600963
B1905114747747N12001031WA0093600966
B1905124747743N12001023WA0093800969
B1905134747739N12001014WA0093900971
B1905144747735N12001005WA0094100974
B1905154747732N12000997WA0094200977
B1905164747729N12000990WA0094500981
B1905174747725N12000984WA0094700985
B1905184747722N12000978WA0094900988
B1905194747719N12000971WA0095100990
B1905204747716N12000964WA0095400991
B1905214747713N12000956WA0095500993
B1905224747710N12000947WA0095800995
B1905234747708N12000938WA0095900998
B1905244747707N12000930WA0096201000
B1905254747707N12000922WA0096301002
B1905264747707N12000914WA0096601003
B1905274747706N12000905WA0096701002
B1905284747704N12000896WA0096801002
B1905294747702N12000887WA0096801001
B1905304747700N12000879WA0096901001
B1905314747698N12000870WA0097001001
B1905324747696N12000863WA0097001001
B1905334747694N12000856WA0097101001
B1905344747691N12000848WA0097101000
B1905354747689N12000840WA0097100999
B1905364747687N12000832WA0097100999
B1905374747684N12000824WA0097100998
B1905384747682N12000817WA0097100999
B1905394747679N12000809WA0097200999
B1905404747677N12000802WA0097201000
B1905414747674N12000794WA0097201000
B1905424747672N12000786WA0097301000
B1905434747670N12000778WA0097301000
B1905444747667N12000770WA0097301001
B1905454747665N12000762WA0097301001
B1905464747662N12000754WA0097401002
B1905474747660N12000746WA0097401002
B1905484747658N12000738WA0097501002
B1905494747656N12000729WA0097501003
B1905504747654N12000721WA0097501002
B1905514747652N12000712WA0097501002
B1905524747650N12000703WA0097601002
B1905534747648N12000694WA0097601001
B1905544747647N12000685WA0097601001
B1905544747647N12000685WA0097601001
B1905554747645N12000675WA0097501000
B1905564747644N12000665WA0097500998
B1905574747642N12000655WA0097500997
B1905584747641N12000646WA0097400996
B1905594747639N12000636WA0097400995
B1906004747637N12000626WA0097300994
B1906014747634N12000616WA0097300993
B1906024747631N12000606WA0097200992
B1906034747629N12000597WA0097200992
B1906044747627N12000587WA0097100992
B1906054747624N12000579WA0097100993
B1906064747622N12000570WA0097100994
B1906074747620N12000562WA0097100994
B1906084747618N12000553WA0097100994
B1906094747617N12000544WA0097100996
B1906104747616N12000534WA0097200996
B1906114747615N12000525WA0097200997
B1906124747613N12000515WA0097200997
B1906134747610N12000507WA0097300998
B1906144747606N12000500WA0097300998
B1906154747602N12000494WA0097300999
B1906164747599N12000491WA0097400998
B1906174747595N12000489WA0097501000
B1906184747592N12000489WA0097601000
B1906194747590N12000491WA0097701001
B1906204747589N12000494WA0097801001
B1906214747590N12000498WA0097801002
B1906224747592N12000502WA0097901003
B1906234747596N12000505WA0098001003
B1906244747601N12000505WA0098101004
B1906254747606N12000502WA0098101005
B1906264747611N12000497WA0098201004
B1906274747616N12000488WA0098301004
B1906284747619N12000477WA0098301004
B1906294747620N12000466WA0098401005
B1906304747620N12000456WA0098401007
B1906314747618N12000446WA0098501009
B1906324747615N12000438WA0098601011
B1906334747611N12000432WA0098701012
B1906344747607N12000428WA0098801012
B1906354747603N12000428WA0098901012
B1906364747601N12000432WA0098901013
B1906374747599N12000436WA0099001014
B1906384747600N12000441WA0099101015
B1906394747602N12000444WA0099101015
B1906404747606N12000446WA0099201015
B1906414747611N12000446WA0099301016
B1906424747616N12000443WA0099401017
B1906434747621N12000438WA0099401015
B1906444747626N12000430WA0099501015
B1906454747631N12000420WA0099501015
B1906464747633N12000408WA0099601015
B1906474747634N12000397WA0099601016
B1906484747633N12000387WA0099701016
B1906494747630N12000378WA0099701019
B1906504747628N12000371WA0099801021
B1906514747625N12000364WA0099901022
B1906524747622N12000358WA0100001023
B1906534747618N12000354WA0100101025
B1906544747615N12000352WA0100201025
B1906554747611N12000352WA0100201025
B1906564747609N12000353WA0100301026
B1906574747608N12000356WA0100401027
B1906574747608N12000356WA0100401027
B1906584747609N12000360WA0100401026
B1906594747611N12000364WA0100501025
B1907004747615N12000367WA0100501025
B1907014747619N12000368WA0100601026
B1907024747624N12000367WA0100701026
B1907034747629N12000363WA0100701027
B1907044747634N12000358WA0100701026
B1907054747640N12000351WA0100801025
B1907064747644N12000341WA0100801024
B1907074747647N12000331WA0100801024
B1907084747648N12000320WA0100801025
B1907094747647N12000310WA0100901026
B1907104747645N12000299WA0100901026
B1907114747642N12000289WA0100901026
B1907124747639N12000280WA0100901026
B1907134747635N12000275WA0101001027
B1907144747631N12000271WA0101001030
B1907154747627N12000270WA0101101032
B1907164747623N12000270WA0101101033
B1907174747621N12000272WA0101201033
B1907184747619N12000275WA0101201033
B1907194747619N12000278WA0101201034
B1907204747620N12000281WA0101301034
B1907214747623N12000284WA0101301034
B1907224747627N12000286WA0101301033
B1907234747632N12000286WA0101301032
B1907244747637N12000285WA0101201032
B1907254747642N12000282WA0101201032
B1907264747647N12000277WA0101201032
B1907274747652N12000269WA0101201031
B1907284747656N12000260WA0101101030
B1907294747659N12000250WA0101101028
B1907304747661N12000238WA0101001027
B1907314747661N12000227WA0101001027
B1907324747661N12000217WA0101001029
B1907334747659N12000208WA0100901029
B1907344747657N12000198WA0100901029
B1907354747654N12000189WA0100901026
B1907364747651N12000180WA0100901025
B1907374747648N12000171WA0100801024
B1907384747645N12000162WA0100801024
B1907394747644N12000151WA0100801025
B1907404747645N12000140WA0100801025
B1907414747646N12000129WA0100801025
B1907424747648N12000118WA0100701024
B1907434747650N12000106WA0100701023
B1907444747652N12000095WA0100701022
B1907454747654N12000083WA0100701022
B1907464747656N12000072WA0100701023
B1907474747656N12000061WA0100701023
B1907484747656N12000051WA0100701024
B1907494747654N12000041WA0100701024
B1907504747652N12000032WA0100601024
B1907514747649N12000026WA0100601024
B1907524747646N12000021WA0100501023
B1907534747643N12000017WA0100501024
B1907544747641N12000015WA0100401023
B1907554747638N12000012WA0100301019
B1907564747634N12000008WA0100201016
B1907574747630N12000001WA0100101012
B1907584747626N11959993WA0100001008
B1907594747623N11959984WA0099801005
B1908004747621N11959975WA0099701005
B1908004747621N11959975WA0099701005
B1908014747620N11959966WA0099601005
B1908024747619N11959957WA0099501005
B1908034747619N11959947WA0099401004
B1908044747619N11959936WA0099301003
B1908054747619N11959925WA0099201001
B1908064747618N11959914WA0099101000
B1908074747618N11959903WA0099000999
B1908084747617N11959893WA0098800998
B1908094747617N11959882WA0098700996
B1908104747618N11959872WA0098600994
B1908114747619N11959861WA0098400992
B1908124747620N11959850WA0098300990
B1908134747621N11959838WA0098100988
B1908144747621N11959826WA0097900985
B1908154747621N11959815WA0097800983
B1908164747620N11959805WA0097600981
B1908174747618N11959797WA0097400979
B1908184747616N11959791WA0097200976
B1908194747612N11959786WA0097100974
B1908204747609N11959782WA0096900972
B1908214747605N11959778WA0096800972
B1908224747603N11959771WA0096600972
B1908234747602N11959763WA0096500969
B1908244747601N11959753WA0096300966
B1908254747600N11959744WA0096200964
B1908264747600N11959734WA0095900962
B1908274747599N11959724WA0095800961
B1908284747597N11959714WA0095600960
B1908294747596N11959705WA0095400958
B1908304747595N11959695WA0095200957
B1908314747595N11959685WA0095100954
B1908324747595N11959675WA0094900953
B1908334747595N11959665WA0094700951
B1908344747595N11959656WA0094500949
B1908354747594N11959647WA0094400947
B1908364747592N11959639WA0094100945
B1908374747589N11959631WA0094000942
B1908384747586N11959625WA0093700940
B1908394747584N11959617WA0093600938
B1908404747582N11959609WA0093300936
B1908414747581N11959599WA0093200933
B1908424747580N11959590WA0092900931
B1908434747579N11959581WA0092700930
B1908444747578N11959574WA0092500929
B1908454747576N11959568WA0092400927
B1908464747573N11959564WA0092100923
B1908474747569N11959561WA0092000920
B1908484747565N11959559WA0091700917
B1908494747561N11959556WA0091500916
B1908504747559N11959554WA0091300915
B1908514747557N11959553WA0091200914
B1908524747555N11959554WA0091000912
B1908534747553N11959555WA0090800910
B1908544747551N11959558WA0090600907
B1908554747549N11959562WA0090400905
B1908564747548N11959566WA0090200903
B1908574747548N11959570WA0090000901
B1908584747549N11959574WA0089800899
B1908594747551N11959579WA0089600897
B1909004747554N11959584WA0089400894
B1909014747558N11959588WA0089200892
B1909024747563N11959590WA0089000890
B1909034747569N11959590WA0088900888
B1909044747576N11959590WA0088600886
B1909044747576N11959590WA0088600886
B1909054747583N11959590WA0088500882
B1909064747591N11959589WA0088200880
B1909074747598N11959586WA0088100878
B1909084747604N11959580WA0087800876
B1909094747610N11959573WA0087700875
B1909104747614N11959564WA0087400872
B1909114747618N11959554WA0087300869
B1909124747621N11959543WA0087000866
B1909134747624N11959532WA0086800864
B1909144747626N11959522WA0086600863
B1909154747627N11959512WA0086400861
B1909164747628N11959502WA0086100859
B1909174747628N11959492WA0086000858
B1909184747628N11959481WA0085700855
B1909194747628N11959471WA0085500852
B1909204747628N11959460WA0085300851
B1909214747628N11959451WA0085100850
B1909224747627N11959442WA0084800849
B1909234747627N11959433WA0084700847
B1909244747626N11959424WA0084500845
B1909254747624N11959415WA0084300843
B1909264747624N11959405WA0084100842
B1909274747624N11959395WA0084000840
B1909284747626N11959384WA0083700838
B1909294747630N11959373WA0083600837
B1909304747634N11959364WA0083400834
B1909314747640N11959356WA0083200832
B1909324747646N11959350WA0083000830
B1909334747652N11959345WA0082900829
B1909344747658N11959343WA0082700827
B1909354747664N11959341WA0082600826
B1909364747669N11959341WA0082400825
B1909374747674N11959344WA0082300824
B1909384747679N11959347WA0082200823
B1909394747682N11959351WA0082100822
B1909404747684N11959355WA0081900821
B1909414747685N11959360WA0081800820
B1909424747686N11959364WA0081700818
B1909434747686N11959369WA0081600816
B1909444747685N11959373WA0081400815
B1909454747684N11959378WA0081300813
B1909464747682N11959380WA0081100812
B1909474747680N11959383WA0081100811
B1909484747677N11959383WA0080900810
B1909494747675N11959382WA0080800808
B1909504747673N11959382WA0080700806
B1909514747670N11959382WA0080500804
B1909524747666N11959382WA0080400801
B1909534747663N11959382WA0080300800
B1909544747660N11959381WA0080100800
B1909554747658N11959381WA0080000798
B1909564747656N11959380WA0079800796
B1909574747653N11959379WA0079700795
B1909584747650N11959379WA0079500792
B1909594747647N11959378WA0079400789
B1910004747644N11959376WA0079200787
B1910014747641N11959373WA0079100785
B1910024747638N11959368WA0078900782
B1910034747635N11959363WA0078700779
B1910044747633N11959357WA0078400777
B1910054747630N11959350WA0078300774
B1910064747628N11959343WA0078000771
B1910074747626N11959336WA0077800768
B1910084747624N11959327WA0077500765
B1910084747624N11959327WA0077500765
B1910094747622N11959319WA0077300761
B1910104747620N11959310WA0077000758
B1910114747619N11959301WA0076800756
B1910124747618N11959291WA0076500753
B1910134747617N11959281WA0076300751
B1910144747617N11959271WA0076000749
B1910154747616N11959261WA0075800748
B1910164747615N11959253WA0075600747
B1910174747614N11959246WA0075500746
B1910184747612N11959239WA0075200745
B1910194747609N11959232WA0075100743
B1910204747606N11959225WA0074900741
B1910214747603N11959218WA0074700739
B1910224747601N11959211WA0074500738
B1910234747600N11959203WA0074400737
B1910244747599N11959194WA0074200735
B1910254747598N11959185WA0074000732
B1910264747597N11959175WA0073800730
B1910274747596N11959165WA0073600728
B1910284747595N11959155WA0073400727
B1910294747595N11959146WA0073300727
B1910304747596N11959137WA0073100726
B1910314747597N11959126WA0073000725
B1910324747598N11959114WA0072800722
B1910334747600N11959103WA0072700720
B1910344747602N11959091WA0072500719
B1910354747604N11959080WA0072300717
B1910364747606N11959069WA0072100715
B1910374747609N11959058WA0072000713
B1910384747612N11959047WA0071800711
B1910394747615N11959036WA0071700710
B1910404747618N11959026WA0071400708
B1910414747621N11959015WA0071300706
B1910424747624N11959004WA0071100704
B1910434747627N11958993WA0070900702
B1910444747631N11958982WA0070700701
B1910454747634N11958971WA0070600699
B1910464747637N11958961WA0070400699
B1910474747641N11958951WA0070300698
B1910484747644N11958941WA0070100698
B1910494747647N11958932WA0070000697
B1910504747648N11958921WA0069800696
B1910514747648N11958911WA0069700694
B1910524747647N11958902WA0069600693
B1910534747645N11958893WA0069500692
B1910544747643N11958886WA0069300691
B1910554747641N11958879WA0069200691
B1910564747639N11958874WA0069100691
B1910574747636N11958869WA0069000690
B1910584747633N11958866WA0068900687
B1910594747630N11958864WA0068800683
B1911004747627N11958863WA0068600682
B1911014747624N11958865WA0068500680
B1911024747622N11958867WA0068400680
B1911034747621N11958871WA0068300679
B1911044747621N11958875WA0068200676
B1911054747622N11958880WA0068100675
B1911064747624N11958885WA0067900674
B1911074747626N11958890WA0067800672
B1911084747630N11958895WA0067700671
B1911094747633N11958899WA0067600670
B1911104747637N11958904WA0067500668
B1911114747641N11958909WA0067400667
B1911124747646N11958913WA0067200666
B1911124747646N11958913WA0067200666
B1911134747650N11958917WA0067100664
B1911144747655N11958921WA0067000663
B1911154747660N11958924WA0066900662
B1911164747665N11958926WA0066800661
B1911174747671N11958927WA0066700660
B1911184747677N11958928WA0066500658
B1911194747684N11958929WA0066500656
B1911204747690N11958929WA0066300654
B1911214747697N11958929WA0066200652
B1911224747705N11958927WA0066000650
B1911234747712N11958925WA0065900648
B1911244747718N11958920WA0065700647
B1911254747724N11958912WA0065600645
B1911264747729N11958903WA0065500643
B1911274747733N11958893WA0065300641
B1911284747737N11958882WA0065100640
B1911294747739N11958872WA0065000640
B1911304747741N11958862WA0064900639
B1911314747742N11958852WA0064700639
B1911324747742N11958843WA0064600636
B1911334747741N11958834WA0064400634
B1911344747739N11958825WA0064200633
B1911354747737N11958818WA0064100631
B1911364747735N11958811WA0064000630
B1911374747733N11958806WA0063900630
B1911384747731N11958801WA0063700629
B1911394747730N11958798WA0063600630
B1911404747727N11958797WA0063500628
B1911414747725N11958797WA0063400626
B1911424747724N11958800WA0063200622
B1911434747723N11958804WA0063100620
B1911444747724N11958809WA0062900618
B1911454747727N11958815WA0062800616
B1911464747730N11958818WA0062600616
B1911474747734N11958821WA0062500615
B1911484747739N11958822WA0062300613
B1911494747744N11958824WA0062200610
B1911504747749N11958827WA0062000606
B1911514747755N11958830WA0061900603
B1911524747761N11958834WA0061700600
B1911534747767N11958837WA0061500598
B1911544747772N11958840WA0061300597
B1911554747777N11958843WA0061200595
B1911564747782N11958847WA0060900593
B1911574747787N11958850WA0060800591
B1911584747791N11958854WA0060600589
B1911594747795N11958858WA0060400587
B1912004747799N11958862WA0060200585
B1912014747803N11958867WA0060100583
B1912024747808N11958872WA0059800581
B1912034747812N11958877WA0059700580
B1912044747816N11958882WA0059500579
B1912054747819N11958887WA0059400578
B1912064747823N11958890WA0059200578
B1912074747826N11958894WA0059100577
B1912084747830N11958897WA0058900576
B1912094747834N11958901WA0058800575
B1912104747837N11958906WA0058600573
B1912114747841N11958911WA0058500571
B1912124747845N11958915WA0058300570
B1912134747849N11958919WA0058200569
B1912144747852N11958922WA0058000567
B1912154747855N11958926WA0057900565
B1912154747855N11958926WA0057900565
B1912164747858N11958931WA0057700562
B1912174747861N11958936WA0057600559
B1912184747863N11958942WA0057300557
B1912194747866N11958947WA0057200555
B1912204747868N11958952WA0056900553
B1912214747870N11958957WA0056800550
B1912224747871N11958962WA0056500547
B1912234747872N11958968WA0056300544
B1912244747874N11958974WA0056000541
B1912254747875N11958979WA0055900539
B1912264747877N11958984WA0055600537
B1912274747879N11958989WA0055400535
B1912284747882N11958994WA0055200533
B1912294747887N11958998WA0055000529
B1912304747892N11959003WA0054700526
B1912314747897N11959007WA0054500524
B1912324747903N11959010WA0054300522
B1912334747909N11959012WA0054100519
B1912344747915N11959014WA0053800517
B1912354747922N11959016WA0053700514
B1912364747929N11959017WA0053400511
B1912374747937N11959019WA0053200509
B1912384747943N11959022WA0053000507
B1912394747949N11959025WA0052800505
B1912404747954N11959028WA0052600503
B1912414747959N11959031WA0052400502
B1912424747963N11959034WA0052200499
B1912434747967N11959038WA0052000496
B1912444747971N11959043WA0051800493
B1912454747975N11959048WA0051600490
B1912464747978N11959053WA0051300487
B1912474747981N11959058WA0051200486
B1912484747984N11959062WA0050900484
B1912494747987N11959067WA0050700482
B1912504747989N11959073WA0050500480
B1912514747991N11959078WA0050300477
B1912524747993N11959084WA0050100475
B1912534747994N11959089WA0049900474
B1912544747996N11959093WA0049700473
B1912554747997N11959098WA0049600471
B1912564747999N11959102WA0049400470
B1912574748000N11959107WA0049300468
B1912584748000N11959112WA0049100466
B1912594748000N11959116WA0048900465
B1913004748001N11959120WA0048800464
B1913014748001N11959123WA0048600464
B1913024748001N11959126WA0048500462
B1913034748001N11959128WA0048400460
B1913044748001N11959130WA0048200458
B1913054748001N11959132WA0048000456
B1913064748000N11959133WA0047800454
B1913074747998N11959132WA0047700451
B1913084747996N11959129WA0047500449
B1913094747994N11959125WA0047300447
B1913104747993N11959119WA0047100443
B1913114747992N11959112WA0046900441
B1913124747992N11959105WA0046600439
B1913134747993N11959095WA0046500437
B1913144747994N11959085WA0046200435
B1913154747996N11959076WA0046000433
B1913164747999N11959067WA0045800432
B1913174748003N11959058WA0045600430
B1913184748006N11959049WA0045400428
B1913194748011N11959039WA0045200426
B1913194748011N11959039WA0045200426
B1913204748015N11959028WA0045000424
B1913214748020N11959019WA0044800423
B1913224748025N11959010WA0044600423
B1913234748029N11959002WA0044500421
B1913244748033N11958994WA0044300420
B1913254748037N11958984WA0044200418
B1913264748040N11958975WA0044000417
B1913274748040N11958966WA0043900416
B1913284748042N11958958WA0043700415
B1913294748043N11958949WA0043600413
B1913304748044N11958940WA0043400412
B1913314748045N11958930WA0043300410
B1913324748045N11958920WA0043100409
B1913334748045N11958910WA0043000408
B1913344748044N11958901WA0042800406
B1913354748043N11958894WA0042700404
B1913364748041N11958887WA0042600402
B1913374748037N11958882WA0042500400
B1913384748033N11958879WA0042300398
B1913394748029N11958877WA0042100396
B1913404748025N11958877WA0041900394
B1913414748023N11958879WA0041800392
B1913424748022N11958881WA0041600390
B1913434748021N11958884WA0041500388
B1913444748021N11958888WA0041300386
B1913454748021N11958892WA0041100384
B1913464748021N11958897WA0040900383
B1913474748022N11958902WA0040800381
B1913484748024N11958907WA0040600379
B1913494748028N11958913WA0040500377
B1913504748032N11958918WA0040400375
B1913514748038N11958923WA0040200373
B1913524748044N11958927WA0040000371
B1913534748051N11958929WA0039900369
B1913544748058N11958931WA0039700366
B1913554748064N11958935WA0039600365
B1913564748071N11958938WA0039400363
B1913574748078N11958941WA0039200360
B1913584748085N11958945WA0039000359
B1913594748091N11958949WA0038800358
B1914004748095N11958955WA0038600356
B1914014748097N11958962WA0038500353
B1914024748100N11958969WA0038300350
B1914034748102N11958975WA0038100348
B1914044748104N11958980WA0037900347
B1914054748105N11958985WA0037800345
B1914064748105N11958989WA0037600344
B1914074748104N11958992WA0037500343
B1914084748104N11958995WA0037300341
B1914094748104N11958997WA0037200341
B1914104748104N11959000WA0037000340
B1914114748105N11959004WA0036900338
B1914124748105N11959007WA0036700337
B1914134748105N11959009WA0036600336
B1914144748104N11959010WA0036400335
B1914154748103N11959009WA0036300333
B1914164748101N11959008WA0036100331
B1914174748099N11959006WA0036000330
B1914184748098N11959003WA0035800330
B1914194748097N11959002WA0035700328
B1914204748096N11959000WA0035500327
B1914214748095N11959000WA0035400325
B1914224748094N11959001WA0035200322
B1914224748094N11959001WA0035200322
B1914234748093N11959001WA0035000319
B1914244748091N11959001WA0034800316
B1914254748089N11959001WA0034600314
B1914264748088N11959001WA0034300312
B1914274748088N11959000WA0034200312
B1914284748088N11958998WA0033900309
B1914294748087N11958997WA0033700305
B1914304748085N11958995WA0033400300
B1914314748081N11958996WA0033100295
B1914324748077N11958997WA0032700291
B1914334748072N11958998WA0032500290
B1914344748069N11958999WA0032100291
B1914354748066N11958998WA0031900292
B1914364748064N11958998WA0031700292
B1914374748061N11958997WA0031500289
B1914384748058N11958997WA0031200287
B1914394748055N11958997WA0031000285
B1914404748052N11958997WA0030700283
B1914414748049N11958997WA0030600282
B1914424748046N11958997WA0030300281
B1914434748044N11958997WA0030200279
B1914444748042N11958998WA0029900277
B1914454748040N11959001WA0029800275
B1914464748037N11959006WA0029500273
B1914474748035N11959010WA0029400272
B1914484748034N11959015WA0029200270
B1914494748033N11959020WA0029000268
B1914504748032N11959026WA0028800265
B1914514748030N11959031WA0028700263
B1914524748028N11959035WA0028500261
B1914534748026N11959037WA0028400260
B1914544748024N11959038WA0028200259
B1914554748022N11959036WA0028100258
B1914564748020N11959034WA0028000256
B1914574748019N11959030WA0027900256
B1914584748017N11959027WA0027700254
B1914594748015N11959025WA0027600252
B1915004748012N11959023WA0027500251
B1915014748010N11959023WA0027300249
B1915024748007N11959023WA0027200247
B1915034748004N11959024WA0027000244
B1915044748001N11959025WA0026900243
B1915054747999N11959027WA0026700242
B1915064747997N11959028WA0026600241
B1915074747995N11959030WA0026500239
B1915084747992N11959032WA0026300237
B1915094747990N11959034WA0026200235
B1915104747988N11959036WA0026100233
B1915114747985N11959038WA0025900231
B1915124747982N11959040WA0025800228
B1915134747979N11959041WA0025700226
B1915144747977N11959043WA0025500224
B1915154747976N11959044WA0025400224
B1915164747976N11959044WA0025200223
B1915174747977N11959044WA0025100223
B1915184747977N11959044WA0025000223
B1915194747977N11959044WA0025000223
B1915204747977N11959044WA0024900222
B1915214747977N11959044WA0024900222
B1915224747977N11959044WA0024800222
B1915234747977N11959044WA0024800222
B1915244747977N11959044WA0024700222
B1915254747977N11959044WA0024700222
B1915254747977N11959044WA0024700222
B1915264747978N11959044WA0024600222
B1915274747978N11959044WA0024600222
B1915284747978N11959044WA0024600222
B1915294747978N11959044WA0024600222
B1915304747978N11959044WA0024600221
B1915314747978N11959044WA0024500221
B1915324747978N11959044WA0024500221
B1915334747978N11959043WA0024500221
B1915344747978N11959043WA0024500220
B1915354747978N11959043WA0024500220
B1915364747978N11959043WA0024500220
B1915374747978N11959043WA0024500220
B1915384747978N11959043WA0024500219
B1915394747978N11959043WA0024500219
B1915404747978N11959043WA0024500219
B1915414747978N11959043WA0024400219
B1915424747978N11959043WA0024400218
B1915434747978N11959042WA0024400218
B1915444747978N11959042WA0024400218
B1915454747979N11959042WA0024400218
B1915464747979N11959042WA0024400219
B1915474747979N11959042WA0024400219
B1915484747979N11959042WA0024400219
B1915494747979N11959042WA0024400219
B1915504747979N11959042WA0024400219
B1915514747979N11959042WA0024400219
B1915524747979N11959042WA0024400219
B1915534747979N11959042WA0024400219
B1915544747979N11959042WA0024400220
B1915554747980N11959043WA0024400220
B1915564747980N11959043WA0024400220
B1915574747980N11959043WA0024400220
B1915584747980N11959043WA0024400220
B1915594747981N11959044WA0024400220
B1916004747981N11959044WA0024400220
B1916014747981N11959044WA0024400220
B1916024747981N11959044WA0024400220
B1916034747981N11959044WA0024400220
B1916044747981N11959044WA0024400220
B1916054747981N11959044WA0024400220
B1916064747981N11959044WA0024400220
B1916074747981N11959044WA0024400221
B1916084747981N11959044WA0024400221
B1916094747981N11959044WA0024400221
B1916104747981N11959044WA0024400221
B1916114747981N11959044WA0024400221
B1916124747981N11959043WA0024400221
B1916134747981N11959044WA0024400221
B1916144747980N11959044WA0024400222
B1916154747980N11959043WA0024400222
B1916164747979N11959043WA0024400222
B1916174747978N11959042WA0024400222
B1916184747978N11959042WA0024400221
B1916194747977N11959042WA0024400221
B1916204747976N11959041WA0024400221
B1916214747976N11959041WA0024400221
B1916224747975N11959041WA0024400220
B1916234747974N11959041WA0024400221
B1916244747974N11959040WA0024400221
B1916254747973N11959040WA0024400221
B1916264747972N11959040WA0024400221
B1916274747972N11959039WA0024400221
B1916284747971N11959039WA0024400221
B1916294747971N11959038WA0024400221
