AXFMSFP Flymaster Live, V1.0
HFFXA010
HFPLTPILOT:Ben Pedersen-Wedlock
HFGTYGLIDERTYPE:Ozone Enzo 3 / Gin Genie Race 4
HFGIDGLIDERID:
HFDTM100GPSDATUM:WGS-1984
HFCIDCOMPETITIONID:562
HFCCLCOMPETITIONCLASS:
HOSITSITE:LAUNCH
HFGPS:UBLOXNEO6
HFPRSPRESSALTSENSOR:NA
HFRFWFIRMWAREVERSION:202g
HFRHWHARDWAREVERSION:1.0R2
HFFTYFRTYPE:FLYMASTER,LIVE
HFDTE250625
B1906224748243N12002365WA0110601124
B1906234748242N12002368WA0110601123
B1906244748240N12002371WA0110601123
B1906254748238N12002375WA0110601122
B1906264748236N12002379WA0110601121
B1906274748234N12002383WA0110601121
B1906284748233N12002386WA0110601121
B1906294748232N12002389WA0110601121
B1906304748232N12002392WA0110601121
B1906314748231N12002395WA0110601120
B1906324748229N12002399WA0110601118
B1906334748227N12002403WA0110501117
B1906344748226N12002408WA0110501116
B1906354748225N12002413WA0110501116
B1906364748224N12002416WA0110501117
B1906374748224N12002420WA0110501119
B1906384748223N12002423WA0110501120
B1906394748221N12002426WA0110601120
B1906404748219N12002428WA0110601121
B1906414748218N12002431WA0110601122
B1906424748217N12002434WA0110701124
B1906434748216N12002438WA0110801126
B1906444748217N12002441WA0110801127
B1906454748217N12002446WA0110901128
B1906464748217N12002453WA0111001128
B1906474748217N12002459WA0111101130
B1906484748215N12002466WA0111201132
B1906494748212N12002471WA0111401134
B1906504748209N12002475WA0111501137
B1906514748207N12002479WA0111701141
B1906524748205N12002483WA0111901145
B1906534748205N12002487WA0112101149
B1906544748205N12002490WA0112301153
B1906554748204N12002494WA0112501157
B1906564748203N12002497WA0112701160
B1906574748202N12002502WA0113001163
B1906584748201N12002507WA0113201167
B1906594748200N12002511WA0113501172
B1907004748199N12002514WA0113701175
B1907014748197N12002517WA0114001177
B1907024748194N12002520WA0114201179
B1907034748191N12002522WA0114501179
B1907044748188N12002525WA0114701179
B1907054748184N12002529WA0114901181
B1907064748182N12002532WA0115101185
B1907074748183N12002534WA0115301188
B1907084748184N12002536WA0115401190
B1907094748186N12002538WA0115601191
B1907104748187N12002540WA0115701191
B1907114748188N12002544WA0115901191
B1907124748188N12002548WA0115901191
B1907134748188N12002551WA0116001190
B1907144748187N12002554WA0116101190
B1907154748185N12002555WA0116301191
B1907164748185N12002556WA0116401193
B1907174748184N12002556WA0116501195
B1907184748184N12002556WA0116701198
B1907194748184N12002557WA0116801199
B1907204748184N12002558WA0116901200
B1907214748183N12002560WA0117101201
B1907224748182N12002561WA0117201203
B1907234748181N12002562WA0117401205
B1907244748179N12002562WA0117501208
B1907254748178N12002562WA0117701212
B1907264748178N12002563WA0117901217
B1907274748178N12002564WA0118201222
B1907284748178N12002566WA0118401226
B1907294748179N12002567WA0118701230
B1907304748179N12002568WA0118901233
B1907314748178N12002569WA0119301236
B1907324748177N12002569WA0119501240
B1907334748177N12002569WA0119801243
B1907344748177N12002570WA0120001245
B1907354748177N12002572WA0120401248
B1907364748176N12002574WA0120601250
B1907374748174N12002575WA0120901253
B1907384748172N12002577WA0121101256
B1907394748170N12002577WA0121501259
B1907404748168N12002578WA0121701264
B1907414748167N12002579WA0122001267
B1907424748166N12002580WA0122301271
B1907434748164N12002581WA0122601273
B1907444748163N12002582WA0122801276
B1907454748162N12002582WA0123101276
B1907464748160N12002583WA0123201276
B1907474748159N12002585WA0123401274
B1907484748158N12002588WA0123501273
B1907494748160N12002593WA0123601271
B1907504748163N12002598WA0123701270
B1907514748169N12002602WA0123801268
B1907524748176N12002602WA0123801268
B1907534748184N12002599WA0123801266
B1907544748192N12002592WA0123801265
B1907554748199N12002583WA0123801262
B1907564748206N12002572WA0123801260
B1907574748210N12002560WA0123801258
B1907584748212N12002548WA0123801257
B1907594748212N12002539WA0123701258
B1908004748210N12002531WA0123701259
B1908004748210N12002531WA0123701259
B1908014748207N12002525WA0123801260
B1908024748205N12002520WA0123801262
B1908034748203N12002516WA0123901264
B1908044748201N12002513WA0124001267
B1908054748200N12002510WA0124101268
B1908064748197N12002508WA0124101269
B1908074748195N12002507WA0124301270
B1908084748192N12002507WA0124301272
B1908094748189N12002508WA0124401273
B1908104748187N12002508WA0124501275
B1908114748185N12002508WA0124601276
B1908124748182N12002508WA0124701275
B1908134748179N12002508WA0124701274
B1908144748175N12002508WA0124701272
B1908154748171N12002509WA0124701270
B1908164748167N12002509WA0124701269
B1908174748164N12002509WA0124701270
B1908184748162N12002509WA0124701271
B1908194748159N12002510WA0124701271
B1908204748157N12002511WA0124701270
B1908214748154N12002512WA0124701269
B1908224748152N12002514WA0124601268
B1908234748150N12002516WA0124601268
B1908244748147N12002519WA0124601268
B1908254748145N12002521WA0124601269
B1908264748143N12002523WA0124601270
B1908274748141N12002525WA0124501270
B1908284748139N12002526WA0124501270
B1908294748135N12002527WA0124501270
B1908304748132N12002527WA0124501270
B1908314748128N12002527WA0124501270
B1908324748125N12002527WA0124501269
B1908334748122N12002527WA0124401268
B1908344748119N12002527WA0124401267
B1908354748115N12002528WA0124301267
B1908364748112N12002528WA0124301267
B1908374748109N12002528WA0124301267
B1908384748106N12002527WA0124301267
B1908394748104N12002527WA0124301268
B1908404748101N12002527WA0124201268
B1908414748099N12002527WA0124201267
B1908424748097N12002527WA0124101264
B1908434748094N12002528WA0124001262
B1908444748091N12002529WA0124001260
B1908454748088N12002530WA0123901259
B1908464748085N12002531WA0123801258
B1908474748083N12002532WA0123701258
B1908484748081N12002533WA0123701257
B1908494748079N12002534WA0123601256
B1908504748076N12002535WA0123501254
B1908514748073N12002537WA0123401251
B1908524748069N12002539WA0123301250
B1908534748066N12002541WA0123201250
B1908544748063N12002543WA0123101250
B1908554748060N12002544WA0123101251
B1908564748057N12002545WA0123001250
B1908574748055N12002547WA0122901249
B1908584748052N12002549WA0122801247
B1908594748049N12002552WA0122701246
B1909004748046N12002555WA0122701245
B1909014748044N12002559WA0122601245
B1909024748042N12002561WA0122601246
B1909034748040N12002563WA0122501247
B1909044748038N12002564WA0122501246
B1909044748038N12002564WA0122501246
B1909054748036N12002566WA0122401245
B1909064748034N12002568WA0122401243
B1909074748031N12002570WA0122301242
B1909084748028N12002572WA0122201240
B1909094748026N12002574WA0122101240
B1909104748023N12002576WA0122101239
B1909114748021N12002578WA0122001239
B1909124748018N12002578WA0121901239
B1909134748015N12002579WA0121901240
B1909144748013N12002579WA0121901242
B1909154748011N12002578WA0121901245
B1909164748009N12002578WA0122001247
B1909174748007N12002579WA0122001248
B1909184748004N12002581WA0122101248
B1909194748001N12002584WA0122201249
B1909204747998N12002585WA0122301251
B1909214747996N12002586WA0122401255
B1909224747994N12002586WA0122501258
B1909234747993N12002585WA0122601260
B1909244747992N12002585WA0122701261
B1909254747992N12002587WA0122801260
B1909264747993N12002591WA0122901258
B1909274747996N12002596WA0122901257
B1909284748001N12002599WA0122901256
B1909294748008N12002599WA0123001257
B1909304748016N12002596WA0123001257
B1909314748024N12002588WA0123001257
B1909324748030N12002578WA0123101257
B1909334748035N12002566WA0123101257
B1909344748037N12002554WA0123201258
B1909354748037N12002542WA0123201260
B1909364748036N12002531WA0123301263
B1909374748034N12002522WA0123401265
B1909384748031N12002514WA0123501266
B1909394748028N12002508WA0123701267
B1909404748025N12002504WA0123701269
B1909414748022N12002502WA0123901270
B1909424748020N12002502WA0124001271
B1909434748019N12002504WA0124101272
B1909444748021N12002508WA0124101271
B1909454748024N12002512WA0124201271
B1909464748028N12002515WA0124201271
B1909474748035N12002515WA0124301273
B1909484748042N12002512WA0124401274
B1909494748050N12002504WA0124401274
B1909504748057N12002494WA0124501275
B1909514748062N12002481WA0124601277
B1909524748064N12002468WA0124701280
B1909534748063N12002457WA0124901283
B1909544748060N12002450WA0125001285
B1909554748057N12002447WA0125101286
B1909564748055N12002448WA0125201286
B1909574748054N12002450WA0125301287
B1909584748055N12002453WA0125401288
B1909594748059N12002456WA0125501290
B1910004748065N12002457WA0125601290
B1910014748072N12002457WA0125701292
B1910024748080N12002455WA0125801295
B1910034748088N12002449WA0126001298
B1910044748095N12002440WA0126101299
B1910054748100N12002428WA0126301300
B1910064748104N12002415WA0126401302
B1910074748106N12002403WA0126601305
B1910084748105N12002392WA0126801309
B1910084748105N12002392WA0126801309
B1910094748103N12002385WA0127001311
B1910104748100N12002380WA0127201312
B1910114748097N12002379WA0127401314
B1910124748095N12002379WA0127501314
B1910134748093N12002380WA0127601315
B1910144748092N12002382WA0127801318
B1910154748091N12002383WA0127901320
B1910164748090N12002384WA0128001322
B1910174748088N12002384WA0128201322
B1910184748086N12002385WA0128301322
B1910194748084N12002386WA0128501322
B1910204748082N12002388WA0128501322
B1910214748080N12002390WA0128701323
B1910224748078N12002392WA0128701324
B1910234748076N12002394WA0128801324
B1910244748074N12002395WA0128901323
B1910254748072N12002397WA0128901322
B1910264748070N12002399WA0129001322
B1910274748067N12002401WA0129001322
B1910284748065N12002402WA0129001321
B1910294748062N12002404WA0129001321
B1910304748060N12002406WA0129001320
B1910314748057N12002409WA0129101319
B1910324748055N12002411WA0129101320
B1910334748053N12002414WA0129101320
B1910344748051N12002415WA0129101321
B1910354748049N12002417WA0129101321
B1910364748047N12002418WA0129101321
B1910374748045N12002420WA0129101320
B1910384748042N12002423WA0129101319
B1910394748040N12002427WA0129101319
B1910404748037N12002430WA0129101320
B1910414748035N12002432WA0129201321
B1910424748032N12002434WA0129201323
B1910434748030N12002435WA0129301324
B1910444748028N12002437WA0129301325
B1910454748026N12002439WA0129401328
B1910464748026N12002441WA0129501331
B1910474748026N12002443WA0129601334
B1910484748025N12002445WA0129701334
B1910494748023N12002447WA0129901334
B1910504748021N12002449WA0130001334
B1910514748019N12002452WA0130001334
B1910524748018N12002455WA0130101334
B1910534748021N12002459WA0130201334
B1910544748026N12002462WA0130201333
B1910554748033N12002462WA0130201331
B1910564748042N12002458WA0130201330
B1910574748050N12002450WA0130201329
B1910584748055N12002439WA0130201328
B1910594748059N12002427WA0130201328
B1911004748061N12002415WA0130201327
B1911014748061N12002405WA0130201328
B1911024748060N12002397WA0130301329
B1911034748057N12002391WA0130301330
B1911044748054N12002387WA0130301330
B1911054748049N12002385WA0130301330
B1911064748046N12002384WA0130401332
B1911074748043N12002384WA0130401333
B1911084748040N12002383WA0130501335
B1911094748038N12002383WA0130501334
B1911104748035N12002383WA0130501333
B1911114748032N12002385WA0130501331
B1911124748029N12002387WA0130501330
B1911124748029N12002387WA0130501330
B1911134748026N12002389WA0130501330
B1911144748024N12002391WA0130501330
B1911154748021N12002392WA0130501330
B1911164748019N12002392WA0130501329
B1911174748016N12002393WA0130501328
B1911184748014N12002394WA0130501328
B1911194748011N12002395WA0130401327
B1911204748009N12002396WA0130401327
B1911214748006N12002397WA0130401327
B1911224748004N12002397WA0130301327
B1911234748002N12002398WA0130301327
B1911244747999N12002398WA0130301326
B1911254747997N12002398WA0130301326
B1911264747995N12002400WA0130201325
B1911274747993N12002402WA0130201325
B1911284747992N12002404WA0130201325
B1911294747991N12002406WA0130101325
B1911304747989N12002408WA0130101324
B1911314747988N12002410WA0130101324
B1911324747986N12002413WA0130001323
B1911334747984N12002416WA0130001322
B1911344747982N12002418WA0130001322
B1911354747981N12002420WA0129901321
B1911364747980N12002423WA0129801320
B1911374747979N12002426WA0129801318
B1911384747978N12002430WA0129701315
B1911394747976N12002434WA0129601313
B1911404747974N12002437WA0129501312
B1911414747972N12002441WA0129401311
B1911424747971N12002444WA0129301310
B1911434747971N12002447WA0129201310
B1911444747970N12002450WA0129201309
B1911454747969N12002454WA0129001307
B1911464747969N12002458WA0129001306
B1911474747968N12002462WA0128801304
B1911484747966N12002466WA0128701303
B1911494747965N12002470WA0128601302
B1911504747964N12002473WA0128501301
B1911514747962N12002476WA0128401300
B1911524747961N12002480WA0128201296
B1911534747958N12002485WA0128101293
B1911544747956N12002490WA0127901290
B1911554747954N12002496WA0127701288
B1911564747952N12002501WA0127601287
B1911574747951N12002504WA0127501287
B1911584747951N12002507WA0127301286
B1911594747950N12002511WA0127201284
B1912004747948N12002515WA0127001282
B1912014747946N12002521WA0126801279
B1912024747944N12002526WA0126701277
B1912034747942N12002531WA0126401276
B1912044747940N12002535WA0126301276
B1912054747939N12002539WA0126201276
B1912064747938N12002543WA0126001276
B1912074747937N12002546WA0125901274
B1912084747936N12002550WA0125701272
B1912094747935N12002555WA0125501270
B1912104747933N12002560WA0125401268
B1912114747932N12002565WA0125301267
B1912124747930N12002569WA0125101266
B1912134747928N12002573WA0124901265
B1912144747926N12002577WA0124801265
B1912154747924N12002581WA0124701264
B1912154747924N12002581WA0124701264
B1912164747923N12002584WA0124601265
B1912174747921N12002588WA0124501265
B1912184747920N12002591WA0124401265
B1912194747919N12002594WA0124301264
B1912204747918N12002597WA0124201262
B1912214747916N12002601WA0124101260
B1912224747914N12002606WA0124001257
B1912234747912N12002611WA0123901255
B1912244747909N12002615WA0123701253
B1912254747907N12002619WA0123501252
B1912264747906N12002624WA0123401251
B1912274747904N12002629WA0123301249
B1912284747903N12002634WA0123201248
B1912294747901N12002639WA0123101247
B1912304747899N12002644WA0122901247
B1912314747897N12002648WA0122801246
B1912324747894N12002652WA0122801246
B1912334747892N12002655WA0122701246
B1912344747891N12002657WA0122601247
B1912354747890N12002659WA0122601247
B1912364747889N12002660WA0122501247
B1912374747887N12002662WA0122401245
B1912384747886N12002663WA0122301244
B1912394747884N12002666WA0122201242
B1912404747882N12002668WA0122001240
B1912414747880N12002671WA0121901238
B1912424747878N12002674WA0121801236
B1912434747876N12002676WA0121701235
B1912444747874N12002678WA0121601233
B1912454747872N12002681WA0121401232
B1912464747870N12002683WA0121401232
B1912474747868N12002684WA0121301232
B1912484747865N12002684WA0121201233
B1912494747862N12002683WA0121201234
B1912504747860N12002681WA0121101235
B1912514747857N12002679WA0121001234
B1912524747855N12002679WA0121001232
B1912534747853N12002681WA0120901231
B1912544747851N12002684WA0120801229
B1912554747849N12002687WA0120701228
B1912564747847N12002691WA0120601227
B1912574747846N12002695WA0120501226
B1912584747844N12002699WA0120401226
B1912594747843N12002703WA0120301225
B1913004747842N12002708WA0120201224
B1913014747841N12002713WA0120101223
B1913024747839N12002718WA0120101221
B1913034747837N12002724WA0120001219
B1913044747835N12002730WA0119901219
B1913054747834N12002734WA0119901220
B1913064747832N12002737WA0119801221
B1913074747831N12002740WA0119801220
B1913084747829N12002743WA0119701219
B1913094747827N12002748WA0119601215
B1913104747824N12002754WA0119501212
B1913114747822N12002760WA0119401210
B1913124747819N12002767WA0119301208
B1913134747816N12002772WA0119201206
B1913144747814N12002778WA0119101204
B1913154747811N12002782WA0119001203
B1913164747808N12002786WA0118801202
B1913174747805N12002789WA0118801202
B1913184747803N12002792WA0118601201
B1913194747800N12002794WA0118501199
B1913194747800N12002794WA0118501199
B1913204747798N12002798WA0118401196
B1913214747796N12002804WA0118201193
B1913224747794N12002810WA0118001190
B1913234747793N12002816WA0117901188
B1913244747791N12002820WA0117701188
B1913254747790N12002824WA0117601187
B1913264747789N12002828WA0117401186
B1913274747788N12002833WA0117301184
B1913284747787N12002839WA0117101181
B1913294747785N12002846WA0116901179
B1913304747784N12002851WA0116701178
B1913314747783N12002856WA0116601177
B1913324747782N12002861WA0116501176
B1913334747781N12002866WA0116301175
B1913344747780N12002872WA0116201174
B1913354747778N12002878WA0116101172
B1913364747777N12002884WA0115901170
B1913374747776N12002890WA0115801169
B1913384747776N12002896WA0115601169
B1913394747775N12002901WA0115501169
B1913404747774N12002907WA0115401168
B1913414747773N12002912WA0115301166
B1913424747772N12002919WA0115201165
B1913434747770N12002925WA0115101164
B1913444747769N12002931WA0115001164
B1913454747768N12002937WA0114901164
B1913464747767N12002942WA0114801165
B1913474747765N12002947WA0114801165
B1913484747764N12002952WA0114701166
B1913494747762N12002956WA0114701167
B1913504747761N12002958WA0114701168
B1913514747759N12002960WA0114701170
B1913524747758N12002962WA0114701172
B1913534747758N12002964WA0114701172
B1913544747758N12002967WA0114701172
B1913554747759N12002971WA0114701171
B1913564747762N12002976WA0114701171
B1913574747767N12002980WA0114701169
B1913584747774N12002982WA0114701169
B1913594747782N12002981WA0114701169
B1914004747790N12002975WA0114701169
B1914014747796N12002966WA0114701168
B1914024747800N12002956WA0114701168
B1914034747802N12002945WA0114701168
B1914044747802N12002935WA0114701168
B1914054747801N12002926WA0114701167
B1914064747799N12002917WA0114701167
B1914074747796N12002910WA0114701167
B1914084747793N12002904WA0114701167
B1914094747790N12002900WA0114801167
B1914104747786N12002898WA0114801167
B1914114747784N12002895WA0114801168
B1914124747781N12002893WA0114801170
B1914134747779N12002891WA0114901172
B1914144747777N12002889WA0114901174
B1914154747775N12002887WA0115001174
B1914164747772N12002886WA0115101175
B1914174747769N12002886WA0115101175
B1914184747767N12002888WA0115201175
B1914194747765N12002890WA0115201176
B1914204747763N12002892WA0115301176
B1914214747760N12002894WA0115301176
B1914224747756N12002895WA0115401177
B1914224747756N12002895WA0115401177
B1914234747753N12002895WA0115401179
B1914244747750N12002895WA0115501182
B1914254747748N12002894WA0115601186
B1914264747746N12002893WA0115801189
B1914274747744N12002892WA0115901192
B1914284747742N12002891WA0116101194
B1914294747739N12002889WA0116301196
B1914304747737N12002887WA0116501197
B1914314747734N12002886WA0116601199
B1914324747733N12002887WA0116801201
B1914334747733N12002889WA0116901202
B1914344747735N12002894WA0117001202
B1914354747739N12002898WA0117101203
B1914364747745N12002900WA0117201203
B1914374747752N12002901WA0117301204
B1914384747760N12002900WA0117501205
B1914394747768N12002894WA0117601207
B1914404747775N12002885WA0117701209
B1914414747781N12002873WA0117901210
B1914424747786N12002860WA0118101210
B1914434747789N12002849WA0118201214
B1914444747792N12002840WA0118401217
B1914454747794N12002832WA0118501219
B1914464747794N12002822WA0118701219
B1914474747794N12002811WA0118801221
B1914484747792N12002801WA0119001223
B1914494747790N12002794WA0119201228
B1914504747787N12002789WA0119501232
B1914514747784N12002786WA0119601235
B1914524747782N12002783WA0119901239
B1914534747780N12002779WA0120201243
B1914544747778N12002775WA0120501247
B1914554747777N12002771WA0120701250
B1914564747775N12002769WA0121001251
B1914574747772N12002768WA0121201251
B1914584747769N12002770WA0121501252
B1914594747766N12002772WA0121601253
B1915004747763N12002773WA0121901255
B1915014747761N12002774WA0122201260
B1915024747760N12002773WA0122501268
B1915034747759N12002772WA0122801271
B1915044747758N12002772WA0123201273
B1915054747757N12002774WA0123501274
B1915064747756N12002776WA0123701275
B1915074747753N12002777WA0123901276
B1915084747751N12002777WA0124101276
B1915094747749N12002778WA0124301277
B1915104747747N12002778WA0124601279
B1915114747746N12002779WA0124701282
B1915124747745N12002780WA0125001285
B1915134747744N12002781WA0125101287
B1915144747742N12002781WA0125401289
B1915154747740N12002781WA0125501290
B1915164747739N12002781WA0125701292
B1915174747740N12002783WA0125901293
B1915184747743N12002786WA0126001293
B1915194747748N12002789WA0126101291
B1915204747754N12002792WA0126201291
B1915214747762N12002791WA0126301292
B1915224747771N12002785WA0126501294
B1915234747778N12002776WA0126501295
B1915244747783N12002762WA0126601294
B1915254747785N12002748WA0126701295
B1915254747785N12002748WA0126701295
B1915264747785N12002736WA0126801296
B1915274747783N12002727WA0126901298
B1915284747780N12002721WA0127001300
B1915294747777N12002718WA0127101301
B1915304747774N12002715WA0127201303
B1915314747772N12002714WA0127301304
B1915324747771N12002714WA0127401305
B1915334747769N12002714WA0127501306
B1915344747768N12002715WA0127601306
B1915354747766N12002717WA0127701305
B1915364747764N12002718WA0127701305
B1915374747763N12002720WA0127801305
B1915384747763N12002723WA0127901306
B1915394747763N12002726WA0127901307
B1915404747765N12002728WA0128001308
B1915414747767N12002731WA0128001308
B1915424747773N12002732WA0128101309
B1915434747780N12002731WA0128101308
B1915444747787N12002729WA0128201308
B1915454747795N12002722WA0128201308
B1915464747802N12002713WA0128201308
B1915474747807N12002701WA0128201307
B1915484747809N12002687WA0128301307
B1915494747808N12002674WA0128301307
B1915504747806N12002664WA0128301308
B1915514747803N12002657WA0128301309
B1915524747800N12002654WA0128401310
B1915534747798N12002652WA0128401312
B1915544747796N12002651WA0128501313
B1915554747794N12002651WA0128501314
B1915564747792N12002652WA0128601314
B1915574747790N12002653WA0128601314
B1915584747788N12002654WA0128601314
B1915594747787N12002655WA0128701314
B1916004747786N12002657WA0128701315
B1916014747784N12002658WA0128701315
B1916024747783N12002660WA0128801315
B1916034747782N12002661WA0128801314
B1916044747781N12002662WA0128801313
B1916054747780N12002664WA0128801312
B1916064747780N12002667WA0128801310
B1916074747781N12002671WA0128801309
B1916084747783N12002674WA0128701308
B1916094747784N12002678WA0128701306
B1916104747786N12002681WA0128601305
B1916114747788N12002685WA0128601304
B1916124747788N12002688WA0128501303
B1916134747787N12002692WA0128501301
B1916144747786N12002695WA0128401299
B1916154747784N12002696WA0128301300
B1916164747782N12002697WA0128301300
B1916174747780N12002697WA0128201300
B1916184747778N12002698WA0128201299
B1916194747776N12002700WA0128101298
B1916204747775N12002702WA0128001296
B1916214747773N12002705WA0127901294
B1916224747772N12002707WA0127801293
B1916234747770N12002710WA0127701292
B1916244747768N12002712WA0127601291
B1916254747767N12002715WA0127601290
B1916264747766N12002718WA0127501289
B1916274747765N12002721WA0127401288
B1916284747764N12002724WA0127301287
B1916294747763N12002727WA0127301287
B1916294747763N12002727WA0127301287
B1916304747762N12002729WA0127201286
B1916314747760N12002731WA0127101285
B1916324747759N12002732WA0127001284
B1916334747757N12002734WA0126901283
B1916344747755N12002736WA0126801280
B1916354747754N12002739WA0126701278
B1916364747753N12002743WA0126501276
B1916374747751N12002748WA0126401273
B1916384747749N12002752WA0126301271
B1916394747747N12002756WA0126101270
B1916404747746N12002759WA0126001269
B1916414747745N12002763WA0125901267
B1916424747743N12002767WA0125701265
B1916434747742N12002771WA0125601264
B1916444747740N12002775WA0125401261
B1916454747737N12002780WA0125301259
B1916464747734N12002784WA0125101257
B1916474747731N12002787WA0124901256
B1916484747729N12002791WA0124701254
B1916494747727N12002796WA0124601253
B1916504747725N12002800WA0124401252
B1916514747723N12002804WA0124301251
B1916524747721N12002807WA0124101249
B1916534747719N12002811WA0124001248
B1916544747717N12002814WA0123801246
B1916554747716N12002818WA0123701245
B1916564747716N12002823WA0123501242
B1916574747716N12002829WA0123301240
B1916584747717N12002835WA0123101238
B1916594747718N12002841WA0123001236
B1917004747719N12002846WA0122801234
B1917014747720N12002852WA0122601233
B1917024747721N12002858WA0122401231
B1917034747723N12002864WA0122301229
B1917044747725N12002870WA0122101228
B1917054747727N12002875WA0121901226
B1917064747730N12002881WA0121701224
B1917074747732N12002887WA0121601223
B1917084747734N12002893WA0121501222
B1917094747736N12002898WA0121301221
B1917104747738N12002903WA0121201221
B1917114747740N12002908WA0121101220
B1917124747741N12002913WA0121001219
B1917134747742N12002918WA0120901218
B1917144747743N12002922WA0120701217
B1917154747744N12002927WA0120601215
B1917164747745N12002931WA0120401213
B1917174747746N12002936WA0120301210
B1917184747747N12002942WA0120101207
B1917194747748N12002948WA0120001205
B1917204747750N12002953WA0119801204
B1917214747751N12002957WA0119701202
B1917224747752N12002962WA0119501201
B1917234747754N12002966WA0119401199
B1917244747756N12002970WA0119201197
B1917254747758N12002975WA0119101194
B1917264747760N12002981WA0118801191
B1917274747761N12002986WA0118701189
B1917284747762N12002990WA0118501188
B1917294747763N12002994WA0118401186
B1917304747764N12002997WA0118201184
B1917314747765N12003001WA0118001182
B1917324747765N12003006WA0117801179
B1917334747765N12003011WA0117601175
B1917334747765N12003011WA0117601175
B1917344747764N12003017WA0117401172
B1917354747764N12003022WA0117201169
B1917364747763N12003027WA0116901167
B1917374747762N12003031WA0116701165
B1917384747761N12003035WA0116501163
B1917394747759N12003039WA0116301160
B1917404747756N12003043WA0116001157
B1917414747752N12003046WA0115901154
B1917424747749N12003049WA0115601152
B1917434747746N12003051WA0115401151
B1917444747743N12003054WA0115101149
B1917454747741N12003056WA0115001148
B1917464747737N12003058WA0114701146
B1917474747734N12003060WA0114601144
B1917484747731N12003062WA0114301142
B1917494747727N12003064WA0114201140
B1917504747724N12003065WA0113901138
B1917514747720N12003067WA0113801135
B1917524747717N12003068WA0113501133
B1917534747713N12003068WA0113401131
B1917544747710N12003069WA0113101128
B1917554747706N12003070WA0112901125
B1917564747703N12003071WA0112701122
B1917574747699N12003073WA0112501120
B1917584747695N12003076WA0112201117
B1917594747692N12003079WA0112101115
B1918004747690N12003082WA0111801114
B1918014747688N12003085WA0111601113
B1918024747685N12003088WA0111401111
B1918034747683N12003093WA0111301108
B1918044747680N12003097WA0111001106
B1918054747678N12003100WA0110901105
B1918064747676N12003104WA0110601104
B1918074747673N12003107WA0110501104
B1918084747670N12003109WA0110301104
B1918094747668N12003110WA0110301107
B1918104747665N12003111WA0110201109
B1918114747663N12003112WA0110101109
B1918124747662N12003114WA0110101110
B1918134747660N12003116WA0110101110
B1918144747659N12003118WA0110101111
B1918154747657N12003120WA0110001111
B1918164747655N12003122WA0110001110
B1918174747652N12003124WA0110001109
B1918184747650N12003126WA0110001109
B1918194747648N12003127WA0109901109
B1918204747646N12003129WA0109901109
B1918214747645N12003131WA0109901109
B1918224747643N12003134WA0109901109
B1918234747642N12003137WA0109901109
B1918244747641N12003140WA0109801108
B1918254747640N12003143WA0109801109
B1918264747639N12003145WA0109801110
B1918274747637N12003148WA0109801110
B1918284747636N12003150WA0109901111
B1918294747634N12003153WA0109901111
B1918304747633N12003156WA0109901111
B1918314747631N12003158WA0109901112
B1918324747629N12003160WA0109901112
B1918334747627N12003163WA0109901111
B1918344747625N12003166WA0109901111
B1918354747624N12003169WA0109901111
B1918364747623N12003172WA0109901112
B1918364747623N12003172WA0109901112
B1918374747622N12003173WA0110001114
B1918384747621N12003175WA0110001114
B1918394747620N12003176WA0110001114
B1918404747619N12003179WA0110101114
B1918414747618N12003182WA0110101114
B1918424747617N12003184WA0110101114
B1918434747616N12003186WA0110101114
B1918444747614N12003189WA0110001112
B1918454747613N12003192WA0110001110
B1918464747611N12003196WA0109901107
B1918474747609N12003200WA0109901105
B1918484747608N12003204WA0109801103
B1918494747606N12003208WA0109701101
B1918504747604N12003212WA0109501100
B1918514747602N12003215WA0109401099
B1918524747600N12003219WA0109301097
B1918534747598N12003223WA0109201095
B1918544747596N12003228WA0109001092
B1918554747593N12003234WA0108901089
B1918564747591N12003239WA0108801089
B1918574747589N12003244WA0108701089
B1918584747588N12003248WA0108501088
B1918594747586N12003253WA0108401086
B1919004747584N12003258WA0108301084
B1919014747582N12003263WA0108201081
B1919024747580N12003269WA0108001080
B1919034747578N12003274WA0107901079
B1919044747577N12003280WA0107701078
B1919054747576N12003285WA0107601078
B1919064747576N12003290WA0107501078
B1919074747577N12003295WA0107401078
B1919084747578N12003301WA0107301077
B1919094747579N12003307WA0107201077
B1919104747580N12003313WA0107101076
B1919114747581N12003319WA0107101076
B1919124747582N12003325WA0107001077
B1919134747583N12003330WA0106901077
B1919144747584N12003335WA0106901076
B1919154747585N12003340WA0106801075
B1919164747586N12003345WA0106701074
B1919174747588N12003350WA0106701072
B1919184747591N12003356WA0106501069
B1919194747594N12003362WA0106501068
B1919204747597N12003367WA0106301067
B1919214747600N12003373WA0106301066
B1919224747603N12003377WA0106101066
B1919234747606N12003382WA0106101065
B1919244747609N12003386WA0106001064
B1919254747612N12003391WA0105901062
B1919264747614N12003397WA0105801060
B1919274747615N12003402WA0105701059
B1919284747615N12003407WA0105601059
B1919294747614N12003411WA0105601059
B1919304747613N12003414WA0105501059
B1919314747611N12003417WA0105401059
B1919324747608N12003419WA0105301058
B1919334747605N12003422WA0105301058
B1919344747602N12003424WA0105301059
B1919354747599N12003426WA0105201060
B1919364747595N12003427WA0105201063
B1919374747592N12003427WA0105301065
B1919384747590N12003428WA0105301067
B1919394747588N12003430WA0105301068
B1919404747588N12003433WA0105401068
B1919404747588N12003433WA0105401068
B1919414747589N12003437WA0105401068
B1919424747592N12003441WA0105401065
B1919434747597N12003444WA0105401066
B1919444747604N12003443WA0105501067
B1919454747610N12003439WA0105501068
B1919464747617N12003430WA0105501068
B1919474747622N12003419WA0105501066
B1919484747626N12003407WA0105501066
B1919494747627N12003394WA0105601066
B1919504747627N12003381WA0105601066
B1919514747624N12003369WA0105601067
B1919524747621N12003359WA0105601068
B1919534747617N12003350WA0105701069
B1919544747613N12003344WA0105801071
B1919554747609N12003340WA0105801073
B1919564747606N12003340WA0105901074
B1919574747604N12003343WA0106001074
B1919584747603N12003347WA0106001075
B1919594747604N12003350WA0106101077
B1920004747607N12003352WA0106201079
B1920014747612N12003352WA0106301081
B1920024747617N12003350WA0106301081
B1920034747624N12003346WA0106401081
B1920044747632N12003339WA0106401080
B1920054747638N12003331WA0106501080
B1920064747643N12003319WA0106501080
B1920074747645N12003306WA0106501080
B1920084747645N12003293WA0106601080
B1920094747643N12003281WA0106601081
B1920104747640N12003272WA0106701082
B1920114747636N12003267WA0106701084
B1920124747633N12003265WA0106801085
B1920134747629N12003265WA0106801085
B1920144747626N12003267WA0106801086
B1920154747624N12003269WA0106901087
B1920164747622N12003270WA0107001089
B1920174747620N12003270WA0107001091
B1920184747618N12003269WA0107201093
B1920194747616N12003270WA0107201093
B1920204747615N12003271WA0107301093
B1920214747613N12003273WA0107401093
B1920224747612N12003276WA0107401092
B1920234747611N12003279WA0107401092
B1920244747609N12003282WA0107501091
B1920254747607N12003285WA0107601091
B1920264747605N12003288WA0107601092
B1920274747604N12003290WA0107701093
B1920284747603N12003293WA0107701093
B1920294747603N12003295WA0107701091
B1920304747601N12003298WA0107701090
B1920314747599N12003300WA0107701089
B1920324747597N12003303WA0107701087
B1920334747595N12003305WA0107601085
B1920344747593N12003309WA0107601085
B1920354747591N12003311WA0107501084
B1920364747590N12003312WA0107501084
B1920374747588N12003313WA0107401084
B1920384747586N12003314WA0107301082
B1920394747583N12003315WA0107201079
B1920404747581N12003317WA0107101076
B1920414747578N12003319WA0107001073
B1920424747577N12003320WA0106801071
B1920434747575N12003322WA0106701070
B1920434747575N12003322WA0106701070
B1920444747573N12003323WA0106501069
B1920454747571N12003325WA0106401067
B1920464747569N12003328WA0106201064
B1920474747567N12003331WA0106101062
B1920484747564N12003334WA0105901061
B1920494747562N12003337WA0105801060
B1920504747560N12003340WA0105701060
B1920514747558N12003342WA0105601060
B1920524747556N12003344WA0105501059
B1920534747554N12003347WA0105401058
B1920544747552N12003350WA0105201056
B1920554747548N12003353WA0105201055
B1920564747545N12003355WA0105101055
B1920574747543N12003356WA0105001056
B1920584747540N12003357WA0104901056
B1920594747538N12003359WA0104901056
B1921004747536N12003362WA0104801055
B1921014747533N12003365WA0104701053
B1921024747530N12003368WA0104601052
B1921034747527N12003371WA0104601052
B1921044747525N12003373WA0104501053
B1921054747523N12003374WA0104501054
B1921064747521N12003375WA0104401054
B1921074747519N12003377WA0104301053
B1921084747517N12003380WA0104201051
B1921094747515N12003384WA0104201049
B1921104747514N12003389WA0104001047
B1921114747513N12003393WA0104001047
B1921124747512N12003396WA0103901048
B1921134747512N12003399WA0103801049
B1921144747511N12003401WA0103701048
B1921154747511N12003404WA0103701047
B1921164747510N12003407WA0103501046
B1921174747510N12003411WA0103501044
B1921184747509N12003415WA0103401043
B1921194747509N12003419WA0103301042
B1921204747508N12003422WA0103201042
B1921214747507N12003424WA0103201042
B1921224747507N12003427WA0103101041
B1921234747506N12003429WA0103001039
B1921244747505N12003432WA0102901036
B1921254747504N12003436WA0102801034
B1921264747503N12003441WA0102601032
B1921274747502N12003445WA0102501031
B1921284747501N12003448WA0102401031
B1921294747500N12003450WA0102301031
B1921304747499N12003453WA0102201030
B1921314747498N12003456WA0102101029
B1921324747498N12003460WA0101901027
B1921334747497N12003464WA0101801025
B1921344747496N12003468WA0101701023
B1921354747496N12003473WA0101601022
B1921364747495N12003476WA0101501021
B1921374747494N12003480WA0101401021
B1921384747494N12003483WA0101201019
B1921394747493N12003486WA0101101018
B1921404747493N12003490WA0101001016
B1921414747492N12003495WA0100901013
B1921424747491N12003499WA0100701012
B1921434747491N12003503WA0100601010
B1921444747491N12003507WA0100401009
B1921454747491N12003511WA0100301008
B1921464747491N12003515WA0100201005
B1921464747491N12003515WA0100201005
B1921474747491N12003519WA0100001003
B1921484747490N12003524WA0099801000
B1921494747489N12003529WA0099700997
B1921504747488N12003535WA0099500994
B1921514747486N12003541WA0099400992
B1921524747485N12003548WA0099200991
B1921534747484N12003554WA0099000991
B1921544747483N12003560WA0098900992
B1921554747482N12003564WA0098800993
B1921564747482N12003569WA0098700993
B1921574747482N12003573WA0098600993
B1921584747482N12003578WA0098500993
B1921594747483N12003583WA0098500993
B1922004747484N12003587WA0098500993
B1922014747485N12003592WA0098400993
B1922024747486N12003596WA0098400993
B1922034747487N12003599WA0098300993
B1922044747488N12003604WA0098300992
B1922054747489N12003608WA0098300991
B1922064747489N12003612WA0098200991
B1922074747489N12003616WA0098200991
B1922084747488N12003620WA0098200993
B1922094747488N12003623WA0098200994
B1922104747488N12003625WA0098200997
B1922114747488N12003626WA0098201000
B1922124747487N12003627WA0098301002
B1922134747486N12003628WA0098401004
B1922144747485N12003629WA0098601007
B1922154747484N12003630WA0098701009
B1922164747484N12003631WA0098801012
B1922174747483N12003632WA0099001014
B1922184747483N12003634WA0099101016
B1922194747482N12003636WA0099301018
B1922204747482N12003639WA0099401019
B1922214747481N12003641WA0099601021
B1922224747480N12003644WA0099801023
B1922234747479N12003646WA0099901026
B1922244747479N12003647WA0100101028
B1922254747480N12003648WA0100201028
B1922264747480N12003649WA0100301028
B1922274747481N12003652WA0100401028
B1922284747483N12003655WA0100501027
B1922294747487N12003659WA0100601026
B1922304747493N12003661WA0100601025
B1922314747500N12003660WA0100701026
B1922324747508N12003654WA0100801027
B1922334747514N12003646WA0100801026
B1922344747519N12003636WA0100901026
B1922354747522N12003624WA0101001026
B1922364747524N12003611WA0101001025
B1922374747525N12003598WA0101101025
B1922384747524N12003586WA0101101024
B1922394747523N12003576WA0101201024
B1922404747520N12003567WA0101201024
B1922414747517N12003560WA0101301024
B1922424747514N12003556WA0101401025
B1922434747512N12003555WA0101401026
B1922444747511N12003555WA0101501027
B1922454747509N12003556WA0101501027
B1922464747507N12003557WA0101601028
B1922474747505N12003557WA0101601029
B1922484747503N12003557WA0101701030
B1922494747501N12003557WA0101801033
B1922494747501N12003557WA0101801033
B1922504747499N12003557WA0101901034
B1922514747497N12003558WA0101901035
B1922524747497N12003561WA0102001036
B1922534747497N12003565WA0102101037
B1922544747499N12003570WA0102101037
B1922554747502N12003574WA0102201038
B1922564747506N12003576WA0102301043
B1922574747510N12003577WA0102401046
B1922584747514N12003577WA0102501048
B1922594747516N12003578WA0102601049
B1923004747518N12003580WA0102701048
B1923014747519N12003584WA0102701047
B1923024747517N12003588WA0102801046
B1923034747515N12003590WA0102901046
B1923044747510N12003588WA0102901047
B1923054747506N12003581WA0103001047
B1923064747502N12003571WA0103101046
B1923074747500N12003559WA0103101045
B1923084747500N12003546WA0103101044
B1923094747503N12003534WA0103101044
B1923104747509N12003523WA0103101044
B1923114747515N12003516WA0103201044
B1923124747522N12003513WA0103201044
B1923134747528N12003513WA0103201045
B1923144747533N12003515WA0103201045
B1923154747536N12003519WA0103201046
B1923164747537N12003522WA0103301047
B1923174747538N12003526WA0103301048
B1923184747537N12003528WA0103301049
B1923194747535N12003530WA0103401050
B1923204747534N12003533WA0103401050
B1923214747532N12003535WA0103501050
B1923224747531N12003539WA0103501050
B1923234747529N12003542WA0103501050
B1923244747529N12003546WA0103601051
B1923254747528N12003550WA0103601051
B1923264747527N12003553WA0103701052
B1923274747526N12003555WA0103701052
B1923284747524N12003557WA0103701051
B1923294747522N12003560WA0103701050
B1923304747519N12003563WA0103801049
B1923314747517N12003566WA0103701047
B1923324747516N12003570WA0103701047
B1923334747515N12003573WA0103701046
B1923344747514N12003575WA0103601045
B1923354747512N12003577WA0103601043
B1923364747509N12003580WA0103501042
B1923374747507N12003583WA0103501040
B1923384747505N12003587WA0103401039
B1923394747504N12003590WA0103301039
B1923404747502N12003593WA0103201039
B1923414747500N12003595WA0103201038
B1923424747498N12003598WA0103101036
B1923434747495N12003601WA0103001034
B1923444747493N12003604WA0102901032
B1923454747491N12003606WA0102801031
B1923464747489N12003609WA0102701029
B1923474747488N12003611WA0102601029
B1923484747486N12003613WA0102501027
B1923494747484N12003616WA0102401025
B1923504747482N12003619WA0102301023
B1923514747480N12003622WA0102201022
B1923524747478N12003625WA0102101022
B1923534747477N12003627WA0102001022
B1923534747477N12003627WA0102001022
B1923544747475N12003629WA0101901021
B1923554747473N12003631WA0101801020
B1923564747470N12003634WA0101701017
B1923574747467N12003638WA0101601015
B1923584747465N12003642WA0101401013
B1923594747463N12003646WA0101301013
B1924004747462N12003649WA0101201013
B1924014747460N12003651WA0101101013
B1924024747458N12003654WA0101001011
B1924034747456N12003658WA0100901010
B1924044747453N12003661WA0100701007
B1924054747450N12003665WA0100601006
B1924064747448N12003669WA0100501005
B1924074747445N12003672WA0100401004
B1924084747443N12003675WA0100201003
B1924094747441N12003678WA0100101002
B1924104747440N12003682WA0100001001
B1924114747438N12003687WA0099900998
B1924124747436N12003692WA0099700996
B1924134747434N12003696WA0099600994
B1924144747432N12003701WA0099400993
B1924154747430N12003705WA0099300992
B1924164747428N12003709WA0099100991
B1924174747426N12003713WA0099000990
B1924184747424N12003717WA0098900989
B1924194747422N12003721WA0098800988
B1924204747420N12003726WA0098600986
B1924214747418N12003729WA0098500985
B1924224747415N12003733WA0098400984
B1924234747412N12003737WA0098300983
B1924244747410N12003740WA0098100983
B1924254747407N12003744WA0098000982
B1924264747405N12003747WA0097900981
B1924274747403N12003751WA0097800980
B1924284747401N12003754WA0097700978
B1924294747399N12003758WA0097600977
B1924304747397N12003762WA0097400976
B1924314747396N12003766WA0097400975
B1924324747395N12003770WA0097200974
B1924334747395N12003775WA0097100972
B1924344747394N12003780WA0097000971
B1924354747394N12003785WA0096900969
B1924364747393N12003791WA0096700967
B1924374747392N12003795WA0096600966
B1924384747392N12003800WA0096500965
B1924394747391N12003804WA0096400964
B1924404747390N12003808WA0096300963
B1924414747389N12003812WA0096200961
B1924424747388N12003817WA0096000959
B1924434747388N12003822WA0095900958
B1924444747387N12003827WA0095800957
B1924454747387N12003832WA0095700956
B1924464747387N12003836WA0095600956
B1924474747387N12003840WA0095500955
B1924484747386N12003845WA0095300953
B1924494747386N12003850WA0095200951
B1924504747385N12003855WA0095100949
B1924514747384N12003860WA0095000949
B1924524747384N12003864WA0094800948
B1924534747384N12003868WA0094800948
B1924544747383N12003873WA0094600947
B1924554747382N12003877WA0094500945
B1924564747381N12003881WA0094400944
B1924574747380N12003885WA0094300942
B1924584747378N12003889WA0094200941
B1924584747378N12003889WA0094200941
B1924594747376N12003892WA0094100940
B1925004747375N12003896WA0093900939
B1925014747373N12003899WA0093800938
B1925024747370N12003902WA0093700936
B1925034747367N12003904WA0093600934
B1925044747363N12003905WA0093500933
B1925054747359N12003906WA0093400932
B1925064747355N12003907WA0093200931
B1925074747352N12003908WA0093100930
B1925084747349N12003909WA0093000930
B1925094747346N12003911WA0092900928
B1925104747343N12003913WA0092800927
B1925114747340N12003916WA0092700926
B1925124747337N12003918WA0092600925
B1925134747334N12003920WA0092500924
B1925144747332N12003923WA0092400923
B1925154747330N12003926WA0092300922
B1925164747327N12003929WA0092200920
B1925174747325N12003933WA0092100919
B1925184747323N12003936WA0091900918
B1925194747320N12003939WA0091900918
B1925204747318N12003942WA0091700917
B1925214747316N12003945WA0091600916
B1925224747313N12003948WA0091500914
B1925234747310N12003952WA0091400912
B1925244747308N12003955WA0091200910
B1925254747305N12003959WA0091100908
B1925264747303N12003963WA0091000907
B1925274747300N12003966WA0090800905
B1925284747297N12003968WA0090700903
B1925294747294N12003972WA0090500901
B1925304747291N12003975WA0090400899
B1925314747289N12003979WA0090200897
B1925324747287N12003982WA0090100897
B1925334747286N12003983WA0090000896
B1925344747285N12003985WA0089700894
B1925354747284N12003987WA0089600891
B1925364747283N12003990WA0089400886
B1925374747281N12003994WA0089200882
B1925384747279N12003998WA0088900879
B1925394747278N12004002WA0088700877
B1925404747277N12004005WA0088500876
B1925414747276N12004006WA0088300876
B1925424747275N12004009WA0088100873
B1925434747274N12004012WA0087900869
B1925444747272N12004016WA0087600863
B1925454747269N12004021WA0087400859
B1925464747266N12004026WA0087100856
B1925474747263N12004029WA0086900853
B1925484747260N12004031WA0086600852
B1925494747258N12004034WA0086400850
B1925504747255N12004036WA0086000847
B1925514747252N12004039WA0085800844
B1925524747249N12004042WA0085500841
B1925534747245N12004045WA0085300839
B1925544747241N12004047WA0085000836
B1925554747238N12004050WA0084800834
B1925564747234N12004052WA0084500831
B1925574747231N12004055WA0084300829
B1925584747227N12004057WA0084000827
B1925594747224N12004059WA0083800825
B1926004747221N12004062WA0083600824
B1926014747218N12004065WA0083400824
B1926014747218N12004065WA0083400824
B1926024747216N12004068WA0083200825
B1926034747213N12004069WA0083100825
B1926044747211N12004071WA0082900825
B1926054747209N12004073WA0082800824
B1926064747207N12004076WA0082700823
B1926074747205N12004079WA0082600823
B1926084747203N12004082WA0082500824
B1926094747201N12004085WA0082500824
B1926104747199N12004088WA0082400825
B1926114747196N12004091WA0082400825
B1926124747194N12004094WA0082300825
B1926134747192N12004096WA0082300825
B1926144747190N12004099WA0082200824
B1926154747187N12004103WA0082200823
B1926164747185N12004107WA0082100822
B1926174747184N12004111WA0082100822
B1926184747182N12004115WA0082000821
B1926194747181N12004119WA0082000820
B1926204747179N12004122WA0081900819
B1926214747178N12004126WA0081900818
B1926224747176N12004129WA0081800817
B1926234747174N12004132WA0081700815
B1926244747172N12004136WA0081600813
B1926254747170N12004140WA0081500811
B1926264747167N12004143WA0081300809
B1926274747165N12004146WA0081200808
B1926284747162N12004149WA0081100808
B1926294747160N12004152WA0081000807
B1926304747158N12004156WA0080900806
B1926314747157N12004159WA0080900805
B1926324747156N12004162WA0080700805
B1926334747154N12004165WA0080700805
B1926344747153N12004167WA0080600803
B1926354747151N12004170WA0080500800
B1926364747148N12004174WA0080300797
B1926374747146N12004178WA0080200795
B1926384747144N12004182WA0080100793
B1926394747143N12004186WA0080000792
B1926404747142N12004189WA0079800791
B1926414747140N12004192WA0079700790
B1926424747138N12004195WA0079500787
B1926434747136N12004199WA0079400784
B1926444747134N12004203WA0079200782
B1926454747133N12004206WA0079000781
B1926464747131N12004210WA0078800779
B1926474747130N12004214WA0078700777
B1926484747129N12004217WA0078500776
B1926494747128N12004221WA0078300773
B1926504747126N12004225WA0078100771
B1926514747124N12004229WA0077900768
B1926524747121N12004233WA0077700766
B1926534747119N12004236WA0077600764
B1926544747117N12004239WA0077300762
B1926554747115N12004242WA0077200761
B1926564747112N12004245WA0076900759
B1926574747110N12004248WA0076800756
B1926584747107N12004252WA0076600753
B1926594747105N12004256WA0076400751
B1927004747102N12004259WA0076200749
B1927014747100N12004263WA0076000747
B1927024747097N12004266WA0075800746
B1927034747095N12004269WA0075600744
B1927044747093N12004272WA0075400743
B1927054747090N12004275WA0075200741
B1927054747090N12004275WA0075200741
B1927064747087N12004278WA0075000739
B1927074747084N12004281WA0074900736
B1927084747082N12004284WA0074700735
B1927094747079N12004287WA0074500733
B1927104747077N12004290WA0074300731
B1927114747075N12004293WA0074100728
B1927124747072N12004297WA0073900726
B1927134747069N12004300WA0073700723
B1927144747065N12004303WA0073500720
B1927154747062N12004306WA0073400718
B1927164747060N12004309WA0073100717
B1927174747057N12004311WA0073000716
B1927184747055N12004313WA0072800715
B1927194747053N12004316WA0072600713
B1927204747051N12004318WA0072400711
B1927214747048N12004321WA0072200708
B1927224747045N12004324WA0072000705
B1927234747042N12004326WA0071800703
B1927244747039N12004328WA0071600702
B1927254747036N12004330WA0071400701
B1927264747034N12004332WA0071200700
B1927274747032N12004334WA0071100698
B1927284747029N12004337WA0070800695
B1927294747026N12004340WA0070700692
B1927304747023N12004343WA0070500690
B1927314747021N12004345WA0070300689
B1927324747018N12004347WA0070100688
B1927334747016N12004349WA0070000687
B1927344747013N12004350WA0069800686
B1927354747011N12004351WA0069700684
B1927364747008N12004353WA0069400681
B1927374747006N12004355WA0069300679
B1927384747003N12004357WA0069100677
B1927394747000N12004358WA0068900676
B1927404746998N12004359WA0068800675
B1927414746996N12004360WA0068600673
B1927424746993N12004362WA0068400671
B1927434746990N12004364WA0068300667
B1927444746987N12004366WA0068000664
B1927454746984N12004369WA0067900661
B1927464746980N12004372WA0067600659
B1927474746977N12004375WA0067500658
B1927484746974N12004376WA0067300658
B1927494746971N12004378WA0067100657
B1927504746969N12004381WA0066900655
B1927514746966N12004384WA0066800654
B1927524746964N12004387WA0066700653
B1927534746961N12004391WA0066600652
B1927544746958N12004394WA0066400652
B1927554746955N12004396WA0066300651
B1927564746952N12004399WA0066200650
B1927574746948N12004402WA0066100649
B1927584746945N12004406WA0065900647
B1927594746943N12004409WA0065900646
B1928004746941N12004411WA0065700647
B1928014746939N12004412WA0065600646
B1928024746937N12004414WA0065500645
B1928034746935N12004416WA0065400643
B1928044746933N12004419WA0065300641
B1928054746931N12004422WA0065200638
B1928064746928N12004425WA0065000637
B1928074746926N12004427WA0064900636
B1928084746923N12004429WA0064800636
B1928084746923N12004429WA0064800636
B1928094746921N12004431WA0064700636
B1928104746918N12004433WA0064600636
B1928114746916N12004435WA0064500636
B1928124746914N12004437WA0064400635
B1928134746913N12004439WA0064400634
B1928144746911N12004440WA0064200632
B1928154746909N12004442WA0064100630
B1928164746907N12004444WA0064000627
B1928174746904N12004447WA0063900624
B1928184746902N12004450WA0063700621
B1928194746899N12004452WA0063600619
B1928204746896N12004454WA0063400617
B1928214746892N12004455WA0063200614
B1928224746888N12004456WA0063000611
B1928234746884N12004457WA0062800607
B1928244746879N12004459WA0062600604
B1928254746875N12004460WA0062400602
B1928264746871N12004462WA0062100599
B1928274746868N12004463WA0061900597
B1928284746864N12004465WA0061600595
B1928294746860N12004466WA0061400591
B1928304746856N12004468WA0061100588
B1928314746851N12004469WA0060900584
B1928324746846N12004470WA0060600582
B1928334746842N12004471WA0060400580
B1928344746838N12004471WA0060100577
B1928354746834N12004471WA0059900575
B1928364746830N12004473WA0059600572
B1928374746826N12004474WA0059400569
B1928384746822N12004477WA0059100565
B1928394746818N12004480WA0058900562
B1928404746814N12004482WA0058600559
B1928414746811N12004484WA0058400557
B1928424746806N12004486WA0058100555
B1928434746802N12004487WA0057900553
B1928444746797N12004488WA0057600550
B1928454746793N12004490WA0057400547
B1928464746788N12004492WA0057100544
B1928474746783N12004494WA0057000543
B1928484746779N12004495WA0056700542
B1928494746775N12004496WA0056600542
B1928504746771N12004497WA0056300541
B1928514746767N12004499WA0056200539
B1928524746762N12004501WA0056100539
B1928534746758N12004503WA0056000539
B1928544746754N12004505WA0055800540
B1928554746750N12004507WA0055800541
B1928564746747N12004508WA0055700541
B1928574746744N12004509WA0055600541
B1928584746741N12004510WA0055500540
B1928594746738N12004512WA0055500539
B1929004746734N12004515WA0055300537
B1929014746730N12004518WA0055300535
B1929024746727N12004522WA0055200534
B1929034746726N12004523WA0055200535
B1929044746725N12004524WA0055100537
B1929054746723N12004522WA0055100538
B1929064746721N12004521WA0055100537
B1929074746719N12004521WA0055000534
B1929084746716N12004523WA0055000531
B1929094746714N12004526WA0054900529
B1929104746711N12004528WA0054900529
B1929114746709N12004530WA0054800529
B1929124746706N12004531WA0054800528
B1929124746706N12004531WA0054800528
B1929134746703N12004533WA0054800527
B1929144746700N12004535WA0054700525
B1929154746697N12004538WA0054700524
B1929164746695N12004541WA0054600523
B1929174746693N12004543WA0054500522
B1929184746692N12004545WA0054400522
B1929194746690N12004547WA0054400521
B1929204746688N12004551WA0054200519
B1929214746685N12004555WA0054200517
B1929224746683N12004559WA0054100516
B1929234746680N12004562WA0054000516
B1929244746677N12004565WA0054000518
B1929254746675N12004566WA0054000520
B1929264746674N12004566WA0053900521
B1929274746673N12004566WA0053900521
B1929284746671N12004565WA0053800520
B1929294746670N12004566WA0053800517
B1929304746668N12004569WA0053700514
B1929314746667N12004571WA0053600513
B1929324746665N12004573WA0053500512
B1929334746662N12004575WA0053400512
B1929344746660N12004576WA0053300512
B1929354746657N12004578WA0053300510
B1929364746654N12004580WA0053200509
B1929374746653N12004582WA0053100508
B1929384746651N12004584WA0053100509
B1929394746648N12004586WA0053000509
B1929404746646N12004586WA0053000509
B1929414746643N12004587WA0052900508
B1929424746640N12004587WA0052800507
B1929434746637N12004588WA0052800506
B1929444746635N12004590WA0052700505
B1929454746632N12004593WA0052700503
B1929464746629N12004595WA0052600501
B1929474746627N12004598WA0052500500
B1929484746624N12004600WA0052400500
B1929494746622N12004603WA0052300499
B1929504746620N12004606WA0052200497
B1929514746618N12004610WA0052100495
B1929524746616N12004614WA0052000495
B1929534746613N12004616WA0051900496
B1929544746611N12004618WA0051900497
B1929554746610N12004620WA0051800497
B1929564746608N12004621WA0051700497
B1929574746606N12004623WA0051700497
B1929584746604N12004625WA0051600496
B1929594746601N12004626WA0051600494
B1930004746599N12004627WA0051500494
B1930014746598N12004629WA0051500494
B1930024746597N12004631WA0051400493
B1930034746596N12004633WA0051300492
B1930044746594N12004636WA0051300491
B1930054746592N12004638WA0051200490
B1930064746590N12004641WA0051100490
B1930074746588N12004644WA0051100489
B1930084746586N12004646WA0051000489
B1930094746583N12004648WA0050900488
B1930104746581N12004651WA0050800487
B1930114746578N12004653WA0050800486
B1930124746575N12004656WA0050700485
B1930134746572N12004660WA0050600483
B1930144746570N12004663WA0050500483
B1930154746567N12004666WA0050400482
B1930164746564N12004668WA0050300482
B1930164746564N12004668WA0050300482
B1930174746561N12004670WA0050300483
B1930184746558N12004673WA0050300483
B1930194746555N12004675WA0050200483
B1930204746553N12004677WA0050200483
B1930214746551N12004679WA0050200483
B1930224746549N12004681WA0050100482
B1930234746548N12004684WA0050100481
B1930244746546N12004688WA0050000480
B1930254746546N12004692WA0050000480
B1930264746545N12004695WA0050000482
B1930274746544N12004697WA0050000485
B1930284746544N12004698WA0050100488
B1930294746544N12004698WA0050100490
B1930304746543N12004698WA0050100491
B1930314746541N12004698WA0050200491
B1930324746540N12004700WA0050200488
B1930334746538N12004702WA0050200485
B1930344746535N12004705WA0050100484
B1930354746533N12004707WA0050100484
B1930364746531N12004708WA0050000484
B1930374746530N12004709WA0050000484
B1930384746529N12004710WA0050000484
B1930394746527N12004711WA0049900483
B1930404746526N12004713WA0049900481
B1930414746524N12004716WA0049800479
B1930424746523N12004718WA0049700477
B1930434746522N12004721WA0049700477
B1930444746520N12004722WA0049600477
B1930454746519N12004723WA0049500476
B1930464746517N12004725WA0049400475
B1930474746515N12004727WA0049400473
B1930484746513N12004730WA0049300472
B1930494746512N12004733WA0049200471
B1930504746511N12004735WA0049100470
B1930514746510N12004738WA0049100471
B1930524746508N12004740WA0049000471
B1930534746506N12004741WA0049000472
B1930544746504N12004741WA0049000474
B1930554746503N12004742WA0049000474
B1930564746501N12004743WA0049000475
B1930574746500N12004743WA0049000475
B1930584746499N12004745WA0049000474
B1930594746496N12004746WA0049000472
B1931004746493N12004748WA0049000470
B1931014746490N12004751WA0049000469
B1931024746487N12004754WA0048900470
B1931034746484N12004756WA0049000471
B1931044746482N12004758WA0049000472
B1931054746481N12004759WA0049000474
B1931064746479N12004759WA0049100475
B1931074746478N12004759WA0049100476
B1931084746476N12004759WA0049100475
B1931094746473N12004760WA0049200473
B1931104746471N12004762WA0049200471
B1931114746469N12004764WA0049200470
B1931124746467N12004766WA0049200470
B1931134746466N12004767WA0049200471
B1931144746463N12004769WA0049100471
B1931154746461N12004770WA0049100470
B1931164746457N12004772WA0049100469
B1931174746454N12004774WA0049100469
B1931184746451N12004776WA0049100469
B1931194746449N12004779WA0049100468
B1931204746447N12004781WA0049000468
B1931204746447N12004781WA0049000468
B1931214746445N12004783WA0049000467
B1931224746442N12004785WA0048900466
B1931234746440N12004788WA0048900465
B1931244746437N12004790WA0048800464
B1931254746435N12004793WA0048800464
B1931264746433N12004796WA0048700463
B1931274746432N12004798WA0048600463
B1931284746430N12004799WA0048600462
B1931294746429N12004801WA0048500462
B1931304746428N12004802WA0048400460
B1931314746426N12004803WA0048300457
B1931324746424N12004805WA0048200454
B1931334746421N12004807WA0048100453
B1931344746418N12004809WA0047900451
B1931354746415N12004812WA0047800449
B1931364746413N12004815WA0047700449
B1931374746410N12004818WA0047600449
B1931384746408N12004820WA0047500449
B1931394746406N12004823WA0047400448
B1931404746404N12004825WA0047300448
B1931414746402N12004828WA0047300448
B1931424746399N12004830WA0047200447
B1931434746397N12004833WA0047100447
B1931444746395N12004835WA0047100446
B1931454746393N12004838WA0047000445
B1931464746391N12004841WA0046900445
B1931474746390N12004844WA0046900446
B1931484746389N12004846WA0046900447
B1931494746387N12004848WA0046800447
B1931504746386N12004850WA0046800446
B1931514746384N12004852WA0046800445
B1931524746382N12004855WA0046700444
B1931534746380N12004858WA0046600443
B1931544746378N12004861WA0046500442
B1931554746376N12004863WA0046500442
B1931564746374N12004866WA0046400441
B1931574746373N12004868WA0046400440
B1931584746371N12004871WA0046300440
B1931594746370N12004874WA0046200439
B1932004746369N12004876WA0046200438
B1932014746368N12004878WA0046100438
B1932024746366N12004880WA0046000437
B1932034746364N12004882WA0046000435
B1932044746362N12004885WA0045800434
B1932054746361N12004887WA0045800432
B1932064746359N12004890WA0045600431
B1932074746357N12004892WA0045500430
B1932084746354N12004894WA0045400429
B1932094746352N12004897WA0045400428
B1932104746350N12004901WA0045200426
B1932114746348N12004904WA0045200425
B1932124746347N12004908WA0045000423
B1932134746345N12004912WA0045000422
B1932144746343N12004915WA0044800422
B1932154746342N12004919WA0044800421
B1932164746340N12004923WA0044700420
B1932174746339N12004926WA0044600419
B1932184746337N12004930WA0044500418
B1932194746336N12004933WA0044400417
B1932204746334N12004936WA0044200415
B1932214746332N12004940WA0044100413
B1932224746330N12004944WA0044000411
B1932234746327N12004948WA0043800408
B1932244746325N12004951WA0043700407
B1932244746325N12004951WA0043700407
B1932254746323N12004955WA0043500405
B1932264746321N12004957WA0043300404
B1932274746318N12004960WA0043200403
B1932284746315N12004963WA0043100403
B1932294746313N12004966WA0043000401
B1932304746310N12004970WA0042900400
B1932314746308N12004974WA0042800399
B1932324746306N12004978WA0042700400
B1932334746305N12004982WA0042600399
B1932344746303N12004985WA0042600399
B1932354746301N12004987WA0042500399
B1932364746299N12004989WA0042400399
B1932374746297N12004991WA0042300397
B1932384746295N12004994WA0042200396
B1932394746294N12004997WA0042100393
B1932404746292N12005001WA0041900390
B1932414746290N12005005WA0041800389
B1932424746288N12005008WA0041700388
B1932434746286N12005011WA0041600387
B1932444746284N12005013WA0041400386
B1932454746281N12005016WA0041300384
B1932464746278N12005019WA0041100381
B1932474746276N12005023WA0041000378
B1932484746273N12005027WA0040700375
B1932494746270N12005030WA0040600373
B1932504746266N12005033WA0040400371
B1932514746263N12005036WA0040300370
B1932524746260N12005038WA0040100369
B1932534746258N12005040WA0039900367
B1932544746255N12005041WA0039700366
B1932554746252N12005041WA0039600365
B1932564746249N12005040WA0039400363
B1932574746245N12005040WA0039200361
B1932584746242N12005040WA0039000360
B1932594746238N12005041WA0038900358
B1933004746234N12005041WA0038700356
B1933014746230N12005042WA0038600354
B1933024746226N12005042WA0038400353
B1933034746222N12005043WA0038300351
B1933044746218N12005044WA0038200351
B1933054746215N12005045WA0038100350
B1933064746213N12005045WA0038000349
B1933074746211N12005046WA0037900349
B1933084746209N12005047WA0037900349
B1933094746207N12005048WA0037800348
B1933104746205N12005048WA0037800348
B1933114746203N12005048WA0037800347
B1933124746202N12005049WA0037700347
B1933134746201N12005049WA0037700345
B1933144746200N12005050WA0037600345
B1933154746200N12005051WA0037600343
B1933164746201N12005051WA0037500342
B1933174746203N12005052WA0037500341
B1933184746205N12005050WA0037400339
B1933194746208N12005048WA0037300338
B1933204746212N12005044WA0037200336
B1933214746216N12005038WA0037000335
B1933224746220N12005033WA0036900333
B1933234746225N12005026WA0036800331
B1933244746230N12005018WA0036600329
B1933254746234N12005010WA0036500328
B1933264746239N12005001WA0036300327
B1933274746244N12004993WA0036200327
B1933274746244N12004993WA0036200327
B1933284746249N12004986WA0036100326
B1933294746253N12004978WA0036000326
B1933304746259N12004971WA0035900325
B1933314746264N12004963WA0035800324
B1933324746269N12004953WA0035700322
B1933334746273N12004942WA0035600321
B1933344746275N12004928WA0035600320
B1933354746275N12004914WA0035500318
B1933364746272N12004902WA0035400317
B1933374746269N12004892WA0035400316
B1933384746264N12004884WA0035300314
B1933394746259N12004878WA0035200311
B1933404746253N12004873WA0035200311
B1933414746247N12004870WA0035100309
B1933424746242N12004868WA0035100309
B1933434746240N12004867WA0035100310
B1933444746239N12004866WA0035100309
B1933454746238N12004865WA0035100309
B1933464746238N12004865WA0035100308
B1933474746238N12004866WA0035100306
B1933484746238N12004868WA0035000305
B1933494746237N12004869WA0035000303
B1933504746236N12004870WA0034900302
B1933514746233N12004872WA0034800302
B1933524746228N12004873WA0034800302
B1933534746223N12004872WA0034700301
B1933544746218N12004870WA0034600301
B1933554746213N12004866WA0034600300
B1933564746207N12004861WA0034500298
B1933574746202N12004857WA0034400296
B1933584746197N12004854WA0034300294
B1933594746193N12004854WA0034100292
B1934004746191N12004855WA0034000291
B1934014746191N12004856WA0033900289
B1934024746192N12004857WA0033700289
B1934034746194N12004857WA0033600288
B1934044746198N12004855WA0033400287
B1934054746201N12004852WA0033300287
B1934064746205N12004846WA0033200286
B1934074746209N12004839WA0033100284
B1934084746214N12004831WA0032900283
B1934094746218N12004821WA0032800282
B1934104746222N12004810WA0032700281
B1934114746226N12004801WA0032500279
B1934124746231N12004795WA0032400277
B1934134746235N12004794WA0032200273
B1934144746239N12004795WA0032000268
B1934154746240N12004798WA0031900266
B1934164746239N12004801WA0031700268
B1934174746237N12004801WA0031600268
B1934184746235N12004800WA0031500268
B1934194746232N12004798WA0031400267
B1934204746230N12004798WA0031200267
B1934214746229N12004799WA0031000266
B1934224746226N12004801WA0030800264
B1934234746224N12004803WA0030700262
B1934244746221N12004804WA0030500261
B1934254746219N12004806WA0030400260
B1934264746217N12004808WA0030200258
B1934274746216N12004810WA0030000257
B1934284746216N12004813WA0029900256
B1934294746216N12004816WA0029700256
B1934304746216N12004819WA0029600255
B1934314746217N12004821WA0029500254
B1934324746218N12004821WA0029300254
B1934324746218N12004821WA0029300254
B1934334746219N12004822WA0029300253
B1934344746219N12004824WA0029100253
B1934354746219N12004827WA0029000252
B1934364746219N12004831WA0028900252
B1934374746219N12004834WA0028800252
B1934384746218N12004836WA0028600252
B1934394746218N12004837WA0028600252
B1934404746218N12004837WA0028500252
B1934414746218N12004837WA0028400252
B1934424746217N12004838WA0028300253
B1934434746218N12004839WA0028300253
B1934444746218N12004839WA0028200252
B1934454746218N12004840WA0028100252
B1934464746218N12004840WA0028100252
B1934474746218N12004839WA0028100252
B1934484746218N12004839WA0028000251
B1934494746218N12004839WA0028000251
B1934504746218N12004839WA0028000251
B1934514746218N12004839WA0027900252
B1934524746218N12004839WA0027900251
B1934534746218N12004839WA0027900251
B1934544746218N12004839WA0027900251
B1934554746218N12004839WA0027900251
B1934564746218N12004839WA0027800251
B1934574746218N12004839WA0027800251
B1934584746218N12004839WA0027800251
B1934594746218N12004839WA0027800251
B1935004746218N12004839WA0027800252
B1935014746218N12004839WA0027800252
B1935024746218N12004839WA0027800252
B1935034746218N12004839WA0027800252
B1935044746218N12004838WA0027800252
B1935054746218N12004838WA0027800252
B1935064746219N12004837WA0027800252
B1935074746219N12004836WA0027800252
B1935084746219N12004835WA0027800252
B1935094746219N12004835WA0027800252
B1935104746219N12004834WA0027800252
B1935114746219N12004834WA0027800252
B1935124746219N12004833WA0027800252
B1935134746219N12004833WA0027800252
B1935144746219N12004832WA0027800252
B1935154746219N12004832WA0027800252
B1935164746219N12004832WA0027800252
B1935174746219N12004832WA0027800252
B1935184746219N12004832WA0027800252
B1935194746219N12004832WA0027800252
B1935204746219N12004832WA0027800252
B1935214746219N12004832WA0027800252
B1935224746219N12004832WA0027800252
B1935234746219N12004832WA0027800252
B1935244746219N12004832WA0027800252
B1935254746219N12004832WA0027800252
B1935264746219N12004832WA0027800252
B1935274746219N12004832WA0027800252
B1935284746219N12004832WA0027800252
B1935294746219N12004832WA0027800252
B1935304746219N12004832WA0027800252
B1935314746219N12004832WA0027800252
B1935324746219N12004832WA0027800252
B1935334746219N12004832WA0027800252
B1935344746219N12004832WA0027800252
B1935354746219N12004832WA0027800252
B1935364746219N12004832WA0027800252
