AXFMSFP Flymaster Live, V1.0
HFFXA010
HFPLTPILOT:Mike Steed
HFGTYGLIDERTYPE:Flow Xc Racer2 / Woody Valley Gto Light
HFGIDGLIDERID:
HFDTM100GPSDATUM:WGS-1984
HFCIDCOMPETITIONID:117
HFCCLCOMPETITIONCLASS:
HOSITSITE:LAUNCH
HFGPS:UBLOXNEO6
HFPRSPRESSALTSENSOR:NA
HFRFWFIRMWAREVERSION:202g
HFRHWHARDWAREVERSION:1.0R2
HFFTYFRTYPE:FLYMASTER,LIVE
HFDTE250625
B1842404748237N12002324WA0111101131
B1842414748237N12002324WA0111101131
B1842424748237N12002324WA0111101131
B1842434748237N12002324WA0111101130
B1842444748237N12002324WA0111101131
B1842454748236N12002325WA0111001129
B1842464748233N12002325WA0111001129
B1842474748230N12002325WA0111001128
B1842484748227N12002325WA0110901127
B1842494748224N12002326WA0110901127
B1842504748220N12002326WA0110901129
B1842514748218N12002325WA0111001130
B1842524748215N12002325WA0111001132
B1842534748213N12002325WA0111101135
B1842544748211N12002326WA0111201139
B1842554748211N12002328WA0111401144
B1842564748210N12002332WA0111501145
B1842574748209N12002336WA0111601146
B1842584748207N12002339WA0111701146
B1842594748204N12002341WA0111801148
B1843004748200N12002341WA0111901150
B1843014748195N12002338WA0112001152
B1843024748192N12002334WA0112201156
B1843034748189N12002331WA0112401161
B1843044748187N12002328WA0112601165
B1843054748184N12002324WA0112901168
B1843064748181N12002322WA0113101169
B1843074748178N12002320WA0113301171
B1843084748175N12002319WA0113401171
B1843094748173N12002318WA0113601173
B1843104748173N12002318WA0113801174
B1843114748173N12002320WA0114001175
B1843124748175N12002324WA0114101175
B1843134748178N12002327WA0114201175
B1843144748181N12002329WA0114301177
B1843154748183N12002330WA0114501178
B1843164748184N12002332WA0114601179
B1843174748186N12002334WA0114701178
B1843184748188N12002338WA0114701175
B1843194748190N12002342WA0114801173
B1843204748190N12002345WA0114801173
B1843214748189N12002347WA0114801172
B1843224748187N12002349WA0114901171
B1843234748184N12002352WA0114901171
B1843244748182N12002354WA0114901172
B1843254748180N12002356WA0114901172
B1843264748179N12002358WA0114901173
B1843274748178N12002362WA0114901173
B1843284748177N12002366WA0114901174
B1843294748175N12002369WA0115001176
B1843304748174N12002369WA0115101180
B1843314748173N12002369WA0115201182
B1843324748172N12002369WA0115201184
B1843334748172N12002370WA0115301183
B1843344748171N12002375WA0115401181
B1843354748169N12002379WA0115301178
B1843364748168N12002384WA0115301178
B1843374748166N12002387WA0115401178
B1843384748166N12002389WA0115401179
B1843394748166N12002391WA0115401179
B1843404748167N12002393WA0115401178
B1843414748168N12002396WA0115401176
B1843424748167N12002399WA0115301175
B1843434748165N12002402WA0115301174
B1843434748165N12002402WA0115301174
B1843444748162N12002402WA0115201173
B1843454748158N12002402WA0115201173
B1843464748155N12002400WA0115201173
B1843474748152N12002400WA0115101172
B1843484748149N12002400WA0115001171
B1843494748145N12002401WA0114901169
B1843504748141N12002402WA0114901167
B1843514748137N12002402WA0114801166
B1843524748133N12002402WA0114701167
B1843534748129N12002401WA0114701168
B1843544748126N12002400WA0114601167
B1843554748122N12002401WA0114601166
B1843564748116N12002402WA0114501163
B1843574748110N12002403WA0114401162
B1843584748105N12002403WA0114301161
B1843594748101N12002403WA0114301162
B1844004748098N12002404WA0114201162
B1844014748096N12002406WA0114201162
B1844024748094N12002409WA0114101161
B1844034748093N12002413WA0114001159
B1844044748093N12002417WA0114001159
B1844054748094N12002421WA0113901158
B1844064748096N12002424WA0113801157
B1844074748098N12002427WA0113801156
B1844084748100N12002431WA0113701155
B1844094748102N12002435WA0113601152
B1844104748104N12002439WA0113501150
B1844114748105N12002444WA0113401147
B1844124748106N12002450WA0113301145
B1844134748105N12002455WA0113101143
B1844144748105N12002459WA0113001143
B1844154748104N12002462WA0112901142
B1844164748104N12002465WA0112801140
B1844174748105N12002469WA0112601138
B1844184748107N12002474WA0112501134
B1844194748110N12002479WA0112301130
B1844204748115N12002485WA0112101128
B1844214748120N12002491WA0111901126
B1844224748124N12002496WA0111801126
B1844234748126N12002501WA0111701129
B1844244748127N12002505WA0111601130
B1844254748129N12002509WA0111501130
B1844264748132N12002515WA0111401128
B1844274748136N12002522WA0111301126
B1844284748140N12002529WA0111201124
B1844294748144N12002535WA0111101125
B1844304748147N12002541WA0111101125
B1844314748149N12002547WA0111001125
B1844324748151N12002553WA0110901125
B1844334748153N12002560WA0110901125
B1844344748155N12002567WA0110801124
B1844354748157N12002574WA0110801124
B1844364748158N12002582WA0110701124
B1844374748160N12002591WA0110701124
B1844384748161N12002599WA0110701126
B1844394748164N12002606WA0110701127
B1844404748167N12002612WA0110701128
B1844414748173N12002617WA0110801129
B1844424748180N12002618WA0110801129
B1844434748189N12002616WA0110801128
B1844444748197N12002607WA0110801128
B1844454748204N12002596WA0110801127
B1844464748208N12002583WA0110801129
B1844464748208N12002583WA0110801129
B1844474748210N12002571WA0110901131
B1844484748211N12002560WA0111001134
B1844494748210N12002551WA0111101136
B1844504748208N12002543WA0111201138
B1844514748206N12002538WA0111301140
B1844524748203N12002534WA0111401142
B1844534748200N12002531WA0111501142
B1844544748196N12002530WA0111601143
B1844554748192N12002529WA0111701142
B1844564748188N12002531WA0111801143
B1844574748185N12002535WA0111801143
B1844584748182N12002540WA0111901144
B1844594748180N12002546WA0112001145
B1845004748179N12002551WA0112101146
B1845014748177N12002555WA0112201148
B1845024748177N12002558WA0112201150
B1845034748178N12002562WA0112401151
B1845044748181N12002566WA0112401150
B1845054748186N12002572WA0112501148
B1845064748193N12002576WA0112501147
B1845074748200N12002578WA0112501148
B1845084748209N12002576WA0112601149
B1845094748216N12002571WA0112701150
B1845104748223N12002562WA0112701150
B1845114748228N12002551WA0112701150
B1845124748231N12002539WA0112801151
B1845134748232N12002528WA0112801151
B1845144748232N12002518WA0112901153
B1845154748231N12002509WA0112901154
B1845164748229N12002501WA0113001154
B1845174748227N12002494WA0113001154
B1845184748224N12002486WA0113101154
B1845194748220N12002478WA0113101153
B1845204748215N12002473WA0113101155
B1845214748212N12002470WA0113201160
B1845224748209N12002468WA0113301164
B1845234748207N12002466WA0113401167
B1845244748205N12002465WA0113501167
B1845254748203N12002466WA0113601166
B1845264748201N12002469WA0113601164
B1845274748199N12002474WA0113601162
B1845284748198N12002479WA0113601163
B1845294748197N12002482WA0113701165
B1845304748197N12002484WA0113701165
B1845314748196N12002486WA0113701165
B1845324748196N12002490WA0113701162
B1845334748194N12002496WA0113601159
B1845344748193N12002503WA0113601156
B1845354748193N12002507WA0113501159
B1845364748194N12002509WA0113501162
B1845374748195N12002510WA0113601163
B1845384748194N12002512WA0113601163
B1845394748193N12002515WA0113601161
B1845404748190N12002519WA0113601161
B1845414748188N12002522WA0113501161
B1845424748187N12002525WA0113501163
B1845434748187N12002527WA0113501163
B1845444748187N12002529WA0113501163
B1845454748188N12002533WA0113501161
B1845464748190N12002539WA0113501158
B1845474748193N12002545WA0113301154
B1845484748197N12002551WA0113301152
B1845494748202N12002556WA0113101151
B1845494748202N12002556WA0113101151
B1845504748206N12002561WA0113001150
B1845514748208N12002565WA0112901149
B1845524748209N12002570WA0112801147
B1845534748209N12002575WA0112701145
B1845544748206N12002579WA0112601142
B1845554748203N12002581WA0112401139
B1845564748199N12002582WA0112301138
B1845574748196N12002581WA0112201138
B1845584748193N12002580WA0112101139
B1845594748190N12002579WA0112001138
B1846004748187N12002577WA0111901136
B1846014748183N12002575WA0111701134
B1846024748179N12002572WA0111601131
B1846034748176N12002569WA0111401129
B1846044748172N12002565WA0111301128
B1846054748169N12002561WA0111101127
B1846064748165N12002556WA0111001124
B1846074748161N12002549WA0110801121
B1846084748158N12002541WA0110701119
B1846094748156N12002531WA0110501120
B1846104748154N12002522WA0110401121
B1846114748153N12002512WA0110301120
B1846124748152N12002502WA0110201118
B1846134748152N12002492WA0110101117
B1846144748152N12002480WA0110101116
B1846154748152N12002468WA0110001115
B1846164748153N12002456WA0110001114
B1846174748153N12002445WA0110001116
B1846184748154N12002434WA0110001119
B1846194748154N12002424WA0110101123
B1846204748155N12002414WA0110101124
B1846214748155N12002405WA0110201125
B1846224748154N12002395WA0110201125
B1846234748151N12002387WA0110301126
B1846244748148N12002380WA0110301125
B1846254748143N12002375WA0110301123
B1846264748138N12002373WA0110301121
B1846274748133N12002373WA0110201118
B1846284748129N12002375WA0110101116
B1846294748126N12002379WA0110001117
B1846304748123N12002383WA0109901118
B1846314748121N12002387WA0109901118
B1846324748120N12002391WA0109801118
B1846334748118N12002394WA0109801118
B1846344748118N12002397WA0109701117
B1846354748118N12002401WA0109701116
B1846364748119N12002405WA0109601115
B1846374748120N12002409WA0109501112
B1846384748120N12002414WA0109501110
B1846394748120N12002419WA0109301109
B1846404748119N12002423WA0109301108
B1846414748118N12002427WA0109101106
B1846424748117N12002430WA0109101106
B1846434748115N12002434WA0108901104
B1846444748112N12002440WA0108801101
B1846454748108N12002446WA0108701099
B1846464748104N12002452WA0108601098
B1846474748100N12002457WA0108501100
B1846484748097N12002461WA0108501102
B1846494748095N12002463WA0108401104
B1846504748092N12002466WA0108501105
B1846514748088N12002468WA0108501105
B1846524748084N12002469WA0108401104
B1846534748080N12002471WA0108401102
B1846534748080N12002471WA0108401102
B1846544748076N12002472WA0108301100
B1846554748071N12002474WA0108201097
B1846564748066N12002476WA0108101095
B1846574748060N12002477WA0108001092
B1846584748054N12002478WA0107901090
B1846594748048N12002479WA0107701089
B1847004748043N12002480WA0107601088
B1847014748037N12002480WA0107501086
B1847024748032N12002480WA0107301083
B1847034748026N12002479WA0107101081
B1847044748020N12002476WA0107001079
B1847054748014N12002474WA0106801077
B1847064748008N12002472WA0106701075
B1847074748001N12002470WA0106401074
B1847084747995N12002468WA0106301072
B1847094747989N12002466WA0106101070
B1847104747982N12002465WA0106001069
B1847114747976N12002464WA0105801069
B1847124747971N12002463WA0105701069
B1847134747965N12002461WA0105501069
B1847144747959N12002458WA0105401068
B1847154747954N12002455WA0105301067
B1847164747948N12002452WA0105201066
B1847174747942N12002448WA0105101066
B1847184747937N12002443WA0105001066
B1847194747933N12002437WA0104901066
B1847204747928N12002430WA0104901065
B1847214747924N12002422WA0104801065
B1847224747919N12002414WA0104701065
B1847234747914N12002407WA0104601065
B1847244747909N12002400WA0104601065
B1847254747903N12002394WA0104501066
B1847264747898N12002387WA0104501066
B1847274747894N12002379WA0104501069
B1847284747891N12002372WA0104601073
B1847294747889N12002364WA0104601074
B1847304747887N12002356WA0104701075
B1847314747883N12002349WA0104701074
B1847324747878N12002343WA0104701073
B1847334747873N12002339WA0104701072
B1847344747867N12002341WA0104701072
B1847354747862N12002345WA0104701070
B1847364747860N12002352WA0104601068
B1847374747859N12002358WA0104601067
B1847384747860N12002364WA0104601065
B1847394747862N12002369WA0104601064
B1847404747866N12002373WA0104501062
B1847414747871N12002376WA0104501060
B1847424747877N12002378WA0104501060
B1847434747882N12002379WA0104401061
B1847444747888N12002378WA0104401063
B1847454747893N12002377WA0104401063
B1847464747898N12002376WA0104401063
B1847474747904N12002374WA0104401062
B1847484747910N12002371WA0104401062
B1847494747915N12002366WA0104401062
B1847504747919N12002358WA0104401062
B1847514747922N12002347WA0104401063
B1847524747922N12002336WA0104401064
B1847534747921N12002326WA0104401064
B1847544747920N12002316WA0104401066
B1847554747919N12002308WA0104501068
B1847564747916N12002300WA0104601069
B1847564747916N12002300WA0104601069
B1847574747913N12002294WA0104601070
B1847584747909N12002288WA0104701069
B1847594747904N12002284WA0104701068
B1848004747900N12002283WA0104801067
B1848014747895N12002285WA0104801067
B1848024747891N12002290WA0104801065
B1848034747889N12002296WA0104701063
B1848044747888N12002302WA0104701064
B1848054747888N12002308WA0104701065
B1848064747889N12002312WA0104701066
B1848074747892N12002316WA0104701066
B1848084747896N12002320WA0104701065
B1848094747902N12002323WA0104701063
B1848104747908N12002325WA0104701063
B1848114747914N12002324WA0104701063
B1848124747919N12002322WA0104701064
B1848134747924N12002318WA0104701065
B1848144747930N12002313WA0104701064
B1848154747936N12002308WA0104701064
B1848164747941N12002303WA0104701064
B1848174747946N12002298WA0104801066
B1848184747950N12002293WA0104801068
B1848194747954N12002286WA0104901068
B1848204747958N12002279WA0104901068
B1848214747962N12002270WA0104901068
B1848224747965N12002260WA0105001068
B1848234747965N12002250WA0105001067
B1848244747962N12002240WA0105001067
B1848254747957N12002233WA0105001066
B1848264747950N12002228WA0105001066
B1848274747944N12002227WA0105001069
B1848284747940N12002228WA0105001073
B1848294747938N12002230WA0105101076
B1848304747936N12002232WA0105201078
B1848314747934N12002235WA0105301079
B1848324747932N12002239WA0105301078
B1848334747931N12002245WA0105401076
B1848344747930N12002253WA0105401075
B1848354747931N12002259WA0105401075
B1848364747933N12002264WA0105401076
B1848374747935N12002268WA0105501077
B1848384747939N12002272WA0105501078
B1848394747944N12002275WA0105601078
B1848404747949N12002277WA0105601078
B1848414747955N12002276WA0105601078
B1848424747961N12002272WA0105701078
B1848434747967N12002266WA0105701079
B1848444747971N12002256WA0105701078
B1848454747973N12002246WA0105701078
B1848464747972N12002235WA0105701079
B1848474747970N12002226WA0105801080
B1848484747966N12002218WA0105801080
B1848494747962N12002214WA0105901081
B1848504747957N12002212WA0105901082
B1848514747953N12002211WA0106001082
B1848524747949N12002212WA0106001082
B1848534747945N12002214WA0106001082
B1848544747942N12002218WA0106001081
B1848554747940N12002222WA0106001081
B1848564747938N12002227WA0106101081
B1848574747937N12002232WA0106101081
B1848584747937N12002237WA0106101081
B1848594747938N12002242WA0106101081
B1849004747940N12002247WA0106201080
B1849004747940N12002247WA0106201080
B1849014747943N12002252WA0106201080
B1849024747947N12002257WA0106201079
B1849034747951N12002261WA0106201078
B1849044747954N12002264WA0106201078
B1849054747959N12002268WA0106201077
B1849064747963N12002272WA0106101076
B1849074747968N12002277WA0106101075
B1849084747972N12002283WA0106101076
B1849094747977N12002288WA0106101077
B1849104747980N12002293WA0106101078
B1849114747984N12002298WA0106201080
B1849124747987N12002302WA0106201081
B1849134747990N12002307WA0106301082
B1849144747993N12002313WA0106301083
B1849154747996N12002319WA0106401083
B1849164748000N12002325WA0106401083
B1849174748002N12002331WA0106501084
B1849184748003N12002338WA0106501085
B1849194748003N12002345WA0106601087
B1849204748002N12002350WA0106701090
B1849214748002N12002355WA0106901093
B1849224748001N12002361WA0107001095
B1849234748002N12002366WA0107101096
B1849244748005N12002371WA0107201097
B1849254748010N12002374WA0107301097
B1849264748016N12002373WA0107401097
B1849274748023N12002368WA0107501096
B1849284748029N12002358WA0107501095
B1849294748032N12002346WA0107601094
B1849304748033N12002333WA0107601093
B1849314748033N12002320WA0107601093
B1849324748031N12002310WA0107601094
B1849334748028N12002301WA0107701096
B1849344748024N12002295WA0107801099
B1849354748020N12002290WA0107901100
B1849364748016N12002287WA0107901100
B1849374748012N12002285WA0108001102
B1849384748008N12002285WA0108101103
B1849394748005N12002287WA0108201104
B1849404748002N12002291WA0108201105
B1849414748001N12002296WA0108301107
B1849424748001N12002301WA0108401107
B1849434748002N12002307WA0108501108
B1849444748006N12002312WA0108501108
B1849454748011N12002316WA0108601107
B1849464748017N12002321WA0108601106
B1849474748023N12002326WA0108601107
B1849484748026N12002331WA0108701108
B1849494748029N12002336WA0108701109
B1849504748031N12002341WA0108801110
B1849514748034N12002346WA0108901110
B1849524748037N12002353WA0108901110
B1849534748040N12002359WA0109001110
B1849544748043N12002365WA0109001110
B1849554748046N12002371WA0109101111
B1849564748048N12002376WA0109201112
B1849574748049N12002381WA0109201112
B1849584748051N12002387WA0109201111
B1849594748053N12002394WA0109301111
B1850004748056N12002400WA0109301112
B1850014748058N12002405WA0109401115
B1850024748059N12002409WA0109501119
B1850034748058N12002413WA0109601121
B1850034748058N12002413WA0109601121
B1850044748057N12002418WA0109701122
B1850054748055N12002423WA0109801121
B1850064748054N12002429WA0109901121
B1850074748053N12002434WA0110001121
B1850084748053N12002440WA0110101121
B1850094748056N12002445WA0110101121
B1850104748060N12002449WA0110201121
B1850114748065N12002451WA0110201120
B1850124748071N12002451WA0110301120
B1850134748076N12002451WA0110301121
B1850144748080N12002451WA0110301122
B1850154748084N12002452WA0110401122
B1850164748087N12002454WA0110401122
B1850174748091N12002457WA0110401122
B1850184748095N12002460WA0110501122
B1850194748098N12002463WA0110501123
B1850204748101N12002467WA0110601125
B1850214748104N12002470WA0110701127
B1850224748105N12002473WA0110701130
B1850234748105N12002475WA0110901132
B1850244748106N12002477WA0110901134
B1850254748106N12002478WA0111101135
B1850264748107N12002479WA0111201136
B1850274748109N12002481WA0111301134
B1850284748112N12002483WA0111301132
B1850294748116N12002486WA0111401130
B1850304748119N12002489WA0111401128
B1850314748123N12002492WA0111401126
B1850324748127N12002494WA0111301126
B1850334748131N12002495WA0111301124
B1850344748134N12002496WA0111201123
B1850354748138N12002499WA0111101121
B1850364748141N12002503WA0111101119
B1850374748143N12002508WA0111001118
B1850384748143N12002512WA0110901117
B1850394748143N12002515WA0110801116
B1850404748141N12002518WA0110801116
B1850414748139N12002520WA0110701115
B1850424748135N12002521WA0110601113
B1850434748131N12002521WA0110501111
B1850444748125N12002518WA0110401108
B1850454748120N12002511WA0110201106
B1850464748116N12002503WA0110101105
B1850474748113N12002494WA0110001104
B1850484748110N12002485WA0109901103
B1850494748108N12002474WA0109701103
B1850504748105N12002464WA0109601102
B1850514748102N12002453WA0109501100
B1850524748100N12002442WA0109401099
B1850534748097N12002431WA0109201098
B1850544748096N12002419WA0109101097
B1850554748094N12002408WA0108901096
B1850564748092N12002396WA0108901095
B1850574748090N12002385WA0108701095
B1850584748087N12002375WA0108601094
B1850594748085N12002364WA0108501092
B1851004748082N12002353WA0108401091
B1851014748080N12002342WA0108301089
B1851024748077N12002331WA0108201087
B1851034748073N12002319WA0108101085
B1851044748070N12002307WA0108001085
B1851054748067N12002296WA0107901085
B1851064748064N12002286WA0107801087
B1851064748064N12002286WA0107801087
B1851074748061N12002277WA0107801089
B1851084748059N12002267WA0107801090
B1851094748055N12002257WA0107701089
B1851104748051N12002248WA0107701089
B1851114748046N12002240WA0107701089
B1851124748041N12002233WA0107701090
B1851134748037N12002226WA0107701090
B1851144748034N12002218WA0107701090
B1851154748029N12002211WA0107601090
B1851164748024N12002204WA0107601087
B1851174748019N12002198WA0107501084
B1851184748014N12002193WA0107401081
B1851194748009N12002189WA0107301079
B1851204748004N12002185WA0107201076
B1851214747999N12002182WA0107001074
B1851224747995N12002180WA0106901071
B1851234747990N12002177WA0106701068
B1851244747984N12002175WA0106501063
B1851254747977N12002174WA0106201057
B1851264747970N12002173WA0106001050
B1851274747963N12002173WA0105601045
B1851284747956N12002172WA0105401042
B1851294747949N12002171WA0105101040
B1851304747944N12002169WA0104801038
B1851314747938N12002167WA0104501038
B1851324747933N12002165WA0104301035
B1851334747928N12002162WA0104001032
B1851344747922N12002159WA0103701027
B1851354747915N12002156WA0103301022
B1851364747907N12002154WA0103101017
B1851374747900N12002152WA0102701013
B1851384747894N12002151WA0102401012
B1851394747889N12002149WA0102001010
B1851404747884N12002147WA0101801009
B1851414747879N12002145WA0101501006
B1851424747873N12002142WA0101201004
B1851434747868N12002138WA0100901001
B1851444747862N12002133WA0100700999
B1851454747856N12002129WA0100300997
B1851464747851N12002125WA0100100995
B1851474747846N12002122WA0099900994
B1851484747843N12002118WA0099700994
B1851494747839N12002115WA0099500994
B1851504747836N12002112WA0099300993
B1851514747832N12002111WA0099200991
B1851524747828N12002110WA0099100990
B1851534747825N12002109WA0098900988
B1851544747821N12002109WA0098700986
B1851554747817N12002108WA0098500984
B1851564747813N12002108WA0098400982
B1851574747809N12002107WA0098200980
B1851584747804N12002106WA0098100979
B1851594747799N12002105WA0097900978
B1852004747795N12002104WA0097800978
B1852014747791N12002102WA0097600977
B1852024747786N12002101WA0097500975
B1852034747781N12002101WA0097300973
B1852044747775N12002100WA0097200972
B1852054747770N12002100WA0097100971
B1852064747764N12002100WA0097000971
B1852074747759N12002100WA0096900972
B1852084747755N12002101WA0096800973
B1852094747750N12002101WA0096800974
B1852094747750N12002101WA0096800974
B1852104747746N12002100WA0096800974
B1852114747741N12002098WA0096700973
B1852124747735N12002096WA0096700973
B1852134747730N12002094WA0096600972
B1852144747724N12002092WA0096600972
B1852154747719N12002091WA0096600971
B1852164747714N12002091WA0096500970
B1852174747709N12002091WA0096400969
B1852184747704N12002092WA0096400968
B1852194747700N12002094WA0096300966
B1852204747695N12002097WA0096200965
B1852214747691N12002099WA0096100964
B1852224747687N12002102WA0096000964
B1852234747684N12002106WA0095900963
B1852244747681N12002110WA0095800960
B1852254747678N12002114WA0095600958
B1852264747675N12002119WA0095500955
B1852274747672N12002122WA0095300952
B1852284747670N12002126WA0095200950
B1852294747667N12002129WA0094900948
B1852304747664N12002131WA0094800946
B1852314747660N12002132WA0094500943
B1852324747655N12002130WA0094400939
B1852334747649N12002127WA0094100936
B1852344747642N12002121WA0093900933
B1852354747637N12002114WA0093600931
B1852364747632N12002107WA0093400929
B1852374747629N12002098WA0093200927
B1852384747625N12002087WA0093000924
B1852394747622N12002076WA0092700920
B1852404747618N12002065WA0092400917
B1852414747615N12002053WA0092100914
B1852424747612N12002042WA0091900913
B1852434747609N12002032WA0091600912
B1852444747607N12002021WA0091400910
B1852454747604N12002009WA0091100907
B1852464747602N12001997WA0090900904
B1852474747600N12001985WA0090600902
B1852484747597N12001973WA0090300901
B1852494747594N12001962WA0090100899
B1852504747591N12001951WA0089900898
B1852514747587N12001940WA0089600896
B1852524747584N12001929WA0089400894
B1852534747581N12001917WA0089100892
B1852544747578N12001906WA0088900890
B1852554747575N12001896WA0088700890
B1852564747573N12001886WA0088500888
B1852574747571N12001875WA0088300887
B1852584747569N12001862WA0088100885
B1852594747567N12001851WA0087900884
B1853004747564N12001840WA0087800887
B1853014747561N12001831WA0087700888
B1853024747558N12001823WA0087600889
B1853034747554N12001814WA0087500889
B1853044747552N12001804WA0087500889
B1853054747551N12001794WA0087400890
B1853064747551N12001783WA0087400889
B1853074747552N12001773WA0087300889
B1853084747552N12001763WA0087300888
B1853094747553N12001752WA0087200887
B1853104747554N12001741WA0087200887
B1853114747555N12001730WA0087100886
B1853124747556N12001718WA0087100886
B1853124747556N12001718WA0087100886
B1853134747557N12001707WA0087000885
B1853144747558N12001695WA0087000886
B1853154747559N12001683WA0087000886
B1853164747560N12001672WA0087000886
B1853174747561N12001660WA0087000885
B1853184747564N12001648WA0087000885
B1853194747566N12001637WA0087000885
B1853204747568N12001627WA0087000887
B1853214747570N12001618WA0087000890
B1853224747571N12001610WA0087100891
B1853234747572N12001601WA0087200891
B1853244747571N12001592WA0087200891
B1853254747569N12001584WA0087300891
B1853264747564N12001578WA0087300890
B1853274747558N12001577WA0087300890
B1853284747554N12001579WA0087300890
B1853294747550N12001583WA0087400890
B1853304747549N12001587WA0087400889
B1853314747548N12001591WA0087400889
B1853324747549N12001595WA0087500889
B1853334747550N12001598WA0087500890
B1853344747553N12001602WA0087500890
B1853354747557N12001604WA0087600889
B1853364747562N12001604WA0087600887
B1853374747568N12001603WA0087500886
B1853384747574N12001600WA0087500885
B1853394747580N12001595WA0087500884
B1853404747585N12001590WA0087500884
B1853414747591N12001583WA0087500884
B1853424747596N12001575WA0087500884
B1853434747601N12001566WA0087500885
B1853444747605N12001557WA0087500885
B1853454747609N12001547WA0087500886
B1853464747613N12001537WA0087500886
B1853474747617N12001527WA0087500886
B1853484747621N12001518WA0087500886
B1853494747624N12001508WA0087500887
B1853504747628N12001499WA0087500887
B1853514747631N12001491WA0087600886
B1853524747635N12001483WA0087600885
B1853534747638N12001475WA0087500883
B1853544747642N12001466WA0087500881
B1853554747645N12001456WA0087400879
B1853564747648N12001445WA0087300877
B1853574747649N12001435WA0087200877
B1853584747650N12001424WA0087100877
B1853594747650N12001413WA0087000875
B1854004747651N12001403WA0087000874
B1854014747651N12001392WA0086900873
B1854024747653N12001381WA0086800872
B1854034747654N12001370WA0086700872
B1854044747655N12001359WA0086600871
B1854054747656N12001347WA0086600870
B1854064747657N12001336WA0086500870
B1854074747659N12001325WA0086400869
B1854084747661N12001313WA0086400869
B1854094747663N12001303WA0086300870
B1854104747664N12001292WA0086300870
B1854114747666N12001281WA0086200870
B1854124747667N12001270WA0086200869
B1854134747669N12001257WA0086100869
B1854144747671N12001246WA0086100869
B1854154747673N12001235WA0086100870
B1854164747675N12001225WA0086100872
B1854164747675N12001225WA0086100872
B1854174747677N12001216WA0086100873
B1854184747679N12001207WA0086100874
B1854194747681N12001197WA0086100873
B1854204747684N12001186WA0086100872
B1854214747686N12001175WA0086100872
B1854224747687N12001165WA0086100871
B1854234747689N12001155WA0086100872
B1854244747691N12001146WA0086100872
B1854254747693N12001137WA0086100872
B1854264747695N12001127WA0086000870
B1854274747698N12001116WA0086000869
B1854284747700N12001104WA0086000868
B1854294747703N12001093WA0085900869
B1854304747706N12001082WA0085900869
B1854314747708N12001073WA0085900870
B1854324747711N12001063WA0085900870
B1854334747713N12001054WA0085900870
B1854344747716N12001044WA0085800870
B1854354747719N12001034WA0085800870
B1854364747722N12001025WA0085800869
B1854374747725N12001015WA0085800868
B1854384747728N12001005WA0085800867
B1854394747731N12000995WA0085700867
B1854404747734N12000984WA0085700865
B1854414747735N12000973WA0085600864
B1854424747736N12000962WA0085600863
B1854434747737N12000952WA0085600864
B1854444747739N12000944WA0085500864
B1854454747742N12000935WA0085400863
B1854464747745N12000923WA0085400861
B1854474747748N12000911WA0085200858
B1854484747750N12000898WA0085100856
B1854494747752N12000886WA0084900856
B1854504747754N12000874WA0084800856
B1854514747756N12000863WA0084700855
B1854524747757N12000851WA0084600854
B1854534747758N12000839WA0084500851
B1854544747759N12000826WA0084300849
B1854554747760N12000812WA0084200847
B1854564747762N12000799WA0084100846
B1854574747764N12000786WA0083900846
B1854584747765N12000773WA0083800845
B1854594747767N12000760WA0083700843
B1855004747768N12000746WA0083600841
B1855014747769N12000732WA0083400838
B1855024747769N12000720WA0083200836
B1855034747769N12000707WA0083000833
B1855044747769N12000695WA0082800829
B1855054747769N12000682WA0082500824
B1855064747769N12000669WA0082300818
B1855074747769N12000656WA0081900813
B1855084747769N12000644WA0081600809
B1855094747768N12000633WA0081200804
B1855104747767N12000621WA0081000799
B1855114747766N12000608WA0080500794
B1855124747766N12000595WA0080200789
B1855134747766N12000582WA0079700784
B1855144747766N12000569WA0079400781
B1855154747766N12000557WA0079000778
B1855164747765N12000546WA0078700776
B1855174747764N12000534WA0078300774
B1855184747764N12000522WA0078100771
B1855194747764N12000510WA0077700768
B1855194747764N12000510WA0077700768
B1855204747764N12000497WA0077500765
B1855214747764N12000483WA0077100762
B1855224747764N12000469WA0076900759
B1855234747764N12000455WA0076500757
B1855244747764N12000442WA0076300756
B1855254747765N12000429WA0076100756
B1855264747766N12000418WA0075900756
B1855274747767N12000408WA0075700754
B1855284747768N12000396WA0075500751
B1855294747769N12000384WA0075200747
B1855304747770N12000371WA0075000743
B1855314747772N12000357WA0074700740
B1855324747773N12000345WA0074500738
B1855334747775N12000333WA0074200738
B1855344747777N12000323WA0074000736
B1855354747779N12000312WA0073700733
B1855364747781N12000300WA0073500729
B1855374747781N12000288WA0073200724
B1855384747782N12000274WA0073000720
B1855394747782N12000261WA0072600715
B1855404747783N12000248WA0072300711
B1855414747783N12000235WA0071900707
B1855424747783N12000223WA0071700704
B1855434747783N12000210WA0071300701
B1855444747783N12000197WA0071000697
B1855454747784N12000184WA0070600693
B1855464747785N12000171WA0070400689
B1855474747785N12000158WA0070000685
B1855484747786N12000146WA0069700681
B1855494747786N12000132WA0069300678
B1855504747786N12000119WA0069000674
B1855514747787N12000106WA0068600669
B1855524747787N12000094WA0068300665
B1855534747787N12000082WA0067900661
B1855544747788N12000069WA0067600656
B1855554747789N12000054WA0067100652
B1855564747791N12000040WA0066800648
B1855574747792N12000025WA0066400644
B1855584747794N12000012WA0066100642
B1855594747796N11959999WA0065700639
B1856004747798N11959986WA0065400636
B1856014747800N11959973WA0065000632
B1856024747802N11959958WA0064700629
B1856034747805N11959943WA0064300625
B1856044747807N11959928WA0064000621
B1856054747809N11959913WA0063600619
B1856064747811N11959899WA0063400617
B1856074747813N11959885WA0063000615
B1856084747814N11959872WA0062800613
B1856094747816N11959859WA0062400610
B1856104747817N11959845WA0062200607
B1856114747818N11959832WA0061800604
B1856124747819N11959819WA0061600601
B1856134747820N11959806WA0061300599
B1856144747820N11959794WA0061100598
B1856154747820N11959781WA0060800597
B1856164747820N11959770WA0060600595
B1856174747819N11959758WA0060300593
B1856184747818N11959747WA0060100591
B1856194747818N11959735WA0059900589
B1856204747818N11959724WA0059700587
B1856214747818N11959713WA0059500587
B1856224747817N11959704WA0059300586
B1856234747816N11959695WA0059100584
B1856234747816N11959695WA0059100584
B1856244747814N11959685WA0059000583
B1856254747812N11959674WA0058800581
B1856264747811N11959662WA0058700580
B1856274747809N11959652WA0058500579
B1856284747807N11959642WA0058400578
B1856294747805N11959633WA0058200576
B1856304747802N11959624WA0058100574
B1856314747800N11959615WA0057900572
B1856324747798N11959605WA0057800571
B1856334747795N11959596WA0057600569
B1856344747793N11959587WA0057500568
B1856354747791N11959578WA0057300566
B1856364747788N11959569WA0057200563
B1856374747785N11959560WA0057000560
B1856384747783N11959551WA0056900558
B1856394747780N11959543WA0056700556
B1856404747778N11959534WA0056600554
B1856414747776N11959525WA0056400552
B1856424747773N11959516WA0056300549
B1856434747771N11959506WA0056100547
B1856444747767N11959497WA0055900544
B1856454747764N11959488WA0055700542
B1856464747761N11959479WA0055600540
B1856474747759N11959469WA0055400538
B1856484747756N11959459WA0055300537
B1856494747754N11959449WA0055100535
B1856504747752N11959439WA0055000533
B1856514747749N11959429WA0054800531
B1856524747747N11959420WA0054700529
B1856534747744N11959411WA0054500527
B1856544747741N11959402WA0054300525
B1856554747738N11959394WA0054100524
B1856564747736N11959386WA0054000522
B1856574747733N11959378WA0053800520
B1856584747731N11959370WA0053700518
B1856594747728N11959361WA0053500516
B1857004747726N11959351WA0053300513
B1857014747724N11959342WA0053100511
B1857024747722N11959332WA0053000508
B1857034747720N11959322WA0052800506
B1857044747719N11959312WA0052600503
B1857054747717N11959301WA0052400501
B1857064747716N11959290WA0052200499
B1857074747715N11959279WA0051900496
B1857084747714N11959267WA0051800494
B1857094747713N11959255WA0051500492
B1857104747712N11959244WA0051300490
B1857114747713N11959232WA0051100488
B1857124747713N11959220WA0051000486
B1857134747714N11959208WA0050700484
B1857144747716N11959195WA0050500482
B1857154747718N11959183WA0050300479
B1857164747721N11959171WA0050100477
B1857174747725N11959159WA0049900475
B1857184747729N11959148WA0049700473
B1857194747733N11959137WA0049500471
B1857204747739N11959127WA0049400469
B1857214747745N11959116WA0049100466
B1857224747751N11959107WA0048900463
B1857234747758N11959098WA0048700461
B1857244747765N11959090WA0048500459
B1857254747771N11959084WA0048300458
B1857264747779N11959078WA0048200456
B1857264747779N11959078WA0048200456
B1857274747786N11959072WA0047900455
B1857284747793N11959067WA0047800453
B1857294747801N11959064WA0047600452
B1857304747808N11959062WA0047500451
B1857314747816N11959061WA0047300450
B1857324747823N11959059WA0047200449
B1857334747829N11959057WA0047100450
B1857344747836N11959054WA0047000450
B1857354747842N11959049WA0046900449
B1857364747847N11959043WA0046800446
B1857374747853N11959034WA0046700444
B1857384747858N11959022WA0046500441
B1857394747862N11959010WA0046300437
B1857404747864N11958998WA0046200435
B1857414747865N11958987WA0046000434
B1857424747864N11958978WA0045900433
B1857434747862N11958969WA0045700431
B1857444747860N11958962WA0045500430
B1857454747857N11958957WA0045300428
B1857464747854N11958955WA0045200426
B1857474747852N11958956WA0045000424
B1857484747851N11958961WA0044900422
B1857494747853N11958966WA0044600421
B1857504747858N11958971WA0044500419
B1857514747865N11958974WA0044300417
B1857524747872N11958973WA0044100416
B1857534747880N11958970WA0044000416
B1857544747887N11958965WA0043800415
B1857554747894N11958959WA0043700414
B1857564747901N11958951WA0043500412
B1857574747907N11958944WA0043400411
B1857584747914N11958936WA0043300409
B1857594747920N11958928WA0043100408
B1858004747926N11958919WA0043000407
B1858014747932N11958911WA0042800405
B1858024747937N11958902WA0042700404
B1858034747943N11958895WA0042500403
B1858044747950N11958888WA0042400401
B1858054747957N11958882WA0042300400
B1858064747963N11958876WA0042200399
B1858074747969N11958872WA0042100399
B1858084747975N11958869WA0042100399
B1858094747981N11958868WA0042000399
B1858104747988N11958868WA0042000398
B1858114747994N11958870WA0041900397
B1858124748000N11958874WA0041900396
B1858134748004N11958878WA0041800396
B1858144748005N11958884WA0041800395
B1858154748005N11958888WA0041700395
B1858164748004N11958889WA0041700396
B1858174748003N11958889WA0041700395
B1858184748001N11958887WA0041700395
B1858194748000N11958884WA0041700394
B1858204747999N11958882WA0041700394
B1858214747997N11958879WA0041800394
B1858224747996N11958878WA0041800393
B1858234747993N11958876WA0041800391
B1858244747991N11958876WA0041700389
B1858254747988N11958875WA0041600387
B1858264747986N11958875WA0041600386
B1858274747983N11958875WA0041500385
B1858284747981N11958875WA0041400384
B1858294747979N11958874WA0041300382
B1858304747976N11958874WA0041200381
B1858304747976N11958874WA0041200381
B1858314747974N11958873WA0041100380
B1858324747971N11958872WA0041000378
B1858334747968N11958871WA0040900377
B1858344747965N11958870WA0040800375
B1858354747962N11958871WA0040600373
B1858364747960N11958871WA0040500372
B1858374747958N11958871WA0040300372
B1858384747956N11958871WA0040200371
B1858394747954N11958871WA0040100370
B1858404747952N11958872WA0040000369
B1858414747951N11958873WA0039800367
B1858424747950N11958874WA0039700365
B1858434747949N11958877WA0039500363
B1858444747950N11958881WA0039300362
B1858454747952N11958884WA0039100360
B1858464747956N11958888WA0039000358
B1858474747960N11958892WA0038800355
B1858484747965N11958896WA0038600354
B1858494747970N11958899WA0038400353
B1858504747975N11958901WA0038300352
B1858514747980N11958904WA0038100350
B1858524747986N11958908WA0037900348
B1858534747991N11958911WA0037700345
B1858544747996N11958914WA0037500343
B1858554748000N11958917WA0037300342
B1858564748003N11958921WA0037100340
B1858574748003N11958924WA0036900339
B1858584748002N11958926WA0036700336
B1858594748000N11958927WA0036400335
B1859004747998N11958927WA0036300333
B1859014747996N11958926WA0036000332
B1859024747993N11958925WA0035800330
B1859034747991N11958925WA0035600329
B1859044747989N11958925WA0035500328
B1859054747987N11958927WA0035200326
B1859064747986N11958929WA0035100325
B1859074747985N11958932WA0034800323
B1859084747986N11958936WA0034700322
B1859094747988N11958940WA0034400320
B1859104747990N11958944WA0034300318
B1859114747993N11958948WA0034000316
B1859124747997N11958953WA0033800314
B1859134748001N11958957WA0033600313
B1859144748005N11958962WA0033400312
B1859154748008N11958966WA0033200310
B1859164748011N11958971WA0033000310
B1859174748014N11958977WA0032800308
B1859184748017N11958982WA0032600306
B1859194748019N11958987WA0032400305
B1859204748020N11958993WA0032200303
B1859214748021N11958997WA0032000301
B1859224748020N11959000WA0031800299
B1859234748017N11959001WA0031600297
B1859244748014N11959000WA0031400295
B1859254748010N11958997WA0031100292
B1859264748007N11958994WA0031000290
B1859274748004N11958992WA0030700292
B1859284748002N11958990WA0030600291
B1859294748000N11958988WA0030400290
B1859304747997N11958987WA0030300286
B1859314747995N11958988WA0030100281
B1859324747994N11958991WA0030000275
B1859334747994N11958996WA0029700270
B1859334747994N11958996WA0029700270
B1859344747996N11959001WA0029600268
B1859354747998N11959006WA0029300266
B1859364748000N11959011WA0029200265
B1859374748001N11959016WA0029000263
B1859384748001N11959020WA0028900261
B1859394748001N11959026WA0028600260
B1859404748001N11959030WA0028500258
B1859414748001N11959034WA0028400258
B1859424748001N11959037WA0028300258
B1859434748000N11959039WA0028100257
B1859444747998N11959041WA0028000254
B1859454747995N11959043WA0027800251
B1859464747991N11959046WA0027600247
B1859474747988N11959048WA0027400246
B1859484747985N11959050WA0027200247
B1859494747982N11959051WA0027000246
B1859504747979N11959051WA0026900246
B1859514747977N11959052WA0026800244
B1859524747974N11959053WA0026700242
B1859534747973N11959057WA0026500240
B1859544747970N11959062WA0026400239
B1859554747968N11959067WA0026200237
B1859564747964N11959070WA0026100237
B1859574747961N11959072WA0026000236
B1859584747957N11959073WA0025800236
B1859594747954N11959075WA0025700235
B1900004747950N11959077WA0025600234
B1900014747948N11959080WA0025500233
B1900024747945N11959082WA0025400232
B1900034747943N11959084WA0025300232
B1900044747940N11959086WA0025300230
B1900054747938N11959089WA0025100229
B1900064747936N11959092WA0025000227
B1900074747934N11959094WA0024900226
B1900084747934N11959095WA0024800225
B1900094747933N11959095WA0024800224
B1900104747933N11959095WA0024700223
B1900114747933N11959095WA0024700223
B1900124747933N11959095WA0024600222
B1900134747933N11959095WA0024600222
B1900144747933N11959095WA0024500222
B1900154747933N11959095WA0024500222
B1900164747933N11959095WA0024500222
B1900174747933N11959095WA0024400222
B1900184747933N11959095WA0024400222
B1900194747933N11959095WA0024400221
B1900204747933N11959095WA0024400221
B1900214747933N11959095WA0024400221
B1900224747933N11959095WA0024400221
B1900234747933N11959095WA0024300220
B1900244747933N11959095WA0024300220
B1900254747933N11959095WA0024300220
B1900264747933N11959095WA0024300219
B1900274747933N11959095WA0024300219
B1900284747933N11959095WA0024300219
B1900294747933N11959094WA0024300219
B1900304747933N11959094WA0024300218
B1900314747933N11959094WA0024300218
B1900324747933N11959095WA0024300218
B1900334747933N11959095WA0024300217
B1900344747933N11959094WA0024300217
B1900354747933N11959095WA0024300217
B1900364747933N11959094WA0024300217
B1900374747933N11959094WA0024300217
B1900374747933N11959094WA0024300217
B1900384747933N11959094WA0024300217
B1900394747933N11959094WA0024300217
B1900404747933N11959094WA0024300217
B1900414747934N11959095WA0024200216
B1900424747934N11959095WA0024200216
B1900434747934N11959095WA0024200217
B1900444747934N11959095WA0024200216
B1900454747935N11959096WA0024200216
B1900464747935N11959096WA0024200216
B1900474747935N11959096WA0024200216
B1900484747935N11959096WA0024200216
B1900494747935N11959096WA0024200216
B1900504747935N11959096WA0024200216
B1900514747935N11959096WA0024200216
B1900524747935N11959095WA0024200217
B1900534747935N11959095WA0024200217
B1900544747934N11959095WA0024200216
B1900554747934N11959094WA0024200216
B1900564747933N11959093WA0024200216
B1900574747933N11959092WA0024200216
B1900584747932N11959092WA0024300216
B1900594747932N11959092WA0024300215
B1901004747931N11959091WA0024300216
B1901014747931N11959090WA0024300215
B1901024747931N11959090WA0024200215
B1901034747930N11959089WA0024200215
B1901044747929N11959088WA0024200214
B1901054747929N11959088WA0024200215
B1901064747928N11959087WA0024200215
B1901074747928N11959087WA0024200215
B1901084747927N11959086WA0024200215
B1901094747927N11959086WA0024200215
B1901104747926N11959085WA0024200215
B1901114747926N11959084WA0024200216
B1901124747926N11959083WA0024200216
B1901134747925N11959083WA0024200215
B1901144747925N11959083WA0024200215
B1901154747924N11959083WA0024200215
B1901164747924N11959082WA0024200215
B1901174747923N11959081WA0024200215
B1901184747923N11959081WA0024200215
B1901194747922N11959080WA0024200214
B1901204747922N11959079WA0024200214
B1901214747921N11959079WA0024200214
B1901224747921N11959079WA0024200215
B1901234747921N11959079WA0024200215
B1901244747921N11959080WA0024200216
B1901254747921N11959080WA0024200218
B1901264747921N11959080WA0024200218
B1901274747921N11959080WA0024200217
B1901284747921N11959080WA0024200217
B1901294747921N11959080WA0024200217
B1901304747921N11959080WA0024200217
B1901314747921N11959080WA0024200217
B1901324747921N11959080WA0024200217
B1901334747921N11959080WA0024200218
B1901344747920N11959081WA0024100218
B1901354747920N11959081WA0024100218
B1901364747920N11959082WA0024100218
B1901374747919N11959082WA0024100218
B1901384747919N11959083WA0024100218
B1901394747919N11959083WA0024100218
B1901404747919N11959084WA0024100218
B1901414747919N11959084WA0024100219
