AXFMSFP Flymaster Live, V1.0
HFFXA010
HFPLTPILOT:Brad Bass
HFGTYGLIDERTYPE:Air Design Sock / Ozone  Photon
HFGIDGLIDERID:
HFDTM100GPSDATUM:WGS-1984
HFCIDCOMPETITIONID:385
HFCCLCOMPETITIONCLASS:
HOSITSITE:LAUNCH
HFGPS:UBLOXNEO6
HFPRSPRESSALTSENSOR:NA
HFRFWFIRMWAREVERSION:202g
HFRHWHARDWAREVERSION:1.0R2
HFFTYFRTYPE:FLYMASTER,LIVE
HFDTE160625
B2000534748251N12002348WA0109801123
B2000544748251N12002348WA0109801123
B2000554748251N12002348WA0109801123
B2000564748251N12002348WA0109801124
B2000574748251N12002349WA0109801124
B2000584748250N12002349WA0109801124
B2000594748251N12002349WA0109801124
B2001004748251N12002349WA0109801124
B2001014748250N12002350WA0109801124
B2001024748251N12002352WA0109801123
B2001034748251N12002355WA0109801123
B2001044748250N12002359WA0109801123
B2001054748250N12002362WA0109801122
B2001064748249N12002364WA0109801122
B2001074748249N12002367WA0109801121
B2001084748248N12002370WA0109701120
B2001094748246N12002374WA0109701119
B2001104748244N12002378WA0109601118
B2001114748244N12002382WA0109601117
B2001124748243N12002387WA0109501117
B2001134748243N12002391WA0109501116
B2001144748242N12002394WA0109501115
B2001154748240N12002398WA0109401113
B2001164748237N12002403WA0109401110
B2001174748234N12002408WA0109301109
B2001184748231N12002413WA0109201109
B2001194748228N12002418WA0109201110
B2001204748225N12002422WA0109101111
B2001214748222N12002427WA0109101112
B2001224748219N12002431WA0109101113
B2001234748216N12002435WA0109101113
B2001244748213N12002439WA0109101113
B2001254748210N12002443WA0109001113
B2001264748207N12002447WA0109001112
B2001274748205N12002451WA0109001111
B2001284748202N12002455WA0109001110
B2001294748199N12002459WA0108901111
B2001304748196N12002463WA0108901111
B2001314748195N12002469WA0108901113
B2001324748192N12002475WA0108901113
B2001334748190N12002482WA0108901113
B2001344748189N12002489WA0108901115
B2001354748188N12002494WA0109001118
B2001364748187N12002499WA0109001122
B2001374748185N12002503WA0109101125
B2001384748183N12002506WA0109201126
B2001394748181N12002511WA0109201125
B2001404748179N12002517WA0109301122
B2001414748177N12002523WA0109401121
B2001424748175N12002528WA0109401122
B2001434748172N12002532WA0109501123
B2001444748169N12002534WA0109501124
B2001454748167N12002537WA0109601124
B2001464748164N12002541WA0109601124
B2001474748162N12002546WA0109701123
B2001484748160N12002551WA0109701123
B2001494748157N12002555WA0109701123
B2001504748154N12002557WA0109801126
B2001514748151N12002558WA0109801131
B2001524748149N12002559WA0110001136
B2001534748146N12002560WA0110101138
B2001544748144N12002561WA0110301139
B2001554748140N12002563WA0110401139
B2001564748136N12002565WA0110601138
B2001564748136N12002565WA0110601138
B2001574748132N12002566WA0110701140
B2001584748128N12002568WA0110801141
B2001594748125N12002570WA0111001143
B2002004748122N12002572WA0111101144
B2002014748119N12002575WA0111201148
B2002024748118N12002578WA0111401154
B2002034748116N12002581WA0111601161
B2002044748115N12002583WA0111901166
B2002054748112N12002585WA0112101171
B2002064748108N12002587WA0112501174
B2002074748104N12002589WA0112701177
B2002084748100N12002591WA0113101180
B2002094748097N12002593WA0113301183
B2002104748095N12002595WA0113701186
B2002114748092N12002596WA0113901188
B2002124748088N12002598WA0114201190
B2002134748084N12002600WA0114401191
B2002144748081N12002601WA0114701194
B2002154748078N12002604WA0114901197
B2002164748077N12002609WA0115201199
B2002174748077N12002614WA0115401203
B2002184748079N12002618WA0115701206
B2002194748081N12002623WA0115901208
B2002204748085N12002627WA0116201211
B2002214748089N12002630WA0116401212
B2002224748095N12002633WA0116701214
B2002234748101N12002634WA0116801217
B2002244748108N12002632WA0117101218
B2002254748115N12002628WA0117301218
B2002264748122N12002621WA0117501218
B2002274748129N12002611WA0117601217
B2002284748136N12002600WA0117801216
B2002294748140N12002589WA0117901217
B2002304748142N12002578WA0118001218
B2002314748142N12002567WA0118101219
B2002324748140N12002556WA0118201219
B2002334748135N12002546WA0118301219
B2002344748130N12002537WA0118401218
B2002354748125N12002530WA0118401217
B2002364748119N12002524WA0118501219
B2002374748114N12002519WA0118501222
B2002384748110N12002516WA0118701225
B2002394748105N12002514WA0118801228
B2002404748100N12002511WA0118901231
B2002414748095N12002508WA0119001233
B2002424748089N12002506WA0119201236
B2002434748084N12002504WA0119401239
B2002444748079N12002502WA0119601242
B2002454748075N12002502WA0119701245
B2002464748070N12002501WA0120001248
B2002474748065N12002500WA0120101250
B2002484748061N12002499WA0120401253
B2002494748057N12002498WA0120601257
B2002504748054N12002498WA0120901261
B2002514748050N12002497WA0121101264
B2002524748046N12002498WA0121401266
B2002534748042N12002499WA0121601269
B2002544748039N12002502WA0121901272
B2002554748038N12002505WA0122101276
B2002564748039N12002508WA0122501279
B2002574748041N12002511WA0122701281
B2002584748045N12002514WA0123001283
B2002594748049N12002515WA0123201284
B2003004748054N12002516WA0123501284
B2003004748054N12002516WA0123501284
B2003014748058N12002517WA0123601285
B2003024748062N12002520WA0123801285
B2003034748066N12002524WA0124001285
B2003044748069N12002529WA0124101285
B2003054748072N12002534WA0124201284
B2003064748074N12002540WA0124301284
B2003074748076N12002546WA0124401286
B2003084748079N12002553WA0124501287
B2003094748081N12002560WA0124601289
B2003104748082N12002568WA0124701291
B2003114748083N12002574WA0124801295
B2003124748085N12002580WA0125001298
B2003134748087N12002586WA0125201301
B2003144748090N12002592WA0125401302
B2003154748094N12002597WA0125501303
B2003164748099N12002601WA0125701303
B2003174748103N12002604WA0125801303
B2003184748109N12002607WA0125901302
B2003194748116N12002609WA0126001301
B2003204748123N12002611WA0126101299
B2003214748131N12002610WA0126101298
B2003224748139N12002607WA0126201297
B2003234748146N12002602WA0126201297
B2003244748152N12002594WA0126201296
B2003254748158N12002585WA0126201294
B2003264748161N12002574WA0126101292
B2003274748163N12002562WA0126101290
B2003284748163N12002551WA0126101288
B2003294748162N12002541WA0126001286
B2003304748160N12002532WA0125901285
B2003314748157N12002522WA0125901283
B2003324748155N12002513WA0125701281
B2003334748154N12002503WA0125701280
B2003344748151N12002492WA0125501279
B2003354748148N12002481WA0125501279
B2003364748144N12002471WA0125401279
B2003374748140N12002462WA0125301282
B2003384748135N12002454WA0125301286
B2003394748131N12002448WA0125301290
B2003404748127N12002443WA0125401294
B2003414748123N12002439WA0125401297
B2003424748118N12002435WA0125501299
B2003434748113N12002431WA0125601300
B2003444748109N12002428WA0125701301
B2003454748104N12002426WA0125801300
B2003464748100N12002425WA0125901300
B2003474748097N12002426WA0126001300
B2003484748095N12002428WA0126101300
B2003494748093N12002432WA0126101299
B2003504748093N12002436WA0126201298
B2003514748092N12002441WA0126201296
B2003524748092N12002445WA0126201296
B2003534748094N12002449WA0126201296
B2003544748096N12002453WA0126201295
B2003554748100N12002456WA0126201294
B2003564748105N12002460WA0126101292
B2003574748109N12002465WA0126101290
B2003584748115N12002469WA0126001288
B2003594748120N12002473WA0126001286
B2004004748126N12002476WA0125901285
B2004014748132N12002478WA0125801285
B2004024748138N12002478WA0125701284
B2004034748145N12002477WA0125601284
B2004044748153N12002474WA0125501282
B2004044748153N12002474WA0125501282
B2004054748161N12002469WA0125401280
B2004064748168N12002461WA0125201279
B2004074748175N12002452WA0125201278
B2004084748180N12002441WA0125001277
B2004094748183N12002429WA0124901276
B2004104748184N12002416WA0124801274
B2004114748183N12002404WA0124701272
B2004124748180N12002394WA0124601270
B2004134748176N12002386WA0124501268
B2004144748172N12002381WA0124401267
B2004154748169N12002378WA0124301267
B2004164748166N12002375WA0124201267
B2004174748163N12002373WA0124101266
B2004184748160N12002372WA0124001263
B2004194748156N12002373WA0123901260
B2004204748153N12002375WA0123801258
B2004214748150N12002377WA0123701257
B2004224748149N12002381WA0123601257
B2004234748149N12002384WA0123501257
B2004244748149N12002387WA0123401256
B2004254748149N12002391WA0123301254
B2004264748149N12002396WA0123101252
B2004274748149N12002401WA0123001250
B2004284748148N12002406WA0122901249
B2004294748147N12002410WA0122801248
B2004304748145N12002412WA0122701248
B2004314748143N12002414WA0122601247
B2004324748141N12002416WA0122401245
B2004334748139N12002419WA0122401244
B2004344748137N12002423WA0122201242
B2004354748135N12002426WA0122101241
B2004364748133N12002429WA0122001239
B2004374748131N12002433WA0121901237
B2004384748129N12002437WA0121701236
B2004394748128N12002442WA0121601234
B2004404748127N12002447WA0121501233
B2004414748128N12002453WA0121401232
B2004424748130N12002458WA0121201232
B2004434748134N12002463WA0121101230
B2004444748138N12002468WA0121001229
B2004454748144N12002471WA0120901228
B2004464748150N12002474WA0120701228
B2004474748156N12002477WA0120601228
B2004484748163N12002477WA0120501227
B2004494748171N12002475WA0120401227
B2004504748179N12002471WA0120301227
B2004514748186N12002463WA0120301227
B2004524748192N12002454WA0120201227
B2004534748196N12002443WA0120101227
B2004544748198N12002431WA0120101227
B2004554748197N12002421WA0120001227
B2004564748195N12002412WA0120001227
B2004574748192N12002403WA0120001227
B2004584748188N12002396WA0119901227
B2004594748183N12002391WA0119901228
B2005004748178N12002389WA0119901230
B2005014748175N12002389WA0120001233
B2005024748172N12002390WA0120001234
B2005034748169N12002391WA0120101234
B2005044748166N12002393WA0120101232
B2005054748162N12002395WA0120101230
B2005064748158N12002398WA0120101228
B2005074748155N12002402WA0120101227
B2005084748154N12002408WA0120101227
B2005084748154N12002408WA0120101227
B2005094748155N12002414WA0120101227
B2005104748157N12002419WA0120001226
B2005114748160N12002424WA0120001225
B2005124748163N12002429WA0120001224
B2005134748166N12002434WA0119901223
B2005144748170N12002440WA0119901222
B2005154748175N12002445WA0119801220
B2005164748181N12002450WA0119701219
B2005174748187N12002453WA0119601219
B2005184748194N12002454WA0119501219
B2005194748201N12002452WA0119501218
B2005204748209N12002448WA0119401215
B2005214748216N12002440WA0119301212
B2005224748222N12002429WA0119101210
B2005234748226N12002417WA0119001208
B2005244748226N12002404WA0118901207
B2005254748225N12002393WA0118801205
B2005264748222N12002383WA0118601204
B2005274748218N12002375WA0118501202
B2005284748213N12002369WA0118301201
B2005294748208N12002364WA0118301199
B2005304748203N12002361WA0118101199
B2005314748199N12002359WA0118001199
B2005324748195N12002358WA0117901200
B2005334748192N12002357WA0117901199
B2005344748188N12002357WA0117801198
B2005354748185N12002358WA0117701196
B2005364748181N12002360WA0117601194
B2005374748177N12002365WA0117501192
B2005384748175N12002370WA0117301192
B2005394748174N12002375WA0117301192
B2005404748173N12002380WA0117201192
B2005414748172N12002384WA0117101191
B2005424748171N12002389WA0117001190
B2005434748169N12002395WA0116901188
B2005444748168N12002401WA0116701186
B2005454748167N12002408WA0116701186
B2005464748167N12002415WA0116601185
B2005474748167N12002421WA0116501184
B2005484748166N12002428WA0116401184
B2005494748165N12002434WA0116301184
B2005504748164N12002439WA0116301184
B2005514748163N12002445WA0116201184
B2005524748161N12002451WA0116201183
B2005534748159N12002457WA0116201183
B2005544748156N12002462WA0116101183
B2005554748152N12002465WA0116101184
B2005564748148N12002467WA0116001185
B2005574748144N12002469WA0116001188
B2005584748142N12002473WA0116101190
B2005594748140N12002477WA0116101192
B2006004748138N12002480WA0116101194
B2006014748135N12002483WA0116201196
B2006024748132N12002486WA0116301199
B2006034748129N12002489WA0116401202
B2006044748126N12002493WA0116501204
B2006054748125N12002497WA0116601207
B2006064748124N12002502WA0116801210
B2006074748123N12002505WA0116901214
B2006084748124N12002509WA0117201219
B2006094748126N12002512WA0117401222
B2006104748128N12002516WA0117601224
B2006114748131N12002522WA0117801225
B2006114748131N12002522WA0117801225
B2006124748135N12002528WA0118101225
B2006134748141N12002534WA0118201226
B2006144748147N12002538WA0118401228
B2006154748154N12002539WA0118601231
B2006164748160N12002536WA0118801234
B2006174748167N12002531WA0119001236
B2006184748174N12002524WA0119101236
B2006194748181N12002513WA0119301236
B2006204748186N12002501WA0119501238
B2006214748189N12002489WA0119601241
B2006224748190N12002477WA0119801242
B2006234748191N12002467WA0120001243
B2006244748191N12002456WA0120201243
B2006254748192N12002444WA0120301242
B2006264748193N12002431WA0120401243
B2006274748192N12002419WA0120501248
B2006284748190N12002411WA0120701255
B2006294748187N12002405WA0120801259
B2006304748184N12002400WA0121101261
B2006314748181N12002395WA0121201263
B2006324748176N12002391WA0121501264
B2006334748171N12002386WA0121601264
B2006344748166N12002381WA0121801264
B2006354748161N12002379WA0122001265
B2006364748157N12002378WA0122201267
B2006374748153N12002380WA0122301270
B2006384748151N12002383WA0122501272
B2006394748148N12002385WA0122701274
B2006404748146N12002388WA0122901276
B2006414748145N12002392WA0123001278
B2006424748143N12002397WA0123301277
B2006434748143N12002403WA0123401278
B2006444748143N12002409WA0123601279
B2006454748143N12002415WA0123701280
B2006464748145N12002421WA0123901281
B2006474748146N12002426WA0124001282
B2006484748149N12002431WA0124101282
B2006494748153N12002437WA0124201283
B2006504748157N12002443WA0124301284
B2006514748162N12002448WA0124401285
B2006524748168N12002453WA0124601287
B2006534748173N12002457WA0124701289
B2006544748179N12002460WA0124801290
B2006554748185N12002464WA0124901291
B2006564748193N12002466WA0125001292
B2006574748201N12002467WA0125101293
B2006584748210N12002464WA0125201294
B2006594748219N12002459WA0125301294
B2007004748227N12002450WA0125401294
B2007014748234N12002440WA0125501295
B2007024748238N12002429WA0125601297
B2007034748241N12002417WA0125701298
B2007044748244N12002405WA0125801299
B2007054748245N12002393WA0125801300
B2007064748246N12002380WA0126001300
B2007074748245N12002368WA0126001300
B2007084748243N12002357WA0126101302
B2007094748241N12002347WA0126201306
B2007104748240N12002339WA0126401310
B2007114748238N12002331WA0126501313
B2007124748236N12002323WA0126701315
B2007134748233N12002315WA0126901316
B2007144748229N12002308WA0127101315
B2007154748224N12002302WA0127201314
B2007164748219N12002297WA0127301315
B2007164748219N12002297WA0127301315
B2007174748214N12002293WA0127501316
B2007184748211N12002290WA0127601319
B2007194748208N12002288WA0127701320
B2007204748205N12002287WA0127901321
B2007214748202N12002287WA0128001321
B2007224748199N12002288WA0128101322
B2007234748197N12002289WA0128201324
B2007244748195N12002291WA0128301326
B2007254748194N12002292WA0128501329
B2007264748193N12002294WA0128601331
B2007274748192N12002297WA0128701333
B2007284748191N12002301WA0128901333
B2007294748191N12002305WA0129001334
B2007304748191N12002308WA0129201335
B2007314748191N12002310WA0129301336
B2007324748192N12002313WA0129401335
B2007334748193N12002316WA0129501335
B2007344748193N12002321WA0129601334
B2007354748193N12002326WA0129601334
B2007364748193N12002331WA0129701335
B2007374748192N12002334WA0129801337
B2007384748191N12002337WA0129901338
B2007394748191N12002341WA0129901340
B2007404748192N12002346WA0130001341
B2007414748193N12002350WA0130101343
B2007424748194N12002355WA0130201346
B2007434748195N12002359WA0130301348
B2007444748196N12002364WA0130501350
B2007454748198N12002368WA0130601352
B2007464748201N12002373WA0130801355
B2007474748204N12002377WA0130901357
B2007484748207N12002381WA0131101360
B2007494748210N12002386WA0131201361
B2007504748212N12002391WA0131401362
B2007514748213N12002396WA0131501362
B2007524748214N12002401WA0131701361
B2007534748215N12002405WA0131801362
B2007544748216N12002410WA0131901362
B2007554748219N12002416WA0131901362
B2007564748223N12002421WA0132001360
B2007574748228N12002426WA0132001359
B2007584748235N12002429WA0132001358
B2007594748244N12002429WA0132101356
B2008004748253N12002426WA0132001355
B2008014748261N12002419WA0132001354
B2008024748269N12002409WA0132001353
B2008034748274N12002399WA0132001352
B2008044748278N12002387WA0131901351
B2008054748280N12002375WA0131901351
B2008064748281N12002362WA0131901353
B2008074748281N12002350WA0131901355
B2008084748281N12002340WA0131901357
B2008094748280N12002329WA0131901359
B2008104748279N12002318WA0132001360
B2008114748277N12002308WA0132001362
B2008124748275N12002298WA0132101363
B2008134748272N12002288WA0132201364
B2008144748269N12002279WA0132301366
B2008154748266N12002271WA0132401367
B2008164748263N12002265WA0132501369
B2008174748259N12002261WA0132601369
B2008184748254N12002260WA0132701369
B2008194748250N12002259WA0132701370
B2008204748247N12002257WA0132901373
B2008214748244N12002255WA0132901376
B2008214748244N12002255WA0132901376
B2008224748242N12002254WA0133101377
B2008234748240N12002255WA0133101377
B2008244748238N12002257WA0133201375
B2008254748236N12002261WA0133301373
B2008264748233N12002265WA0133301371
B2008274748231N12002268WA0133401371
B2008284748229N12002271WA0133401371
B2008294748228N12002274WA0133401370
B2008304748227N12002277WA0133401370
B2008314748226N12002282WA0133401369
B2008324748226N12002286WA0133401368
B2008334748226N12002291WA0133401367
B2008344748226N12002295WA0133401367
B2008354748225N12002298WA0133401367
B2008364748225N12002302WA0133301366
B2008374748225N12002307WA0133301365
B2008384748225N12002311WA0133301364
B2008394748224N12002314WA0133201364
B2008404748224N12002318WA0133201363
B2008414748223N12002321WA0133201362
B2008424748222N12002325WA0133101361
B2008434748222N12002329WA0133101361
B2008444748221N12002332WA0133001360
B2008454748220N12002335WA0133001359
B2008464748219N12002338WA0132901359
B2008474748219N12002341WA0132901358
B2008484748219N12002345WA0132801357
B2008494748220N12002350WA0132701356
B2008504748222N12002354WA0132701354
B2008514748224N12002359WA0132601353
B2008524748225N12002363WA0132501352
B2008534748227N12002367WA0132401351
B2008544748230N12002371WA0132301349
B2008554748234N12002376WA0132201347
B2008564748240N12002379WA0132101346
B2008574748247N12002381WA0132001344
B2008584748256N12002381WA0131801341
B2008594748265N12002378WA0131701339
B2009004748273N12002373WA0131501337
B2009014748280N12002364WA0131401336
B2009024748287N12002355WA0131201335
B2009034748293N12002345WA0131101336
B2009044748298N12002336WA0131001338
B2009054748302N12002327WA0131001340
B2009064748306N12002318WA0130901340
B2009074748309N12002309WA0130901341
B2009084748312N12002298WA0130801339
B2009094748315N12002286WA0130801338
B2009104748318N12002274WA0130701336
B2009114748319N12002262WA0130701335
B2009124748318N12002250WA0130601334
B2009134748316N12002241WA0130501331
B2009144748312N12002233WA0130401329
B2009154748309N12002226WA0130401329
B2009164748305N12002221WA0130301329
B2009174748302N12002215WA0130201328
B2009184748298N12002211WA0130201328
B2009194748296N12002206WA0130101327
B2009204748293N12002201WA0130101326
B2009214748290N12002197WA0130001325
B2009224748287N12002195WA0129901323
B2009234748285N12002195WA0129901321
B2009244748282N12002197WA0129801320
B2009254748281N12002200WA0129701319
B2009254748281N12002200WA0129701319
B2009264748280N12002203WA0129601319
B2009274748279N12002205WA0129501319
B2009284748278N12002207WA0129401318
B2009294748276N12002209WA0129301316
B2009304748274N12002212WA0129201313
B2009314748273N12002215WA0129101310
B2009324748272N12002220WA0129001307
B2009334748271N12002225WA0128901306
B2009344748271N12002230WA0128701304
B2009354748270N12002234WA0128601304
B2009364748270N12002238WA0128401302
B2009374748269N12002242WA0128301301
B2009384748269N12002247WA0128101300
B2009394748268N12002253WA0128001299
B2009404748268N12002257WA0127901299
B2009414748268N12002261WA0127801299
B2009424748268N12002265WA0127601298
B2009434748268N12002270WA0127601297
B2009444748268N12002275WA0127401295
B2009454748267N12002281WA0127301293
B2009464748267N12002286WA0127201291
B2009474748267N12002291WA0127101289
B2009484748266N12002296WA0126901288
B2009494748264N12002300WA0126801287
B2009504748263N12002304WA0126701286
B2009514748262N12002308WA0126601284
B2009524748260N12002313WA0126401283
B2009534748259N12002318WA0126301282
B2009544748258N12002322WA0126101281
B2009554748256N12002326WA0126001280
B2009564748254N12002329WA0125901280
B2009574748252N12002333WA0125801280
B2009584748250N12002336WA0125701279
B2009594748248N12002338WA0125601279
B2010004748246N12002341WA0125501278
B2010014748244N12002344WA0125401278
B2010024748242N12002347WA0125301277
B2010034748240N12002351WA0125301277
B2010044748238N12002355WA0125201277
B2010054748236N12002359WA0125201277
B2010064748235N12002363WA0125101278
B2010074748235N12002368WA0125101278
B2010084748235N12002372WA0125001279
B2010094748235N12002376WA0125001279
B2010104748235N12002380WA0125001278
B2010114748235N12002384WA0124901276
B2010124748235N12002389WA0124901274
B2010134748234N12002394WA0124801272
B2010144748234N12002399WA0124801271
B2010154748233N12002404WA0124701271
B2010164748232N12002407WA0124601271
B2010174748232N12002411WA0124601272
B2010184748231N12002414WA0124501272
B2010194748230N12002418WA0124501272
B2010204748230N12002421WA0124401271
B2010214748229N12002425WA0124401271
B2010224748229N12002428WA0124401270
B2010234748228N12002430WA0124301270
B2010244748227N12002432WA0124301269
B2010254748226N12002434WA0124201266
B2010264748225N12002438WA0124101264
B2010274748224N12002442WA0124101261
B2010284748223N12002447WA0124001259
B2010294748222N12002450WA0123901259
B2010304748222N12002452WA0123801260
B2010314748222N12002454WA0123701261
B2010324748222N12002457WA0123601261
B2010334748223N12002460WA0123601261
B2010334748223N12002460WA0123601261
B2010344748223N12002465WA0123501261
B2010354748224N12002469WA0123401261
B2010364748224N12002474WA0123401261
B2010374748224N12002478WA0123401262
B2010384748224N12002482WA0123401263
B2010394748224N12002486WA0123401265
B2010404748224N12002490WA0123401266
B2010414748223N12002493WA0123401267
B2010424748223N12002497WA0123401266
B2010434748223N12002500WA0123401266
B2010444748223N12002504WA0123401266
B2010454748223N12002507WA0123401266
B2010464748222N12002510WA0123401265
B2010474748222N12002513WA0123401265
B2010484748221N12002516WA0123401263
B2010494748220N12002519WA0123401263
B2010504748221N12002521WA0123301263
B2010514748223N12002523WA0123301264
B2010524748225N12002526WA0123301264
B2010534748230N12002528WA0123201262
B2010544748236N12002531WA0123201260
B2010554748244N12002532WA0123101258
B2010564748253N12002530WA0123001256
B2010574748262N12002523WA0123001254
B2010584748270N12002512WA0122901252
B2010594748276N12002499WA0122801250
B2011004748279N12002486WA0122701249
B2011014748280N12002473WA0122601248
B2011024748281N12002462WA0122501247
B2011034748280N12002451WA0122401246
B2011044748280N12002440WA0122301245
B2011054748278N12002431WA0122201244
B2011064748276N12002423WA0122101242
B2011074748273N12002417WA0122101239
B2011084748269N12002411WA0121901237
B2011094748266N12002404WA0121901236
B2011104748263N12002397WA0121701236
B2011114748261N12002390WA0121701237
B2011124748259N12002385WA0121601236
B2011134748256N12002381WA0121501235
B2011144748252N12002378WA0121401233
B2011154748249N12002376WA0121301232
B2011164748247N12002376WA0121201232
B2011174748245N12002377WA0121201232
B2011184748244N12002378WA0121101231
B2011194748243N12002380WA0121001230
B2011204748241N12002382WA0120901228
B2011214748240N12002384WA0120801227
B2011224748239N12002387WA0120701226
B2011234748239N12002391WA0120601225
B2011244748240N12002395WA0120501224
B2011254748240N12002399WA0120501224
B2011264748240N12002402WA0120301222
B2011274748239N12002405WA0120201221
B2011284748239N12002409WA0120101220
B2011294748239N12002413WA0120001218
B2011304748238N12002417WA0119901217
B2011314748238N12002420WA0119801216
B2011324748237N12002422WA0119701215
B2011334748236N12002425WA0119601214
B2011344748235N12002428WA0119501213
B2011354748235N12002432WA0119401210
B2011364748234N12002437WA0119301208
B2011374748235N12002443WA0119201206
B2011374748235N12002443WA0119201206
B2011384748236N12002448WA0119001206
B2011394748237N12002453WA0118901205
B2011404748239N12002457WA0118701204
B2011414748240N12002461WA0118601204
B2011424748240N12002466WA0118501203
B2011434748240N12002470WA0118401202
B2011444748239N12002475WA0118201201
B2011454748239N12002480WA0118101199
B2011464748240N12002486WA0118001199
B2011474748241N12002491WA0117901198
B2011484748242N12002496WA0117701197
B2011494748242N12002501WA0117701196
B2011504748242N12002506WA0117501194
B2011514748242N12002511WA0117501192
B2011524748241N12002515WA0117301191
B2011534748241N12002519WA0117201190
B2011544748241N12002523WA0117101188
B2011554748241N12002528WA0117101186
B2011564748241N12002533WA0117001182
B2011574748240N12002538WA0116901179
B2011584748239N12002544WA0116701177
B2011594748238N12002549WA0116601177
B2012004748237N12002555WA0116501178
B2012014748236N12002560WA0116401179
B2012024748235N12002565WA0116301180
B2012034748235N12002569WA0116201181
B2012044748234N12002574WA0116101181
B2012054748235N12002578WA0116101181
B2012064748235N12002583WA0116101181
B2012074748236N12002589WA0116101181
B2012084748237N12002594WA0116101183
B2012094748238N12002598WA0116201187
B2012104748239N12002601WA0116201189
B2012114748238N12002605WA0116301191
B2012124748238N12002608WA0116301193
B2012134748238N12002612WA0116401195
B2012144748237N12002615WA0116501197
B2012154748236N12002618WA0116601198
B2012164748236N12002622WA0116701198
B2012174748235N12002625WA0116801198
B2012184748236N12002629WA0116901197
B2012194748238N12002634WA0116901195
B2012204748241N12002639WA0116901194
B2012214748246N12002644WA0116901193
B2012224748252N12002647WA0116901191
B2012234748261N12002647WA0116901188
B2012244748270N12002645WA0116801185
B2012254748278N12002639WA0116701183
B2012264748286N12002630WA0116601181
B2012274748291N12002619WA0116501179
B2012284748294N12002607WA0116401177
B2012294748294N12002597WA0116301175
B2012304748293N12002588WA0116201173
B2012314748291N12002580WA0116101172
B2012324748289N12002574WA0115901170
B2012334748286N12002568WA0115801168
B2012344748284N12002563WA0115701167
B2012354748281N12002559WA0115601167
B2012364748279N12002556WA0115501166
B2012374748278N12002555WA0115401166
B2012384748276N12002555WA0115301164
B2012394748274N12002555WA0115201163
B2012404748271N12002555WA0115001161
B2012414748269N12002554WA0114901160
B2012424748267N12002553WA0114801159
B2012424748267N12002553WA0114801159
B2012434748265N12002554WA0114701158
B2012444748263N12002557WA0114501157
B2012454748261N12002560WA0114401155
B2012464748259N12002563WA0114201153
B2012474748259N12002565WA0114101153
B2012484748258N12002568WA0113901152
B2012494748259N12002571WA0113801151
B2012504748258N12002575WA0113601149
B2012514748257N12002579WA0113501147
B2012524748255N12002583WA0113301145
B2012534748253N12002586WA0113201145
B2012544748251N12002588WA0113101145
B2012554748249N12002590WA0113001145
B2012564748247N12002592WA0112901144
B2012574748244N12002594WA0112801143
B2012584748242N12002596WA0112601142
B2012594748239N12002597WA0112601141
B2013004748236N12002599WA0112501142
B2013014748234N12002601WA0112401142
B2013024748231N12002604WA0112301141
B2013034748229N12002606WA0112201140
B2013044748227N12002609WA0112101139
B2013054748224N12002611WA0112101137
B2013064748221N12002613WA0112001136
B2013074748219N12002615WA0111901135
B2013084748217N12002620WA0111801135
B2013094748216N12002625WA0111701135
B2013104748215N12002631WA0111701135
B2013114748213N12002636WA0111601136
B2013124748211N12002639WA0111601137
B2013134748210N12002641WA0111501138
B2013144748208N12002643WA0111501140
B2013154748207N12002645WA0111501141
B2013164748205N12002648WA0111501142
B2013174748203N12002650WA0111601142
B2013184748199N12002652WA0111601144
B2013194748196N12002653WA0111601146
B2013204748193N12002654WA0111701149
B2013214748190N12002656WA0111701151
B2013224748188N12002658WA0111801154
B2013234748185N12002660WA0111901156
B2013244748183N12002662WA0112101158
B2013254748180N12002664WA0112201159
B2013264748177N12002665WA0112301159
B2013274748174N12002668WA0112401159
B2013284748170N12002670WA0112501157
B2013294748167N12002674WA0112601156
B2013304748164N12002678WA0112701156
B2013314748162N12002682WA0112701156
B2013324748160N12002685WA0112801156
B2013334748158N12002687WA0112801156
B2013344748155N12002688WA0112801156
B2013354748153N12002690WA0112801155
B2013364748151N12002693WA0112801154
B2013374748148N12002697WA0112801152
B2013384748146N12002701WA0112801150
B2013394748142N12002703WA0112701149
B2013404748139N12002703WA0112701148
B2013414748135N12002701WA0112601148
B2013424748131N12002696WA0112601147
B2013434748127N12002691WA0112501146
B2013444748123N12002686WA0112501145
B2013454748119N12002681WA0112401145
B2013464748115N12002677WA0112401146
B2013464748115N12002677WA0112401146
B2013474748112N12002672WA0112401147
B2013484748109N12002667WA0112401148
B2013494748106N12002663WA0112401149
B2013504748102N12002658WA0112401147
B2013514748098N12002653WA0112401146
B2013524748093N12002648WA0112401146
B2013534748089N12002642WA0112401145
B2013544748085N12002635WA0112301145
B2013554748081N12002629WA0112301144
B2013564748077N12002622WA0112301144
B2013574748073N12002616WA0112301143
B2013584748069N12002610WA0112201142
B2013594748065N12002603WA0112201141
B2014004748060N12002595WA0112101140
B2014014748056N12002588WA0112101139
B2014024748053N12002579WA0112001139
B2014034748050N12002569WA0112001139
B2014044748048N12002558WA0111901138
B2014054748046N12002547WA0111901138
B2014064748044N12002536WA0111901137
B2014074748042N12002525WA0111801137
B2014084748040N12002514WA0111801136
B2014094748038N12002503WA0111701134
B2014104748036N12002491WA0111601133
B2014114748034N12002479WA0111601132
B2014124748032N12002467WA0111501131
B2014134748030N12002456WA0111401130
B2014144748027N12002445WA0111301129
B2014154748025N12002434WA0111201128
B2014164748023N12002423WA0111101127
B2014174748021N12002412WA0111001126
B2014184748018N12002401WA0110901124
B2014194748015N12002391WA0110801123
B2014204748012N12002382WA0110701122
B2014214748010N12002372WA0110601122
B2014224748007N12002362WA0110501122
B2014234748005N12002352WA0110401120
B2014244748002N12002341WA0110301118
B2014254747998N12002331WA0110201116
B2014264747994N12002320WA0110101115
B2014274747990N12002310WA0110001116
B2014284747988N12002300WA0109901117
B2014294747986N12002291WA0109901117
B2014304747984N12002283WA0109801116
B2014314747981N12002274WA0109701113
B2014324747977N12002265WA0109601110
B2014334747973N12002256WA0109501107
B2014344747969N12002247WA0109401105
B2014354747965N12002238WA0109301106
B2014364747962N12002231WA0109201108
B2014374747959N12002223WA0109201109
B2014384747956N12002216WA0109101109
B2014394747953N12002210WA0109101109
B2014404747949N12002204WA0109001108
B2014414747945N12002199WA0108901108
B2014424747940N12002195WA0108901108
B2014434747936N12002191WA0108901109
B2014444747932N12002187WA0108901111
B2014454747929N12002183WA0108901113
B2014464747925N12002180WA0108901115
B2014474747922N12002177WA0108901117
B2014484747918N12002175WA0109001118
B2014494747914N12002173WA0109001119
B2014504747910N12002172WA0109101121
B2014514747906N12002170WA0109201123
B2014514747906N12002170WA0109201123
B2014524747902N12002168WA0109301124
B2014534747898N12002167WA0109301126
B2014544747895N12002166WA0109501128
B2014554747891N12002165WA0109501129
B2014564747886N12002165WA0109601129
B2014574747882N12002165WA0109701131
B2014584747877N12002166WA0109901133
B2014594747874N12002167WA0110001136
B2015004747872N12002167WA0110101140
B2015014747870N12002165WA0110201142
B2015024747869N12002164WA0110401144
B2015034747867N12002163WA0110501145
B2015044747864N12002164WA0110601142
B2015054747860N12002166WA0110701138
B2015064747855N12002168WA0110701138
B2015074747851N12002167WA0110801138
B2015084747847N12002165WA0110801140
B2015094747844N12002162WA0110801141
B2015104747842N12002157WA0110901141
B2015114747839N12002152WA0110901140
B2015124747837N12002145WA0110901138
B2015134747834N12002137WA0110901135
B2015144747833N12002126WA0110801133
B2015154747833N12002114WA0110801131
B2015164747835N12002103WA0110701130
B2015174747838N12002091WA0110601129
B2015184747842N12002080WA0110501127
B2015194747846N12002070WA0110401126
B2015204747851N12002059WA0110301124
B2015214747857N12002048WA0110201122
B2015224747863N12002038WA0110101119
B2015234747870N12002028WA0110001117
B2015244747877N12002018WA0109901114
B2015254747884N12002006WA0109801112
B2015264747891N12001995WA0109601112
B2015274747897N12001984WA0109501111
B2015284747903N12001974WA0109401111
B2015294747909N12001964WA0109301111
B2015304747915N12001955WA0109201109
B2015314747922N12001944WA0109101109
B2015324747928N12001932WA0109001110
B2015334747934N12001919WA0109001110
B2015344747939N12001906WA0108901112
B2015354747942N12001893WA0108901115
B2015364747943N12001879WA0108901117
B2015374747943N12001866WA0108901118
B2015384747942N12001852WA0109001120
B2015394747941N12001839WA0109001120
B2015404747940N12001827WA0109001121
B2015414747937N12001814WA0109101120
B2015424747933N12001803WA0109101119
B2015434747929N12001793WA0109101120
B2015444747924N12001785WA0109201121
B2015454747918N12001778WA0109201121
B2015464747914N12001774WA0109301123
B2015474747909N12001770WA0109301124
B2015484747906N12001767WA0109401126
B2015494747902N12001766WA0109401127
B2015504747900N12001766WA0109501127
B2015514747898N12001768WA0109601127
B2015524747898N12001772WA0109601125
B2015534747898N12001775WA0109701124
B2015544747900N12001779WA0109701124
B2015554747902N12001782WA0109701124
B2015564747907N12001784WA0109701123
B2015574747912N12001785WA0109701122
B2015584747919N12001785WA0109601121
B2015584747919N12001785WA0109601121
B2015594747926N12001782WA0109601119
B2016004747934N12001776WA0109601118
B2016014747942N12001769WA0109501117
B2016024747949N12001759WA0109401117
B2016034747955N12001748WA0109401117
B2016044747960N12001736WA0109301118
B2016054747965N12001724WA0109301118
B2016064747969N12001711WA0109301118
B2016074747973N12001699WA0109301118
B2016084747977N12001687WA0109301120
B2016094747980N12001675WA0109301123
B2016104747983N12001662WA0109301124
B2016114747986N12001649WA0109401125
B2016124747990N12001635WA0109501124
B2016134747994N12001621WA0109501124
B2016144747998N12001607WA0109601124
B2016154748001N12001593WA0109601124
B2016164748004N12001579WA0109701125
B2016174748007N12001566WA0109701127
B2016184748009N12001553WA0109801129
B2016194748010N12001540WA0109901130
B2016204748011N12001528WA0110001130
B2016214748012N12001516WA0110001131
B2016224748011N12001504WA0110101131
B2016234748009N12001492WA0110201131
B2016244748007N12001482WA0110201132
B2016254748004N12001473WA0110301132
B2016264748001N12001464WA0110401133
B2016274747997N12001456WA0110401133
B2016284747993N12001447WA0110501134
B2016294747989N12001439WA0110501134
B2016304747985N12001430WA0110601134
B2016314747981N12001423WA0110601135
B2016324747978N12001417WA0110701137
B2016334747974N12001413WA0110701138
B2016344747970N12001411WA0110801139
B2016354747967N12001409WA0110901140
B2016364747964N12001410WA0111001140
B2016374747961N12001410WA0111001141
B2016384747959N12001412WA0111101143
B2016394747958N12001414WA0111201145
B2016404747957N12001416WA0111301147
B2016414747957N12001419WA0111401149
B2016424747956N12001422WA0111501149
B2016434747957N12001425WA0111601150
B2016444747957N12001429WA0111701150
B2016454747958N12001434WA0111701149
B2016464747958N12001438WA0111801149
B2016474747958N12001442WA0111901150
B2016484747959N12001447WA0111901151
B2016494747960N12001451WA0112001152
B2016504747961N12001456WA0112001152
B2016514747964N12001460WA0112101153
B2016524747967N12001464WA0112101153
B2016534747971N12001467WA0112201154
B2016544747976N12001469WA0112201154
B2016554747982N12001471WA0112301154
B2016564747988N12001471WA0112301154
B2016574747994N12001470WA0112401154
B2016584748001N12001468WA0112401155
B2016594748008N12001464WA0112501155
B2017004748015N12001458WA0112501154
B2017014748022N12001450WA0112501154
B2017024748028N12001441WA0112601154
B2017024748028N12001441WA0112601154
B2017034748034N12001430WA0112601154
B2017044748038N12001417WA0112601155
B2017054748041N12001405WA0112601155
B2017064748043N12001393WA0112601156
B2017074748045N12001379WA0112701155
B2017084748047N12001365WA0112701154
B2017094748048N12001351WA0112701152
B2017104748049N12001336WA0112701153
B2017114748049N12001324WA0112701155
B2017124748049N12001313WA0112701156
B2017134748049N12001302WA0112701157
B2017144748048N12001291WA0112701157
B2017154748048N12001279WA0112701156
B2017164748047N12001267WA0112701155
B2017174748044N12001255WA0112701154
B2017184748041N12001244WA0112701154
B2017194748038N12001235WA0112701154
B2017204748034N12001227WA0112801155
B2017214748031N12001220WA0112801156
B2017224748028N12001214WA0112801156
B2017234748024N12001208WA0112801154
B2017244748019N12001204WA0112801151
B2017254748013N12001200WA0112801148
B2017264748008N12001197WA0112701147
B2017274748002N12001196WA0112701146
B2017284747997N12001197WA0112601146
B2017294747992N12001198WA0112601147
B2017304747987N12001199WA0112501148
B2017314747983N12001201WA0112501149
B2017324747979N12001202WA0112501151
B2017334747975N12001204WA0112501152
B2017344747971N12001207WA0112501152
B2017354747968N12001211WA0112501152
B2017364747965N12001214WA0112601153
B2017374747963N12001217WA0112601154
B2017384747962N12001220WA0112601153
B2017394747961N12001224WA0112601152
B2017404747962N12001229WA0112601150
B2017414747963N12001236WA0112601148
B2017424747965N12001242WA0112501147
B2017434747968N12001248WA0112501147
B2017444747972N12001252WA0112401149
B2017454747977N12001255WA0112401150
B2017464747982N12001257WA0112401151
B2017474747987N12001258WA0112401153
B2017484747993N12001259WA0112401155
B2017494747998N12001259WA0112501156
B2017504748005N12001258WA0112501157
B2017514748011N12001256WA0112501158
B2017524748018N12001253WA0112601158
B2017534748025N12001249WA0112601159
B2017544748032N12001244WA0112701159
B2017554748039N12001238WA0112701160
B2017564748046N12001231WA0112801160
B2017574748053N12001224WA0112801160
B2017584748060N12001217WA0112901161
B2017594748068N12001210WA0112901161
B2018004748075N12001202WA0113001161
B2018014748081N12001195WA0113001161
B2018024748088N12001187WA0113001161
B2018034748095N12001179WA0113001161
B2018044748100N12001170WA0113101161
B2018054748105N12001159WA0113101161
B2018054748105N12001159WA0113101161
B2018064748111N12001148WA0113101160
B2018074748114N12001135WA0113101160
B2018084748118N12001122WA0113101160
B2018094748119N12001109WA0113101161
B2018104748119N12001097WA0113101162
B2018114748118N12001085WA0113101163
B2018124748116N12001074WA0113101164
B2018134748114N12001064WA0113201165
B2018144748112N12001056WA0113201166
B2018154748110N12001048WA0113301167
B2018164748107N12001041WA0113301168
B2018174748104N12001033WA0113401168
B2018184748101N12001026WA0113401168
B2018194748098N12001021WA0113501168
B2018204748096N12001018WA0113601168
B2018214748094N12001016WA0113601167
B2018224748091N12001016WA0113601165
B2018234748089N12001017WA0113601163
B2018244748085N12001019WA0113601161
B2018254748082N12001021WA0113601159
B2018264748079N12001023WA0113501161
B2018274748077N12001025WA0113501162
B2018284748075N12001027WA0113501163
B2018294748074N12001030WA0113501163
B2018304748073N12001033WA0113501163
B2018314748074N12001037WA0113401163
B2018324748076N12001041WA0113401162
B2018334748078N12001045WA0113401162
B2018344748081N12001050WA0113401161
B2018354748084N12001054WA0113401162
B2018364748087N12001058WA0113401164
B2018374748090N12001061WA0113401166
B2018384748093N12001064WA0113401169
B2018394748096N12001066WA0113501170
B2018404748099N12001068WA0113501170
B2018414748101N12001071WA0113601168
B2018424748105N12001075WA0113601167
B2018434748109N12001079WA0113701166
B2018444748113N12001082WA0113701165
B2018454748118N12001084WA0113701165
B2018464748123N12001086WA0113701165
B2018474748128N12001087WA0113701164
B2018484748134N12001088WA0113701163
B2018494748140N12001090WA0113701162
B2018504748145N12001092WA0113701159
B2018514748149N12001094WA0113601156
B2018524748153N12001098WA0113501152
B2018534748157N12001101WA0113401148
B2018544748162N12001105WA0113301144
B2018554748167N12001109WA0113101141
B2018564748173N12001110WA0112901137
B2018574748181N12001110WA0112801135
B2018584748188N12001106WA0112601133
B2018594748195N12001102WA0112401132
B2019004748202N12001097WA0112201132
B2019014748208N12001092WA0112101132
B2019024748213N12001086WA0111901133
B2019034748218N12001081WA0111801132
B2019044748223N12001073WA0111601131
B2019054748229N12001064WA0111501128
B2019064748235N12001053WA0111401125
B2019074748240N12001042WA0111301123
B2019084748246N12001032WA0111101122
B2019094748251N12001022WA0111001122
B2019094748251N12001022WA0111001122
B2019104748256N12001012WA0110801122
B2019114748260N12001003WA0110701122
B2019124748265N12000993WA0110601122
B2019134748270N12000983WA0110501122
B2019144748274N12000972WA0110401121
B2019154748277N12000961WA0110301122
B2019164748279N12000950WA0110301122
B2019174748280N12000939WA0110201122
B2019184748281N12000928WA0110201123
B2019194748282N12000917WA0110101123
B2019204748284N12000905WA0110101122
B2019214748286N12000892WA0110001122
B2019224748288N12000880WA0110001122
B2019234748289N12000866WA0110001122
B2019244748291N12000852WA0110001122
B2019254748293N12000839WA0110001122
B2019264748294N12000827WA0110001123
B2019274748295N12000815WA0110001123
B2019284748294N12000803WA0110001123
B2019294748293N12000792WA0110001122
B2019304748292N12000780WA0109901122
B2019314748290N12000769WA0109901122
B2019324748287N12000758WA0109901122
B2019334748284N12000748WA0109901121
B2019344748279N12000737WA0109901121
B2019354748275N12000728WA0109901122
B2019364748270N12000719WA0109901123
B2019374748266N12000711WA0109901125
B2019384748261N12000704WA0109901126
B2019394748256N12000698WA0110001127
B2019404748251N12000693WA0110001128
B2019414748245N12000687WA0110001128
B2019424748239N12000683WA0110101129
B2019434748234N12000679WA0110101130
B2019444748229N12000678WA0110201131
B2019454748224N12000677WA0110201131
B2019464748220N12000676WA0110301131
B2019474748215N12000675WA0110301130
B2019484748210N12000674WA0110301128
B2019494748205N12000672WA0110401127
B2019504748201N12000670WA0110401128
B2019514748198N12000669WA0110401130
B2019524748195N12000668WA0110401131
B2019534748192N12000667WA0110401130
B2019544748189N12000666WA0110401128
B2019554748185N12000666WA0110401126
B2019564748181N12000667WA0110401125
B2019574748177N12000669WA0110401125
B2019584748173N12000670WA0110401126
B2019594748170N12000671WA0110301127
B2020004748166N12000672WA0110301127
B2020014748163N12000674WA0110301126
B2020024748159N12000677WA0110301125
B2020034748155N12000680WA0110201124
B2020044748150N12000683WA0110201123
B2020054748145N12000687WA0110201123
B2020064748141N12000689WA0110101124
B2020074748137N12000692WA0110101125
B2020084748133N12000693WA0110101126
B2020094748129N12000694WA0110101126
B2020104748125N12000696WA0110101126
B2020114748121N12000699WA0110101125
B2020124748117N12000703WA0110101124
B2020134748113N12000707WA0110101123
B2020134748113N12000707WA0110101123
B2020144748110N12000710WA0110001123
B2020154748107N12000713WA0110001124
B2020164748104N12000716WA0110001124
B2020174748100N12000718WA0110001123
B2020184748096N12000722WA0110001122
B2020194748092N12000726WA0109901121
B2020204748089N12000729WA0109901122
B2020214748086N12000730WA0109901123
B2020224748084N12000732WA0109901124
B2020234748082N12000734WA0109901124
B2020244748079N12000737WA0109901122
B2020254748077N12000741WA0109901121
B2020264748075N12000746WA0109801120
B2020274748072N12000752WA0109801120
B2020284748070N12000756WA0109801121
B2020294748068N12000759WA0109801123
B2020304748066N12000761WA0109801125
B2020314748064N12000764WA0109801126
B2020324748063N12000769WA0109801125
B2020334748061N12000775WA0109801124
B2020344748060N12000782WA0109801124
B2020354748058N12000789WA0109801125
B2020364748057N12000795WA0109901127
B2020374748057N12000800WA0109901130
B2020384748057N12000806WA0110001132
B2020394748057N12000811WA0110001133
B2020404748059N12000818WA0110101133
B2020414748061N12000824WA0110201134
B2020424748062N12000829WA0110301136
B2020434748064N12000833WA0110401138
B2020444748066N12000836WA0110501138
B2020454748069N12000840WA0110501138
B2020464748072N12000844WA0110601137
B2020474748076N12000848WA0110701135
B2020484748080N12000851WA0110701133
B2020494748084N12000855WA0110701132
B2020504748087N12000859WA0110701129
B2020514748090N12000865WA0110701127
B2020524748093N12000870WA0110701126
B2020534748096N12000876WA0110601126
B2020544748099N12000880WA0110601127
B2020554748102N12000885WA0110601128
B2020564748105N12000890WA0110501129
B2020574748109N12000894WA0110501130
B2020584748111N12000899WA0110501131
B2020594748114N12000904WA0110501132
B2021004748115N12000909WA0110601133
B2021014748117N12000914WA0110601134
B2021024748119N12000919WA0110701134
B2021034748121N12000923WA0110701134
B2021044748122N12000926WA0110701134
B2021054748123N12000929WA0110701134
B2021064748123N12000931WA0110701133
B2021074748124N12000935WA0110701130
B2021084748125N12000940WA0110701127
B2021094748126N12000945WA0110601125
B2021104748129N12000949WA0110601124
B2021114748133N12000951WA0110501123
B2021124748139N12000952WA0110401122
B2021134748145N12000951WA0110301121
B2021144748152N12000949WA0110201119
B2021154748159N12000947WA0110201118
B2021164748165N12000945WA0110101117
B2021174748172N12000942WA0110001116
B2021184748179N12000938WA0109901113
B2021184748179N12000938WA0109901113
B2021194748187N12000932WA0109801110
B2021204748195N12000924WA0109601109
B2021214748201N12000915WA0109601108
B2021224748205N12000905WA0109401109
B2021234748209N12000896WA0109401110
B2021244748213N12000887WA0109301110
B2021254748216N12000877WA0109201108
B2021264748219N12000866WA0109101105
B2021274748220N12000853WA0109001102
B2021284748220N12000840WA0108801099
B2021294748220N12000828WA0108701097
B2021304748220N12000816WA0108601096
B2021314748223N12000806WA0108501096
B2021324748226N12000797WA0108301098
B2021334748228N12000787WA0108301099
B2021344748229N12000777WA0108201099
B2021354748229N12000767WA0108101098
B2021364748228N12000758WA0108101096
B2021374748225N12000749WA0108001095
B2021384748221N12000742WA0107901094
B2021394748216N12000737WA0107901094
B2021404748211N12000735WA0107801094
B2021414748207N12000734WA0107801095
B2021424748204N12000735WA0107701095
B2021434748201N12000736WA0107701095
B2021444748198N12000740WA0107601093
B2021454748196N12000744WA0107501091
B2021464748195N12000749WA0107401090
B2021474748195N12000754WA0107401090
B2021484748197N12000758WA0107301090
B2021494748200N12000762WA0107201089
B2021504748204N12000766WA0107101086
B2021514748210N12000770WA0107001082
B2021524748216N12000775WA0106901079
B2021534748222N12000780WA0106801076
B2021544748229N12000784WA0106601075
B2021554748236N12000787WA0106501075
B2021564748242N12000787WA0106301076
B2021574748249N12000787WA0106201076
B2021584748256N12000784WA0106101077
B2021594748263N12000779WA0106101077
B2022004748269N12000773WA0106001076
B2022014748275N12000767WA0105901075
B2022024748281N12000759WA0105801073
B2022034748286N12000751WA0105801070
B2022044748292N12000741WA0105601067
B2022054748298N12000731WA0105501064
B2022064748303N12000720WA0105301061
B2022074748307N12000709WA0105201061
B2022084748312N12000699WA0105101062
B2022094748315N12000690WA0105001063
B2022104748319N12000681WA0104901062
B2022114748322N12000671WA0104801060
B2022124748325N12000660WA0104601058
B2022134748327N12000649WA0104501057
B2022144748327N12000639WA0104401057
B2022154748327N12000629WA0104301056
B2022164748326N12000619WA0104201055
B2022174748324N12000610WA0104101056
B2022184748323N12000601WA0104001056
B2022194748321N12000592WA0103901056
B2022204748319N12000583WA0103801055
B2022214748316N12000573WA0103801053
B2022224748313N12000561WA0103701050
B2022224748313N12000561WA0103701050
B2022234748310N12000550WA0103601049
B2022244748307N12000540WA0103501051
B2022254748304N12000532WA0103501051
B2022264748302N12000525WA0103401052
B2022274748301N12000517WA0103401052
B2022284748298N12000508WA0103301052
B2022294748295N12000498WA0103301048
B2022304748290N12000488WA0103201046
B2022314748286N12000480WA0103101045
B2022324748281N12000474WA0103001045
B2022334748276N12000469WA0103001045
B2022344748272N12000463WA0102901045
B2022354748267N12000457WA0102801043
B2022364748261N12000451WA0102701040
B2022374748254N12000445WA0102601039
B2022384748249N12000439WA0102501039
B2022394748244N12000434WA0102401040
B2022404748240N12000429WA0102401041
B2022414748235N12000423WA0102301041
B2022424748230N12000418WA0102201040
B2022434748225N12000413WA0102201039
B2022444748219N12000408WA0102101039
B2022454748214N12000403WA0102101040
B2022464748209N12000398WA0102101041
B2022474748204N12000391WA0102101041
B2022484748199N12000383WA0102001041
B2022494748194N12000375WA0102001039
B2022504748189N12000367WA0102001039
B2022514748183N12000359WA0102001039
B2022524748178N12000353WA0101901040
B2022534748173N12000346WA0101901043
B2022544748168N12000340WA0102001046
B2022554748165N12000333WA0102001048
B2022564748160N12000328WA0102101050
B2022574748155N12000325WA0102101050
B2022584748150N12000323WA0102201051
B2022594748146N12000322WA0102301053
B2023004748143N12000323WA0102401055
B2023014748140N12000324WA0102501056
B2023024748139N12000326WA0102601056
B2023034748138N12000330WA0102601056
B2023044748138N12000333WA0102701056
B2023054748140N12000337WA0102701056
B2023064748142N12000341WA0102801057
B2023074748145N12000344WA0102901058
B2023084748149N12000347WA0103001058
B2023094748153N12000348WA0103001057
B2023104748157N12000349WA0103101057
B2023114748162N12000348WA0103101057
B2023124748166N12000345WA0103201056
B2023134748172N12000341WA0103201053
B2023144748178N12000335WA0103201050
B2023154748185N12000327WA0103101047
B2023164748191N12000318WA0103101045
B2023174748197N12000307WA0103001045
B2023184748201N12000297WA0103001046
B2023194748205N12000286WA0102901047
B2023204748208N12000275WA0102901048
B2023214748211N12000263WA0102901049
B2023224748212N12000251WA0102801049
B2023234748212N12000239WA0102801049
B2023244748212N12000227WA0102801049
B2023254748210N12000215WA0102801049
B2023254748210N12000215WA0102801049
B2023264748207N12000203WA0102801049
B2023274748204N12000192WA0102801049
B2023284748201N12000182WA0102801050
B2023294748198N12000173WA0102801051
B2023304748195N12000165WA0102801053
B2023314748192N12000158WA0102801054
B2023324748188N12000152WA0102801053
B2023334748184N12000146WA0102901052
B2023344748180N12000141WA0102901051
B2023354748175N12000137WA0102901050
B2023364748171N12000135WA0102901049
B2023374748168N12000134WA0102901048
B2023384748165N12000134WA0102801047
B2023394748163N12000133WA0102801046
B2023404748160N12000134WA0102701046
B2023414748158N12000136WA0102701046
B2023424748156N12000138WA0102701046
B2023434748155N12000139WA0102601047
B2023444748153N12000140WA0102601047
B2023454748150N12000141WA0102601045
B2023464748147N12000143WA0102501044
B2023474748143N12000145WA0102501041
B2023484748140N12000147WA0102501040
B2023494748138N12000149WA0102401040
B2023504748138N12000151WA0102401040
B2023514748137N12000155WA0102301038
B2023524748138N12000159WA0102201036
B2023534748138N12000163WA0102101034
B2023544748139N12000167WA0102001033
B2023554748140N12000170WA0102001033
B2023564748141N12000172WA0101901032
B2023574748142N12000173WA0101801031
B2023584748143N12000175WA0101701030
B2023594748143N12000179WA0101601027
B2024004748144N12000185WA0101401024
B2024014748145N12000191WA0101301022
B2024024748148N12000197WA0101101021
B2024034748152N12000201WA0101001022
B2024044748156N12000204WA0100901023
B2024054748160N12000206WA0100901025
B2024064748164N12000209WA0100801026
B2024074748169N12000212WA0100701026
B2024084748175N12000216WA0100701024
B2024094748182N12000221WA0100601023
B2024104748189N12000224WA0100601024
B2024114748194N12000226WA0100601029
B2024124748198N12000225WA0100601034
B2024134748201N12000223WA0100701038
B2024144748205N12000218WA0100801038
B2024154748211N12000213WA0100901036
B2024164748217N12000207WA0100901034
B2024174748223N12000198WA0100901031
B2024184748229N12000189WA0100901031
B2024194748232N12000177WA0100901031
B2024204748233N12000166WA0100901030
B2024214748233N12000154WA0100901030
B2024224748232N12000143WA0100901030
B2024234748231N12000131WA0100901030
B2024244748230N12000120WA0100901030
B2024254748228N12000109WA0100901031
B2024264748227N12000098WA0100901032
B2024274748225N12000087WA0100901033
B2024284748223N12000076WA0101001033
B2024284748223N12000076WA0101001033
B2024294748221N12000064WA0101001032
B2024304748219N12000053WA0101001031
B2024314748215N12000043WA0101001030
B2024324748212N12000033WA0101001027
B2024334748207N12000025WA0101001025
B2024344748202N12000016WA0100901021
B2024354748197N12000007WA0100801018
B2024364748192N11959998WA0100701016
B2024374748187N11959990WA0100601015
B2024384748182N11959983WA0100401013
B2024394748177N11959975WA0100301010
B2024404748172N11959967WA0100101007
B2024414748167N11959959WA0099901005
B2024424748162N11959951WA0099701003
B2024434748156N11959945WA0099601002
B2024444748152N11959938WA0099401002
B2024454748147N11959933WA0099301003
B2024464748143N11959928WA0099201003
B2024474748139N11959922WA0099101003
B2024484748135N11959916WA0099001002
B2024494748131N11959909WA0098901002
B2024504748127N11959903WA0098801002
B2024514748123N11959898WA0098801002
B2024524748119N11959894WA0098701002
B2024534748115N11959890WA0098601000
B2024544748110N11959888WA0098500999
B2024554748105N11959885WA0098400998
B2024564748100N11959883WA0098400996
B2024574748095N11959880WA0098300996
B2024584748091N11959878WA0098200996
B2024594748087N11959875WA0098100994
B2025004748083N11959874WA0098000992
B2025014748078N11959874WA0097900987
B2025024748074N11959874WA0097800983
B2025034748070N11959874WA0097600979
B2025044748066N11959875WA0097400976
B2025054748063N11959877WA0097300973
B2025064748060N11959880WA0097000970
B2025074748057N11959883WA0096800966
B2025084748054N11959887WA0096500962
B2025094748051N11959891WA0096300959
B2025104748048N11959895WA0096000957
B2025114748045N11959897WA0095800956
B2025124748042N11959899WA0095600954
B2025134748039N11959902WA0095400951
B2025144748035N11959904WA0095100948
B2025154748031N11959907WA0094900945
B2025164748027N11959910WA0094600942
B2025174748022N11959912WA0094400939
B2025184748017N11959915WA0094100937
B2025194748013N11959917WA0093900936
B2025204748008N11959918WA0093600934
B2025214748003N11959920WA0093400932
B2025224747998N11959920WA0093200929
B2025234747992N11959918WA0093000928
B2025244747986N11959916WA0092800928
B2025254747981N11959913WA0092600929
B2025264747976N11959912WA0092400929
B2025274747971N11959910WA0092400930
B2025284747967N11959907WA0092200930
B2025294747961N11959903WA0092100928
B2025304747956N11959899WA0092000927
B2025314747950N11959896WA0091900925
B2025324747944N11959894WA0091800924
B2025324747944N11959894WA0091800924
B2025334747939N11959893WA0091700923
B2025344747934N11959893WA0091600922
B2025354747929N11959893WA0091500922
B2025364747924N11959893WA0091300921
B2025374747919N11959893WA0091200920
B2025384747915N11959893WA0091100919
B2025394747910N11959894WA0091000917
B2025404747905N11959895WA0090900916
B2025414747901N11959896WA0090800914
B2025424747896N11959897WA0090700912
B2025434747891N11959898WA0090600911
B2025444747886N11959900WA0090400910
B2025454747883N11959903WA0090300909
B2025464747881N11959907WA0090200910
B2025474747880N11959910WA0090100910
B2025484747880N11959915WA0090000909
B2025494747880N11959920WA0089900908
B2025504747882N11959925WA0089800907
B2025514747885N11959930WA0089700906
B2025524747890N11959934WA0089600904
B2025534747896N11959936WA0089500902
B2025544747904N11959935WA0089400899
B2025554747912N11959932WA0089300898
B2025564747920N11959929WA0089200897
B2025574747927N11959924WA0089100896
B2025584747934N11959919WA0089000895
B2025594747940N11959913WA0088900893
B2026004747947N11959906WA0088700892
B2026014747954N11959898WA0088700890
B2026024747960N11959889WA0088500890
B2026034747966N11959881WA0088400890
B2026044747972N11959874WA0088300889
B2026054747979N11959866WA0088200889
B2026064747985N11959859WA0088100888
B2026074747991N11959851WA0088100887
B2026084747997N11959841WA0088000885
B2026094748003N11959831WA0087900882
B2026104748009N11959820WA0087700882
B2026114748013N11959810WA0087700882
B2026124748017N11959801WA0087600883
B2026134748021N11959791WA0087500884
B2026144748025N11959781WA0087400884
B2026154748029N11959771WA0087400883
B2026164748032N11959759WA0087300883
B2026174748033N11959747WA0087300883
B2026184748033N11959734WA0087200883
B2026194748032N11959722WA0087200883
B2026204748030N11959711WA0087100883
B2026214748028N11959700WA0087100883
B2026224748026N11959691WA0087100882
B2026234748024N11959682WA0087100882
B2026244748020N11959673WA0087000881
B2026254748017N11959664WA0087000879
B2026264748014N11959655WA0086900877
B2026274748010N11959645WA0086800876
B2026284748006N11959636WA0086700875
B2026294748002N11959629WA0086700874
B2026304747998N11959622WA0086600874
B2026314747994N11959617WA0086500872
B2026324747990N11959613WA0086400871
B2026334747986N11959610WA0086300870
B2026344747982N11959609WA0086200868
B2026354747977N11959608WA0086100867
B2026364747973N11959607WA0086000865
B2026364747973N11959607WA0086000865
B2026374747968N11959607WA0085900865
B2026384747963N11959607WA0085700864
B2026394747959N11959609WA0085700864
B2026404747955N11959610WA0085500864
B2026414747951N11959610WA0085500863
B2026424747947N11959612WA0085400861
B2026434747943N11959613WA0085300858
B2026444747938N11959616WA0085200856
B2026454747933N11959620WA0085100855
B2026464747929N11959622WA0085000855
B2026474747926N11959624WA0084900856
B2026484747922N11959626WA0084800857
B2026494747919N11959628WA0084700856
B2026504747916N11959630WA0084600855
B2026514747912N11959634WA0084600853
B2026524747908N11959638WA0084500852
B2026534747904N11959642WA0084400853
B2026544747901N11959645WA0084300853
B2026554747898N11959649WA0084300854
B2026564747895N11959652WA0084200853
B2026574747892N11959656WA0084100851
B2026584747888N11959661WA0084100849
B2026594747885N11959666WA0084000847
B2027004747882N11959672WA0083900846
B2027014747878N11959676WA0083800845
B2027024747875N11959680WA0083700844
B2027034747872N11959684WA0083600844
B2027044747869N11959687WA0083500842
B2027054747865N11959691WA0083400841
B2027064747862N11959696WA0083300839
B2027074747859N11959702WA0083200837
B2027084747856N11959707WA0083100835
B2027094747854N11959712WA0083000834
B2027104747851N11959714WA0082900833
B2027114747850N11959715WA0082800833
B2027124747848N11959715WA0082600831
B2027134747846N11959718WA0082500829
B2027144747845N11959722WA0082400824
B2027154747843N11959727WA0082200818
B2027164747842N11959732WA0082000814
B2027174747840N11959736WA0081800811
B2027184747838N11959740WA0081600808
B2027194747836N11959743WA0081400806
B2027204747835N11959748WA0081100802
B2027214747833N11959753WA0080900799
B2027224747832N11959758WA0080600796
B2027234747833N11959762WA0080400794
B2027244747834N11959767WA0080100792
B2027254747836N11959772WA0079900790
B2027264747838N11959777WA0079600787
B2027274747840N11959783WA0079400784
B2027284747842N11959788WA0079100781
B2027294747846N11959792WA0078900779
B2027304747851N11959794WA0078600776
B2027314747857N11959796WA0078400772
B2027324747864N11959798WA0078100768
B2027334747871N11959798WA0077900764
B2027344747879N11959796WA0077500761
B2027354747887N11959793WA0077300758
B2027364747894N11959789WA0077000755
B2027374747901N11959785WA0076700752
B2027384747908N11959781WA0076400748
B2027394747916N11959776WA0076200744
B2027394747916N11959776WA0076200744
B2027404747925N11959772WA0075800741
B2027414747933N11959767WA0075600738
B2027424747940N11959762WA0075200736
B2027434747948N11959758WA0075000736
B2027444747955N11959753WA0074700735
B2027454747963N11959749WA0074600734
B2027464747970N11959746WA0074300733
B2027474747977N11959741WA0074100733
B2027484747983N11959736WA0073900732
B2027494747989N11959730WA0073800731
B2027504747995N11959723WA0073600728
B2027514748001N11959714WA0073400727
B2027524748007N11959705WA0073200726
B2027534748011N11959694WA0073100725
B2027544748015N11959684WA0072900724
B2027554748017N11959673WA0072800723
B2027564748019N11959662WA0072600723
B2027574748020N11959650WA0072500721
B2027584748019N11959639WA0072400720
B2027594748019N11959628WA0072300719
B2028004748017N11959618WA0072100718
B2028014748015N11959608WA0072000717
B2028024748012N11959599WA0071800717
B2028034748009N11959591WA0071800717
B2028044748007N11959582WA0071600716
B2028054748004N11959573WA0071500716
B2028064748001N11959564WA0071400715
B2028074747997N11959556WA0071400714
B2028084747993N11959547WA0071300714
B2028094747988N11959539WA0071200713
B2028104747985N11959530WA0071100713
B2028114747981N11959522WA0071100713
B2028124747978N11959515WA0071000713
B2028134747974N11959507WA0071000712
B2028144747970N11959500WA0070900710
B2028154747966N11959492WA0070800709
B2028164747961N11959485WA0070700708
B2028174747956N11959479WA0070700707
B2028184747952N11959473WA0070600707
B2028194747948N11959468WA0070500706
B2028204747943N11959462WA0070400705
B2028214747939N11959457WA0070400704
B2028224747934N11959452WA0070300702
B2028234747929N11959447WA0070200700
B2028244747924N11959442WA0070100698
B2028254747919N11959438WA0070000697
B2028264747914N11959434WA0069900696
B2028274747910N11959430WA0069800695
B2028284747905N11959427WA0069600694
B2028294747900N11959423WA0069500693
B2028304747895N11959420WA0069400691
B2028314747891N11959416WA0069300689
B2028324747886N11959412WA0069200688
B2028334747881N11959408WA0069100685
B2028344747876N11959404WA0068900683
B2028354747872N11959401WA0068800681
B2028364747867N11959398WA0068600679
B2028374747863N11959394WA0068500676
B2028384747859N11959391WA0068200673
B2028394747854N11959388WA0068100670
B2028404747849N11959385WA0067800666
B2028414747844N11959383WA0067700663
B2028424747840N11959380WA0067400660
B2028434747835N11959377WA0067200656
B2028434747835N11959377WA0067200656
B2028444747830N11959374WA0066900653
B2028454747825N11959371WA0066700650
B2028464747820N11959368WA0066400647
B2028474747815N11959366WA0066200643
B2028484747810N11959364WA0065900641
B2028494747805N11959362WA0065700638
B2028504747800N11959361WA0065300635
B2028514747796N11959359WA0065100632
B2028524747790N11959357WA0064800629
B2028534747786N11959355WA0064600626
B2028544747781N11959354WA0064300624
B2028554747777N11959352WA0064000622
B2028564747773N11959350WA0063700620
B2028574747768N11959347WA0063500618
B2028584747764N11959342WA0063200615
B2028594747759N11959335WA0063000612
B2029004747755N11959329WA0062800611
B2029014747751N11959322WA0062600609
B2029024747747N11959316WA0062300607
B2029034747743N11959309WA0062100604
B2029044747740N11959301WA0061800601
B2029054747736N11959291WA0061600597
B2029064747732N11959280WA0061300595
B2029074747729N11959271WA0061100594
B2029084747726N11959261WA0060900594
B2029094747723N11959252WA0060700593
B2029104747721N11959241WA0060400592
B2029114747720N11959230WA0060300590
B2029124747718N11959218WA0060000588
B2029134747717N11959206WA0059900587
B2029144747717N11959193WA0059600586
B2029154747717N11959181WA0059500585
B2029164747718N11959169WA0059300584
B2029174747719N11959157WA0059100582
B2029184747721N11959145WA0058900580
B2029194747723N11959132WA0058800579
B2029204747726N11959119WA0058600577
B2029214747729N11959107WA0058400576
B2029224747732N11959094WA0058300574
B2029234747735N11959082WA0058100574
B2029244747739N11959070WA0058000573
B2029254747743N11959059WA0057900572
B2029264747748N11959048WA0057700571
B2029274747753N11959037WA0057600570
B2029284747758N11959027WA0057500570
B2029294747763N11959017WA0057400570
B2029304747768N11959008WA0057300570
B2029314747774N11958999WA0057200571
B2029324747780N11958992WA0057100572
B2029334747786N11958985WA0057100572
B2029344747792N11958980WA0057000572
B2029354747799N11958976WA0057000571
B2029364747805N11958972WA0056900570
B2029374747812N11958968WA0056900569
B2029384747819N11958965WA0056800567
B2029394747826N11958961WA0056800566
B2029404747833N11958958WA0056700566
B2029414747840N11958954WA0056700566
B2029424747846N11958950WA0056600567
B2029434747851N11958946WA0056600566
B2029444747858N11958944WA0056500565
B2029454747864N11958943WA0056400564
B2029464747871N11958943WA0056300562
B2029464747871N11958943WA0056300562
B2029474747877N11958943WA0056300561
B2029484747884N11958944WA0056200560
B2029494747890N11958945WA0056100560
B2029504747896N11958947WA0056000561
B2029514747901N11958948WA0055900561
B2029524747906N11958949WA0055900561
B2029534747910N11958951WA0055800560
B2029544747914N11958955WA0055800559
B2029554747918N11958959WA0055700558
B2029564747922N11958963WA0055600556
B2029574747926N11958967WA0055600555
B2029584747929N11958972WA0055400555
B2029594747931N11958976WA0055400554
B2030004747934N11958980WA0055300553
B2030014747936N11958984WA0055200553
B2030024747938N11958989WA0055100552
B2030034747940N11958993WA0055000551
B2030044747941N11958999WA0054900549
B2030054747942N11959005WA0054800547
B2030064747943N11959011WA0054700546
B2030074747943N11959015WA0054600545
B2030084747942N11959019WA0054400543
B2030094747941N11959023WA0054300542
B2030104747940N11959026WA0054200541
B2030114747938N11959030WA0054100538
B2030124747937N11959034WA0054000536
B2030134747937N11959039WA0053900533
B2030144747937N11959043WA0053800531
B2030154747937N11959047WA0053700529
B2030164747937N11959051WA0053500527
B2030174747937N11959056WA0053400524
B2030184747936N11959060WA0053200522
B2030194747934N11959064WA0053000519
B2030204747933N11959068WA0052800516
B2030214747931N11959072WA0052600514
B2030224747930N11959076WA0052400512
B2030234747928N11959079WA0052200510
B2030244747926N11959083WA0051900508
B2030254747924N11959086WA0051800505
B2030264747922N11959090WA0051500503
B2030274747919N11959093WA0051300501
B2030284747916N11959096WA0051000498
B2030294747913N11959098WA0050900496
B2030304747910N11959100WA0050600493
B2030314747906N11959101WA0050400491
B2030324747902N11959103WA0050100489
B2030334747898N11959103WA0049900486
B2030344747893N11959102WA0049600484
B2030354747889N11959099WA0049400482
B2030364747884N11959096WA0049100479
B2030374747880N11959090WA0049000477
B2030384747876N11959082WA0048700475
B2030394747873N11959073WA0048500473
B2030404747871N11959064WA0048200471
B2030414747870N11959054WA0048000469
B2030424747870N11959043WA0047700467
B2030434747872N11959033WA0047500465
B2030444747874N11959021WA0047300463
B2030454747875N11959009WA0047100460
B2030464747877N11958998WA0046800458
B2030474747878N11958987WA0046700456
B2030484747879N11958976WA0046400454
B2030494747880N11958966WA0046300450
B2030494747880N11958966WA0046300450
B2030504747882N11958955WA0046000445
B2030514747884N11958945WA0045900441
B2030524747887N11958934WA0045600438
B2030534747891N11958923WA0045500436
B2030544747895N11958914WA0045200434
B2030554747899N11958905WA0045100431
B2030564747904N11958895WA0044900428
B2030574747910N11958887WA0044800424
B2030584747916N11958880WA0044600422
B2030594747922N11958875WA0044400421
B2031004747929N11958871WA0044200419
B2031014747935N11958868WA0044100417
B2031024747942N11958866WA0043900415
B2031034747949N11958864WA0043800414
B2031044747956N11958863WA0043600411
B2031054747962N11958863WA0043500409
B2031064747967N11958864WA0043400408
B2031074747973N11958865WA0043300407
B2031084747978N11958866WA0043100405
B2031094747983N11958868WA0043000403
B2031104747988N11958870WA0042900402
B2031114747993N11958873WA0042800400
B2031124747997N11958876WA0042600398
B2031134748001N11958880WA0042500396
B2031144748004N11958884WA0042300394
B2031154748007N11958888WA0042200392
B2031164748009N11958892WA0042000390
B2031174748011N11958897WA0041900388
B2031184748013N11958902WA0041700385
B2031194748015N11958907WA0041600383
B2031204748018N11958912WA0041400381
B2031214748020N11958917WA0041200378
B2031224748023N11958921WA0041000377
B2031234748027N11958926WA0040900375
B2031244748030N11958931WA0040600373
B2031254748033N11958936WA0040500371
B2031264748036N11958942WA0040200369
B2031274748039N11958948WA0040100367
B2031284748041N11958954WA0039800365
B2031294748043N11958959WA0039600364
B2031304748045N11958965WA0039400362
B2031314748047N11958971WA0039200362
B2031324748047N11958976WA0039000360
B2031334748047N11958981WA0038900360
B2031344748047N11958986WA0038600359
B2031354748046N11958991WA0038500358
B2031364748043N11958995WA0038300357
B2031374748041N11958997WA0038200356
B2031384748038N11958999WA0038000355
B2031394748035N11958999WA0037800353
B2031404748031N11958999WA0037600351
B2031414748028N11958999WA0037500348
B2031424748024N11958998WA0037300346
B2031434748019N11958996WA0037200344
B2031444748016N11958994WA0036900344
B2031454748012N11958994WA0036800343
B2031464748009N11958995WA0036600341
B2031474748007N11958998WA0036500339
B2031484748005N11959001WA0036300337
B2031494748003N11959004WA0036100336
B2031504748002N11959008WA0035900334
B2031514748000N11959011WA0035800332
B2031524747997N11959015WA0035600330
B2031524747997N11959015WA0035600330
B2031534747995N11959018WA0035400327
B2031544747992N11959020WA0035200325
B2031554747988N11959021WA0035000323
B2031564747984N11959020WA0034800322
B2031574747981N11959017WA0034600320
B2031584747978N11959010WA0034300319
B2031594747977N11958999WA0034100317
B2032004747979N11958989WA0033800318
B2032014747983N11958980WA0033600316
B2032024747987N11958972WA0033300316
B2032034747992N11958968WA0033100314
B2032044747996N11958966WA0032900312
B2032054747999N11958971WA0032700311
B2032064748002N11958976WA0032400303
B2032074748000N11958979WA0032200302
B2032084747997N11958982WA0031800301
B2032094747993N11958982WA0031600300
B2032104747989N11958980WA0031300298
B2032114747986N11958978WA0031100296
B2032124747983N11958978WA0030800294
B2032134747980N11958980WA0030700292
B2032144747977N11958984WA0030400290
B2032154747976N11958989WA0030200288
B2032164747977N11958995WA0030000286
B2032174747979N11959001WA0029800282
B2032184747983N11959007WA0029500278
B2032194747986N11959013WA0029300276
B2032204747989N11959019WA0029000274
B2032214747990N11959024WA0028800272
B2032224747990N11959029WA0028500270
B2032234747987N11959033WA0028300269
B2032244747983N11959034WA0028100271
B2032254747977N11959033WA0027900271
B2032264747973N11959031WA0027600268
B2032274747970N11959030WA0027500267
B2032284747967N11959031WA0027300267
B2032294747965N11959035WA0027200265
B2032304747964N11959042WA0027000256
B2032314747966N11959050WA0026800251
B2032324747967N11959058WA0026600250
B2032334747966N11959064WA0026400248
B2032344747964N11959067WA0026200246
B2032354747960N11959070WA0026100249
B2032364747956N11959073WA0025900249
B2032374747952N11959075WA0025700248
B2032384747949N11959074WA0025500246
B2032394747946N11959071WA0025400247
B2032404747943N11959069WA0025300247
B2032414747939N11959071WA0025200244
B2032424747936N11959074WA0025100240
B2032434747933N11959076WA0024900237
B2032444747932N11959077WA0024800237
B2032454747932N11959077WA0024700236
B2032464747931N11959078WA0024500234
B2032474747931N11959078WA0024400234
B2032484747931N11959078WA0024300233
B2032494747931N11959078WA0024200231
B2032504747931N11959078WA0024100230
B2032514747931N11959078WA0024100229
B2032524747931N11959078WA0024000229
B2032534747931N11959078WA0024000229
B2032544747931N11959078WA0023900228
B2032554747931N11959078WA0023900228
B2032554747931N11959078WA0023900228
B2032564747931N11959078WA0023900228
B2032574747931N11959078WA0023800227
B2032584747931N11959078WA0023800227
B2032594747932N11959078WA0023800226
B2033004747932N11959078WA0023800226
B2033014747932N11959078WA0023700225
B2033024747932N11959078WA0023700225
B2033034747932N11959078WA0023700225
B2033044747932N11959078WA0023700225
B2033054747932N11959078WA0023700225
B2033064747932N11959078WA0023700224
B2033074747932N11959078WA0023700224
B2033084747932N11959077WA0023600224
B2033094747933N11959077WA0023600224
B2033104747933N11959077WA0023600223
B2033114747933N11959076WA0023600223
B2033124747933N11959076WA0023600222
B2033134747933N11959076WA0023600222
B2033144747933N11959076WA0023600222
B2033154747933N11959076WA0023600222
B2033164747933N11959076WA0023600222
B2033174747933N11959076WA0023600221
B2033184747933N11959076WA0023600221
B2033194747932N11959075WA0023600221
B2033204747932N11959075WA0023600221
B2033214747932N11959075WA0023600221
B2033224747931N11959076WA0023600221
B2033234747931N11959076WA0023600221
B2033244747930N11959076WA0023600221
B2033254747930N11959076WA0023600221
B2033264747929N11959076WA0023600221
B2033274747929N11959076WA0023600221
B2033284747928N11959076WA0023600221
B2033294747928N11959076WA0023600220
B2033304747927N11959075WA0023500221
B2033314747927N11959074WA0023500221
B2033324747927N11959074WA0023500221
B2033334747926N11959073WA0023500221
B2033344747925N11959073WA0023500221
B2033354747925N11959073WA0023500221
B2033364747925N11959072WA0023500221
B2033374747924N11959072WA0023500221
B2033384747924N11959072WA0023500221
B2033394747923N11959072WA0023500222
B2033404747923N11959071WA0023500222
B2033414747923N11959071WA0023500222
B2033424747922N11959071WA0023500222
B2033434747922N11959070WA0023500222
B2033444747921N11959070WA0023500223
B2033454747921N11959070WA0023500223
B2033464747920N11959070WA0023500222
B2033474747919N11959070WA0023500222
B2033484747919N11959070WA0023500222
B2033494747919N11959069WA0023500223
B2033504747919N11959069WA0023500223
B2033514747919N11959069WA0023500223
B2033524747919N11959069WA0023500223
B2033534747919N11959069WA0023500223
B2033544747919N11959069WA0023500223
B2033554747919N11959069WA0023500223
B2033564747919N11959069WA0023500223
B2033574747919N11959068WA0023500223
B2033584747920N11959068WA0023500223
B2033594747920N11959068WA0023500223
