AXFMSFP Flymaster Live, V1.0
HFFXA010
HFPLTPILOT:Brent Bauer
HFGTYGLIDERTYPE:Woody Valley Gto Light 2 / Ozone Rush 6
HFGIDGLIDERID:
HFDTM100GPSDATUM:WGS-1984
HFCIDCOMPETITIONID:1207
HFCCLCOMPETITIONCLASS:
HOSITSITE:LAUNCH
HFGPS:UBLOXNEO6
HFPRSPRESSALTSENSOR:NA
HFRFWFIRMWAREVERSION:202g
HFRHWHARDWAREVERSION:1.0R2
HFFTYFRTYPE:FLYMASTER,LIVE
HFDTE160625
B1909564748240N12002372WA0108801118
B1909574748239N12002373WA0108801117
B1909584748238N12002374WA0108801117
B1909594748237N12002375WA0108801117
B1910004748236N12002377WA0108701116
B1910014748235N12002380WA0108701115
B1910024748235N12002384WA0108601115
B1910034748235N12002389WA0108601114
B1910044748235N12002394WA0108501114
B1910054748234N12002399WA0108501114
B1910064748234N12002403WA0108501115
B1910074748233N12002406WA0108501115
B1910084748232N12002409WA0108401115
B1910094748231N12002414WA0108401114
B1910104748231N12002419WA0108401113
B1910114748231N12002423WA0108401114
B1910124748231N12002425WA0108401116
B1910134748231N12002428WA0108401116
B1910144748230N12002430WA0108401115
B1910154748227N12002433WA0108301113
B1910164748223N12002434WA0108201111
B1910174748219N12002435WA0108201110
B1910184748215N12002435WA0108101110
B1910194748213N12002435WA0108101112
B1910204748210N12002435WA0108001112
B1910214748207N12002435WA0108001112
B1910224748203N12002435WA0107901110
B1910234748198N12002435WA0107901109
B1910244748193N12002434WA0107801108
B1910254748189N12002433WA0107701108
B1910264748185N12002430WA0107601107
B1910274748180N12002428WA0107601107
B1910284748176N12002426WA0107501106
B1910294748172N12002424WA0107501105
B1910304748167N12002422WA0107401104
B1910314748162N12002420WA0107301103
B1910324748158N12002417WA0107201102
B1910334748153N12002414WA0107201102
B1910344748150N12002411WA0107101101
B1910354748146N12002407WA0107001100
B1910364748142N12002405WA0106901098
B1910374748138N12002403WA0106801096
B1910384748134N12002403WA0106701094
B1910394748130N12002404WA0106601091
B1910404748125N12002405WA0106401089
B1910414748121N12002405WA0106301087
B1910424748116N12002403WA0106101085
B1910434748112N12002398WA0106001082
B1910444748107N12002392WA0105801078
B1910454748102N12002385WA0105601075
B1910464748098N12002379WA0105301073
B1910474748093N12002373WA0105201071
B1910484748089N12002367WA0105001068
B1910494748084N12002360WA0104801065
B1910504748080N12002353WA0104501062
B1910514748076N12002345WA0104301059
B1910524748073N12002336WA0104101058
B1910534748069N12002329WA0104001058
B1910544748066N12002322WA0103801058
B1910554748061N12002316WA0103601056
B1910564748055N12002310WA0103401054
B1910574748049N12002304WA0103301053
B1910584748045N12002299WA0103201053
B1910594748041N12002295WA0103101055
B1911004748036N12002292WA0103001056
B1911014748032N12002288WA0103001056
B1911024748026N12002285WA0102901055
B1911034748021N12002282WA0102801054
B1911044748015N12002281WA0102701053
B1911054748009N12002280WA0102701054
B1911064748004N12002279WA0102601055
B1911074748000N12002279WA0102701057
B1911084747996N12002280WA0102701058
B1911094747992N12002280WA0102701057
B1911104747988N12002281WA0102601055
B1911114747983N12002283WA0102501053
B1911124747980N12002287WA0102501052
B1911134747976N12002291WA0102401051
B1911144747973N12002295WA0102301051
B1911154747969N12002299WA0102301051
B1911164747965N12002301WA0102201052
B1911174747961N12002303WA0102201054
B1911184747957N12002305WA0102301055
B1911194747953N12002307WA0102301057
B1911204747951N12002310WA0102301058
B1911214747949N12002314WA0102401060
B1911224747948N12002319WA0102401060
B1911234747949N12002326WA0102501061
B1911244747951N12002331WA0102501062
B1911254747953N12002336WA0102601065
B1911264747956N12002340WA0102701067
B1911274747959N12002345WA0102801068
B1911284747963N12002350WA0102901069
B1911294747967N12002355WA0103001069
B1911304747971N12002360WA0103101071
B1911314747976N12002362WA0103201073
B1911324747981N12002364WA0103301075
B1911334747986N12002364WA0103401076
B1911344747991N12002363WA0103601077
B1911354747997N12002361WA0103701079
B1911354747997N12002361WA0103701079
B1911364748002N12002356WA0103801080
B1911374748006N12002349WA0104001082
B1911384748009N12002341WA0104101082
B1911394748010N12002331WA0104201082
B1911404748009N12002321WA0104301082
B1911414748007N12002312WA0104401083
B1911424748005N12002304WA0104501083
B1911434748003N12002295WA0104501084
B1911444748000N12002287WA0104601086
B1911454747997N12002279WA0104701087
B1911464747993N12002273WA0104801088
B1911474747989N12002269WA0104901087
B1911484747984N12002268WA0104901088
B1911494747979N12002267WA0105001089
B1911504747975N12002266WA0105101091
B1911514747971N12002265WA0105201093
B1911524747967N12002265WA0105401095
B1911534747963N12002267WA0105401097
B1911544747959N12002270WA0105601098
B1911554747956N12002273WA0105701099
B1911564747954N12002278WA0105801100
B1911574747952N12002283WA0105901102
B1911584747953N12002289WA0106001102
B1911594747955N12002295WA0106101101
B1912004747959N12002300WA0106201102
B1912014747963N12002304WA0106301103
B1912024747966N12002307WA0106401107
B1912034747970N12002310WA0106501110
B1912044747973N12002312WA0106701112
B1912054747977N12002315WA0106801114
B1912064747981N12002318WA0107001117
B1912074747985N12002320WA0107201119
B1912084747989N12002323WA0107401121
B1912094747993N12002325WA0107501123
B1912104747997N12002326WA0107701125
B1912114748001N12002324WA0107801125
B1912124748006N12002319WA0108001125
B1912134748011N12002311WA0108101123
B1912144748015N12002301WA0108201124
B1912154748018N12002292WA0108301128
B1912164748018N12002284WA0108501133
B1912174748018N12002277WA0108701136
B1912184748018N12002269WA0108901138
B1912194748017N12002260WA0109001138
B1912204748015N12002251WA0109201138
B1912214748012N12002243WA0109301139
B1912224748008N12002235WA0109401140
B1912234748004N12002230WA0109601142
B1912244747999N12002226WA0109701144
B1912254747994N12002224WA0109901145
B1912264747989N12002223WA0110001146
B1912274747983N12002222WA0110101147
B1912284747979N12002222WA0110301151
B1912294747976N12002224WA0110501154
B1912304747974N12002227WA0110701156
B1912314747972N12002231WA0110801156
B1912324747969N12002236WA0111001156
B1912334747967N12002240WA0111101157
B1912344747965N12002245WA0111201159
B1912354747963N12002249WA0111401161
B1912364747963N12002255WA0111501162
B1912374747964N12002261WA0111701163
B1912374747964N12002261WA0111701163
B1912384747964N12002266WA0111901166
B1912394747966N12002270WA0112001168
B1912404747968N12002273WA0112201171
B1912414747972N12002275WA0112401173
B1912424747975N12002276WA0112601174
B1912434747979N12002277WA0112701176
B1912444747983N12002278WA0112901177
B1912454747987N12002278WA0113001178
B1912464747992N12002277WA0113201177
B1912474747996N12002273WA0113301177
B1912484748000N12002266WA0113401177
B1912494748002N12002257WA0113401177
B1912504748003N12002246WA0113501175
B1912514748001N12002235WA0113501174
B1912524747999N12002224WA0113601175
B1912534747996N12002214WA0113601176
B1912544747993N12002205WA0113701178
B1912554747991N12002196WA0113801182
B1912564747988N12002188WA0113901184
B1912574747986N12002181WA0114001186
B1912584747982N12002173WA0114201187
B1912594747978N12002167WA0114201189
B1913004747973N12002162WA0114401190
B1913014747969N12002158WA0114501192
B1913024747965N12002158WA0114701194
B1913034747961N12002159WA0114801194
B1913044747957N12002162WA0114801193
B1913054747953N12002164WA0114901193
B1913064747949N12002167WA0115001194
B1913074747946N12002169WA0115101195
B1913084747944N12002172WA0115201196
B1913094747942N12002176WA0115201195
B1913104747940N12002181WA0115301194
B1913114747939N12002186WA0115301194
B1913124747939N12002192WA0115301194
B1913134747940N12002198WA0115301193
B1913144747942N12002203WA0115301192
B1913154747944N12002208WA0115301193
B1913164747946N12002211WA0115401195
B1913174747949N12002212WA0115401197
B1913184747952N12002213WA0115501199
B1913194747955N12002215WA0115501199
B1913204747958N12002219WA0115601198
B1913214747962N12002221WA0115601199
B1913224747965N12002222WA0115701199
B1913234747969N12002223WA0115701199
B1913244747973N12002224WA0115701198
B1913254747977N12002225WA0115701197
B1913264747981N12002227WA0115701195
B1913274747986N12002228WA0115601194
B1913284747991N12002229WA0115601192
B1913294747996N12002229WA0115501191
B1913304748000N12002228WA0115501191
B1913314748005N12002227WA0115401190
B1913324748010N12002226WA0115401188
B1913334748015N12002226WA0115301187
B1913344748020N12002228WA0115201186
B1913354748024N12002230WA0115101184
B1913364748028N12002233WA0115001184
B1913374748031N12002236WA0115001183
B1913384748035N12002240WA0114901182
B1913394748038N12002244WA0114801180
B1913394748038N12002244WA0114801180
B1913404748041N12002248WA0114701179
B1913414748044N12002253WA0114601177
B1913424748048N12002257WA0114401175
B1913434748052N12002261WA0114301173
B1913444748056N12002265WA0114201172
B1913454748059N12002270WA0114101171
B1913464748062N12002275WA0113901170
B1913474748065N12002280WA0113801169
B1913484748067N12002285WA0113701168
B1913494748070N12002290WA0113601166
B1913504748073N12002296WA0113501165
B1913514748075N12002302WA0113401164
B1913524748078N12002307WA0113201163
B1913534748081N12002312WA0113101162
B1913544748084N12002317WA0113001160
B1913554748087N12002323WA0112901158
B1913564748090N12002328WA0112701156
B1913574748092N12002333WA0112601154
B1913584748094N12002338WA0112501153
B1913594748096N12002343WA0112401152
B1914004748098N12002348WA0112201150
B1914014748099N12002354WA0112101148
B1914024748100N12002360WA0111901146
B1914034748101N12002367WA0111801144
B1914044748101N12002373WA0111601142
B1914054748102N12002379WA0111501141
B1914064748103N12002385WA0111301140
B1914074748104N12002390WA0111201139
B1914084748106N12002395WA0111001138
B1914094748107N12002401WA0110901136
B1914104748107N12002408WA0110701134
B1914114748108N12002415WA0110601132
B1914124748109N12002422WA0110401130
B1914134748111N12002428WA0110301129
B1914144748113N12002434WA0110101128
B1914154748114N12002441WA0110001127
B1914164748115N12002446WA0109901127
B1914174748116N12002452WA0109801127
B1914184748116N12002458WA0109701127
B1914194748116N12002463WA0109601126
B1914204748115N12002470WA0109501124
B1914214748114N12002477WA0109401122
B1914224748113N12002483WA0109301122
B1914234748112N12002490WA0109201121
B1914244748111N12002496WA0109101121
B1914254748110N12002501WA0109101121
B1914264748109N12002507WA0109001121
B1914274748108N12002514WA0108901120
B1914284748108N12002521WA0108801119
B1914294748109N12002528WA0108801120
B1914304748110N12002534WA0108801122
B1914314748112N12002540WA0108801124
B1914324748113N12002545WA0108801125
B1914334748114N12002551WA0108801126
B1914344748116N12002557WA0108901126
B1914354748118N12002562WA0108901127
B1914364748120N12002567WA0108901127
B1914374748122N12002570WA0108901127
B1914384748125N12002573WA0108901126
B1914394748130N12002573WA0108901124
B1914404748136N12002571WA0108801121
B1914414748142N12002565WA0108701117
B1914424748147N12002555WA0108501114
B1914424748147N12002555WA0108501114
B1914434748150N12002544WA0108401114
B1914444748150N12002533WA0108301113
B1914454748148N12002522WA0108201113
B1914464748145N12002513WA0108101114
B1914474748142N12002506WA0108101116
B1914484748139N12002500WA0108101119
B1914494748136N12002495WA0108201120
B1914504748133N12002489WA0108201122
B1914514748130N12002482WA0108301123
B1914524748127N12002475WA0108301124
B1914534748124N12002468WA0108401125
B1914544748121N12002462WA0108401125
B1914554748116N12002457WA0108501124
B1914564748111N12002452WA0108501124
B1914574748105N12002448WA0108501124
B1914584748100N12002445WA0108501124
B1914594748095N12002442WA0108501125
B1915004748090N12002440WA0108601125
B1915014748084N12002436WA0108601125
B1915024748079N12002433WA0108601125
B1915034748073N12002432WA0108701126
B1915044748068N12002433WA0108701127
B1915054748064N12002436WA0108801128
B1915064748061N12002440WA0108901129
B1915074748059N12002445WA0108901131
B1915084748059N12002450WA0109001132
B1915094748060N12002454WA0109101133
B1915104748062N12002458WA0109201134
B1915114748065N12002461WA0109201134
B1915124748068N12002463WA0109301134
B1915134748071N12002465WA0109401133
B1915144748076N12002466WA0109401132
B1915154748081N12002466WA0109401131
B1915164748086N12002464WA0109401130
B1915174748091N12002459WA0109401128
B1915184748097N12002453WA0109301127
B1915194748101N12002446WA0109301126
B1915204748104N12002438WA0109301126
B1915214748106N12002429WA0109301126
B1915224748107N12002419WA0109201126
B1915234748105N12002408WA0109201125
B1915244748102N12002398WA0109201125
B1915254748098N12002389WA0109101124
B1915264748094N12002381WA0109101126
B1915274748090N12002375WA0109201127
B1915284748085N12002369WA0109201128
B1915294748080N12002363WA0109201128
B1915304748075N12002357WA0109201127
B1915314748070N12002350WA0109201127
B1915324748065N12002344WA0109201128
B1915334748060N12002339WA0109201129
B1915344748055N12002334WA0109301130
B1915354748050N12002331WA0109301131
B1915364748044N12002326WA0109401131
B1915374748038N12002322WA0109401131
B1915384748033N12002319WA0109401133
B1915394748027N12002318WA0109501134
B1915404748023N12002318WA0109601135
B1915414748019N12002321WA0109601137
B1915424748014N12002324WA0109701137
B1915434748010N12002328WA0109801137
B1915444748005N12002331WA0109801138
B1915454748000N12002334WA0109901141
B1915454748000N12002334WA0109901141
B1915464747996N12002336WA0110101144
B1915474747993N12002338WA0110201146
B1915484747991N12002341WA0110301147
B1915494747991N12002346WA0110401146
B1915504747993N12002352WA0110401144
B1915514747996N12002358WA0110501143
B1915524748000N12002362WA0110501143
B1915534748004N12002364WA0110501144
B1915544748008N12002364WA0110601145
B1915554748012N12002363WA0110601146
B1915564748017N12002361WA0110701146
B1915574748023N12002359WA0110701146
B1915584748028N12002355WA0110801146
B1915594748033N12002350WA0110801148
B1916004748037N12002344WA0110901150
B1916014748041N12002338WA0111001151
B1916024748045N12002331WA0111101152
B1916034748048N12002324WA0111101154
B1916044748050N12002315WA0111301155
B1916054748050N12002306WA0111301155
B1916064748050N12002296WA0111401156
B1916074748050N12002285WA0111501156
B1916084748049N12002276WA0111601158
B1916094748047N12002267WA0111701160
B1916104748045N12002259WA0111801160
B1916114748042N12002250WA0111801159
B1916124748038N12002243WA0111901159
B1916134748033N12002238WA0111901159
B1916144748028N12002236WA0112001159
B1916154748023N12002236WA0112001159
B1916164748019N12002237WA0112101160
B1916174748015N12002238WA0112101162
B1916184748012N12002240WA0112201162
B1916194748009N12002243WA0112301163
B1916204748007N12002246WA0112401163
B1916214748005N12002251WA0112401162
B1916224748005N12002257WA0112401162
B1916234748005N12002262WA0112501163
B1916244748007N12002266WA0112501165
B1916254748010N12002268WA0112601166
B1916264748014N12002269WA0112701167
B1916274748019N12002269WA0112701167
B1916284748024N12002269WA0112801168
B1916294748029N12002269WA0112801169
B1916304748033N12002268WA0112901171
B1916314748036N12002267WA0113001172
B1916324748040N12002267WA0113101173
B1916334748044N12002267WA0113201173
B1916344748049N12002267WA0113201172
B1916354748054N12002268WA0113301171
B1916364748060N12002267WA0113301171
B1916374748066N12002265WA0113301171
B1916384748072N12002263WA0113301171
B1916394748077N12002260WA0113401172
B1916404748082N12002258WA0113401173
B1916414748087N12002256WA0113501174
B1916424748092N12002254WA0113501174
B1916434748098N12002249WA0113501174
B1916444748103N12002242WA0113601173
B1916454748107N12002233WA0113601172
B1916464748109N12002222WA0113601172
B1916474748110N12002210WA0113601171
B1916484748108N12002199WA0113501171
B1916484748108N12002199WA0113501171
B1916494748104N12002189WA0113501171
B1916504748100N12002180WA0113501172
B1916514748095N12002173WA0113601173
B1916524748091N12002167WA0113601175
B1916534748086N12002162WA0113701176
B1916544748081N12002158WA0113701177
B1916554748075N12002153WA0113801178
B1916564748070N12002148WA0113901180
B1916574748065N12002143WA0113901182
B1916584748060N12002140WA0114001184
B1916594748055N12002138WA0114101184
B1917004748050N12002138WA0114201183
B1917014748045N12002139WA0114201183
B1917024748039N12002141WA0114301183
B1917034748034N12002142WA0114301183
B1917044748029N12002144WA0114401183
B1917054748023N12002146WA0114401184
B1917064748018N12002149WA0114401184
B1917074748014N12002152WA0114501185
B1917084748012N12002156WA0114501185
B1917094748010N12002161WA0114501185
B1917104748010N12002166WA0114601186
B1917114748010N12002171WA0114601186
B1917124748010N12002176WA0114601186
B1917134748010N12002181WA0114701186
B1917144748012N12002187WA0114701184
B1917154748014N12002193WA0114601183
B1917164748016N12002199WA0114601183
B1917174748018N12002203WA0114601183
B1917184748020N12002208WA0114601182
B1917194748024N12002213WA0114601181
B1917204748028N12002217WA0114501180
B1917214748032N12002220WA0114501179
B1917224748036N12002223WA0114401179
B1917234748040N12002226WA0114401180
B1917244748043N12002228WA0114401180
B1917254748047N12002231WA0114401179
B1917264748051N12002233WA0114301177
B1917274748056N12002234WA0114301176
B1917284748062N12002234WA0114201174
B1917294748067N12002233WA0114101173
B1917304748072N12002231WA0114101172
B1917314748078N12002227WA0114001172
B1917324748083N12002222WA0113901171
B1917334748088N12002215WA0113801169
B1917344748090N12002205WA0113701167
B1917354748090N12002195WA0113601164
B1917364748089N12002184WA0113501161
B1917374748087N12002174WA0113301159
B1917384748085N12002165WA0113201160
B1917394748083N12002155WA0113101160
B1917404748080N12002146WA0113101160
B1917414748078N12002136WA0113001159
B1917424748076N12002126WA0112901158
B1917434748074N12002115WA0112801157
B1917444748072N12002103WA0112701157
B1917454748070N12002092WA0112601157
B1917464748068N12002082WA0112601157
B1917474748065N12002073WA0112501157
B1917484748062N12002065WA0112501158
B1917494748058N12002059WA0112401157
B1917504748053N12002054WA0112401155
B1917514748047N12002051WA0112301152
B1917514748047N12002051WA0112301152
B1917524748041N12002050WA0112201150
B1917534748036N12002051WA0112001149
B1917544748032N12002054WA0112001149
B1917554748030N12002058WA0111901150
B1917564748028N12002062WA0111901150
B1917574748025N12002066WA0111801150
B1917584748023N12002070WA0111801149
B1917594748022N12002075WA0111801149
B1918004748023N12002081WA0111701147
B1918014748025N12002087WA0111601145
B1918024748027N12002093WA0111501143
B1918034748028N12002098WA0111401141
B1918044748029N12002104WA0111301139
B1918054748030N12002110WA0111201138
B1918064748032N12002116WA0111101137
B1918074748034N12002121WA0110901135
B1918084748037N12002126WA0110801134
B1918094748039N12002131WA0110701133
B1918104748041N12002137WA0110601131
B1918114748043N12002143WA0110401129
B1918124748045N12002149WA0110301128
B1918134748048N12002154WA0110101127
B1918144748051N12002160WA0110001126
B1918154748054N12002165WA0109901126
B1918164748056N12002170WA0109801127
B1918174748059N12002174WA0109801127
B1918184748061N12002179WA0109701127
B1918194748062N12002183WA0109601126
B1918204748063N12002189WA0109601124
B1918214748065N12002195WA0109401122
B1918224748068N12002200WA0109301120
B1918234748071N12002205WA0109201118
B1918244748074N12002210WA0109101117
B1918254748076N12002216WA0109001116
B1918264748078N12002222WA0108901114
B1918274748079N12002227WA0108701113
B1918284748081N12002233WA0108601112
B1918294748082N12002238WA0108501112
B1918304748083N12002243WA0108401110
B1918314748085N12002249WA0108201107
B1918324748087N12002255WA0108101105
B1918334748089N12002261WA0107901103
B1918344748090N12002267WA0107801102
B1918354748092N12002273WA0107601101
B1918364748093N12002278WA0107501100
B1918374748094N12002284WA0107401099
B1918384748095N12002289WA0107301099
B1918394748096N12002294WA0107201099
B1918404748097N12002300WA0107101099
B1918414748098N12002306WA0107001099
B1918424748098N12002312WA0107001100
B1918434748098N12002316WA0106901102
B1918444748098N12002320WA0107001104
B1918454748098N12002324WA0107001105
B1918464748099N12002329WA0107001104
B1918474748100N12002334WA0106901103
B1918484748102N12002338WA0106901104
B1918494748103N12002341WA0106901105
B1918504748104N12002344WA0107001106
B1918514748106N12002347WA0107001106
B1918524748109N12002350WA0107001105
B1918534748112N12002355WA0106901104
B1918534748112N12002355WA0106901104
B1918544748115N12002359WA0106901103
B1918554748117N12002364WA0106901102
B1918564748119N12002368WA0106901102
B1918574748120N12002372WA0106801102
B1918584748121N12002376WA0106801102
B1918594748123N12002381WA0106801102
B1919004748124N12002385WA0106801101
B1919014748126N12002389WA0106701102
B1919024748127N12002394WA0106701102
B1919034748129N12002398WA0106701101
B1919044748130N12002403WA0106701100
B1919054748131N12002408WA0106601099
B1919064748130N12002413WA0106601098
B1919074748130N12002417WA0106501097
B1919084748131N12002421WA0106501098
B1919094748132N12002424WA0106501099
B1919104748133N12002428WA0106501099
B1919114748135N12002433WA0106501098
B1919124748137N12002439WA0106401097
B1919134748140N12002444WA0106401097
B1919144748141N12002450WA0106301097
B1919154748143N12002455WA0106301098
B1919164748144N12002459WA0106301099
B1919174748145N12002463WA0106401099
B1919184748147N12002468WA0106401098
B1919194748149N12002473WA0106301097
B1919204748152N12002478WA0106301095
B1919214748155N12002483WA0106201094
B1919224748157N12002488WA0106201092
B1919234748159N12002493WA0106101091
B1919244748160N12002498WA0106001090
B1919254748161N12002503WA0105901089
B1919264748161N12002508WA0105801087
B1919274748161N12002514WA0105701084
B1919284748160N12002519WA0105601083
B1919294748160N12002523WA0105501082
B1919304748158N12002527WA0105401081
B1919314748156N12002529WA0105301080
B1919324748153N12002531WA0105201078
B1919334748149N12002532WA0105001075
B1919344748145N12002531WA0104901073
B1919354748141N12002529WA0104701071
B1919364748136N12002525WA0104501068
B1919374748132N12002520WA0104301066
B1919384748128N12002516WA0104201065
B1919394748124N12002512WA0104001064
B1919404748121N12002508WA0103901063
B1919414748117N12002503WA0103801061
B1919424748113N12002497WA0103601060
B1919434748109N12002492WA0103501059
B1919444748105N12002487WA0103401059
B1919454748102N12002482WA0103301058
B1919464748099N12002476WA0103201058
B1919474748095N12002470WA0103001056
B1919484748092N12002463WA0102901054
B1919494748087N12002457WA0102801052
B1919504748083N12002450WA0102601050
B1919514748079N12002443WA0102501050
B1919524748075N12002437WA0102401050
B1919534748072N12002430WA0102301050
B1919544748069N12002423WA0102301051
B1919554748065N12002416WA0102201051
B1919554748065N12002416WA0102201051
B1919564748061N12002407WA0102101050
B1919574748056N12002400WA0102101051
B1919584748053N12002393WA0102001051
B1919594748051N12002386WA0102001052
B1920004748048N12002378WA0102001052
B1920014748047N12002370WA0102001051
B1920024748046N12002360WA0101901050
B1920034748046N12002348WA0101901048
B1920044748048N12002338WA0101801047
B1920054748050N12002328WA0101701047
B1920064748053N12002319WA0101701048
B1920074748055N12002310WA0101701049
B1920084748057N12002301WA0101701049
B1920094748059N12002291WA0101701048
B1920104748061N12002281WA0101601047
B1920114748062N12002270WA0101601046
B1920124748063N12002260WA0101601045
B1920134748062N12002249WA0101501044
B1920144748061N12002239WA0101401042
B1920154748059N12002229WA0101301041
B1920164748057N12002220WA0101301040
B1920174748055N12002212WA0101201040
B1920184748052N12002205WA0101201041
B1920194748049N12002200WA0101101041
B1920204748045N12002196WA0101101041
B1920214748040N12002195WA0101001040
B1920224748035N12002196WA0101001039
B1920234748031N12002197WA0101001040
B1920244748027N12002197WA0101001043
B1920254748025N12002195WA0101001046
B1920264748022N12002194WA0101101047
B1920274748018N12002194WA0101101047
B1920284748015N12002195WA0101101045
B1920294748010N12002198WA0101101043
B1920304748007N12002201WA0101101041
B1920314748004N12002204WA0101001041
B1920324748002N12002206WA0101001041
B1920334748001N12002210WA0101001039
B1920344748001N12002215WA0100901037
B1920354748001N12002221WA0100801035
B1920364748002N12002227WA0100701034
B1920374748003N12002233WA0100601034
B1920384748004N12002238WA0100601035
B1920394748006N12002242WA0100501036
B1920404748008N12002245WA0100501036
B1920414748011N12002250WA0100401034
B1920424748014N12002254WA0100401032
B1920434748017N12002258WA0100301031
B1920444748020N12002262WA0100201030
B1920454748023N12002266WA0100101028
B1920464748026N12002270WA0100001027
B1920474748029N12002274WA0099901025
B1920484748031N12002278WA0099801023
B1920494748031N12002283WA0099701021
B1920504748031N12002288WA0099601018
B1920514748031N12002293WA0099401016
B1920524748030N12002297WA0099301015
B1920534748028N12002301WA0099101013
B1920544748027N12002304WA0099001012
B1920554748024N12002308WA0098801010
B1920564748021N12002311WA0098701008
B1920574748018N12002315WA0098501007
B1920574748018N12002315WA0098501007
B1920584748015N12002317WA0098401007
B1920594748012N12002318WA0098301006
B1921004748008N12002318WA0098201006
B1921014748004N12002319WA0098001004
B1921024748000N12002321WA0097901002
B1921034747998N12002325WA0097801001
B1921044747996N12002331WA0097701000
B1921054747995N12002335WA0097500999
B1921064747995N12002340WA0097500999
B1921074747995N12002344WA0097400999
B1921084747995N12002349WA0097300998
B1921094747996N12002354WA0097200997
B1921104747997N12002359WA0097100996
B1921114747998N12002364WA0097000995
B1921124747999N12002370WA0096900995
B1921134748001N12002375WA0096800994
B1921144748003N12002380WA0096800994
B1921154748004N12002385WA0096700993
B1921164748007N12002389WA0096600992
B1921174748009N12002393WA0096500991
B1921184748011N12002397WA0096500990
B1921194748013N12002402WA0096300988
B1921204748014N12002407WA0096300985
B1921214748012N12002412WA0096100983
B1921224748009N12002416WA0096000980
B1921234748005N12002417WA0095800978
B1921244748001N12002416WA0095700976
B1921254747996N12002413WA0095500974
B1921264747991N12002409WA0095300971
B1921274747987N12002404WA0095100969
B1921284747982N12002399WA0095000967
B1921294747978N12002393WA0094800966
B1921304747974N12002386WA0094700964
B1921314747970N12002378WA0094500963
B1921324747967N12002370WA0094400963
B1921334747964N12002363WA0094300962
B1921344747961N12002356WA0094200961
B1921354747957N12002347WA0094000960
B1921364747954N12002339WA0093900959
B1921374747951N12002330WA0093800958
B1921384747948N12002321WA0093700958
B1921394747945N12002313WA0093600958
B1921404747941N12002304WA0093500958
B1921414747938N12002296WA0093500958
B1921424747936N12002287WA0093400959
B1921434747934N12002277WA0093400960
B1921444747932N12002268WA0093400961
B1921454747930N12002259WA0093400961
B1921464747927N12002251WA0093300960
B1921474747924N12002244WA0093300959
B1921484747919N12002237WA0093300957
B1921494747914N12002230WA0093200956
B1921504747909N12002224WA0093100956
B1921514747905N12002219WA0093100957
B1921524747901N12002214WA0093100958
B1921534747897N12002210WA0093100958
B1921544747893N12002207WA0093100958
B1921554747889N12002205WA0093000957
B1921564747884N12002205WA0093000957
B1921574747881N12002206WA0092900956
B1921584747878N12002208WA0092900956
B1921594747875N12002210WA0092900955
B1921594747875N12002210WA0092900955
B1922004747872N12002212WA0092900955
B1922014747870N12002213WA0092800954
B1922024747867N12002215WA0092800952
B1922034747864N12002217WA0092700950
B1922044747860N12002220WA0092600948
B1922054747857N12002223WA0092500947
B1922064747854N12002225WA0092400947
B1922074747850N12002226WA0092300948
B1922084747846N12002225WA0092300949
B1922094747841N12002225WA0092300950
B1922104747837N12002226WA0092300951
B1922114747834N12002230WA0092300951
B1922124747831N12002235WA0092300949
B1922134747829N12002240WA0092200950
B1922144747827N12002244WA0092200951
B1922154747826N12002248WA0092300954
B1922164747826N12002252WA0092300954
B1922174747826N12002256WA0092300954
B1922184747825N12002262WA0092300952
B1922194747823N12002267WA0092300951
B1922204747820N12002272WA0092300951
B1922214747816N12002275WA0092200950
B1922224747813N12002278WA0092200951
B1922234747811N12002281WA0092200950
B1922244747811N12002284WA0092200948
B1922254747812N12002289WA0092100944
B1922264747814N12002295WA0092000941
B1922274747818N12002299WA0091800938
B1922284747823N12002299WA0091700937
B1922294747828N12002297WA0091500936
B1922304747833N12002291WA0091400933
B1922314747837N12002284WA0091300931
B1922324747840N12002275WA0091100929
B1922334747841N12002265WA0090900926
B1922344747841N12002254WA0090800923
B1922354747842N12002243WA0090600919
B1922364747842N12002232WA0090400917
B1922374747842N12002222WA0090200916
B1922384747841N12002212WA0090000914
B1922394747839N12002203WA0089800912
B1922404747837N12002193WA0089700911
B1922414747835N12002184WA0089500911
B1922424747832N12002176WA0089400912
B1922434747830N12002168WA0089300914
B1922444747828N12002160WA0089300915
B1922454747825N12002152WA0089200916
B1922464747822N12002145WA0089200916
B1922474747818N12002137WA0089100916
B1922484747816N12002129WA0089100918
B1922494747813N12002122WA0089100918
B1922504747810N12002116WA0089100917
B1922514747808N12002109WA0089000916
B1922524747806N12002101WA0089000916
B1922534747805N12002093WA0089000915
B1922544747804N12002086WA0089000915
B1922554747804N12002077WA0088900916
B1922564747805N12002068WA0088900916
B1922574747806N12002059WA0088900918
B1922584747805N12002053WA0089000923
B1922594747803N12002048WA0089100927
B1923004747801N12002044WA0089200929
B1923014747799N12002038WA0089400931
B1923024747797N12002029WA0089500931
B1923024747797N12002029WA0089500931
B1923034747796N12002020WA0089600932
B1923044747794N12002011WA0089700933
B1923054747792N12002003WA0089800937
B1923064747788N12001998WA0089900939
B1923074747785N12001995WA0090100940
B1923084747781N12001994WA0090200939
B1923094747776N12001994WA0090300936
B1923104747772N12001997WA0090300934
B1923114747768N12002001WA0090300931
B1923124747766N12002006WA0090200929
B1923134747764N12002012WA0090200927
B1923144747763N12002016WA0090100926
B1923154747762N12002020WA0090100924
B1923164747762N12002025WA0090000922
B1923174747764N12002030WA0089900919
B1923184747767N12002036WA0089800916
B1923194747771N12002040WA0089600914
B1923204747775N12002042WA0089500914
B1923214747779N12002042WA0089400914
B1923224747782N12002041WA0089300913
B1923234747786N12002038WA0089200910
B1923244747792N12002035WA0089000906
B1923254747800N12002032WA0088800901
B1923264747807N12002029WA0088600899
B1923274747813N12002026WA0088400898
B1923284747819N12002023WA0088300899
B1923294747825N12002017WA0088100898
B1923304747830N12002009WA0088000897
B1923314747835N12002001WA0087800896
B1923324747839N12001993WA0087800897
B1923334747841N12001984WA0087700898
B1923344747843N12001976WA0087600899
B1923354747846N12001967WA0087600900
B1923364747848N12001960WA0087600903
B1923374747851N12001955WA0087700908
B1923384747853N12001951WA0087800912
B1923394747854N12001947WA0087900915
B1923404747855N12001941WA0088000916
B1923414747856N12001935WA0088100916
B1923424747856N12001927WA0088200916
B1923434747855N12001919WA0088300916
B1923444747852N12001912WA0088400917
B1923454747847N12001908WA0088400917
B1923464747840N12001906WA0088500917
B1923474747834N12001907WA0088500917
B1923484747829N12001911WA0088600919
B1923494747826N12001917WA0088700920
B1923504747825N12001925WA0088800920
B1923514747823N12001932WA0088800921
B1923524747822N12001938WA0088900924
B1923534747822N12001942WA0089100927
B1923544747823N12001947WA0089200928
B1923554747827N12001951WA0089300927
B1923564747831N12001955WA0089400925
B1923574747835N12001959WA0089400925
B1923584747839N12001962WA0089400924
B1923594747844N12001963WA0089500924
B1924004747850N12001963WA0089500924
B1924014747855N12001961WA0089500924
B1924024747860N12001957WA0089500924
B1924034747864N12001952WA0089500925
B1924044747868N12001949WA0089600927
B1924054747872N12001947WA0089700930
B1924054747872N12001947WA0089700930
B1924064747875N12001944WA0089700932
B1924074747878N12001939WA0089800932
B1924084747879N12001932WA0089900932
B1924094747879N12001923WA0089900931
B1924104747877N12001915WA0090000931
B1924114747874N12001908WA0090000932
B1924124747870N12001902WA0090100933
B1924134747867N12001897WA0090200934
B1924144747862N12001892WA0090200936
B1924154747858N12001888WA0090300936
B1924164747852N12001883WA0090300936
B1924174747847N12001878WA0090400936
B1924184747842N12001875WA0090500938
B1924194747836N12001872WA0090500939
B1924204747830N12001872WA0090600939
B1924214747824N12001874WA0090600939
B1924224747820N12001880WA0090700938
B1924234747818N12001888WA0090600935
B1924244747818N12001896WA0090600933
B1924254747819N12001903WA0090600933
B1924264747821N12001909WA0090600932
B1924274747823N12001914WA0090500931
B1924284747826N12001920WA0090500927
B1924294747829N12001926WA0090300924
B1924304747831N12001932WA0090200921
B1924314747834N12001936WA0090100920
B1924324747837N12001938WA0090000920
B1924334747840N12001939WA0089900919
B1924344747843N12001941WA0089800917
B1924354747847N12001944WA0089700915
B1924364747851N12001946WA0089600914
B1924374747856N12001946WA0089400913
B1924384747862N12001944WA0089300912
B1924394747867N12001942WA0089200913
B1924404747871N12001939WA0089200915
B1924414747875N12001935WA0089200916
B1924424747877N12001929WA0089200918
B1924434747879N12001922WA0089200919
B1924444747881N12001915WA0089200920
B1924454747882N12001908WA0089200921
B1924464747883N12001901WA0089200922
B1924474747884N12001894WA0089300924
B1924484747886N12001886WA0089300925
B1924494747887N12001879WA0089400925
B1924504747887N12001871WA0089400926
B1924514747887N12001863WA0089500925
B1924524747886N12001856WA0089500923
B1924534747883N12001848WA0089500921
B1924544747880N12001840WA0089400918
B1924554747875N12001834WA0089300916
B1924564747870N12001829WA0089300914
B1924574747865N12001824WA0089200914
B1924584747861N12001820WA0089100913
B1924594747856N12001816WA0089100912
B1925004747853N12001809WA0089000912
B1925014747850N12001802WA0088900912
B1925024747849N12001796WA0088900913
B1925034747848N12001789WA0088900915
B1925044747847N12001782WA0088900916
B1925054747847N12001774WA0088900916
B1925064747847N12001765WA0088900915
B1925074747847N12001756WA0088900915
B1925084747847N12001748WA0088800915
B1925084747847N12001748WA0088800915
B1925094747848N12001741WA0088800914
B1925104747848N12001735WA0088800913
B1925114747848N12001727WA0088700912
B1925124747849N12001719WA0088700909
B1925134747849N12001709WA0088500906
B1925144747849N12001700WA0088400904
B1925154747848N12001692WA0088300902
B1925164747847N12001685WA0088200901
B1925174747845N12001678WA0088000898
B1925184747843N12001670WA0087900895
B1925194747842N12001660WA0087600892
B1925204747841N12001650WA0087500889
B1925214747841N12001639WA0087200887
B1925224747841N12001628WA0087100885
B1925234747840N12001618WA0086800883
B1925244747839N12001609WA0086700882
B1925254747837N12001601WA0086500882
B1925264747834N12001594WA0086400881
B1925274747831N12001589WA0086300880
B1925284747828N12001583WA0086100877
B1925294747823N12001578WA0085900874
B1925304747819N12001573WA0085800871
B1925314747815N12001567WA0085600870
B1925324747812N12001560WA0085400868
B1925334747809N12001554WA0085300866
B1925344747806N12001546WA0085100863
B1925354747802N12001539WA0084900860
B1925364747797N12001533WA0084700856
B1925374747792N12001529WA0084400853
B1925384747787N12001525WA0084200849
B1925394747782N12001522WA0083900846
B1925404747777N12001519WA0083700842
B1925414747771N12001516WA0083400839
B1925424747766N12001514WA0083200835
B1925434747760N12001513WA0082800832
B1925444747754N12001512WA0082600830
B1925454747749N12001511WA0082300830
B1925464747745N12001510WA0082200829
B1925474747740N12001509WA0081900828
B1925484747735N12001508WA0081800827
B1925494747730N12001506WA0081600825
B1925504747726N12001505WA0081400824
B1925514747721N12001504WA0081200823
B1925524747717N12001504WA0081100823
B1925534747713N12001506WA0081000823
B1925544747710N12001509WA0080900824
B1925554747708N12001512WA0080800825
B1925564747706N12001514WA0080800825
B1925574747702N12001515WA0080700824
B1925584747699N12001516WA0080600823
B1925594747695N12001516WA0080600823
B1926004747692N12001517WA0080500825
B1926014747689N12001517WA0080500826
B1926024747686N12001518WA0080500827
B1926034747683N12001517WA0080500827
B1926044747679N12001517WA0080500827
B1926054747676N12001518WA0080500827
B1926064747673N12001518WA0080500827
B1926074747670N12001518WA0080500828
B1926084747667N12001518WA0080500828
B1926094747664N12001518WA0080500828
B1926104747660N12001518WA0080500828
B1926104747660N12001518WA0080500828
B1926114747656N12001518WA0080500827
B1926124747653N12001518WA0080500827
B1926134747649N12001517WA0080600828
B1926144747646N12001516WA0080600828
B1926154747642N12001515WA0080600828
B1926164747638N12001514WA0080600828
B1926174747634N12001512WA0080600828
B1926184747631N12001510WA0080600829
B1926194747628N12001508WA0080600829
B1926204747625N12001507WA0080600829
B1926214747621N12001506WA0080600826
B1926224747616N12001504WA0080500824
B1926234747612N12001501WA0080500823
B1926244747608N12001498WA0080500824
B1926254747605N12001494WA0080400825
B1926264747602N12001490WA0080400825
B1926274747598N12001487WA0080400825
B1926284747594N12001483WA0080400825
B1926294747589N12001478WA0080400824
B1926304747585N12001472WA0080400824
B1926314747580N12001466WA0080400825
B1926324747577N12001459WA0080400826
B1926334747573N12001453WA0080400829
B1926344747571N12001446WA0080500831
B1926354747569N12001440WA0080600833
B1926364747566N12001434WA0080600834
B1926374747562N12001429WA0080700833
B1926384747557N12001424WA0080700832
B1926394747552N12001420WA0080700832
B1926404747547N12001417WA0080800834
B1926414747543N12001415WA0080900836
B1926424747539N12001415WA0081000838
B1926434747536N12001416WA0081100839
B1926444747533N12001418WA0081100838
B1926454747530N12001421WA0081200839
B1926464747528N12001425WA0081300840
B1926474747528N12001429WA0081400840
B1926484747528N12001433WA0081400840
B1926494747530N12001436WA0081500840
B1926504747534N12001439WA0081500839
B1926514747538N12001442WA0081500839
B1926524747543N12001445WA0081500839
B1926534747547N12001445WA0081600839
B1926544747551N12001443WA0081600839
B1926554747556N12001440WA0081600837
B1926564747562N12001437WA0081600835
B1926574747567N12001434WA0081500834
B1926584747572N12001431WA0081500834
B1926594747577N12001428WA0081500833
B1927004747582N12001423WA0081400832
B1927014747588N12001417WA0081400831
B1927024747593N12001412WA0081300832
B1927034747597N12001407WA0081300833
B1927044747601N12001401WA0081300834
B1927054747604N12001394WA0081300834
B1927064747607N12001385WA0081300832
B1927074747608N12001374WA0081200831
B1927084747609N12001364WA0081200830
B1927094747609N12001355WA0081100830
B1927104747608N12001346WA0081100830
B1927114747607N12001339WA0081000831
B1927124747605N12001333WA0081000831
B1927124747605N12001333WA0081000831
B1927134747602N12001328WA0081000830
B1927144747599N12001324WA0081000829
B1927154747595N12001321WA0080900828
B1927164747591N12001319WA0080900828
B1927174747587N12001316WA0080900829
B1927184747583N12001314WA0080900831
B1927194747580N12001314WA0080900832
B1927204747578N12001314WA0080900833
B1927214747575N12001316WA0081000833
B1927224747574N12001319WA0081000833
B1927234747573N12001323WA0081000832
B1927244747574N12001328WA0081000831
B1927254747576N12001332WA0081000831
B1927264747579N12001336WA0081000830
B1927274747582N12001339WA0080900830
B1927284747585N12001343WA0080900829
B1927294747588N12001346WA0080900828
B1927304747592N12001348WA0080800827
B1927314747596N12001349WA0080800827
B1927324747601N12001349WA0080800825
B1927334747606N12001348WA0080700824
B1927344747612N12001346WA0080600822
B1927354747618N12001344WA0080500821
B1927364747624N12001341WA0080500821
B1927374747629N12001339WA0080400821
B1927384747635N12001336WA0080400822
B1927394747641N12001332WA0080400823
B1927404747646N12001328WA0080400822
B1927414747650N12001321WA0080300821
B1927424747654N12001312WA0080200818
B1927434747656N12001302WA0080100816
B1927444747658N12001291WA0080000814
B1927454747660N12001282WA0079900816
B1927464747662N12001274WA0079900819
B1927474747664N12001266WA0079900820
B1927484747666N12001258WA0079900821
B1927494747667N12001249WA0079900820
B1927504747668N12001239WA0079900819
B1927514747670N12001228WA0079800820
B1927524747670N12001219WA0079800821
B1927534747669N12001210WA0079800822
B1927544747668N12001202WA0079800823
B1927554747666N12001194WA0079800822
B1927564747663N12001186WA0079800822
B1927574747660N12001179WA0079800821
B1927584747656N12001172WA0079800821
B1927594747652N12001165WA0079800820
B1928004747647N12001161WA0079800820
B1928014747642N12001159WA0079700819
B1928024747637N12001159WA0079700819
B1928034747633N12001161WA0079700818
B1928044747630N12001164WA0079700817
B1928054747628N12001169WA0079700817
B1928064747627N12001174WA0079700817
B1928074747626N12001180WA0079600816
B1928084747626N12001185WA0079600816
B1928094747627N12001191WA0079600815
B1928104747629N12001197WA0079500813
B1928114747631N12001204WA0079500812
B1928124747634N12001209WA0079400812
B1928134747636N12001214WA0079400813
B1928144747637N12001219WA0079400813
B1928154747639N12001224WA0079300813
B1928154747639N12001224WA0079300813
B1928164747641N12001229WA0079300812
B1928174747644N12001235WA0079300811
B1928184747648N12001240WA0079200811
B1928194747652N12001244WA0079200811
B1928204747657N12001245WA0079200811
B1928214747662N12001244WA0079100810
B1928224747668N12001242WA0079100809
B1928234747673N12001238WA0079100808
B1928244747677N12001232WA0079000807
B1928254747682N12001224WA0078900806
B1928264747686N12001216WA0078900806
B1928274747690N12001208WA0078800807
B1928284747694N12001201WA0078800808
B1928294747697N12001192WA0078800809
B1928304747699N12001184WA0078800809
B1928314747701N12001174WA0078800809
B1928324747703N12001164WA0078800809
B1928334747705N12001154WA0078800809
B1928344747707N12001145WA0078800809
B1928354747708N12001135WA0078800809
B1928364747711N12001126WA0078800809
B1928374747714N12001116WA0078700808
B1928384747717N12001106WA0078700807
B1928394747721N12001096WA0078600806
B1928404747725N12001088WA0078600806
B1928414747728N12001081WA0078600807
B1928424747732N12001073WA0078600807
B1928434747736N12001065WA0078600806
B1928444747741N12001057WA0078600805
B1928454747747N12001048WA0078500804
B1928464747751N12001040WA0078500803
B1928474747755N12001032WA0078400804
B1928484747759N12001025WA0078400805
B1928494747763N12001019WA0078400805
B1928504747768N12001012WA0078400805
B1928514747772N12001005WA0078400804
B1928524747778N12000997WA0078400804
B1928534747783N12000990WA0078400804
B1928544747788N12000984WA0078400805
B1928554747792N12000978WA0078400806
B1928564747796N12000973WA0078400806
B1928574747801N12000967WA0078400805
B1928584747806N12000960WA0078400805
B1928594747811N12000954WA0078400805
B1929004747815N12000948WA0078400806
B1929014747820N12000944WA0078400808
B1929024747824N12000939WA0078400809
B1929034747829N12000935WA0078500809
B1929044747835N12000931WA0078500808
B1929054747841N12000928WA0078500807
B1929064747847N12000924WA0078400807
B1929074747852N12000920WA0078400806
B1929084747857N12000916WA0078400806
B1929094747861N12000913WA0078400806
B1929104747866N12000910WA0078400804
B1929114747871N12000907WA0078300803
B1929124747876N12000904WA0078300801
B1929134747882N12000901WA0078200799
B1929144747887N12000898WA0078100797
B1929154747893N12000896WA0078000796
B1929164747898N12000893WA0077900795
B1929174747902N12000889WA0077800794
B1929184747907N12000885WA0077800792
B1929184747907N12000885WA0077800792
B1929194747911N12000880WA0077600790
B1929204747915N12000874WA0077500788
B1929214747918N12000867WA0077400786
B1929224747919N12000859WA0077200783
B1929234747920N12000849WA0077000780
B1929244747922N12000840WA0076900778
B1929254747923N12000830WA0076700776
B1929264747926N12000822WA0076500774
B1929274747930N12000814WA0076300771
B1929284747935N12000805WA0076100769
B1929294747940N12000798WA0075900768
B1929304747944N12000791WA0075800769
B1929314747948N12000785WA0075700773
B1929324747951N12000780WA0075700776
B1929334747953N12000775WA0075700779
B1929344747955N12000768WA0075800781
B1929354747956N12000760WA0075800782
B1929364747957N12000752WA0075800784
B1929374747956N12000745WA0075900785
B1929384747954N12000739WA0076000785
B1929394747950N12000735WA0076000783
B1929404747946N12000734WA0076000781
B1929414747941N12000736WA0076000780
B1929424747938N12000739WA0076000779
B1929434747937N12000742WA0076000780
B1929444747936N12000745WA0076000780
B1929454747936N12000750WA0075900778
B1929464747935N12000755WA0075900775
B1929474747934N12000760WA0075800772
B1929484747933N12000765WA0075700770
B1929494747933N12000769WA0075600769
B1929504747934N12000772WA0075500768
B1929514747936N12000775WA0075400766
B1929524747939N12000779WA0075300762
B1929534747943N12000784WA0075100758
B1929544747947N12000789WA0075000756
B1929554747952N12000792WA0074800758
B1929564747956N12000796WA0074700759
B1929574747961N12000799WA0074700761
B1929584747966N12000801WA0074700764
B1929594747971N12000803WA0074700767
B1930004747976N12000805WA0074700769
B1930014747981N12000808WA0074800771
B1930024747986N12000810WA0074900773
B1930034747992N12000809WA0075000774
B1930044747997N12000807WA0075000775
B1930054748001N12000802WA0075100776
B1930064748003N12000795WA0075200777
B1930074748003N12000788WA0075300778
B1930084747999N12000782WA0075300778
B1930094747995N12000780WA0075400778
B1930104747990N12000781WA0075400779
B1930114747986N12000785WA0075500781
B1930124747983N12000790WA0075600783
B1930134747981N12000797WA0075700785
B1930144747981N12000804WA0075900787
B1930154747982N12000812WA0076000789
B1930164747984N12000819WA0076100790
B1930174747988N12000825WA0076300793
B1930184747993N12000828WA0076400794
B1930194747998N12000829WA0076600794
B1930204748005N12000830WA0076600794
B1930214748011N12000827WA0076800794
B1930214748011N12000827WA0076800794
B1930224748015N12000823WA0076800795
B1930234748018N12000816WA0076900796
B1930244748019N12000808WA0077000796
B1930254748018N12000801WA0077100797
B1930264748016N12000796WA0077200798
B1930274748011N12000793WA0077300798
B1930284748007N12000793WA0077400798
B1930294748002N12000795WA0077400798
B1930304747997N12000797WA0077500800
B1930314747993N12000801WA0077600801
B1930324747989N12000806WA0077700803
B1930334747986N12000812WA0077800804
B1930344747984N12000818WA0077900804
B1930354747984N12000824WA0078000804
B1930364747985N12000830WA0078000804
B1930374747987N12000834WA0078100802
B1930384747990N12000839WA0078100799
B1930394747994N12000844WA0078000796
B1930404747998N12000850WA0078000793
B1930414748003N12000854WA0077800791
B1930424748008N12000856WA0077800792
B1930434748012N12000856WA0077800793
B1930444748016N12000855WA0077700792
B1930454748020N12000852WA0077600790
B1930464748024N12000847WA0077600788
B1930474748030N12000839WA0077400785
B1930484748035N12000832WA0077300786
B1930494748039N12000827WA0077300789
B1930504748043N12000822WA0077300792
B1930514748045N12000817WA0077300793
B1930524748046N12000810WA0077300793
B1930534748047N12000802WA0077300792
B1930544748045N12000793WA0077200792
B1930554748043N12000785WA0077200792
B1930564748040N12000780WA0077200793
B1930574748036N12000776WA0077200793
B1930584748032N12000774WA0077200793
B1930594748027N12000772WA0077200791
B1931004748022N12000773WA0077100791
B1931014748018N12000775WA0077100790
B1931024748015N12000780WA0077100790
B1931034748013N12000786WA0077100790
B1931044748013N12000794WA0077100790
B1931054748015N12000802WA0077100790
B1931064748018N12000808WA0077100791
B1931074748023N12000812WA0077200793
B1931084748028N12000813WA0077200794
B1931094748033N12000812WA0077300795
B1931104748038N12000810WA0077300795
B1931114748043N12000807WA0077300795
B1931124748046N12000802WA0077400795
B1931134748049N12000797WA0077400795
B1931144748052N12000791WA0077400795
B1931154748053N12000784WA0077400794
B1931164748054N12000777WA0077400794
B1931174748054N12000770WA0077400794
B1931184748053N12000764WA0077400793
B1931194748050N12000758WA0077400792
B1931204748047N12000754WA0077300791
B1931214748042N12000751WA0077300790
B1931224748038N12000748WA0077200788
B1931234748033N12000747WA0077200788
B1931244748028N12000747WA0077100788
B1931244748028N12000747WA0077100788
B1931254748024N12000749WA0077100789
B1931264748020N12000750WA0077100790
B1931274748016N12000751WA0077100793
B1931284748012N12000751WA0077200796
B1931294748009N12000749WA0077300799
B1931304748005N12000746WA0077400801
B1931314748001N12000743WA0077500801
B1931324747996N12000740WA0077600801
B1931334747992N12000739WA0077600801
B1931344747988N12000740WA0077700800
B1931354747984N12000742WA0077700797
B1931364747983N12000746WA0077700794
B1931374747983N12000751WA0077600789
B1931384747985N12000756WA0077400784
B1931394747989N12000760WA0077200779
B1931404747996N12000761WA0077100778
B1931414748002N12000759WA0076900778
B1931424748007N12000755WA0076900779
B1931434748012N12000750WA0076800780
B1931444748017N12000744WA0076700780
B1931454748022N12000735WA0076600779
B1931464748026N12000727WA0076600781
B1931474748028N12000720WA0076600786
B1931484748030N12000714WA0076600789
B1931494748031N12000706WA0076700791
B1931504748033N12000698WA0076700791
B1931514748034N12000688WA0076700790
B1931524748036N12000680WA0076800791
B1931534748038N12000673WA0076800793
B1931544748039N12000666WA0076900794
B1931554748039N12000659WA0076900793
B1931564748040N12000651WA0076900791
B1931574748040N12000642WA0076900790
B1931584748040N12000634WA0076900788
B1931594748038N12000626WA0076800787
B1932004748036N12000618WA0076800785
B1932014748033N12000610WA0076700784
B1932024748032N12000600WA0076600783
B1932034748033N12000590WA0076600781
B1932044748036N12000580WA0076500779
B1932054748041N12000572WA0076400778
B1932064748046N12000564WA0076300776
B1932074748050N12000559WA0076200776
B1932084748055N12000554WA0076100775
B1932094748059N12000549WA0076000773
B1932104748064N12000542WA0075900771
B1932114748068N12000535WA0075800768
B1932124748073N12000527WA0075600766
B1932134748078N12000520WA0075500764
B1932144748084N12000514WA0075400764
B1932154748089N12000509WA0075200764
B1932164748094N12000505WA0075200764
B1932174748099N12000501WA0075100765
B1932184748104N12000498WA0075000764
B1932194748109N12000493WA0074900763
B1932204748115N12000489WA0074900762
B1932214748120N12000484WA0074700761
B1932224748125N12000480WA0074700759
B1932234748130N12000475WA0074500758
B1932244748135N12000470WA0074500757
B1932254748139N12000465WA0074300755
B1932264748143N12000460WA0074300754
B1932274748147N12000454WA0074100752
B1932274748147N12000454WA0074100752
B1932284748152N12000449WA0074000750
B1932294748156N12000443WA0073800747
B1932304748161N12000437WA0073700746
B1932314748166N12000434WA0073500745
B1932324748171N12000431WA0073500745
B1932334748175N12000429WA0073300745
B1932344748180N12000426WA0073200744
B1932354748184N12000422WA0073100742
B1932364748188N12000416WA0073000740
B1932374748191N12000410WA0072800738
B1932384748194N12000403WA0072700737
B1932394748195N12000398WA0072600739
B1932404748196N12000392WA0072600740
B1932414748195N12000387WA0072500739
B1932424748193N12000382WA0072400738
B1932434748189N12000378WA0072300736
B1932444748185N12000377WA0072200735
B1932454748181N12000379WA0072100734
B1932464748176N12000383WA0072100734
B1932474748172N12000388WA0071900733
B1932484748169N12000394WA0071900734
B1932494748166N12000400WA0071900735
B1932504748164N12000406WA0071800736
B1932514748163N12000412WA0071800736
B1932524748160N12000417WA0071800735
B1932534748157N12000424WA0071700732
B1932544748154N12000430WA0071600730
B1932554748151N12000436WA0071500729
B1932564748148N12000440WA0071500728
B1932574748144N12000442WA0071400727
B1932584748140N12000441WA0071300726
B1932594748135N12000439WA0071200724
B1933004748131N12000436WA0071100722
B1933014748127N12000431WA0071000722
B1933024748124N12000426WA0070900721
B1933034748122N12000420WA0070800721
B1933044748121N12000413WA0070700720
B1933054748120N12000405WA0070600719
B1933064748119N12000397WA0070500717
B1933074748118N12000388WA0070400717
B1933084748119N12000380WA0070300717
B1933094748120N12000373WA0070200718
B1933104748123N12000366WA0070200717
B1933114748126N12000359WA0070100716
B1933124748129N12000352WA0070000715
B1933134748133N12000344WA0069900714
B1933144748136N12000337WA0069900713
B1933154748140N12000329WA0069800712
B1933164748144N12000323WA0069700712
B1933174748148N12000317WA0069700711
B1933184748151N12000310WA0069600709
B1933194748153N12000302WA0069500708
B1933204748156N12000293WA0069400706
B1933214748158N12000285WA0069300704
B1933224748160N12000277WA0069200704
B1933234748163N12000270WA0069100703
B1933244748164N12000262WA0069000703
B1933254748165N12000255WA0068900702
B1933264748165N12000247WA0068800700
B1933274748165N12000239WA0068700699
B1933284748164N12000232WA0068600697
B1933294748162N12000224WA0068400696
B1933304748160N12000218WA0068400695
B1933314748158N12000212WA0068200695
B1933314748158N12000212WA0068200695
B1933324748156N12000206WA0068200694
B1933334748154N12000200WA0068100693
B1933344748152N12000194WA0068000692
B1933354748149N12000187WA0067800691
B1933364748147N12000180WA0067800689
B1933374748145N12000173WA0067600689
B1933384748143N12000166WA0067600689
B1933394748141N12000160WA0067500689
B1933404748139N12000155WA0067400689
B1933414748137N12000149WA0067300688
B1933424748135N12000143WA0067300686
B1933434748132N12000137WA0067200685
B1933444748130N12000130WA0067100683
B1933454748127N12000124WA0067000682
B1933464748125N12000117WA0066900681
B1933474748124N12000110WA0066800680
B1933484748122N12000103WA0066700679
B1933494748120N12000096WA0066600679
B1933504748118N12000089WA0066500678
B1933514748116N12000082WA0066400677
B1933524748114N12000074WA0066300676
B1933534748113N12000067WA0066300676
B1933544748112N12000060WA0066200675
B1933554748112N12000052WA0066100674
B1933564748112N12000043WA0066000672
B1933574748112N12000034WA0065900671
B1933584748112N12000026WA0065800671
B1933594748110N12000018WA0065700670
B1934004748108N12000012WA0065600670
B1934014748106N12000006WA0065500669
B1934024748103N12000000WA0065500667
B1934034748099N11959995WA0065300666
B1934044748095N11959992WA0065300665
B1934054748090N11959989WA0065200665
B1934064748086N11959985WA0065100665
B1934074748082N11959980WA0065100665
B1934084748080N11959973WA0065000665
B1934094748076N11959967WA0065000665
B1934104748073N11959962WA0065000664
B1934114748068N11959958WA0064900663
B1934124748064N11959954WA0064800663
B1934134748060N11959951WA0064800664
B1934144748056N11959947WA0064800663
B1934154748053N11959945WA0064800663
B1934164748048N11959942WA0064700661
B1934174748044N11959940WA0064600659
B1934184748039N11959940WA0064600658
B1934194748035N11959941WA0064500657
B1934204748031N11959943WA0064500656
B1934214748027N11959946WA0064300654
B1934224748022N11959949WA0064300653
B1934234748018N11959950WA0064200652
B1934244748014N11959950WA0064100650
B1934254748009N11959948WA0064000648
B1934264748005N11959945WA0063800645
B1934274748001N11959940WA0063700643
B1934284747997N11959934WA0063500641
B1934294747995N11959927WA0063400640
B1934304747994N11959919WA0063300638
B1934314747994N11959911WA0063100636
B1934324747994N11959903WA0063000634
B1934334747996N11959895WA0062800632
B1934334747996N11959895WA0062800632
B1934344747999N11959888WA0062600630
B1934354748003N11959882WA0062400629
B1934364748007N11959879WA0062300627
B1934374748011N11959876WA0062100625
B1934384748016N11959874WA0062000623
B1934394748021N11959873WA0061800621
B1934404748027N11959874WA0061700619
B1934414748033N11959875WA0061400617
B1934424748039N11959876WA0061300616
B1934434748044N11959875WA0061100615
B1934444748049N11959873WA0061000613
B1934454748055N11959870WA0060800612
B1934464748060N11959868WA0060700610
B1934474748066N11959865WA0060500608
B1934484748071N11959862WA0060400607
B1934494748077N11959859WA0060300606
B1934504748081N11959856WA0060200606
B1934514748086N11959852WA0060000605
B1934524748090N11959849WA0059900604
B1934534748095N11959844WA0059800602
B1934544748100N11959840WA0059700599
B1934554748105N11959837WA0059500597
B1934564748111N11959835WA0059400595
B1934574748116N11959834WA0059200594
B1934584748121N11959831WA0059000592
B1934594748127N11959828WA0058900591
B1935004748132N11959824WA0058700590
B1935014748137N11959820WA0058600589
B1935024748142N11959816WA0058500588
B1935034748147N11959811WA0058400589
B1935044748151N11959807WA0058300589
B1935054748156N11959802WA0058200589
B1935064748161N11959798WA0058200589
B1935074748167N11959794WA0058100589
B1935084748173N11959791WA0058100589
B1935094748179N11959788WA0058000589
B1935104748184N11959784WA0058000588
B1935114748189N11959779WA0057900587
B1935124748194N11959773WA0057900585
B1935134748198N11959766WA0057700582
B1935144748202N11959759WA0057700580
B1935154748207N11959754WA0057500578
B1935164748212N11959749WA0057400577
B1935174748216N11959745WA0057300576
B1935184748221N11959741WA0057200574
B1935194748226N11959738WA0057100573
B1935204748231N11959735WA0057000572
B1935214748236N11959732WA0056800570
B1935224748241N11959730WA0056700569
B1935234748246N11959729WA0056600568
B1935244748251N11959729WA0056500566
B1935254748257N11959728WA0056300563
B1935264748262N11959726WA0056200561
B1935274748267N11959724WA0056000560
B1935284748271N11959722WA0055900559
B1935294748275N11959719WA0055800558
B1935304748279N11959714WA0055700556
B1935314748282N11959708WA0055500554
B1935324748284N11959702WA0055400553
B1935334748285N11959695WA0055200552
B1935344748284N11959689WA0055100552
B1935354748282N11959684WA0055000552
B1935364748279N11959680WA0054900551
B1935364748279N11959680WA0054900551
B1935374748275N11959677WA0054800550
B1935384748271N11959674WA0054700547
B1935394748266N11959673WA0054500545
B1935404748262N11959672WA0054400543
B1935414748256N11959672WA0054200542
B1935424748251N11959673WA0054100540
B1935434748246N11959675WA0053900539
B1935444748242N11959677WA0053800539
B1935454748238N11959679WA0053700539
B1935464748235N11959681WA0053600538
B1935474748231N11959684WA0053500536
B1935484748226N11959687WA0053400533
B1935494748221N11959691WA0053200530
B1935504748216N11959695WA0053000528
B1935514748211N11959698WA0052900527
B1935524748207N11959701WA0052800527
B1935534748203N11959703WA0052600527
B1935544748199N11959705WA0052500525
B1935554748195N11959708WA0052400523
B1935564748190N11959710WA0052200521
B1935574748184N11959713WA0052000518
B1935584748179N11959716WA0051900517
B1935594748174N11959718WA0051800518
B1936004748171N11959719WA0051700520
B1936014748167N11959721WA0051600520
B1936024748163N11959723WA0051600520
B1936034748157N11959725WA0051500519
B1936044748152N11959727WA0051400519
B1936054748148N11959728WA0051400522
B1936064748145N11959729WA0051400524
B1936074748142N11959729WA0051500525
B1936084748138N11959731WA0051500524
B1936094748132N11959732WA0051500522
B1936104748127N11959733WA0051400521
B1936114748122N11959733WA0051400522
B1936124748118N11959734WA0051400523
B1936134748114N11959735WA0051400524
B1936144748109N11959736WA0051400522
B1936154748104N11959738WA0051400521
B1936164748099N11959739WA0051300519
B1936174748094N11959741WA0051300518
B1936184748090N11959743WA0051200517
B1936194748085N11959745WA0051200516
B1936204748080N11959748WA0051100514
B1936214748075N11959752WA0051000512
B1936224748071N11959755WA0050900512
B1936234748067N11959757WA0050900512
B1936244748063N11959760WA0050800511
B1936254748059N11959762WA0050700510
B1936264748054N11959763WA0050600507
B1936274748049N11959763WA0050500505
B1936284748044N11959762WA0050400503
B1936294748039N11959759WA0050200501
B1936304748036N11959756WA0050100500
B1936314748033N11959752WA0050000500
B1936324748032N11959747WA0049900499
B1936334748032N11959741WA0049800497
B1936344748033N11959735WA0049700495
B1936354748036N11959729WA0049500493
B1936364748039N11959724WA0049400492
B1936374748044N11959721WA0049300491
B1936384748048N11959719WA0049200490
B1936394748052N11959715WA0049000488
B1936394748052N11959715WA0049000488
B1936404748056N11959711WA0048900486
B1936414748060N11959706WA0048700484
B1936424748064N11959700WA0048600482
B1936434748067N11959695WA0048400481
B1936444748070N11959690WA0048300479
B1936454748072N11959684WA0048100477
B1936464748074N11959677WA0047900475
B1936474748075N11959670WA0047700473
B1936484748077N11959664WA0047600471
B1936494748077N11959657WA0047400470
B1936504748077N11959652WA0047300469
B1936514748077N11959646WA0047100467
B1936524748077N11959640WA0046900466
B1936534748077N11959633WA0046800464
B1936544748078N11959626WA0046600463
B1936554748078N11959619WA0046400461
B1936564748079N11959612WA0046300461
B1936574748079N11959606WA0046200461
B1936584748079N11959600WA0046100460
B1936594748079N11959595WA0046000460
B1937004748078N11959589WA0045900458
B1937014748078N11959583WA0045700456
B1937024748078N11959576WA0045600455
B1937034748078N11959570WA0045500455
B1937044748079N11959564WA0045400456
B1937054748080N11959559WA0045400456
B1937064748081N11959553WA0045300457
B1937074748083N11959547WA0045200457
B1937084748084N11959542WA0045200457
B1937094748085N11959536WA0045100457
B1937104748086N11959529WA0045100456
B1937114748086N11959522WA0045000455
B1937124748087N11959515WA0045000454
B1937134748088N11959509WA0044900454
B1937144748089N11959502WA0044900454
B1937154748089N11959496WA0044800454
B1937164748090N11959489WA0044800453
B1937174748090N11959483WA0044700452
B1937184748091N11959476WA0044700452
B1937194748092N11959470WA0044600452
B1937204748093N11959465WA0044600452
B1937214748094N11959460WA0044600450
B1937224748094N11959453WA0044500448
B1937234748094N11959445WA0044300444
B1937244748095N11959437WA0044200442
B1937254748095N11959430WA0044100440
B1937264748096N11959423WA0044000440
B1937274748096N11959417WA0043800438
B1937284748096N11959411WA0043700436
B1937294748096N11959404WA0043500434
B1937304748096N11959397WA0043400431
B1937314748097N11959389WA0043200429
B1937324748097N11959382WA0043000428
B1937334748098N11959375WA0042900427
B1937344748100N11959369WA0042700426
B1937354748101N11959362WA0042500424
B1937364748102N11959355WA0042400421
B1937374748104N11959348WA0042200419
B1937384748106N11959340WA0042100418
B1937394748108N11959334WA0041900418
B1937404748110N11959329WA0041800418
B1937414748112N11959325WA0041700418
B1937424748114N11959319WA0041600416
B1937424748114N11959319WA0041600416
B1937434748116N11959313WA0041500414
B1937444748118N11959306WA0041300412
B1937454748120N11959298WA0041200411
B1937464748121N11959292WA0041100412
B1937474748122N11959287WA0041000412
B1937484748122N11959282WA0041000411
B1937494748122N11959275WA0040800409
B1937504748122N11959268WA0040700407
B1937514748122N11959261WA0040600405
B1937524748122N11959255WA0040500404
B1937534748123N11959249WA0040400404
B1937544748123N11959243WA0040300403
B1937554748124N11959236WA0040200402
B1937564748124N11959230WA0040100401
B1937574748122N11959223WA0040000400
B1937584748119N11959217WA0039900398
B1937594748115N11959212WA0039700396
B1938004748111N11959208WA0039600395
B1938014748106N11959206WA0039500395
B1938024748101N11959206WA0039400394
B1938034748096N11959207WA0039300393
B1938044748091N11959208WA0039200391
B1938054748086N11959210WA0039100389
B1938064748081N11959211WA0039000387
B1938074748076N11959213WA0038900386
B1938084748072N11959215WA0038800385
B1938094748068N11959219WA0038700384
B1938104748064N11959225WA0038600382
B1938114748061N11959231WA0038400379
B1938124748057N11959237WA0038300378
B1938134748054N11959243WA0038200377
B1938144748050N11959247WA0038100376
B1938154748047N11959252WA0037900374
B1938164748043N11959256WA0037800373
B1938174748040N11959261WA0037700371
B1938184748035N11959265WA0037600369
B1938194748031N11959269WA0037400368
B1938204748027N11959272WA0037300367
B1938214748022N11959275WA0037200366
B1938224748019N11959279WA0037100364
B1938234748015N11959285WA0036900362
B1938244748012N11959291WA0036800360
B1938254748007N11959296WA0036600359
B1938264748002N11959297WA0036500357
B1938274747997N11959295WA0036300355
B1938284747992N11959292WA0036200354
B1938294747988N11959288WA0036100354
B1938304747986N11959283WA0036000353
B1938314747984N11959278WA0035900353
B1938324747983N11959271WA0035800351
B1938334747984N11959263WA0035600348
B1938344747986N11959256WA0035500346
B1938354747990N11959250WA0035300345
B1938364747995N11959246WA0035200344
B1938374747999N11959242WA0035000343
B1938384748004N11959239WA0034900342
B1938394748009N11959235WA0034800341
B1938404748013N11959231WA0034700340
B1938414748018N11959228WA0034600338
B1938424748024N11959224WA0034400336
B1938434748029N11959220WA0034300335
B1938444748034N11959217WA0034200333
B1938454748039N11959212WA0034000332
B1938454748039N11959212WA0034000332
B1938464748044N11959208WA0033900331
B1938474748048N11959203WA0033800330
B1938484748053N11959199WA0033700329
B1938494748058N11959195WA0033600328
B1938504748062N11959191WA0033500327
B1938514748067N11959187WA0033400326
B1938524748071N11959182WA0033300325
B1938534748075N11959176WA0033100323
B1938544748078N11959169WA0033000322
B1938554748080N11959162WA0032900321
B1938564748082N11959155WA0032800320
B1938574748084N11959149WA0032700319
B1938584748085N11959142WA0032600318
B1938594748087N11959135WA0032500317
B1939004748088N11959128WA0032400316
B1939014748090N11959121WA0032300315
B1939024748090N11959115WA0032200314
B1939034748091N11959108WA0032000313
B1939044748090N11959101WA0031900312
B1939054748090N11959095WA0031800311
B1939064748090N11959088WA0031700310
B1939074748089N11959082WA0031600309
B1939084748088N11959075WA0031500308
B1939094748088N11959069WA0031300307
B1939104748089N11959062WA0031300305
B1939114748090N11959055WA0031100304
B1939124748090N11959047WA0031000303
B1939134748091N11959040WA0030900302
B1939144748091N11959033WA0030800301
B1939154748090N11959027WA0030600299
B1939164748089N11959020WA0030500298
B1939174748088N11959015WA0030400297
B1939184748086N11959009WA0030300296
B1939194748084N11959004WA0030100294
B1939204748082N11958999WA0030000293
B1939214748079N11958993WA0029900291
B1939224748076N11958988WA0029800290
B1939234748073N11958984WA0029600289
B1939244748071N11958979WA0029500288
B1939254748069N11958975WA0029400287
B1939264748067N11958971WA0029300286
B1939274748065N11958966WA0029200285
B1939284748062N11958962WA0029100283
B1939294748059N11958960WA0028900281
B1939304748055N11958959WA0028800280
B1939314748051N11958962WA0028700278
B1939324748048N11958967WA0028600276
B1939334748047N11958974WA0028400274
B1939344748048N11958982WA0028300272
B1939354748049N11958989WA0028100271
B1939364748050N11958996WA0028000271
B1939374748051N11959003WA0027900270
B1939384748052N11959010WA0027800269
B1939394748052N11959017WA0027700267
B1939404748050N11959023WA0027600265
B1939414748047N11959028WA0027400263
B1939424748043N11959030WA0027300261
B1939434748039N11959029WA0027100260
B1939444748036N11959027WA0027000259
B1939454748033N11959023WA0026900258
B1939464748030N11959021WA0026800257
B1939474748027N11959019WA0026600256
B1939484748024N11959019WA0026600255
B1939484748024N11959019WA0026600255
B1939494748020N11959019WA0026400254
B1939504748016N11959020WA0026300252
B1939514748013N11959021WA0026200251
B1939524748009N11959023WA0026100249
B1939534748006N11959026WA0025900248
B1939544748004N11959028WA0025900248
B1939554748001N11959031WA0025700246
B1939564747997N11959035WA0025600244
B1939574747993N11959040WA0025400241
B1939584747989N11959044WA0025300239
B1939594747985N11959048WA0025100238
B1940004747982N11959051WA0025000237
B1940014747979N11959054WA0024800236
B1940024747975N11959057WA0024700234
B1940034747971N11959059WA0024600232
B1940044747967N11959062WA0024500230
B1940054747963N11959065WA0024300228
B1940064747959N11959068WA0024200227
B1940074747955N11959071WA0024000226
B1940084747951N11959074WA0023900225
B1940094747948N11959077WA0023800224
B1940104747945N11959080WA0023700223
B1940114747943N11959083WA0023600222
B1940124747941N11959085WA0023500221
B1940134747940N11959086WA0023400220
B1940144747939N11959087WA0023400219
B1940154747938N11959087WA0023300219
B1940164747937N11959088WA0023200219
B1940174747937N11959090WA0023200219
B1940184747936N11959090WA0023200219
B1940194747936N11959090WA0023100219
B1940204747936N11959090WA0023100220
B1940214747936N11959090WA0023100219
B1940224747935N11959090WA0023100218
B1940234747935N11959090WA0023000218
B1940244747935N11959090WA0023000218
B1940254747935N11959091WA0023000218
B1940264747935N11959091WA0023000218
B1940274747935N11959091WA0023000218
B1940284747935N11959091WA0023000218
B1940294747935N11959091WA0023000218
B1940304747935N11959091WA0022900218
B1940314747935N11959091WA0022900218
B1940324747935N11959091WA0022900218
B1940334747935N11959091WA0022900218
B1940344747935N11959091WA0022900218
B1940354747935N11959092WA0022900218
B1940364747935N11959092WA0022900218
B1940374747935N11959093WA0022900218
B1940384747936N11959093WA0022900218
B1940394747936N11959094WA0022900217
B1940404747936N11959094WA0022900217
B1940414747936N11959095WA0022900217
B1940424747936N11959094WA0022900217
B1940434747936N11959094WA0022900217
B1940444747935N11959094WA0022900216
B1940454747935N11959093WA0022900216
B1940464747936N11959092WA0022900216
B1940474747936N11959092WA0022900215
B1940484747937N11959092WA0022900214
B1940494747937N11959091WA0022900214
B1940504747937N11959091WA0022900214
