AXFMSFP Flymaster Live, V1.0
HFFXA010
HFPLTPILOT:Brice Johnson
HFGTYGLIDERTYPE:Air Design Sock / Ozone Photon
HFGIDGLIDERID:
HFDTM100GPSDATUM:WGS-1984
HFCIDCOMPETITIONID:327
HFCCLCOMPETITIONCLASS:
HOSITSITE:LAUNCH
HFGPS:UBLOXNEO6
HFPRSPRESSALTSENSOR:NA
HFRFWFIRMWAREVERSION:202g
HFRHWHARDWAREVERSION:1.0R2
HFFTYFRTYPE:FLYMASTER,LIVE
HFDTE160625
B1916484748240N12002355WA0109401121
B1916494748240N12002357WA0109401121
B1916504748240N12002357WA0109401121
B1916514748240N12002357WA0109401121
B1916524748240N12002358WA0109401121
B1916534748239N12002360WA0109301120
B1916544748238N12002363WA0109301121
B1916554748237N12002366WA0109301120
B1916564748236N12002369WA0109301120
B1916574748235N12002373WA0109201120
B1916584748234N12002377WA0109201119
B1916594748233N12002381WA0109201120
B1917004748231N12002385WA0109201120
B1917014748230N12002390WA0109101118
B1917024748228N12002397WA0109001116
B1917034748226N12002403WA0108901115
B1917044748223N12002408WA0108801115
B1917054748220N12002412WA0108701115
B1917064748217N12002416WA0108501115
B1917074748214N12002420WA0108401115
B1917084748210N12002422WA0108401116
B1917094748207N12002424WA0108401116
B1917104748204N12002426WA0108201117
B1917114748201N12002427WA0108101117
B1917124748198N12002429WA0108201117
B1917134748195N12002432WA0108201115
B1917144748191N12002435WA0108201113
B1917154748186N12002437WA0108201111
B1917164748182N12002440WA0108201110
B1917174748178N12002442WA0108301111
B1917184748174N12002444WA0108201111
B1917194748171N12002446WA0108201111
B1917204748167N12002447WA0108201110
B1917214748163N12002448WA0108201108
B1917224748157N12002449WA0108101105
B1917234748151N12002450WA0108001103
B1917244748144N12002451WA0108001103
B1917254748139N12002452WA0107901103
B1917264748135N12002453WA0107901103
B1917274748130N12002453WA0107801102
B1917284748125N12002453WA0107701101
B1917294748120N12002452WA0107601100
B1917304748115N12002449WA0107501099
B1917314748110N12002445WA0107401098
B1917324748105N12002438WA0107301097
B1917334748101N12002430WA0107201095
B1917344748098N12002421WA0107201093
B1917354748097N12002412WA0107101091
B1917364748096N12002402WA0107001089
B1917374748095N12002392WA0106901087
B1917384748095N12002381WA0106801085
B1917394748095N12002370WA0106701083
B1917404748094N12002359WA0106601081
B1917414748093N12002348WA0106501079
B1917424748091N12002337WA0106401077
B1917434748090N12002326WA0106301076
B1917444748089N12002315WA0106201074
B1917454748087N12002304WA0106101072
B1917464748086N12002293WA0105901070
B1917474748084N12002283WA0105801068
B1917484748081N12002273WA0105701065
B1917494748078N12002265WA0105501063
B1917504748074N12002257WA0105401061
B1917514748070N12002250WA0105201059
B1917514748070N12002250WA0105201059
B1917524748066N12002243WA0105201057
B1917534748062N12002236WA0105001055
B1917544748057N12002229WA0104901053
B1917554748052N12002223WA0104701050
B1917564748047N12002218WA0104601047
B1917574748042N12002212WA0104401043
B1917584748037N12002207WA0104301040
B1917594748032N12002202WA0104101038
B1918004748027N12002197WA0104001036
B1918014748021N12002193WA0103901035
B1918024748015N12002189WA0103701033
B1918034748009N12002186WA0103601031
B1918044748004N12002182WA0103501029
B1918054747998N12002179WA0103301028
B1918064747992N12002175WA0103201027
B1918074747986N12002172WA0103001027
B1918084747980N12002169WA0102901026
B1918094747974N12002166WA0102701025
B1918104747967N12002164WA0102601024
B1918114747961N12002161WA0102501023
B1918124747955N12002159WA0102301022
B1918134747949N12002158WA0102101020
B1918144747943N12002156WA0102001019
B1918154747938N12002153WA0101901018
B1918164747932N12002151WA0101701016
B1918174747927N12002148WA0101501013
B1918184747921N12002145WA0101401011
B1918194747915N12002142WA0101101008
B1918204747909N12002140WA0101001005
B1918214747902N12002137WA0100701001
B1918224747895N12002136WA0100600998
B1918234747887N12002136WA0100300995
B1918244747880N12002136WA0100100993
B1918254747873N12002137WA0099800992
B1918264747867N12002138WA0099600991
B1918274747861N12002139WA0099300990
B1918284747855N12002141WA0099100988
B1918294747849N12002142WA0098900986
B1918304747843N12002144WA0098700985
B1918314747837N12002146WA0098400983
B1918324747832N12002148WA0098200982
B1918334747827N12002149WA0098000981
B1918344747822N12002151WA0097800980
B1918354747817N12002152WA0097600980
B1918364747812N12002154WA0097500979
B1918374747807N12002156WA0097300979
B1918384747802N12002159WA0097200978
B1918394747797N12002162WA0097000977
B1918404747793N12002166WA0096900976
B1918414747788N12002171WA0096800975
B1918424747784N12002176WA0096600973
B1918434747781N12002181WA0096500972
B1918444747778N12002187WA0096400971
B1918454747774N12002193WA0096200969
B1918464747771N12002198WA0096100968
B1918474747768N12002203WA0095900967
B1918484747764N12002209WA0095800966
B1918494747760N12002214WA0095700965
B1918504747756N12002218WA0095600964
B1918514747751N12002223WA0095400962
B1918524747747N12002228WA0095300960
B1918534747742N12002233WA0095100959
B1918534747742N12002233WA0095100959
B1918544747738N12002238WA0095000957
B1918554747734N12002243WA0094900956
B1918564747730N12002247WA0094700954
B1918574747725N12002252WA0094600952
B1918584747719N12002256WA0094400950
B1918594747713N12002260WA0094200948
B1919004747707N12002265WA0094100948
B1919014747701N12002268WA0093900948
B1919024747696N12002270WA0093800949
B1919034747692N12002271WA0093600949
B1919044747688N12002272WA0093500948
B1919054747683N12002274WA0093400946
B1919064747678N12002276WA0093300943
B1919074747674N12002280WA0093100940
B1919084747670N12002285WA0092900938
B1919094747666N12002290WA0092800936
B1919104747663N12002296WA0092600935
B1919114747661N12002301WA0092500933
B1919124747658N12002306WA0092300931
B1919134747655N12002312WA0092200930
B1919144747652N12002318WA0092000928
B1919154747649N12002324WA0091800925
B1919164747647N12002330WA0091700923
B1919174747644N12002337WA0091500921
B1919184747642N12002345WA0091400919
B1919194747640N12002352WA0091200918
B1919204747639N12002360WA0091000917
B1919214747639N12002366WA0090800917
B1919224747639N12002372WA0090700917
B1919234747639N12002378WA0090600917
B1919244747639N12002383WA0090500917
B1919254747639N12002388WA0090400917
B1919264747638N12002394WA0090300915
B1919274747638N12002400WA0090200914
B1919284747638N12002406WA0090100913
B1919294747641N12002412WA0090000912
B1919304747645N12002416WA0090000911
B1919314747650N12002417WA0089900910
B1919324747655N12002415WA0089800907
B1919334747661N12002411WA0089600905
B1919344747666N12002404WA0089500901
B1919354747671N12002396WA0089300898
B1919364747674N12002386WA0089100896
B1919374747676N12002375WA0088900894
B1919384747677N12002363WA0088700892
B1919394747678N12002352WA0088500890
B1919404747677N12002341WA0088300889
B1919414747677N12002331WA0088200886
B1919424747675N12002319WA0088000884
B1919434747673N12002307WA0087800882
B1919444747671N12002295WA0087700881
B1919454747669N12002284WA0087500880
B1919464747667N12002273WA0087300879
B1919474747664N12002263WA0087200877
B1919484747662N12002252WA0087000875
B1919494747658N12002241WA0086800872
B1919504747655N12002230WA0086700870
B1919514747651N12002220WA0086500869
B1919524747647N12002211WA0086400868
B1919534747644N12002202WA0086200867
B1919544747640N12002193WA0086100865
B1919554747635N12002184WA0086000862
B1919554747635N12002184WA0086000862
B1919564747630N12002174WA0085900860
B1919574747625N12002166WA0085700859
B1919584747621N12002157WA0085600857
B1919594747616N12002148WA0085400856
B1920004747612N12002140WA0085300855
B1920014747608N12002132WA0085100852
B1920024747603N12002125WA0085000849
B1920034747597N12002118WA0084800846
B1920044747591N12002113WA0084700844
B1920054747586N12002109WA0084500843
B1920064747580N12002107WA0084300843
B1920074747575N12002104WA0084200843
B1920084747570N12002102WA0084000846
B1920094747565N12002099WA0083800847
B1920104747559N12002096WA0083700846
B1920114747553N12002093WA0083600846
B1920124747547N12002091WA0083600846
B1920134747542N12002090WA0083500845
B1920144747538N12002090WA0083500845
B1920154747533N12002089WA0083400843
B1920164747527N12002087WA0083300841
B1920174747522N12002085WA0083200839
B1920184747515N12002084WA0083100838
B1920194747510N12002084WA0083000837
B1920204747505N12002084WA0082900839
B1920214747500N12002082WA0082800839
B1920224747496N12002080WA0082700838
B1920234747491N12002078WA0082600836
B1920244747485N12002076WA0082500834
B1920254747478N12002074WA0082400830
B1920264747471N12002074WA0082300828
B1920274747465N12002074WA0082200826
B1920284747460N12002074WA0082000826
B1920294747454N12002075WA0081900825
B1920304747449N12002076WA0081700823
B1920314747443N12002077WA0081600821
B1920324747437N12002079WA0081400819
B1920334747431N12002082WA0081300817
B1920344747425N12002085WA0081100817
B1920354747419N12002087WA0081000817
B1920364747414N12002088WA0080800818
B1920374747410N12002090WA0080700817
B1920384747405N12002091WA0080600816
B1920394747399N12002093WA0080500814
B1920404747393N12002094WA0080400812
B1920414747386N12002096WA0080300810
B1920424747381N12002099WA0080200808
B1920434747376N12002103WA0080100807
B1920444747372N12002107WA0080000807
B1920454747369N12002111WA0079800805
B1920464747366N12002115WA0079700804
B1920474747362N12002120WA0079500801
B1920484747359N12002126WA0079300799
B1920494747356N12002132WA0079100796
B1920504747353N12002138WA0078900795
B1920514747349N12002144WA0078800794
B1920524747345N12002149WA0078600793
B1920534747341N12002153WA0078400792
B1920544747338N12002158WA0078300791
B1920554747335N12002164WA0078200790
B1920564747332N12002169WA0078100789
B1920574747330N12002175WA0077900787
B1920574747330N12002175WA0077900787
B1920584747329N12002181WA0077800784
B1920594747327N12002188WA0077600781
B1921004747325N12002195WA0077500778
B1921014747322N12002200WA0077300777
B1921024747319N12002204WA0077200776
B1921034747315N12002207WA0077000776
B1921044747312N12002210WA0076900775
B1921054747309N12002214WA0076800773
B1921064747306N12002218WA0076700771
B1921074747303N12002223WA0076500770
B1921084747300N12002228WA0076400769
B1921094747297N12002232WA0076200767
B1921104747293N12002237WA0076000765
B1921114747290N12002242WA0075900763
B1921124747286N12002246WA0075700761
B1921134747281N12002251WA0075600760
B1921144747276N12002254WA0075500760
B1921154747272N12002256WA0075400763
B1921164747268N12002257WA0075200764
B1921174747264N12002257WA0075200763
B1921184747260N12002257WA0075100762
B1921194747255N12002257WA0075100761
B1921204747250N12002257WA0075000759
B1921214747245N12002258WA0074900758
B1921224747240N12002261WA0074800757
B1921234747236N12002263WA0074700756
B1921244747232N12002266WA0074600755
B1921254747228N12002270WA0074500754
B1921264747225N12002274WA0074300753
B1921274747221N12002278WA0074300752
B1921284747218N12002282WA0074200752
B1921294747215N12002287WA0074100752
B1921304747211N12002291WA0074000752
B1921314747207N12002295WA0073900752
B1921324747204N12002298WA0073900753
B1921334747201N12002301WA0073900753
B1921344747197N12002306WA0073800753
B1921354747194N12002310WA0073800753
B1921364747191N12002313WA0073800753
B1921374747189N12002315WA0073700753
B1921384747187N12002317WA0073700752
B1921394747185N12002320WA0073700749
B1921404747183N12002323WA0073600745
B1921414747180N12002326WA0073500741
B1921424747174N12002328WA0073300737
B1921434747169N12002326WA0073100733
B1921444747163N12002321WA0072900730
B1921454747157N12002315WA0072800728
B1921464747153N12002309WA0072600726
B1921474747148N12002302WA0072500724
B1921484747143N12002295WA0072300721
B1921494747138N12002289WA0072100718
B1921504747131N12002284WA0071900714
B1921514747125N12002279WA0071600711
B1921524747119N12002275WA0071400711
B1921534747112N12002272WA0071200710
B1921544747106N12002269WA0070900708
B1921554747100N12002266WA0070800706
B1921564747094N12002263WA0070500704
B1921574747087N12002261WA0070400702
B1921584747081N12002259WA0070100700
B1921594747074N12002257WA0069900698
B1921594747074N12002257WA0069900698
B1922004747068N12002256WA0069700696
B1922014747061N12002254WA0069500694
B1922024747055N12002253WA0069300693
B1922034747048N12002252WA0069100691
B1922044747042N12002251WA0068900690
B1922054747036N12002250WA0068800688
B1922064747030N12002250WA0068500686
B1922074747023N12002251WA0068400685
B1922084747017N12002250WA0068200683
B1922094747011N12002250WA0068100682
B1922104747005N12002249WA0067900681
B1922114746999N12002248WA0067800680
B1922124746993N12002247WA0067600678
B1922134746987N12002247WA0067500676
B1922144746980N12002246WA0067300675
B1922154746973N12002245WA0067200673
B1922164746967N12002244WA0067000672
B1922174746961N12002242WA0066900671
B1922184746955N12002241WA0066800671
B1922194746949N12002239WA0066700670
B1922204746943N12002237WA0066600669
B1922214746937N12002234WA0066500668
B1922224746931N12002230WA0066300667
B1922234746925N12002226WA0066200665
B1922244746920N12002220WA0066100663
B1922254746916N12002213WA0066000661
B1922264746913N12002203WA0065800659
B1922274746911N12002193WA0065800657
B1922284746911N12002182WA0065600655
B1922294746911N12002171WA0065500654
B1922304746911N12002161WA0065400654
B1922314746911N12002151WA0065300653
B1922324746911N12002140WA0065200652
B1922334746912N12002130WA0065100651
B1922344746913N12002119WA0065000651
B1922354746913N12002109WA0064900650
B1922364746912N12002099WA0064800649
B1922374746913N12002089WA0064700648
B1922384746913N12002079WA0064600646
B1922394746914N12002069WA0064500644
B1922404746915N12002059WA0064400642
B1922414746917N12002048WA0064300640
B1922424746918N12002038WA0064200638
B1922434746920N12002028WA0064100636
B1922444746922N12002018WA0063900634
B1922454746924N12002008WA0063800633
B1922464746926N12001999WA0063700631
B1922474746927N12001989WA0063500628
B1922484746928N12001978WA0063400625
B1922494746930N12001967WA0063200622
B1922504746932N12001956WA0063000620
B1922514746934N12001947WA0062900619
B1922524746936N12001937WA0062700618
B1922534746938N12001928WA0062600617
B1922544746940N12001918WA0062400615
B1922554746943N12001909WA0062300614
B1922564746947N12001899WA0062100612
B1922574746950N12001889WA0061900610
B1922584746952N12001880WA0061800609
B1922594746954N12001871WA0061600607
B1923004746956N12001861WA0061500605
B1923014746959N12001851WA0061300602
B1923024746961N12001841WA0061100599
B1923024746961N12001841WA0061100599
B1923034746964N12001830WA0061000596
B1923044746966N12001820WA0060800594
B1923054746967N12001810WA0060600594
B1923064746969N12001800WA0060400593
B1923074746970N12001790WA0060300592
B1923084746972N12001780WA0060100590
B1923094746974N12001769WA0060000587
B1923104746976N12001758WA0059800585
B1923114746979N12001748WA0059600584
B1923124746981N12001738WA0059400584
B1923134746983N12001729WA0059300583
B1923144746986N12001720WA0059100582
B1923154746988N12001710WA0059000581
B1923164746990N12001701WA0058900580
B1923174746993N12001692WA0058800579
B1923184746996N12001682WA0058600577
B1923194746999N12001673WA0058500576
B1923204747002N12001663WA0058400575
B1923214747005N12001654WA0058300574
B1923224747007N12001645WA0058200573
B1923234747010N12001636WA0058100573
B1923244747013N12001627WA0058000573
B1923254747016N12001619WA0057900572
B1923264747019N12001610WA0057800570
B1923274747022N12001600WA0057700569
B1923284747025N12001590WA0057600567
B1923294747028N12001580WA0057500566
B1923304747032N12001569WA0057400566
B1923314747035N12001559WA0057300571
B1923324747039N12001550WA0057200573
B1923334747044N12001543WA0057200574
B1923344747047N12001536WA0057200577
B1923354747048N12001529WA0057200581
B1923364747046N12001521WA0057300580
B1923374747043N12001514WA0057300575
B1923384747038N12001507WA0057300572
B1923394747032N12001504WA0057400571
B1923404747027N12001504WA0057300572
B1923414747024N12001507WA0057300575
B1923424747023N12001512WA0057400577
B1923434747023N12001518WA0057400579
B1923444747025N12001523WA0057500580
B1923454747027N12001528WA0057500582
B1923464747029N12001534WA0057500584
B1923474747031N12001540WA0057600586
B1923484747034N12001546WA0057600587
B1923494747037N12001551WA0057700589
B1923504747042N12001555WA0057700591
B1923514747047N12001556WA0057800594
B1923524747053N12001554WA0057900594
B1923534747058N12001546WA0058000593
B1923544747062N12001537WA0058100592
B1923554747062N12001527WA0058100592
B1923564747060N12001518WA0058200591
B1923574747055N12001511WA0058300591
B1923584747050N12001507WA0058400592
B1923594747045N12001505WA0058400593
B1924004747039N12001504WA0058500594
B1924014747034N12001505WA0058600594
B1924024747030N12001507WA0058700594
B1924034747026N12001511WA0058700595
B1924044747025N12001516WA0058800597
B1924054747027N12001521WA0058900598
B1924054747027N12001521WA0058900598
B1924064747030N12001525WA0059100599
B1924074747035N12001527WA0059100599
B1924084747040N12001525WA0059200599
B1924094747046N12001519WA0059200598
B1924104747050N12001512WA0059300598
B1924114747053N12001504WA0059300601
B1924124747054N12001495WA0059300602
B1924134747054N12001486WA0059400602
B1924144747054N12001478WA0059400602
B1924154747053N12001469WA0059500602
B1924164747051N12001461WA0059600601
B1924174747046N12001455WA0059600601
B1924184747041N12001451WA0059600601
B1924194747035N12001453WA0059600601
B1924204747030N12001457WA0059600599
B1924214747026N12001461WA0059600601
B1924224747023N12001464WA0059600604
B1924234747020N12001466WA0059600606
B1924244747018N12001469WA0059600607
B1924254747016N12001473WA0059700607
B1924264747015N12001478WA0059700607
B1924274747016N12001483WA0059700605
B1924284747020N12001487WA0059700604
B1924294747025N12001491WA0059700602
B1924304747031N12001492WA0059600603
B1924314747036N12001492WA0059500603
B1924324747041N12001492WA0059500604
B1924334747045N12001493WA0059500604
B1924344747050N12001494WA0059400604
B1924354747055N12001494WA0059300603
B1924364747060N12001493WA0059400604
B1924374747066N12001490WA0059400603
B1924384747071N12001487WA0059400604
B1924394747076N12001483WA0059400605
B1924404747081N12001478WA0059400605
B1924414747085N12001472WA0059400605
B1924424747086N12001463WA0059500604
B1924434747086N12001452WA0059500602
B1924444747083N12001441WA0059500601
B1924454747080N12001432WA0059400600
B1924464747076N12001425WA0059400600
B1924474747071N12001420WA0059400600
B1924484747067N12001415WA0059300600
B1924494747062N12001412WA0059300599
B1924504747056N12001410WA0059300598
B1924514747050N12001406WA0059300596
B1924524747044N12001400WA0059200595
B1924534747039N12001394WA0059100594
B1924544747034N12001388WA0059100593
B1924554747030N12001382WA0059100594
B1924564747025N12001378WA0059000594
B1924574747020N12001377WA0059000593
B1924584747015N12001379WA0058900590
B1924594747011N12001385WA0058900586
B1925004747010N12001391WA0058800585
B1925014747011N12001398WA0058700585
B1925024747014N12001403WA0058600585
B1925034747017N12001406WA0058500587
B1925044747021N12001409WA0058400587
B1925054747023N12001413WA0058400586
B1925064747026N12001417WA0058300585
B1925074747030N12001423WA0058300584
B1925084747033N12001429WA0058200583
B1925084747033N12001429WA0058200583
B1925094747036N12001435WA0058100584
B1925104747039N12001440WA0058000585
B1925114747043N12001444WA0058000586
B1925124747047N12001447WA0058000586
B1925134747051N12001451WA0057900585
B1925144747054N12001455WA0057900584
B1925154747057N12001461WA0057800583
B1925164747058N12001468WA0057800580
B1925174747058N12001475WA0057800579
B1925184747058N12001482WA0057700578
B1925194747058N12001489WA0057700579
B1925204747057N12001495WA0057700580
B1925214747057N12001502WA0057600581
B1925224747057N12001508WA0057600582
B1925234747058N12001514WA0057600583
B1925244747060N12001517WA0057600583
B1925254747064N12001518WA0057600582
B1925264747070N12001518WA0057600579
B1925274747078N12001516WA0057500576
B1925284747085N12001511WA0057400575
B1925294747090N12001504WA0057400577
B1925304747092N12001495WA0057400579
B1925314747092N12001485WA0057300579
B1925324747090N12001476WA0057300578
B1925334747088N12001468WA0057200578
B1925344747084N12001461WA0057200578
B1925354747078N12001457WA0057200577
B1925364747073N12001455WA0057100576
B1925374747068N12001455WA0057000576
B1925384747063N12001456WA0057000576
B1925394747060N12001458WA0057000577
B1925404747056N12001459WA0056900577
B1925414747053N12001460WA0056900577
B1925424747049N12001462WA0056800576
B1925434747045N12001466WA0056800574
B1925444747041N12001470WA0056700572
B1925454747037N12001475WA0056600572
B1925464747033N12001480WA0056600573
B1925474747030N12001484WA0056500574
B1925484747026N12001488WA0056500576
B1925494747023N12001491WA0056500578
B1925504747021N12001495WA0056500580
B1925514747021N12001500WA0056500581
B1925524747021N12001504WA0056500581
B1925534747024N12001508WA0056500579
B1925544747028N12001512WA0056500574
B1925554747034N12001515WA0056400571
B1925564747039N12001517WA0056300571
B1925574747045N12001517WA0056300572
B1925584747050N12001517WA0056200573
B1925594747054N12001518WA0056100573
B1926004747059N12001518WA0056100573
B1926014747066N12001517WA0056000571
B1926024747073N12001516WA0056000571
B1926034747080N12001513WA0055900572
B1926044747086N12001509WA0055900575
B1926054747091N12001504WA0055900576
B1926064747094N12001498WA0056000577
B1926074747098N12001491WA0056000578
B1926084747099N12001483WA0056000578
B1926094747098N12001474WA0056000577
B1926104747095N12001466WA0056000576
B1926104747095N12001466WA0056000576
B1926114747092N12001460WA0056000576
B1926124747088N12001455WA0056000576
B1926134747084N12001452WA0056000577
B1926144747079N12001451WA0056000576
B1926154747075N12001452WA0056000576
B1926164747071N12001453WA0056000576
B1926174747068N12001456WA0056000576
B1926184747065N12001461WA0056000574
B1926194747064N12001468WA0056000571
B1926204747064N12001477WA0055900568
B1926214747066N12001486WA0055900567
B1926224747068N12001494WA0055800570
B1926234747072N12001500WA0055800571
B1926244747075N12001504WA0055800574
B1926254747079N12001509WA0055800575
B1926264747084N12001513WA0055800575
B1926274747090N12001518WA0055900575
B1926284747096N12001521WA0055900576
B1926294747103N12001521WA0055900577
B1926304747109N12001520WA0055900578
B1926314747115N12001516WA0056000579
B1926324747119N12001510WA0056000580
B1926334747123N12001503WA0056100579
B1926344747125N12001495WA0056200579
B1926354747126N12001486WA0056200578
B1926364747125N12001478WA0056200578
B1926374747124N12001470WA0056200577
B1926384747121N12001464WA0056200576
B1926394747118N12001458WA0056200576
B1926404747113N12001454WA0056200575
B1926414747108N12001454WA0056200574
B1926424747103N12001456WA0056200574
B1926434747099N12001461WA0056200574
B1926444747096N12001467WA0056200576
B1926454747095N12001473WA0056200576
B1926464747094N12001479WA0056200577
B1926474747095N12001486WA0056200577
B1926484747097N12001493WA0056200577
B1926494747100N12001501WA0056200577
B1926504747104N12001508WA0056300577
B1926514747108N12001515WA0056300578
B1926524747113N12001520WA0056300579
B1926534747118N12001524WA0056300579
B1926544747123N12001527WA0056400579
B1926554747128N12001527WA0056400580
B1926564747134N12001526WA0056500580
B1926574747139N12001522WA0056500579
B1926584747144N12001514WA0056600578
B1926594747147N12001505WA0056600577
B1927004747148N12001495WA0056600576
B1927014747145N12001487WA0056600576
B1927024747142N12001481WA0056600576
B1927034747138N12001479WA0056600576
B1927044747133N12001478WA0056600577
B1927054747129N12001478WA0056600577
B1927064747125N12001479WA0056600577
B1927074747121N12001483WA0056700577
B1927084747118N12001488WA0056700577
B1927094747116N12001496WA0056700577
B1927104747114N12001503WA0056700578
B1927114747114N12001511WA0056700578
B1927124747114N12001518WA0056800580
B1927124747114N12001518WA0056800580
B1927134747115N12001525WA0056800581
B1927144747116N12001530WA0056800580
B1927154747119N12001535WA0056900579
B1927164747123N12001538WA0056900578
B1927174747129N12001539WA0056900575
B1927184747136N12001537WA0056900572
B1927194747142N12001534WA0056900571
B1927204747148N12001529WA0056800570
B1927214747153N12001525WA0056800569
B1927224747158N12001520WA0056700568
B1927234747164N12001514WA0056600568
B1927244747169N12001506WA0056600567
B1927254747174N12001498WA0056500567
B1927264747178N12001491WA0056500568
B1927274747183N12001485WA0056400568
B1927284747187N12001478WA0056400569
B1927294747191N12001471WA0056400568
B1927304747196N12001463WA0056400566
B1927314747199N12001455WA0056400565
B1927324747202N12001446WA0056300563
B1927334747205N12001436WA0056300562
B1927344747207N12001427WA0056200561
B1927354747208N12001418WA0056200561
B1927364747208N12001408WA0056100559
B1927374747208N12001399WA0056000557
B1927384747208N12001391WA0056000556
B1927394747207N12001382WA0055900555
B1927404747205N12001374WA0055800554
B1927414747202N12001367WA0055800553
B1927424747200N12001360WA0055700552
B1927434747196N12001354WA0055600550
B1927444747192N12001349WA0055500548
B1927454747188N12001343WA0055400545
B1927464747184N12001338WA0055300543
B1927474747179N12001332WA0055200542
B1927484747174N12001326WA0055100541
B1927494747170N12001319WA0055000541
B1927504747167N12001313WA0054900541
B1927514747165N12001306WA0054800539
B1927524747162N12001299WA0054800538
B1927534747159N12001292WA0054700538
B1927544747155N12001286WA0054600537
B1927554747152N12001280WA0054600536
B1927564747148N12001274WA0054500538
B1927574747144N12001268WA0054400537
B1927584747140N12001262WA0054400538
B1927594747137N12001257WA0054300539
B1928004747133N12001251WA0054300538
B1928014747129N12001246WA0054300537
B1928024747124N12001240WA0054200536
B1928034747120N12001236WA0054200536
B1928044747115N12001232WA0054200536
B1928054747111N12001228WA0054100535
B1928064747107N12001224WA0054100535
B1928074747102N12001221WA0054100534
B1928084747097N12001218WA0054000533
B1928094747093N12001214WA0054000533
B1928104747088N12001210WA0053900533
B1928114747084N12001204WA0053800532
B1928124747082N12001196WA0053800532
B1928134747080N12001187WA0053700531
B1928144747079N12001178WA0053700530
B1928154747079N12001169WA0053600529
B1928154747079N12001169WA0053600529
B1928164747080N12001159WA0053600529
B1928174747081N12001149WA0053500528
B1928184747083N12001140WA0053500527
B1928194747086N12001131WA0053400526
B1928204747089N12001122WA0053300525
B1928214747092N12001113WA0053300524
B1928224747095N12001104WA0053200523
B1928234747098N12001096WA0053100521
B1928244747102N12001087WA0053000520
B1928254747105N12001079WA0053000519
B1928264747107N12001071WA0052900518
B1928274747109N12001062WA0052800517
B1928284747111N12001054WA0052700515
B1928294747113N12001045WA0052600514
B1928304747115N12001036WA0052500512
B1928314747118N12001026WA0052400511
B1928324747119N12001017WA0052300510
B1928334747121N12001008WA0052200510
B1928344747122N12000999WA0052100509
B1928354747123N12000990WA0052000508
B1928364747124N12000981WA0051900507
B1928374747125N12000971WA0051900506
B1928384747126N12000962WA0051800504
B1928394747126N12000953WA0051700503
B1928404747125N12000943WA0051600502
B1928414747125N12000934WA0051500502
B1928424747126N12000925WA0051400501
B1928434747127N12000916WA0051300501
B1928444747129N12000907WA0051200500
B1928454747132N12000900WA0051200499
B1928464747135N12000892WA0051100498
B1928474747138N12000884WA0051000495
B1928484747141N12000875WA0050900492
B1928494747144N12000866WA0050800489
B1928504747147N12000857WA0050600488
B1928514747150N12000848WA0050500488
B1928524747153N12000840WA0050400488
B1928534747156N12000833WA0050300487
B1928544747159N12000824WA0050200486
B1928554747161N12000815WA0050100485
B1928564747163N12000806WA0050000483
B1928574747165N12000796WA0049900482
B1928584747167N12000785WA0049700479
B1928594747168N12000775WA0049600478
B1929004747169N12000766WA0049500477
B1929014747170N12000758WA0049400478
B1929024747170N12000749WA0049300478
B1929034747171N12000740WA0049200477
B1929044747172N12000731WA0049100474
B1929054747173N12000722WA0049000473
B1929064747175N12000713WA0048800471
B1929074747177N12000705WA0048800470
B1929084747178N12000696WA0048600468
B1929094747179N12000688WA0048500466
B1929104747179N12000679WA0048400462
B1929114747179N12000669WA0048300458
B1929124747179N12000659WA0048100456
B1929134747178N12000650WA0047900454
B1929144747178N12000642WA0047700453
B1929154747176N12000633WA0047600451
B1929164747175N12000623WA0047400450
B1929174747173N12000613WA0047200449
B1929184747170N12000604WA0047100450
B1929184747170N12000604WA0047100450
B1929194747167N12000597WA0047000451
B1929204747164N12000591WA0046900453
B1929214747162N12000586WA0046800454
B1929224747159N12000581WA0046700454
B1929234747154N12000579WA0046700455
B1929244747150N12000579WA0046600455
B1929254747146N12000581WA0046500457
B1929264747143N12000586WA0046500460
B1929274747141N12000593WA0046500462
B1929284747142N12000601WA0046500464
B1929294747144N12000609WA0046500465
B1929304747149N12000615WA0046600466
B1929314747155N12000618WA0046600468
B1929324747160N12000618WA0046600468
B1929334747166N12000615WA0046700467
B1929344747172N12000610WA0046700466
B1929354747177N12000605WA0046800466
B1929364747182N12000597WA0046800465
B1929374747185N12000589WA0046800464
B1929384747188N12000580WA0046800464
B1929394747190N12000572WA0046800463
B1929404747192N12000562WA0046700463
B1929414747192N12000553WA0046700463
B1929424747192N12000544WA0046700463
B1929434747190N12000536WA0046700464
B1929444747186N12000529WA0046700464
B1929454747182N12000525WA0046700465
B1929464747177N12000523WA0046700466
B1929474747171N12000523WA0046700467
B1929484747166N12000525WA0046800468
B1929494747161N12000529WA0046800468
B1929504747156N12000535WA0046800468
B1929514747153N12000541WA0046800469
B1929524747151N12000548WA0046900473
B1929534747152N12000554WA0046900476
B1929544747154N12000561WA0047000477
B1929554747157N12000568WA0047100477
B1929564747160N12000574WA0047100477
B1929574747166N12000580WA0047200477
B1929584747172N12000584WA0047200477
B1929594747178N12000584WA0047300479
B1930004747184N12000582WA0047300480
B1930014747189N12000577WA0047400480
B1930024747193N12000571WA0047400480
B1930034747196N12000562WA0047400479
B1930044747198N12000553WA0047400478
B1930054747198N12000543WA0047500478
B1930064747197N12000534WA0047500478
B1930074747195N12000526WA0047500479
B1930084747193N12000519WA0047500481
B1930094747190N12000514WA0047600482
B1930104747185N12000510WA0047600483
B1930114747180N12000508WA0047700483
B1930124747175N12000507WA0047800482
B1930134747169N12000507WA0047800482
B1930144747163N12000508WA0047800484
B1930154747158N12000509WA0047900485
B1930164747154N12000513WA0047900486
B1930174747151N12000519WA0048000486
B1930184747151N12000526WA0048000486
B1930194747152N12000534WA0048000484
B1930204747156N12000541WA0048000484
B1930214747160N12000547WA0048000484
B1930214747160N12000547WA0048000484
B1930224747165N12000551WA0048000483
B1930234747171N12000553WA0048000483
B1930244747177N12000553WA0048000483
B1930254747183N12000552WA0048000483
B1930264747189N12000550WA0048000484
B1930274747195N12000548WA0048000485
B1930284747200N12000545WA0048000486
B1930294747205N12000542WA0048000487
B1930304747209N12000538WA0048100487
B1930314747212N12000531WA0048100487
B1930324747213N12000522WA0048100485
B1930334747213N12000513WA0048100484
B1930344747214N12000504WA0048100483
B1930354747216N12000495WA0048100483
B1930364747218N12000487WA0048100483
B1930374747221N12000480WA0048100483
B1930384747224N12000473WA0048100484
B1930394747227N12000467WA0048100484
B1930404747230N12000460WA0048100483
B1930414747233N12000452WA0048100482
B1930424747235N12000443WA0048100481
B1930434747235N12000435WA0048100481
B1930444747235N12000427WA0048100481
B1930454747233N12000421WA0048000482
B1930464747230N12000415WA0048000481
B1930474747227N12000410WA0048100481
B1930484747222N12000406WA0048000479
B1930494747217N12000404WA0048000478
B1930504747212N12000404WA0047900478
B1930514747207N12000406WA0047900478
B1930524747202N12000408WA0047800477
B1930534747197N12000411WA0047700476
B1930544747191N12000413WA0047600476
B1930554747186N12000415WA0047600475
B1930564747181N12000417WA0047500475
B1930574747175N12000420WA0047400476
B1930584747171N12000423WA0047400477
B1930594747167N12000427WA0047400477
B1931004747164N12000433WA0047400477
B1931014747163N12000440WA0047400478
B1931024747164N12000447WA0047400477
B1931034747168N12000454WA0047400476
B1931044747173N12000459WA0047300476
B1931054747179N12000462WA0047300476
B1931064747186N12000462WA0047300476
B1931074747192N12000459WA0047200476
B1931084747197N12000453WA0047200476
B1931094747201N12000445WA0047200477
B1931104747203N12000437WA0047300478
B1931114747203N12000429WA0047300479
B1931124747202N12000422WA0047300479
B1931134747200N12000415WA0047300479
B1931144747196N12000408WA0047400479
B1931154747192N12000402WA0047400478
B1931164747188N12000397WA0047400477
B1931174747183N12000394WA0047400477
B1931184747178N12000392WA0047400477
B1931194747173N12000393WA0047500476
B1931204747169N12000395WA0047500476
B1931214747165N12000400WA0047500476
B1931224747163N12000407WA0047400476
B1931234747163N12000415WA0047400476
B1931244747165N12000423WA0047400475
B1931244747165N12000423WA0047400475
B1931254747168N12000431WA0047400476
B1931264747171N12000438WA0047400477
B1931274747175N12000444WA0047400477
B1931284747179N12000451WA0047400477
B1931294747183N12000457WA0047400477
B1931304747188N12000464WA0047300476
B1931314747193N12000471WA0047300477
B1931324747198N12000475WA0047300477
B1931334747204N12000478WA0047300478
B1931344747210N12000480WA0047300478
B1931354747216N12000479WA0047400477
B1931364747222N12000477WA0047400477
B1931374747228N12000472WA0047400477
B1931384747232N12000466WA0047400477
B1931394747235N12000458WA0047400477
B1931404747237N12000449WA0047400476
B1931414747238N12000441WA0047400477
B1931424747239N12000433WA0047400477
B1931434747240N12000425WA0047400478
B1931444747242N12000418WA0047400479
B1931454747243N12000409WA0047400479
B1931464747244N12000401WA0047400479
B1931474747244N12000392WA0047400480
B1931484747243N12000385WA0047500481
B1931494747242N12000379WA0047500481
B1931504747239N12000373WA0047500481
B1931514747236N12000369WA0047500479
B1931524747231N12000366WA0047500477
B1931534747225N12000367WA0047500474
B1931544747219N12000370WA0047400471
B1931554747215N12000376WA0047300469
B1931564747213N12000385WA0047300468
B1931574747213N12000395WA0047200468
B1931584747215N12000403WA0047100469
B1931594747217N12000411WA0047100470
B1932004747221N12000417WA0047000470
B1932014747225N12000423WA0047000469
B1932024747231N12000428WA0046900468
B1932034747237N12000432WA0046800467
B1932044747244N12000434WA0046800466
B1932054747250N12000435WA0046700466
B1932064747257N12000434WA0046700467
B1932074747263N12000433WA0046700467
B1932084747268N12000430WA0046600466
B1932094747274N12000426WA0046600466
B1932104747278N12000420WA0046600465
B1932114747281N12000412WA0046600464
B1932124747284N12000404WA0046500463
B1932134747285N12000396WA0046500463
B1932144747287N12000388WA0046400462
B1932154747287N12000380WA0046400461
B1932164747288N12000373WA0046300460
B1932174747288N12000365WA0046300459
B1932184747288N12000358WA0046200458
B1932194747288N12000350WA0046200456
B1932204747289N12000343WA0046100454
B1932214747289N12000335WA0046000452
B1932224747290N12000327WA0045900450
B1932234747290N12000318WA0045800448
B1932244747291N12000310WA0045700447
B1932254747292N12000301WA0045600445
B1932264747293N12000293WA0045400443
B1932274747294N12000285WA0045400441
B1932274747294N12000285WA0045400441
B1932284747295N12000278WA0045200438
B1932294747296N12000270WA0045100436
B1932304747297N12000262WA0044900434
B1932314747298N12000253WA0044800432
B1932324747299N12000245WA0044600430
B1932334747300N12000237WA0044500429
B1932344747300N12000228WA0044400427
B1932354747301N12000220WA0044300426
B1932364747302N12000211WA0044100424
B1932374747302N12000201WA0044000422
B1932384747304N12000192WA0043800422
B1932394747305N12000183WA0043700421
B1932404747307N12000174WA0043500422
B1932414747308N12000165WA0043500422
B1932424747310N12000157WA0043400422
B1932434747312N12000150WA0043300420
B1932444747315N12000142WA0043200418
B1932454747318N12000133WA0043100416
B1932464747321N12000124WA0043000412
B1932474747325N12000115WA0042900410
B1932484747327N12000107WA0042800409
B1932494747330N12000100WA0042700409
B1932504747332N12000093WA0042600409
B1932514747334N12000087WA0042500407
B1932524747336N12000079WA0042400406
B1932534747337N12000071WA0042300404
B1932544747338N12000062WA0042100401
B1932554747339N12000054WA0042000400
B1932564747339N12000047WA0041900399
B1932574747341N12000039WA0041800397
B1932584747342N12000031WA0041600396
B1932594747344N12000023WA0041500394
B1933004747345N12000014WA0041400392
B1933014747347N12000005WA0041200390
B1933024747349N11959998WA0041100389
B1933034747351N11959990WA0041000388
B1933044747354N11959983WA0040800387
B1933054747357N11959975WA0040700385
B1933064747359N11959968WA0040500382
B1933074747362N11959960WA0040400380
B1933084747365N11959953WA0040200378
B1933094747368N11959945WA0040100376
B1933104747370N11959937WA0039900374
B1933114747373N11959930WA0039700372
B1933124747376N11959922WA0039500370
B1933134747378N11959914WA0039400367
B1933144747381N11959906WA0039200365
B1933154747384N11959898WA0039100363
B1933164747386N11959889WA0038800361
B1933174747389N11959881WA0038700360
B1933184747392N11959873WA0038500359
B1933194747395N11959866WA0038400359
B1933204747397N11959858WA0038200357
B1933214747400N11959849WA0038100355
B1933224747404N11959841WA0037900354
B1933234747408N11959833WA0037800353
B1933244747412N11959825WA0037700353
B1933254747415N11959818WA0037600354
B1933264747418N11959811WA0037600354
B1933274747421N11959804WA0037500353
B1933284747425N11959796WA0037400352
B1933294747430N11959788WA0037300351
B1933304747435N11959780WA0037300350
B1933314747439N11959774WA0037200349
B1933314747439N11959774WA0037200349
B1933324747444N11959769WA0037100349
B1933334747447N11959764WA0037000349
B1933344747450N11959758WA0037000346
B1933354747453N11959751WA0036900342
B1933364747456N11959743WA0036800339
B1933374747460N11959736WA0036700336
B1933384747464N11959728WA0036500334
B1933394747468N11959722WA0036400333
B1933404747473N11959716WA0036200331
B1933414747477N11959711WA0036100330
B1933424747482N11959705WA0035900328
B1933434747487N11959699WA0035800327
B1933444747492N11959693WA0035600325
B1933454747498N11959687WA0035400324
B1933464747502N11959682WA0035300324
B1933474747507N11959676WA0035100324
B1933484747511N11959670WA0035000323
B1933494747515N11959664WA0034900321
B1933504747520N11959658WA0034700320
B1933514747525N11959652WA0034600318
B1933524747531N11959646WA0034500317
B1933534747536N11959641WA0034400316
B1933544747541N11959635WA0034200315
B1933554747546N11959630WA0034100314
B1933564747551N11959624WA0034000312
B1933574747557N11959619WA0033900310
B1933584747562N11959614WA0033800309
B1933594747568N11959608WA0033700308
B1934004747573N11959602WA0033500308
B1934014747578N11959597WA0033500308
B1934024747583N11959591WA0033300307
B1934034747589N11959585WA0033300307
B1934044747595N11959579WA0033200307
B1934054747600N11959573WA0033100307
B1934064747605N11959568WA0033100308
B1934074747611N11959564WA0033000308
B1934084747616N11959559WA0032900307
B1934094747621N11959555WA0032900307
B1934104747626N11959549WA0032900307
B1934114747629N11959543WA0032900307
B1934124747633N11959538WA0032800306
B1934134747637N11959532WA0032800306
B1934144747641N11959526WA0032700305
B1934154747646N11959520WA0032700305
B1934164747651N11959515WA0032700304
B1934174747656N11959510WA0032700304
B1934184747661N11959506WA0032600304
B1934194747666N11959503WA0032600305
B1934204747671N11959500WA0032600304
B1934214747676N11959496WA0032600303
B1934224747681N11959492WA0032500301
B1934234747687N11959488WA0032500299
B1934244747693N11959484WA0032400297
B1934254747699N11959480WA0032300295
B1934264747703N11959476WA0032200295
B1934274747707N11959471WA0032200294
B1934284747710N11959466WA0032100292
B1934294747712N11959460WA0032000290
B1934304747715N11959453WA0031900287
B1934314747717N11959446WA0031800285
B1934324747719N11959440WA0031700282
B1934334747721N11959433WA0031600281
B1934334747721N11959433WA0031600281
B1934344747722N11959426WA0031400279
B1934354747723N11959419WA0031300277
B1934364747723N11959411WA0031100274
B1934374747722N11959404WA0031000272
B1934384747722N11959397WA0030800271
B1934394747722N11959391WA0030700270
B1934404747720N11959385WA0030500270
B1934414747718N11959379WA0030400268
B1934424747715N11959374WA0030200266
B1934434747712N11959370WA0030100265
B1934444747708N11959367WA0029900264
B1934454747705N11959364WA0029800263
B1934464747701N11959364WA0029700263
B1934474747698N11959367WA0029600262
B1934484747694N11959372WA0029400260
B1934494747692N11959379WA0029300258
B1934504747691N11959386WA0029100258
B1934514747690N11959392WA0029000258
B1934524747688N11959396WA0028800259
B1934534747684N11959397WA0028700258
B1934544747680N11959397WA0028600258
B1934554747675N11959396WA0028500256
B1934564747671N11959394WA0028400255
B1934574747667N11959393WA0028300255
B1934584747663N11959395WA0028100255
B1934594747660N11959399WA0028000253
B1935004747658N11959406WA0027800249
B1935014747656N11959414WA0027700247
B1935024747655N11959422WA0027600247
B1935034747654N11959428WA0027500247
B1935044747652N11959433WA0027300247
B1935054747649N11959437WA0027200246
B1935064747645N11959439WA0027100245
B1935074747641N11959440WA0027000244
B1935084747637N11959440WA0026900241
B1935094747632N11959438WA0026800240
B1935104747628N11959438WA0026600239
B1935114747624N11959438WA0026500239
B1935124747620N11959439WA0026300238
B1935134747616N11959441WA0026200236
B1935144747613N11959445WA0026100236
B1935154747611N11959452WA0026000235
B1935164747610N11959460WA0025800233
B1935174747611N11959469WA0025700229
B1935184747612N11959474WA0025200227
B1935194747612N11959475WA0024900227
B1935204747612N11959474WA0025000228
B1935214747612N11959475WA0025100228
B1935224747612N11959476WA0025100228
B1935234747612N11959476WA0025100228
B1935244747612N11959476WA0025000228
B1935254747612N11959476WA0025000229
B1935264747612N11959476WA0025000229
B1935274747612N11959476WA0024900230
B1935284747612N11959476WA0024900229
B1935294747612N11959477WA0024800229
B1935304747612N11959476WA0024800230
B1935314747612N11959476WA0024800229
B1935324747612N11959476WA0024800228
B1935334747612N11959476WA0024700228
B1935344747612N11959476WA0024700229
B1935354747612N11959475WA0024700228
B1935364747612N11959475WA0024700229
B1935364747612N11959475WA0024700229
B1935374747612N11959475WA0024600228
B1935384747612N11959475WA0024600228
B1935394747611N11959475WA0024600228
B1935404747611N11959475WA0024600228
B1935414747612N11959476WA0024600228
B1935424747612N11959476WA0024600228
B1935434747612N11959476WA0024600228
B1935444747612N11959476WA0024600227
B1935454747612N11959476WA0024600228
B1935464747612N11959476WA0024600229
B1935474747612N11959476WA0024600229
B1935484747612N11959476WA0024600229
B1935494747612N11959476WA0024600229
B1935504747612N11959476WA0024600230
B1935514747612N11959476WA0024600230
B1935524747612N11959476WA0024600231
B1935534747613N11959477WA0024600232
B1935544747613N11959477WA0024600233
B1935554747613N11959477WA0024500234
B1935564747613N11959477WA0024500234
B1935574747613N11959477WA0024500233
B1935584747613N11959477WA0024500234
B1935594747613N11959477WA0024500234
B1936004747613N11959477WA0024500234
B1936014747613N11959477WA0024500234
B1936024747613N11959477WA0024500234
B1936034747613N11959477WA0024500233
B1936044747613N11959477WA0024500233
B1936054747613N11959477WA0024500234
B1936064747613N11959477WA0024500234
B1936074747613N11959477WA0024500234
B1936084747613N11959477WA0024500234
B1936094747613N11959477WA0024500235
B1936104747612N11959477WA0024500235
B1936114747612N11959477WA0024500235
B1936124747612N11959477WA0024500235
B1936134747612N11959477WA0024500236
B1936144747612N11959477WA0024500236
B1936154747611N11959477WA0024500236
B1936164747611N11959478WA0024500236
B1936174747611N11959478WA0024500237
B1936184747611N11959478WA0024500237
B1936194747611N11959478WA0024500238
B1936204747611N11959478WA0024500238
B1936214747611N11959479WA0024500238
B1936224747611N11959479WA0024500238
B1936234747610N11959480WA0024500237
B1936244747610N11959481WA0024500238
B1936254747610N11959482WA0024500238
B1936264747610N11959483WA0024500239
B1936274747610N11959484WA0024600239
B1936284747611N11959484WA0024600239
B1936294747611N11959485WA0024600240
B1936304747611N11959485WA0024600239
B1936314747612N11959485WA0024600240
B1936324747612N11959485WA0024600240
B1936334747612N11959484WA0024600239
B1936344747612N11959484WA0024600239
B1936354747612N11959484WA0024600239
B1936364747612N11959484WA0024600239
B1936374747612N11959484WA0024600239
B1936384747612N11959484WA0024600239
B1936394747612N11959484WA0024600239
