AXFMSFP Flymaster Live, V1.0
HFFXA010
HFPLTPILOT:Christopher Dunlap
HFGTYGLIDERTYPE:Ozone Forza 2 / Ozone Alpina 4
HFGIDGLIDERID:
HFDTM100GPSDATUM:WGS-1984
HFCIDCOMPETITIONID:224
HFCCLCOMPETITIONCLASS:
HOSITSITE:LAUNCH
HFGPS:UBLOXNEO6
HFPRSPRESSALTSENSOR:NA
HFRFWFIRMWAREVERSION:202g
HFRHWHARDWAREVERSION:1.0R2
HFFTYFRTYPE:FLYMASTER,LIVE
HFDTE160625
B2021264748242N12002363WA0109701125
B2021274748243N12002366WA0109601125
B2021284748244N12002369WA0109601125
B2021294748245N12002372WA0109601124
B2021304748245N12002375WA0109601124
B2021314748244N12002378WA0109601123
B2021324748245N12002381WA0109501123
B2021334748245N12002384WA0109501122
B2021344748244N12002387WA0109501122
B2021354748244N12002390WA0109501121
B2021364748243N12002393WA0109401119
B2021374748242N12002396WA0109401118
B2021384748240N12002398WA0109401118
B2021394748239N12002400WA0109301118
B2021404748238N12002403WA0109301118
B2021414748237N12002405WA0109301118
B2021424748237N12002407WA0109301119
B2021434748237N12002409WA0109301120
B2021444748236N12002411WA0109301120
B2021454748235N12002413WA0109301119
B2021464748234N12002415WA0109301119
B2021474748233N12002417WA0109301119
B2021484748232N12002418WA0109301120
B2021494748231N12002419WA0109301122
B2021504748231N12002421WA0109401123
B2021514748230N12002422WA0109401123
B2021524748229N12002423WA0109501123
B2021534748227N12002425WA0109501122
B2021544748226N12002426WA0109501121
B2021554748224N12002427WA0109501122
B2021564748222N12002427WA0109601122
B2021574748221N12002426WA0109601123
B2021584748220N12002426WA0109601123
B2021594748219N12002427WA0109701123
B2022004748218N12002428WA0109701122
B2022014748217N12002430WA0109701122
B2022024748216N12002432WA0109701121
B2022034748215N12002434WA0109701121
B2022044748213N12002437WA0109701120
B2022054748212N12002440WA0109701119
B2022064748211N12002444WA0109701118
B2022074748211N12002448WA0109701117
B2022084748210N12002452WA0109601116
B2022094748209N12002456WA0109601115
B2022104748208N12002460WA0109501115
B2022114748207N12002464WA0109501115
B2022124748205N12002466WA0109501115
B2022134748203N12002467WA0109401114
B2022144748201N12002470WA0109401114
B2022154748198N12002473WA0109301112
B2022164748195N12002475WA0109201110
B2022174748192N12002476WA0109201111
B2022184748190N12002475WA0109201111
B2022194748187N12002476WA0109101110
B2022204748185N12002478WA0109001109
B2022214748181N12002480WA0109001106
B2022224748177N12002482WA0108901104
B2022224748177N12002482WA0108901104
B2022234748175N12002482WA0108801105
B2022244748173N12002484WA0108801106
B2022254748172N12002486WA0108701104
B2022264748170N12002490WA0108601102
B2022274748167N12002495WA0108501099
B2022284748164N12002500WA0108401098
B2022294748162N12002505WA0108401098
B2022304748160N12002508WA0108301099
B2022314748157N12002512WA0108301100
B2022324748155N12002516WA0108201099
B2022334748151N12002520WA0108201099
B2022344748148N12002525WA0108101099
B2022354748146N12002529WA0108101101
B2022364748145N12002531WA0108101103
B2022374748144N12002533WA0108201105
B2022384748142N12002536WA0108201106
B2022394748140N12002539WA0108201105
B2022404748138N12002543WA0108201104
B2022414748135N12002547WA0108201104
B2022424748132N12002550WA0108201104
B2022434748130N12002553WA0108201105
B2022444748128N12002555WA0108201105
B2022454748127N12002558WA0108201105
B2022464748125N12002561WA0108201105
B2022474748123N12002564WA0108201105
B2022484748121N12002566WA0108201105
B2022494748119N12002569WA0108201104
B2022504748116N12002572WA0108201104
B2022514748114N12002574WA0108101104
B2022524748111N12002576WA0108101104
B2022534748109N12002577WA0108201106
B2022544748107N12002578WA0108201107
B2022554748105N12002578WA0108201107
B2022564748103N12002579WA0108201108
B2022574748100N12002580WA0108301108
B2022584748097N12002580WA0108301110
B2022594748094N12002580WA0108401113
B2023004748092N12002580WA0108501116
B2023014748090N12002579WA0108601119
B2023024748087N12002580WA0108801120
B2023034748085N12002582WA0108901122
B2023044748084N12002586WA0109001124
B2023054748084N12002590WA0109201126
B2023064748086N12002593WA0109401130
B2023074748089N12002595WA0109501134
B2023084748092N12002597WA0109801136
B2023094748097N12002599WA0109901138
B2023104748102N12002600WA0110101139
B2023114748108N12002598WA0110201140
B2023124748114N12002592WA0110401142
B2023134748119N12002582WA0110601143
B2023144748121N12002572WA0110801146
B2023154748121N12002562WA0111001149
B2023164748120N12002554WA0111201152
B2023174748117N12002547WA0111401155
B2023184748115N12002542WA0111601158
B2023194748112N12002539WA0111801161
B2023204748109N12002536WA0112101163
B2023214748106N12002534WA0112201166
B2023224748103N12002533WA0112501168
B2023234748101N12002533WA0112701170
B2023244748099N12002536WA0112901172
B2023254748099N12002539WA0113101174
B2023254748099N12002539WA0113101174
B2023264748100N12002543WA0113301176
B2023274748102N12002546WA0113501178
B2023284748106N12002549WA0113801181
B2023294748111N12002550WA0113901183
B2023304748117N12002550WA0114101184
B2023314748123N12002546WA0114301185
B2023324748129N12002538WA0114501187
B2023334748132N12002528WA0114701189
B2023344748133N12002519WA0114901191
B2023354748134N12002509WA0115101194
B2023364748132N12002501WA0115301196
B2023374748130N12002493WA0115401197
B2023384748126N12002487WA0115701198
B2023394748123N12002484WA0115801200
B2023404748120N12002483WA0116001202
B2023414748117N12002483WA0116201205
B2023424748116N12002483WA0116401208
B2023434748114N12002485WA0116601210
B2023444748113N12002487WA0116801212
B2023454748113N12002490WA0116901212
B2023464748113N12002495WA0117101212
B2023474748115N12002499WA0117201213
B2023484748118N12002503WA0117401213
B2023494748123N12002506WA0117501213
B2023504748127N12002509WA0117601212
B2023514748133N12002510WA0117601211
B2023524748139N12002509WA0117601210
B2023534748146N12002505WA0117601208
B2023544748152N12002498WA0117601205
B2023554748156N12002488WA0117601202
B2023564748156N12002476WA0117401199
B2023574748154N12002464WA0117401196
B2023584748151N12002453WA0117301196
B2023594748149N12002443WA0117301200
B2024004748149N12002434WA0117301204
B2024014748149N12002425WA0117401207
B2024024748148N12002415WA0117401210
B2024034748147N12002406WA0117501213
B2024044748145N12002397WA0117701217
B2024054748145N12002389WA0117901222
B2024064748145N12002380WA0118101227
B2024074748146N12002370WA0118301231
B2024084748146N12002361WA0118601235
B2024094748146N12002351WA0118801237
B2024104748144N12002341WA0119101240
B2024114748142N12002333WA0119301242
B2024124748140N12002326WA0119601244
B2024134748137N12002321WA0119801246
B2024144748133N12002319WA0120001247
B2024154748129N12002318WA0120201248
B2024164748126N12002317WA0120401250
B2024174748123N12002317WA0120601253
B2024184748122N12002318WA0120901256
B2024194748121N12002320WA0121101260
B2024204748121N12002323WA0121401264
B2024214748123N12002325WA0121601269
B2024224748127N12002326WA0122001273
B2024234748132N12002325WA0122201276
B2024244748139N12002322WA0122601279
B2024254748144N12002315WA0122801284
B2024264748148N12002306WA0123201288
B2024274748150N12002294WA0123501291
B2024284748149N12002283WA0123801293
B2024284748149N12002283WA0123801293
B2024294748147N12002274WA0124101297
B2024304748144N12002269WA0124501301
B2024314748141N12002267WA0124701304
B2024324748137N12002265WA0125101306
B2024334748134N12002264WA0125301309
B2024344748132N12002264WA0125701313
B2024354748130N12002265WA0125901318
B2024364748131N12002269WA0126301322
B2024374748133N12002274WA0126601325
B2024384748137N12002278WA0127001328
B2024394748142N12002281WA0127301331
B2024404748148N12002278WA0127601333
B2024414748154N12002270WA0127901336
B2024424748156N12002260WA0128201338
B2024434748156N12002250WA0128401342
B2024444748155N12002241WA0128801346
B2024454748153N12002235WA0129101351
B2024464748150N12002230WA0129501356
B2024474748147N12002227WA0129801358
B2024484748144N12002227WA0130101361
B2024494748142N12002228WA0130401365
B2024504748140N12002230WA0130801370
B2024514748139N12002233WA0131101374
B2024524748141N12002238WA0131501376
B2024534748144N12002243WA0131701377
B2024544748149N12002247WA0132001378
B2024554748154N12002248WA0132201379
B2024564748158N12002247WA0132501381
B2024574748161N12002244WA0132701382
B2024584748164N12002241WA0132901381
B2024594748168N12002236WA0133001379
B2025004748173N12002231WA0133101376
B2025014748178N12002223WA0133101373
B2025024748182N12002215WA0133201372
B2025034748184N12002207WA0133201373
B2025044748186N12002199WA0133301375
B2025054748188N12002190WA0133401377
B2025064748191N12002181WA0133501379
B2025074748193N12002171WA0133601382
B2025084748194N12002161WA0133801386
B2025094748194N12002152WA0134001391
B2025104748192N12002144WA0134201395
B2025114748191N12002136WA0134401397
B2025124748189N12002128WA0134601399
B2025134748185N12002121WA0134801401
B2025144748182N12002116WA0135001402
B2025154748178N12002112WA0135101404
B2025164748174N12002109WA0135301406
B2025174748171N12002107WA0135501408
B2025184748168N12002106WA0135701409
B2025194748165N12002106WA0135801410
B2025204748162N12002107WA0136001411
B2025214748159N12002109WA0136101413
B2025224748158N12002112WA0136301414
B2025234748158N12002117WA0136401416
B2025244748160N12002121WA0136701419
B2025254748162N12002125WA0136801421
B2025264748166N12002128WA0137001424
B2025274748170N12002129WA0137201426
B2025284748176N12002128WA0137401427
B2025294748181N12002126WA0137501429
B2025304748185N12002123WA0137701431
B2025314748188N12002119WA0137901433
B2025324748191N12002114WA0138101433
B2025324748191N12002114WA0138101433
B2025334748194N12002107WA0138201433
B2025344748196N12002099WA0138301431
B2025354748196N12002090WA0138301430
B2025364748194N12002082WA0138401429
B2025374748192N12002075WA0138401430
B2025384748189N12002068WA0138501431
B2025394748187N12002061WA0138601433
B2025404748185N12002055WA0138701435
B2025414748183N12002050WA0138801438
B2025424748181N12002044WA0138901440
B2025434748179N12002038WA0139001441
B2025444748176N12002030WA0139101441
B2025454748173N12002023WA0139201442
B2025464748170N12002016WA0139401444
B2025474748166N12002011WA0139501446
B2025484748163N12002006WA0139601448
B2025494748160N12002001WA0139801451
B2025504748157N12001995WA0139901452
B2025514748153N12001991WA0140001453
B2025524748149N12001988WA0140201453
B2025534748145N12001986WA0140301454
B2025544748142N12001985WA0140401456
B2025554748139N12001984WA0140501458
B2025564748136N12001984WA0140701459
B2025574748134N12001985WA0140801459
B2025584748132N12001987WA0140901460
B2025594748132N12001990WA0141001460
B2026004748133N12001993WA0141101460
B2026014748135N12001997WA0141101460
B2026024748136N12002000WA0141201459
B2026034748138N12002003WA0141201457
B2026044748141N12002006WA0141201455
B2026054748144N12002010WA0141201454
B2026064748149N12002013WA0141201453
B2026074748153N12002015WA0141101453
B2026084748159N12002016WA0141101452
B2026094748164N12002015WA0141101451
B2026104748170N12002014WA0141001448
B2026114748176N12002012WA0140901447
B2026124748181N12002009WA0140801445
B2026134748186N12002006WA0140801444
B2026144748191N12002003WA0140701443
B2026154748196N12002001WA0140601442
B2026164748201N12001997WA0140501440
B2026174748206N12001992WA0140401437
B2026184748211N12001984WA0140201435
B2026194748214N12001975WA0140101433
B2026204748216N12001965WA0140001432
B2026214748218N12001955WA0139901431
B2026224748220N12001944WA0139701430
B2026234748221N12001934WA0139701430
B2026244748222N12001923WA0139501429
B2026254748222N12001912WA0139501429
B2026264748221N12001899WA0139401429
B2026274748219N12001886WA0139301430
B2026284748218N12001876WA0139401434
B2026294748218N12001867WA0139401439
B2026304748218N12001859WA0139501443
B2026314748218N12001849WA0139601444
B2026324748217N12001838WA0139701445
B2026334748215N12001828WA0139801447
B2026344748214N12001819WA0140001450
B2026354748214N12001811WA0140101453
B2026364748213N12001803WA0140301456
B2026364748213N12001803WA0140301456
B2026374748212N12001795WA0140401458
B2026384748210N12001786WA0140601459
B2026394748208N12001777WA0140701460
B2026404748205N12001768WA0140901462
B2026414748202N12001762WA0141001463
B2026424748199N12001756WA0141201465
B2026434748197N12001752WA0141401467
B2026444748194N12001748WA0141501469
B2026454748193N12001744WA0141701470
B2026464748191N12001741WA0141801472
B2026474748189N12001739WA0142001472
B2026484748187N12001738WA0142101473
B2026494748185N12001738WA0142201473
B2026504748183N12001740WA0142301474
B2026514748183N12001742WA0142401474
B2026524748184N12001745WA0142501475
B2026534748187N12001749WA0142601475
B2026544748191N12001750WA0142701476
B2026554748196N12001751WA0142801477
B2026564748202N12001750WA0142901478
B2026574748207N12001747WA0142901478
B2026584748213N12001742WA0143001479
B2026594748219N12001736WA0143101479
B2027004748224N12001729WA0143201480
B2027014748229N12001721WA0143201480
B2027024748233N12001712WA0143301481
B2027034748235N12001703WA0143401482
B2027044748237N12001693WA0143501483
B2027054748238N12001682WA0143601484
B2027064748239N12001672WA0143601485
B2027074748240N12001663WA0143701486
B2027084748239N12001654WA0143801487
B2027094748238N12001646WA0143901487
B2027104748236N12001638WA0144001487
B2027114748234N12001631WA0144001488
B2027124748231N12001627WA0144101488
B2027134748228N12001625WA0144101489
B2027144748226N12001626WA0144201490
B2027154748225N12001628WA0144201490
B2027164748225N12001631WA0144301491
B2027174748225N12001633WA0144401492
B2027184748226N12001636WA0144401493
B2027194748227N12001638WA0144501493
B2027204748228N12001642WA0144501493
B2027214748230N12001646WA0144601493
B2027224748233N12001649WA0144601493
B2027234748236N12001652WA0144701494
B2027244748240N12001654WA0144701495
B2027254748244N12001656WA0144801495
B2027264748248N12001658WA0144801495
B2027274748252N12001659WA0144901497
B2027284748255N12001659WA0145001499
B2027294748259N12001659WA0145001500
B2027304748263N12001658WA0145101502
B2027314748267N12001657WA0145201503
B2027324748271N12001654WA0145301504
B2027334748276N12001651WA0145401504
B2027344748280N12001646WA0145501504
B2027354748284N12001640WA0145501504
B2027364748288N12001635WA0145601505
B2027374748292N12001628WA0145701507
B2027384748297N12001622WA0145801508
B2027394748302N12001616WA0145901509
B2027394748302N12001616WA0145901509
B2027404748306N12001610WA0146001510
B2027414748311N12001603WA0146101511
B2027424748314N12001594WA0146201512
B2027434748318N12001585WA0146301512
B2027444748321N12001577WA0146401514
B2027454748324N12001567WA0146501516
B2027464748325N12001558WA0146601518
B2027474748327N12001548WA0146701519
B2027484748328N12001538WA0146801520
B2027494748328N12001528WA0146901521
B2027504748327N12001518WA0147001521
B2027514748325N12001510WA0147101522
B2027524748323N12001504WA0147201523
B2027534748321N12001499WA0147201524
B2027544748319N12001494WA0147301524
B2027554748317N12001490WA0147301523
B2027564748313N12001487WA0147401522
B2027574748310N12001485WA0147401521
B2027584748308N12001484WA0147401521
B2027594748306N12001484WA0147401522
B2028004748304N12001485WA0147501522
B2028014748304N12001487WA0147501522
B2028024748303N12001489WA0147501521
B2028034748302N12001491WA0147501520
B2028044748302N12001493WA0147501520
B2028054748301N12001495WA0147501519
B2028064748301N12001497WA0147501519
B2028074748301N12001499WA0147501519
B2028084748302N12001502WA0147501520
B2028094748304N12001504WA0147501520
B2028104748307N12001507WA0147401519
B2028114748310N12001509WA0147401519
B2028124748314N12001510WA0147401519
B2028134748318N12001510WA0147401519
B2028144748322N12001509WA0147401519
B2028154748325N12001509WA0147401517
B2028164748329N12001508WA0147301516
B2028174748334N12001507WA0147301514
B2028184748340N12001506WA0147101511
B2028194748346N12001506WA0147101508
B2028204748352N12001505WA0147001509
B2028214748356N12001502WA0147001511
B2028224748360N12001499WA0147001515
B2028234748364N12001497WA0147101518
B2028244748369N12001496WA0147101519
B2028254748375N12001496WA0147101518
B2028264748380N12001495WA0147201518
B2028274748385N12001494WA0147201520
B2028284748389N12001491WA0147301522
B2028294748393N12001489WA0147401523
B2028304748396N12001488WA0147501524
B2028314748401N12001487WA0147501524
B2028324748405N12001487WA0147601524
B2028334748410N12001486WA0147701524
B2028344748415N12001484WA0147701525
B2028354748420N12001482WA0147801526
B2028364748425N12001478WA0147801527
B2028374748430N12001475WA0147901527
B2028384748436N12001471WA0147901525
B2028394748442N12001467WA0147901525
B2028404748448N12001462WA0148001525
B2028414748453N12001456WA0148001526
B2028424748458N12001448WA0148101527
B2028434748462N12001440WA0148101529
B2028434748462N12001440WA0148101529
B2028444748465N12001430WA0148201530
B2028454748467N12001420WA0148301533
B2028464748468N12001411WA0148401535
B2028474748469N12001402WA0148501536
B2028484748469N12001395WA0148601538
B2028494748469N12001388WA0148701538
B2028504748468N12001382WA0148701536
B2028514748466N12001374WA0148701534
B2028524748465N12001367WA0148701533
B2028534748463N12001360WA0148701531
B2028544748460N12001355WA0148701530
B2028554748457N12001349WA0148701530
B2028564748454N12001344WA0148601530
B2028574748452N12001338WA0148701531
B2028584748450N12001331WA0148701532
B2028594748448N12001324WA0148701534
B2029004748445N12001318WA0148801535
B2029014748442N12001313WA0148801536
B2029024748439N12001308WA0148801536
B2029034748435N12001302WA0148901536
B2029044748432N12001297WA0148901537
B2029054748429N12001293WA0149001539
B2029064748426N12001290WA0149101540
B2029074748423N12001287WA0149101541
B2029084748419N12001285WA0149201542
B2029094748416N12001284WA0149301542
B2029104748413N12001283WA0149301543
B2029114748410N12001283WA0149401544
B2029124748407N12001283WA0149501546
B2029134748405N12001284WA0149601547
B2029144748402N12001285WA0149601547
B2029154748399N12001287WA0149701547
B2029164748398N12001290WA0149801548
B2029174748398N12001293WA0149801549
B2029184748399N12001295WA0149901549
B2029194748400N12001298WA0149901549
B2029204748403N12001301WA0150001549
B2029214748406N12001304WA0150001548
B2029224748411N12001306WA0150001548
B2029234748415N12001307WA0150101548
B2029244748419N12001308WA0150101546
B2029254748424N12001309WA0150001544
B2029264748430N12001308WA0150001543
B2029274748437N12001305WA0149901540
B2029284748444N12001301WA0149801538
B2029294748450N12001297WA0149701536
B2029304748457N12001293WA0149601536
B2029314748464N12001287WA0149601534
B2029324748470N12001281WA0149501534
B2029334748476N12001275WA0149401534
B2029344748481N12001267WA0149301533
B2029354748486N12001259WA0149301533
B2029364748490N12001250WA0149201532
B2029374748494N12001240WA0149101531
B2029384748497N12001229WA0149101530
B2029394748497N12001218WA0149001530
B2029404748497N12001207WA0148901531
B2029414748495N12001197WA0148901530
B2029424748492N12001189WA0148801530
B2029434748489N12001182WA0148801530
B2029444748485N12001177WA0148801531
B2029454748482N12001173WA0148701531
B2029464748479N12001168WA0148701532
B2029464748479N12001168WA0148701532
B2029474748475N12001164WA0148801533
B2029484748472N12001158WA0148801533
B2029494748468N12001153WA0148801534
B2029504748464N12001148WA0148801534
B2029514748461N12001144WA0148801534
B2029524748458N12001140WA0148801534
B2029534748455N12001136WA0148801534
B2029544748452N12001134WA0148801533
B2029554748449N12001131WA0148801533
B2029564748446N12001128WA0148801534
B2029574748444N12001124WA0148801534
B2029584748441N12001120WA0148801535
B2029594748438N12001117WA0148801534
B2030004748435N12001114WA0148801533
B2030014748431N12001111WA0148801532
B2030024748428N12001108WA0148801531
B2030034748424N12001104WA0148701530
B2030044748420N12001101WA0148701530
B2030054748417N12001098WA0148701530
B2030064748414N12001095WA0148701531
B2030074748412N12001093WA0148701531
B2030084748409N12001090WA0148701531
B2030094748406N12001087WA0148601530
B2030104748403N12001084WA0148601529
B2030114748400N12001079WA0148601529
B2030124748397N12001075WA0148601529
B2030134748394N12001070WA0148601530
B2030144748392N12001066WA0148501530
B2030154748389N12001062WA0148501529
B2030164748385N12001060WA0148501529
B2030174748382N12001058WA0148501528
B2030184748378N12001057WA0148501528
B2030194748375N12001058WA0148501528
B2030204748373N12001059WA0148401528
B2030214748371N12001060WA0148401527
B2030224748368N12001061WA0148401527
B2030234748366N12001063WA0148301526
B2030244748364N12001065WA0148301524
B2030254748362N12001069WA0148201523
B2030264748361N12001073WA0148201521
B2030274748360N12001077WA0148101520
B2030284748360N12001081WA0148001519
B2030294748359N12001085WA0147901518
B2030304748359N12001090WA0147801517
B2030314748359N12001095WA0147701516
B2030324748358N12001100WA0147701515
B2030334748357N12001105WA0147601515
B2030344748356N12001109WA0147501516
B2030354748355N12001112WA0147501517
B2030364748354N12001115WA0147401517
B2030374748354N12001117WA0147401518
B2030384748353N12001120WA0147401518
B2030394748352N12001122WA0147401517
B2030404748350N12001125WA0147301517
B2030414748348N12001128WA0147301516
B2030424748347N12001131WA0147301516
B2030434748346N12001135WA0147201515
B2030444748345N12001138WA0147201515
B2030454748343N12001140WA0147101514
B2030464748341N12001143WA0147101513
B2030474748340N12001147WA0147001512
B2030484748340N12001151WA0147001511
B2030494748339N12001155WA0146901510
B2030494748339N12001155WA0146901510
B2030504748337N12001158WA0146901509
B2030514748335N12001159WA0146801509
B2030524748333N12001160WA0146801508
B2030534748332N12001162WA0146701508
B2030544748331N12001163WA0146601508
B2030554748331N12001166WA0146601507
B2030564748330N12001168WA0146501506
B2030574748329N12001171WA0146401504
B2030584748329N12001174WA0146401503
B2030594748329N12001177WA0146301502
B2031004748329N12001180WA0146201501
B2031014748329N12001182WA0146101500
B2031024748329N12001185WA0146001499
B2031034748329N12001189WA0145901498
B2031044748329N12001192WA0145801496
B2031054748330N12001196WA0145701496
B2031064748330N12001198WA0145701495
B2031074748331N12001202WA0145501493
B2031084748332N12001206WA0145401491
B2031094748334N12001212WA0145301487
B2031104748336N12001220WA0145101483
B2031114748338N12001227WA0144901481
B2031124748340N12001232WA0144801481
B2031134748342N12001237WA0144601481
B2031144748344N12001241WA0144501480
B2031154748346N12001246WA0144401478
B2031164748348N12001251WA0144201475
B2031174748349N12001257WA0144001472
B2031184748350N12001263WA0143901470
B2031194748351N12001268WA0143601468
B2031204748352N12001272WA0143501467
B2031214748353N12001276WA0143301465
B2031224748354N12001280WA0143101462
B2031234748355N12001286WA0142901458
B2031244748356N12001291WA0142701454
B2031254748357N12001297WA0142401451
B2031264748358N12001302WA0142201447
B2031274748359N12001306WA0141901444
B2031284748360N12001310WA0141701442
B2031294748360N12001314WA0141401439
B2031304748362N12001318WA0141101435
B2031314748363N12001322WA0140801432
B2031324748365N12001326WA0140601429
B2031334748367N12001330WA0140201426
B2031344748369N12001334WA0140001424
B2031354748371N12001338WA0139701422
B2031364748373N12001342WA0139501420
B2031374748374N12001346WA0139201418
B2031384748376N12001350WA0139101416
B2031394748378N12001354WA0138801413
B2031404748379N12001358WA0138601411
B2031414748382N12001362WA0138301408
B2031424748384N12001366WA0138101405
B2031434748386N12001371WA0137801402
B2031444748388N12001376WA0137601399
B2031454748389N12001381WA0137301396
B2031464748390N12001386WA0137101393
B2031474748390N12001391WA0136701391
B2031484748391N12001396WA0136501388
B2031494748392N12001402WA0136301387
B2031504748393N12001408WA0136101386
B2031514748395N12001414WA0135901386
B2031524748397N12001418WA0135801388
B2031524748397N12001418WA0135801388
B2031534748399N12001421WA0135601389
B2031544748400N12001425WA0135501389
B2031554748402N12001429WA0135401388
B2031564748403N12001433WA0135301387
B2031574748404N12001438WA0135201386
B2031584748405N12001442WA0135201387
B2031594748407N12001445WA0135101387
B2032004748408N12001448WA0135101388
B2032014748409N12001450WA0135001387
B2032024748408N12001452WA0134901384
B2032034748408N12001454WA0134801383
B2032044748409N12001456WA0134801384
B2032054748411N12001458WA0134701385
B2032064748412N12001459WA0134601385
B2032074748414N12001461WA0134601384
B2032084748414N12001465WA0134501382
B2032094748415N12001469WA0134401379
B2032104748416N12001474WA0134301377
B2032114748418N12001480WA0134201378
B2032124748420N12001484WA0134201380
B2032134748422N12001488WA0134201381
B2032144748425N12001491WA0134201382
B2032154748427N12001496WA0134201382
B2032164748430N12001502WA0134201382
B2032174748432N12001507WA0134201383
B2032184748434N12001512WA0134201384
B2032194748436N12001516WA0134201385
B2032204748438N12001519WA0134301387
B2032214748440N12001521WA0134301388
B2032224748441N12001523WA0134401388
B2032234748443N12001525WA0134401388
B2032244748444N12001527WA0134401387
B2032254748445N12001529WA0134501386
B2032264748445N12001531WA0134501385
B2032274748446N12001533WA0134501384
B2032284748447N12001534WA0134401383
B2032294748447N12001536WA0134401382
B2032304748447N12001539WA0134301379
B2032314748447N12001544WA0134201375
B2032324748447N12001549WA0134101373
B2032334748447N12001552WA0134001372
B2032344748447N12001555WA0133901372
B2032354748447N12001558WA0133801371
B2032364748446N12001563WA0133701368
B2032374748446N12001569WA0133601366
B2032384748445N12001575WA0133401363
B2032394748443N12001579WA0133301362
B2032404748441N12001581WA0133201362
B2032414748440N12001582WA0133101363
B2032424748439N12001583WA0133001362
B2032434748439N12001584WA0132901361
B2032444748439N12001586WA0132801358
B2032454748439N12001588WA0132601354
B2032464748439N12001591WA0132401351
B2032474748439N12001596WA0132201347
B2032484748439N12001601WA0132001342
B2032494748439N12001606WA0131701339
B2032504748438N12001611WA0131601336
B2032514748438N12001615WA0131301335
B2032524748437N12001619WA0131101335
B2032534748436N12001623WA0131001335
B2032544748434N12001625WA0130801334
B2032554748433N12001628WA0130701334
B2032554748433N12001628WA0130701334
B2032564748431N12001630WA0130601334
B2032574748430N12001633WA0130401334
B2032584748428N12001637WA0130401334
B2032594748426N12001642WA0130301334
B2033004748424N12001644WA0130301336
B2033014748423N12001643WA0130301341
B2033024748423N12001641WA0130401345
B2033034748423N12001638WA0130501348
B2033044748423N12001637WA0130501347
B2033054748420N12001637WA0130501344
B2033064748418N12001638WA0130501341
B2033074748417N12001639WA0130501341
B2033084748417N12001641WA0130501342
B2033094748419N12001643WA0130601343
B2033104748421N12001644WA0130601343
B2033114748422N12001646WA0130501342
B2033124748422N12001648WA0130501340
B2033134748422N12001651WA0130501338
B2033144748422N12001653WA0130401336
B2033154748423N12001655WA0130301335
B2033164748423N12001656WA0130301334
B2033174748424N12001658WA0130101331
B2033184748424N12001661WA0130001329
B2033194748422N12001665WA0129901326
B2033204748420N12001668WA0129801324
B2033214748418N12001671WA0129601324
B2033224748416N12001671WA0129601327
B2033234748416N12001671WA0129601331
B2033244748417N12001671WA0129601334
B2033254748416N12001670WA0129701336
B2033264748415N12001671WA0129701336
B2033274748413N12001671WA0129801337
B2033284748411N12001671WA0129801339
B2033294748410N12001671WA0130001343
B2033304748410N12001670WA0130101345
B2033314748409N12001669WA0130201347
B2033324748407N12001667WA0130301347
B2033334748405N12001667WA0130401346
B2033344748403N12001667WA0130401344
B2033354748401N12001666WA0130401343
B2033364748400N12001664WA0130401341
B2033374748397N12001661WA0130401338
B2033384748394N12001660WA0130301335
B2033394748391N12001660WA0130201333
B2033404748389N12001662WA0130201331
B2033414748387N12001664WA0130001328
B2033424748385N12001667WA0129901324
B2033434748383N12001667WA0129701323
B2033444748382N12001666WA0129601323
B2033454748382N12001665WA0129501323
B2033464748381N12001663WA0129401322
B2033474748380N12001662WA0129201319
B2033484748378N12001662WA0129101315
B2033494748375N12001662WA0128901313
B2033504748373N12001664WA0128701311
B2033514748371N12001666WA0128601309
B2033524748370N12001667WA0128401310
B2033534748370N12001667WA0128301312
B2033544748368N12001665WA0128301313
B2033554748367N12001664WA0128201313
B2033564748366N12001664WA0128101312
B2033574748364N12001664WA0128001310
B2033584748363N12001664WA0127901309
B2033594748361N12001665WA0127801308
B2033594748361N12001665WA0127801308
B2034004748360N12001666WA0127701307
B2034014748359N12001667WA0127601305
B2034024748356N12001668WA0127501303
B2034034748354N12001669WA0127401302
B2034044748352N12001672WA0127301301
B2034054748350N12001673WA0127201300
B2034064748348N12001674WA0127101299
B2034074748346N12001676WA0126901298
B2034084748344N12001677WA0126901296
B2034094748342N12001678WA0126701294
B2034104748339N12001678WA0126601292
B2034114748336N12001679WA0126401291
B2034124748334N12001681WA0126301289
B2034134748332N12001682WA0126201288
B2034144748329N12001684WA0126101287
B2034154748328N12001686WA0125901286
B2034164748327N12001689WA0125801286
B2034174748326N12001692WA0125701285
B2034184748324N12001695WA0125601285
B2034194748322N12001698WA0125501284
B2034204748320N12001701WA0125501284
B2034214748318N12001703WA0125401284
B2034224748316N12001704WA0125301284
B2034234748314N12001707WA0125201282
B2034244748312N12001709WA0125101280
B2034254748310N12001712WA0125001277
B2034264748308N12001715WA0124901274
B2034274748305N12001716WA0124701272
B2034284748301N12001716WA0124601270
B2034294748297N12001715WA0124401268
B2034304748293N12001711WA0124301267
B2034314748289N12001706WA0124101267
B2034324748287N12001699WA0124001267
B2034334748286N12001692WA0123901268
B2034344748285N12001684WA0123801268
B2034354748284N12001675WA0123701267
B2034364748284N12001664WA0123601264
B2034374748284N12001652WA0123501262
B2034384748286N12001639WA0123401260
B2034394748289N12001627WA0123301259
B2034404748293N12001615WA0123201258
B2034414748298N12001603WA0123101258
B2034424748304N12001592WA0123001257
B2034434748309N12001581WA0122901257
B2034444748314N12001571WA0122901258
B2034454748318N12001560WA0122801258
B2034464748322N12001548WA0122801257
B2034474748327N12001535WA0122701257
B2034484748332N12001524WA0122701257
B2034494748337N12001515WA0122601259
B2034504748341N12001506WA0122601260
B2034514748344N12001498WA0122601261
B2034524748348N12001488WA0122601260
B2034534748352N12001478WA0122601259
B2034544748357N12001467WA0122601257
B2034554748361N12001457WA0122601258
B2034564748363N12001447WA0122601259
B2034574748366N12001437WA0122601260
B2034584748369N12001428WA0122601260
B2034594748372N12001417WA0122601260
B2035004748376N12001406WA0122601260
B2035014748380N12001395WA0122601260
B2035024748383N12001384WA0122601261
B2035034748386N12001374WA0122601261
B2035034748386N12001374WA0122601261
B2035044748389N12001363WA0122601261
B2035054748393N12001353WA0122601260
B2035064748397N12001342WA0122601260
B2035074748401N12001332WA0122601259
B2035084748405N12001321WA0122601260
B2035094748409N12001311WA0122601261
B2035104748412N12001301WA0122601261
B2035114748415N12001290WA0122601261
B2035124748417N12001279WA0122601261
B2035134748419N12001268WA0122601260
B2035144748420N12001257WA0122601259
B2035154748421N12001246WA0122601260
B2035164748423N12001236WA0122601260
B2035174748425N12001226WA0122601260
B2035184748428N12001216WA0122601259
B2035194748432N12001206WA0122501257
B2035204748436N12001197WA0122501256
B2035214748441N12001189WA0122401255
B2035224748447N12001183WA0122401253
B2035234748454N12001180WA0122301252
B2035244748460N12001178WA0122201251
B2035254748465N12001178WA0122101250
B2035264748470N12001178WA0122101250
B2035274748474N12001179WA0122001249
B2035284748478N12001181WA0122001248
B2035294748481N12001184WA0121901247
B2035304748484N12001187WA0121801247
B2035314748487N12001190WA0121701247
B2035324748489N12001194WA0121701247
B2035334748491N12001196WA0121601247
B2035344748492N12001199WA0121601247
B2035354748494N12001201WA0121501248
B2035364748495N12001203WA0121501248
B2035374748497N12001205WA0121501248
B2035384748497N12001206WA0121501248
B2035394748498N12001207WA0121501248
B2035404748499N12001209WA0121501250
B2035414748500N12001210WA0121501251
B2035424748500N12001211WA0121501251
B2035434748501N12001212WA0121601251
B2035444748501N12001213WA0121601250
B2035454748501N12001214WA0121601249
B2035464748502N12001214WA0121601249
B2035474748502N12001214WA0121601249
B2035484748502N12001213WA0121601250
B2035494748502N12001212WA0121601252
B2035504748502N12001210WA0121601253
B2035514748502N12001209WA0121701253
B2035524748501N12001208WA0121701253
B2035534748501N12001208WA0121701253
B2035544748501N12001208WA0121801253
B2035554748500N12001208WA0121801253
B2035564748499N12001208WA0121801254
B2035574748499N12001208WA0121901256
B2035584748500N12001207WA0121901256
B2035594748499N12001208WA0121901256
B2036004748499N12001210WA0121901254
B2036014748498N12001213WA0121901253
B2036024748498N12001215WA0121901253
B2036034748499N12001217WA0121901253
B2036044748499N12001218WA0121901253
B2036054748500N12001219WA0121901253
B2036054748500N12001219WA0121901253
B2036064748500N12001221WA0121901251
B2036074748500N12001225WA0121901250
B2036084748500N12001228WA0121901250
B2036094748500N12001230WA0121801250
B2036104748500N12001232WA0121801250
B2036114748499N12001233WA0121801249
B2036124748498N12001235WA0121801249
B2036134748498N12001236WA0121701248
B2036144748498N12001238WA0121701247
B2036154748497N12001240WA0121601246
B2036164748496N12001242WA0121601244
B2036174748495N12001244WA0121501243
B2036184748494N12001245WA0121401242
B2036194748493N12001246WA0121401241
B2036204748491N12001246WA0121301240
B2036214748489N12001246WA0121101237
B2036224748487N12001246WA0121001234
B2036234748484N12001243WA0120901230
B2036244748480N12001239WA0120701227
B2036254748477N12001233WA0120501225
B2036264748474N12001227WA0120401223
B2036274748471N12001221WA0120201222
B2036284748469N12001214WA0120101221
B2036294748466N12001205WA0119901219
B2036304748464N12001195WA0119701216
B2036314748463N12001185WA0119501215
B2036324748461N12001177WA0119401214
B2036334748460N12001169WA0119201212
B2036344748459N12001161WA0119001211
B2036354748458N12001152WA0118801209
B2036364748457N12001144WA0118701208
B2036374748456N12001136WA0118501207
B2036384748455N12001129WA0118401205
B2036394748454N12001121WA0118201203
B2036404748453N12001112WA0118101201
B2036414748452N12001104WA0117901198
B2036424748451N12001096WA0117701196
B2036434748450N12001088WA0117501195
B2036444748450N12001080WA0117401193
B2036454748449N12001072WA0117201192
B2036464748448N12001063WA0117101191
B2036474748447N12001053WA0116901189
B2036484748446N12001045WA0116801188
B2036494748445N12001036WA0116601188
B2036504748444N12001027WA0116501187
B2036514748443N12001019WA0116301187
B2036524748441N12001009WA0116201186
B2036534748440N12000999WA0116101185
B2036544748439N12000989WA0116001184
B2036554748438N12000978WA0115901183
B2036564748438N12000968WA0115801183
B2036574748437N12000958WA0115701182
B2036584748435N12000948WA0115601182
B2036594748434N12000939WA0115501181
B2037004748433N12000928WA0115401180
B2037014748432N12000917WA0115301179
B2037024748433N12000905WA0115201177
B2037034748433N12000892WA0115101177
B2037044748433N12000879WA0115101177
B2037054748434N12000867WA0115001177
B2037064748436N12000856WA0114901179
B2037074748438N12000845WA0114901180
B2037084748440N12000834WA0114901180
B2037094748442N12000822WA0114901180
B2037094748442N12000822WA0114901180
B2037104748444N12000810WA0114901179
B2037114748446N12000799WA0114801180
B2037124748448N12000789WA0114901181
B2037134748451N12000779WA0114901182
B2037144748453N12000768WA0114901182
B2037154748456N12000757WA0114901181
B2037164748460N12000745WA0114801180
B2037174748464N12000734WA0114801179
B2037184748467N12000724WA0114801179
B2037194748471N12000715WA0114801179
B2037204748474N12000706WA0114801177
B2037214748479N12000696WA0114701175
B2037224748483N12000686WA0114601171
B2037234748487N12000675WA0114501168
B2037244748490N12000665WA0114401165
B2037254748492N12000654WA0114301164
B2037264748493N12000644WA0114201163
B2037274748494N12000633WA0114001162
B2037284748494N12000622WA0113901160
B2037294748492N12000611WA0113701158
B2037304748489N12000601WA0113601157
B2037314748486N12000593WA0113501156
B2037324748483N12000587WA0113401155
B2037334748480N12000581WA0113201153
B2037344748477N12000576WA0113101151
B2037354748473N12000572WA0112901148
B2037364748470N12000568WA0112801146
B2037374748466N12000565WA0112601144
B2037384748463N12000561WA0112501143
B2037394748459N12000558WA0112301141
B2037404748456N12000555WA0112201140
B2037414748453N12000552WA0112001139
B2037424748450N12000550WA0111901137
B2037434748447N12000549WA0111701136
B2037444748444N12000547WA0111601135
B2037454748441N12000545WA0111401135
B2037464748439N12000544WA0111401134
B2037474748436N12000541WA0111201133
B2037484748434N12000538WA0111101132
B2037494748431N12000535WA0111001131
B2037504748429N12000532WA0110901130
B2037514748427N12000530WA0110801130
B2037524748425N12000527WA0110701129
B2037534748423N12000524WA0110601128
B2037544748420N12000521WA0110501127
B2037554748417N12000519WA0110401125
B2037564748414N12000516WA0110301124
B2037574748411N12000512WA0110201123
B2037584748408N12000508WA0110101123
B2037594748406N12000504WA0110001122
B2038004748404N12000499WA0109901120
B2038014748401N12000495WA0109701118
B2038024748399N12000491WA0109601116
B2038034748396N12000488WA0109501114
B2038044748393N12000485WA0109401112
B2038054748391N12000483WA0109201110
B2038064748388N12000480WA0109101108
B2038074748385N12000478WA0108901107
B2038084748382N12000476WA0108801105
B2038094748380N12000473WA0108601103
B2038104748376N12000470WA0108501101
B2038114748374N12000467WA0108301099
B2038124748371N12000465WA0108101097
B2038124748371N12000465WA0108101097
B2038134748369N12000462WA0107901095
B2038144748366N12000459WA0107801091
B2038154748363N12000455WA0107501086
B2038164748359N12000449WA0107301083
B2038174748356N12000443WA0107001081
B2038184748355N12000437WA0106801079
B2038194748354N12000433WA0106601078
B2038204748353N12000429WA0106401077
B2038214748352N12000424WA0106201075
B2038224748351N12000418WA0106001072
B2038234748349N12000411WA0105701069
B2038244748347N12000404WA0105601068
B2038254748345N12000396WA0105401069
B2038264748345N12000389WA0105301070
B2038274748345N12000382WA0105101071
B2038284748344N12000374WA0105001072
B2038294748343N12000366WA0104901072
B2038304748343N12000358WA0104901072
B2038314748342N12000350WA0104801073
B2038324748342N12000341WA0104801075
B2038334748342N12000334WA0104801076
B2038344748340N12000327WA0104801077
B2038354748338N12000321WA0104801077
B2038364748335N12000316WA0104801077
B2038374748332N12000314WA0104801077
B2038384748329N12000314WA0104801076
B2038394748328N12000316WA0104701074
B2038404748328N12000320WA0104701072
B2038414748330N12000324WA0104701070
B2038424748333N12000327WA0104601068
B2038434748338N12000328WA0104501067
B2038444748344N12000328WA0104401065
B2038454748350N12000325WA0104201062
B2038464748357N12000319WA0104101060
B2038474748363N12000311WA0104001058
B2038484748369N12000303WA0103901057
B2038494748372N12000295WA0103801059
B2038504748375N12000287WA0103801060
B2038514748376N12000279WA0103701061
B2038524748379N12000272WA0103701061
B2038534748381N12000263WA0103601060
B2038544748382N12000253WA0103601059
B2038554748383N12000244WA0103501059
B2038564748384N12000236WA0103501060
B2038574748384N12000228WA0103501061
B2038584748384N12000220WA0103501062
B2038594748384N12000212WA0103501063
B2039004748383N12000203WA0103501063
B2039014748382N12000195WA0103501063
B2039024748380N12000188WA0103501064
B2039034748378N12000183WA0103501064
B2039044748375N12000178WA0103601064
B2039054748373N12000173WA0103601065
B2039064748370N12000170WA0103601064
B2039074748368N12000168WA0103601064
B2039084748365N12000167WA0103601064
B2039094748363N12000166WA0103601063
B2039104748360N12000165WA0103601063
B2039114748358N12000164WA0103601064
B2039124748356N12000163WA0103601064
B2039134748353N12000162WA0103601063
B2039144748351N12000162WA0103601062
B2039154748347N12000163WA0103501061
B2039154748347N12000163WA0103501061
B2039164748344N12000162WA0103501061
B2039174748341N12000162WA0103501061
B2039184748339N12000161WA0103501061
B2039194748337N12000162WA0103501060
B2039204748334N12000162WA0103401058
B2039214748330N12000161WA0103301055
B2039224748327N12000159WA0103201052
B2039234748323N12000157WA0103101049
B2039244748320N12000155WA0103001047
B2039254748317N12000154WA0102801044
B2039264748314N12000153WA0102601040
B2039274748311N12000151WA0102401036
B2039284748308N12000148WA0102201032
B2039294748304N12000146WA0101901029
B2039304748301N12000144WA0101701026
B2039314748298N12000143WA0101401022
B2039324748295N12000142WA0101201020
B2039334748292N12000140WA0100901017
B2039344748288N12000139WA0100801015
B2039354748285N12000138WA0100501014
B2039364748282N12000137WA0100301012
B2039374748280N12000136WA0100101011
B2039384748277N12000134WA0099901009
B2039394748274N12000133WA0099701007
B2039404748271N12000132WA0099501006
B2039414748268N12000131WA0099301005
B2039424748265N12000129WA0099201005
B2039434748262N12000125WA0099001004
B2039444748259N12000121WA0098901004
B2039454748256N12000118WA0098801004
B2039464748254N12000115WA0098701003
B2039474748251N12000113WA0098601002
B2039484748248N12000110WA0098501000
B2039494748244N12000108WA0098300998
B2039504748241N12000106WA0098200996
B2039514748238N12000103WA0098100995
B2039524748235N12000100WA0098000995
B2039534748232N12000097WA0097900994
B2039544748229N12000094WA0097800993
B2039554748227N12000092WA0097600992
B2039564748224N12000090WA0097600990
B2039574748222N12000087WA0097400989
B2039584748219N12000084WA0097300987
B2039594748216N12000081WA0097100984
B2040004748214N12000078WA0097000981
B2040014748212N12000074WA0096800979
B2040024748209N12000070WA0096600975
B2040034748207N12000065WA0096400972
B2040044748204N12000061WA0096200968
B2040054748201N12000057WA0095900965
B2040064748199N12000053WA0095700962
B2040074748197N12000050WA0095500959
B2040084748195N12000048WA0095300956
B2040094748193N12000046WA0095000953
B2040104748190N12000045WA0094800950
B2040114748187N12000044WA0094400946
B2040124748184N12000042WA0094200943
B2040134748182N12000040WA0093900941
B2040144748179N12000037WA0093700939
B2040154748176N12000034WA0093400936
B2040164748172N12000032WA0093200932
B2040174748169N12000030WA0092800929
B2040184748165N12000027WA0092600926
B2040184748165N12000027WA0092600926
B2040194748163N12000024WA0092300924
B2040204748161N12000020WA0092100922
B2040214748160N12000015WA0091800920
B2040224748158N12000010WA0091600916
B2040234748155N12000006WA0091300912
B2040244748153N12000001WA0091100909
B2040254748151N11959997WA0090700906
B2040264748149N11959993WA0090500904
B2040274748147N11959989WA0090200901
B2040284748145N11959985WA0090000898
B2040294748142N11959980WA0089700896
B2040304748139N11959975WA0089500893
B2040314748137N11959970WA0089200891
B2040324748135N11959964WA0089000890
B2040334748133N11959959WA0088700889
B2040344748131N11959955WA0088600887
B2040354748129N11959951WA0088300885
B2040364748127N11959946WA0088100883
B2040374748124N11959942WA0087900880
B2040384748122N11959938WA0087700878
B2040394748120N11959933WA0087500877
B2040404748118N11959930WA0087300875
B2040414748117N11959926WA0087100873
B2040424748114N11959921WA0086900871
B2040434748112N11959917WA0086600868
B2040444748109N11959912WA0086500866
B2040454748106N11959908WA0086200864
B2040464748103N11959904WA0086100863
B2040474748100N11959901WA0085900863
B2040484748098N11959897WA0085800863
B2040494748096N11959893WA0085600862
B2040504748094N11959889WA0085500861
B2040514748091N11959884WA0085300859
B2040524748088N11959880WA0085200858
B2040534748085N11959875WA0085000857
B2040544748083N11959871WA0084900857
B2040554748080N11959865WA0084800856
B2040564748077N11959858WA0084700855
B2040574748075N11959852WA0084600855
B2040584748073N11959845WA0084500853
B2040594748070N11959839WA0084400852
B2041004748068N11959834WA0084300851
B2041014748065N11959828WA0084200849
B2041024748063N11959824WA0084100848
B2041034748060N11959819WA0083900846
B2041044748057N11959814WA0083800844
B2041054748055N11959808WA0083700843
B2041064748052N11959802WA0083600842
B2041074748050N11959796WA0083500841
B2041084748049N11959791WA0083400840
B2041094748047N11959785WA0083200838
B2041104748044N11959779WA0083100836
B2041114748041N11959773WA0082900833
B2041124748038N11959767WA0082800831
B2041134748036N11959761WA0082600830
B2041144748033N11959756WA0082500829
B2041154748031N11959751WA0082300828
B2041164748028N11959745WA0082200826
B2041174748026N11959739WA0082000824
B2041184748022N11959733WA0081900821
B2041194748019N11959727WA0081700820
B2041204748016N11959722WA0081600819
B2041214748013N11959718WA0081400817
B2041214748013N11959718WA0081400817
B2041224748010N11959713WA0081300816
B2041234748007N11959708WA0081100814
B2041244748003N11959703WA0081000812
B2041254748000N11959698WA0080800810
B2041264747997N11959693WA0080700808
B2041274747994N11959687WA0080500806
B2041284747992N11959682WA0080300803
B2041294747989N11959676WA0080100800
B2041304747986N11959671WA0079900797
B2041314747983N11959666WA0079600793
B2041324747980N11959660WA0079400790
B2041334747977N11959655WA0079200787
B2041344747974N11959651WA0079000784
B2041354747971N11959647WA0078700781
B2041364747968N11959643WA0078400777
B2041374747965N11959638WA0078100774
B2041384747962N11959633WA0077900770
B2041394747959N11959626WA0077500766
B2041404747957N11959620WA0077300763
B2041414747954N11959613WA0076900760
B2041424747952N11959606WA0076700757
B2041434747950N11959599WA0076400755
B2041444747948N11959592WA0076100752
B2041454747947N11959584WA0075800749
B2041464747945N11959576WA0075600746
B2041474747944N11959567WA0075200743
B2041484747943N11959558WA0075000741
B2041494747942N11959549WA0074700738
B2041504747941N11959540WA0074500735
B2041514747940N11959531WA0074100733
B2041524747939N11959522WA0073900730
B2041534747938N11959513WA0073600728
B2041544747936N11959504WA0073400725
B2041554747934N11959496WA0073100723
B2041564747932N11959488WA0072900720
B2041574747930N11959480WA0072600717
B2041584747928N11959472WA0072400715
B2041594747926N11959465WA0072000712
B2042004747923N11959458WA0071800709
B2042014747920N11959452WA0071500706
B2042024747917N11959445WA0071300703
B2042034747915N11959438WA0071000701
B2042044747912N11959431WA0070800698
B2042054747909N11959424WA0070500695
B2042064747907N11959417WA0070300692
B2042074747904N11959410WA0070000689
B2042084747902N11959402WA0069700686
B2042094747899N11959395WA0069400684
B2042104747897N11959387WA0069200681
B2042114747895N11959380WA0068900677
B2042124747893N11959371WA0068700674
B2042134747890N11959362WA0068400671
B2042144747889N11959353WA0068200669
B2042154747887N11959345WA0067900667
B2042164747885N11959337WA0067700666
B2042174747883N11959329WA0067400663
B2042184747880N11959322WA0067200661
B2042194747878N11959314WA0066900659
B2042204747876N11959306WA0066800656
B2042214747874N11959298WA0066500654
B2042224747872N11959290WA0066300651
B2042234747870N11959282WA0066000648
B2042244747868N11959274WA0065800646
B2042244747868N11959274WA0065800646
B2042254747866N11959266WA0065500644
B2042264747865N11959258WA0065400643
B2042274747863N11959250WA0065100641
B2042284747861N11959243WA0064900639
B2042294747859N11959236WA0064700638
B2042304747856N11959229WA0064500636
B2042314747854N11959222WA0064300634
B2042324747852N11959215WA0064100631
B2042334747849N11959208WA0063900628
B2042344747846N11959200WA0063700625
B2042354747842N11959191WA0063400623
B2042364747839N11959183WA0063300622
B2042374747836N11959176WA0063000621
B2042384747834N11959168WA0062900620
B2042394747831N11959159WA0062700618
B2042404747827N11959150WA0062600617
B2042414747824N11959141WA0062400616
B2042424747821N11959133WA0062300618
B2042434747820N11959126WA0062200620
B2042444747819N11959119WA0062100621
B2042454747817N11959111WA0062100621
B2042464747814N11959102WA0062000619
B2042474747811N11959094WA0061900618
B2042484747807N11959086WA0061900618
B2042494747805N11959080WA0061800619
B2042504747803N11959074WA0061800621
B2042514747800N11959068WA0061800622
B2042524747798N11959061WA0061800622
B2042534747795N11959054WA0061800622
B2042544747793N11959047WA0061800623
B2042554747791N11959040WA0061800624
B2042564747789N11959033WA0061900626
B2042574747788N11959028WA0061900628
B2042584747786N11959023WA0062000630
B2042594747784N11959021WA0062000631
B2043004747781N11959021WA0062100630
B2043014747780N11959024WA0062100630
B2043024747780N11959029WA0062200631
B2043034747783N11959034WA0062200632
B2043044747788N11959038WA0062300633
B2043054747794N11959040WA0062300635
B2043064747800N11959039WA0062400637
B2043074747806N11959037WA0062500639
B2043084747812N11959033WA0062600640
B2043094747817N11959028WA0062700641
B2043104747822N11959021WA0062800641
B2043114747825N11959012WA0062900640
B2043124747827N11959002WA0062900640
B2043134747826N11958992WA0063000640
B2043144747825N11958984WA0063000640
B2043154747823N11958978WA0063100642
B2043164747821N11958974WA0063100643
B2043174747819N11958971WA0063200644
B2043184747817N11958970WA0063300645
B2043194747815N11958971WA0063400645
B2043204747814N11958973WA0063400645
B2043214747813N11958977WA0063500647
B2043224747814N11958980WA0063600649
B2043234747816N11958983WA0063700651
B2043244747819N11958986WA0063700652
B2043254747823N11958989WA0063900653
B2043264747828N11958992WA0063900654
B2043274747834N11958993WA0064000654
B2043274747834N11958993WA0064000654
B2043284747841N11958990WA0064100655
B2043294747847N11958985WA0064200655
B2043304747853N11958977WA0064200656
B2043314747856N11958968WA0064300657
B2043324747858N11958959WA0064400657
B2043334747859N11958951WA0064500658
B2043344747858N11958944WA0064500658
B2043354747856N11958939WA0064600659
B2043364747854N11958936WA0064700659
B2043374747853N11958935WA0064700660
B2043384747851N11958937WA0064800661
B2043394747851N11958939WA0064900661
B2043404747851N11958942WA0064900662
B2043414747853N11958945WA0065000663
B2043424747855N11958948WA0065100665
B2043434747859N11958951WA0065200666
B2043444747863N11958954WA0065200666
B2043454747868N11958956WA0065300667
B2043464747874N11958956WA0065300668
B2043474747880N11958955WA0065400668
B2043484747887N11958952WA0065500669
B2043494747893N11958948WA0065600669
B2043504747900N11958942WA0065600669
B2043514747905N11958933WA0065700668
B2043524747908N11958922WA0065700667
B2043534747910N11958911WA0065700666
B2043544747910N11958901WA0065700667
B2043554747908N11958893WA0065700667
B2043564747906N11958888WA0065800668
B2043574747904N11958883WA0065800669
B2043584747902N11958878WA0065800669
B2043594747900N11958874WA0065900669
B2044004747898N11958871WA0065900669
B2044014747896N11958867WA0065900669
B2044024747894N11958864WA0066000670
B2044034747892N11958862WA0066000672
B2044044747892N11958861WA0066100673
B2044054747891N11958861WA0066100674
B2044064747890N11958861WA0066200675
B2044074747890N11958861WA0066300675
B2044084747889N11958861WA0066300675
B2044094747889N11958861WA0066400675
B2044104747889N11958863WA0066400675
B2044114747891N11958864WA0066400674
B2044124747893N11958867WA0066400674
B2044134747897N11958868WA0066400673
B2044144747902N11958869WA0066400672
B2044154747908N11958869WA0066400672
B2044164747914N11958867WA0066400671
B2044174747921N11958863WA0066400671
B2044184747927N11958856WA0066300671
B2044194747932N11958847WA0066300670
B2044204747935N11958837WA0066300670
B2044214747937N11958827WA0066300671
B2044224747938N11958817WA0066300672
B2044234747939N11958808WA0066300674
B2044244747938N11958799WA0066400674
B2044254747937N11958791WA0066400674
B2044264747935N11958783WA0066400675
B2044274747933N11958776WA0066400675
B2044284747932N11958770WA0066500677
B2044294747931N11958764WA0066500678
B2044304747929N11958760WA0066600679
B2044304747929N11958760WA0066600679
B2044314747928N11958756WA0066600679
B2044324747926N11958753WA0066700680
B2044334747924N11958751WA0066700679
B2044344747922N11958749WA0066800680
B2044354747921N11958748WA0066800681
B2044364747921N11958749WA0066900683
B2044374747921N11958749WA0066900684
B2044384747921N11958749WA0067000685
B2044394747921N11958749WA0067000685
B2044404747922N11958751WA0067100684
B2044414747924N11958753WA0067100683
B2044424747927N11958755WA0067100683
B2044434747932N11958757WA0067100682
B2044444747937N11958757WA0067200682
B2044454747943N11958756WA0067200683
B2044464747949N11958753WA0067200683
B2044474747956N11958749WA0067200683
B2044484747962N11958742WA0067200683
B2044494747967N11958733WA0067200683
B2044504747971N11958722WA0067200682
B2044514747972N11958710WA0067200681
B2044524747972N11958700WA0067200681
B2044534747970N11958692WA0067200681
B2044544747968N11958686WA0067200681
B2044554747966N11958682WA0067200682
B2044564747964N11958678WA0067200684
B2044574747962N11958674WA0067300685
B2044584747960N11958672WA0067300685
B2044594747958N11958669WA0067300685
B2045004747956N11958666WA0067400686
B2045014747954N11958664WA0067400686
B2045024747952N11958661WA0067400686
B2045034747950N11958659WA0067500687
B2045044747948N11958656WA0067500687
B2045054747947N11958655WA0067500687
B2045064747945N11958653WA0067500686
B2045074747943N11958653WA0067600686
B2045084747942N11958654WA0067600686
B2045094747942N11958655WA0067600686
B2045104747941N11958656WA0067600686
B2045114747941N11958657WA0067600687
B2045124747942N11958658WA0067600688
B2045134747942N11958660WA0067700688
B2045144747942N11958662WA0067700688
B2045154747943N11958664WA0067700688
B2045164747943N11958665WA0067700689
B2045174747944N11958667WA0067800689
B2045184747945N11958669WA0067800690
B2045194747945N11958671WA0067800690
B2045204747945N11958673WA0067800690
B2045214747945N11958675WA0067900691
B2045224747946N11958677WA0067900691
B2045234747946N11958679WA0068000692
B2045244747947N11958680WA0068000692
B2045254747948N11958682WA0068000692
B2045264747947N11958685WA0068000691
B2045274747947N11958687WA0068000691
B2045284747947N11958689WA0068100690
B2045294747946N11958692WA0068100690
B2045304747946N11958695WA0068000690
B2045314747946N11958700WA0068000688
B2045324747946N11958707WA0068000686
B2045324747946N11958707WA0068000686
B2045334747946N11958712WA0067900685
B2045344747945N11958715WA0067900686
B2045354747945N11958718WA0067900686
B2045364747945N11958720WA0067800686
B2045374747945N11958722WA0067800685
B2045384747945N11958726WA0067700682
B2045394747945N11958730WA0067600679
B2045404747944N11958735WA0067500676
B2045414747944N11958740WA0067400674
B2045424747943N11958743WA0067300673
B2045434747942N11958746WA0067100672
B2045444747940N11958748WA0067000670
B2045454747939N11958750WA0066900668
B2045464747937N11958753WA0066700665
B2045474747935N11958757WA0066500663
B2045484747934N11958760WA0066400660
B2045494747933N11958763WA0066200659
B2045504747931N11958765WA0066100658
B2045514747930N11958766WA0066000657
B2045524747928N11958769WA0065800655
B2045534747926N11958771WA0065700653
B2045544747923N11958775WA0065500651
B2045554747921N11958780WA0065400649
B2045564747919N11958784WA0065200648
B2045574747917N11958788WA0065100647
B2045584747915N11958789WA0065000647
B2045594747913N11958790WA0064800646
B2046004747910N11958791WA0064700645
B2046014747907N11958792WA0064600643
B2046024747903N11958792WA0064500642
B2046034747900N11958790WA0064400641
B2046044747897N11958788WA0064300640
B2046054747894N11958786WA0064200640
B2046064747890N11958784WA0064100640
B2046074747887N11958780WA0064000639
B2046084747883N11958777WA0063900638
B2046094747879N11958772WA0063800637
B2046104747875N11958768WA0063800637
B2046114747872N11958764WA0063700637
B2046124747868N11958760WA0063600637
B2046134747864N11958756WA0063600637
B2046144747861N11958752WA0063500637
B2046154747858N11958747WA0063500637
B2046164747855N11958742WA0063500637
B2046174747853N11958737WA0063400637
B2046184747851N11958733WA0063400638
B2046194747848N11958728WA0063400637
B2046204747846N11958722WA0063400637
B2046214747843N11958716WA0063400636
B2046224747841N11958710WA0063300635
B2046234747839N11958705WA0063300635
B2046244747837N11958700WA0063300635
B2046254747834N11958695WA0063200634
B2046264747831N11958690WA0063200633
B2046274747829N11958683WA0063200633
B2046284747826N11958677WA0063100632
B2046294747825N11958670WA0063100633
B2046304747823N11958664WA0063100633
B2046314747822N11958657WA0063000633
B2046324747820N11958650WA0063000632
B2046334747818N11958643WA0063000631
B2046344747816N11958635WA0062900630
B2046344747816N11958635WA0062900630
B2046354747814N11958628WA0062900629
B2046364747812N11958622WA0062800629
B2046374747810N11958615WA0062800629
B2046384747808N11958608WA0062700628
B2046394747807N11958600WA0062700628
B2046404747805N11958592WA0062700628
B2046414747804N11958584WA0062600628
B2046424747802N11958576WA0062600629
B2046434747801N11958569WA0062600630
B2046444747800N11958562WA0062600630
B2046454747798N11958554WA0062600630
B2046464747796N11958547WA0062600630
B2046474747793N11958540WA0062600629
B2046484747790N11958534WA0062600630
B2046494747787N11958530WA0062600630
B2046504747784N11958527WA0062600631
B2046514747781N11958525WA0062600631
B2046524747779N11958525WA0062600631
B2046534747776N11958526WA0062600630
B2046544747775N11958528WA0062600630
B2046554747775N11958531WA0062600630
B2046564747776N11958534WA0062600631
B2046574747778N11958537WA0062600631
B2046584747781N11958539WA0062600631
B2046594747786N11958540WA0062600631
B2047004747791N11958540WA0062600630
B2047014747796N11958538WA0062600630
B2047024747802N11958534WA0062600630
B2047034747807N11958528WA0062600630
B2047044747811N11958520WA0062600630
B2047054747814N11958510WA0062600630
B2047064747814N11958499WA0062600629
B2047074747813N11958489WA0062600629
B2047084747811N11958481WA0062600630
B2047094747808N11958475WA0062600630
B2047104747805N11958471WA0062600631
B2047114747802N11958467WA0062700632
B2047124747799N11958465WA0062700632
B2047134747796N11958464WA0062700633
B2047144747793N11958463WA0062700632
B2047154747791N11958464WA0062700632
B2047164747789N11958465WA0062800633
B2047174747788N11958466WA0062800633
B2047184747787N11958468WA0062800634
B2047194747787N11958470WA0062800634
B2047204747786N11958472WA0062800634
B2047214747786N11958475WA0062900634
B2047224747787N11958477WA0062900634
B2047234747787N11958480WA0062900634
B2047244747789N11958482WA0062900635
B2047254747790N11958485WA0062900635
B2047264747792N11958488WA0063000635
B2047274747795N11958491WA0063000635
B2047284747796N11958494WA0063000635
B2047294747798N11958498WA0063000634
B2047304747801N11958501WA0063000635
B2047314747805N11958503WA0063000634
B2047324747809N11958504WA0063000633
B2047334747814N11958505WA0062900632
B2047344747819N11958503WA0062900630
B2047354747825N11958500WA0062900629
B2047364747830N11958495WA0062800628
B2047374747834N11958487WA0062700627
B2047374747834N11958487WA0062700627
B2047384747837N11958479WA0062700627
B2047394747839N11958470WA0062700627
B2047404747839N11958462WA0062600627
B2047414747837N11958454WA0062600626
B2047424747834N11958448WA0062500626
B2047434747830N11958444WA0062500625
B2047444747826N11958441WA0062500626
B2047454747824N11958440WA0062500627
B2047464747821N11958440WA0062500628
B2047474747819N11958440WA0062500629
B2047484747817N11958441WA0062500630
B2047494747816N11958443WA0062500630
B2047504747815N11958445WA0062500629
B2047514747815N11958447WA0062500628
B2047524747814N11958448WA0062500627
B2047534747813N11958451WA0062400626
B2047544747812N11958454WA0062400624
B2047554747812N11958457WA0062300623
B2047564747812N11958460WA0062300623
B2047574747812N11958463WA0062300623
B2047584747813N11958465WA0062200622
B2047594747813N11958469WA0062100621
B2048004747814N11958475WA0062100617
B2048014747815N11958483WA0061900612
B2048024747818N11958492WA0061800608
B2048034747821N11958500WA0061600607
B2048044747824N11958505WA0061500607
B2048054747826N11958509WA0061400609
B2048064747829N11958513WA0061300609
B2048074747831N11958517WA0061200607
B2048084747833N11958522WA0061100605
B2048094747835N11958528WA0060900602
B2048104747837N11958534WA0060800600
B2048114747839N11958540WA0060700598
B2048124747841N11958546WA0060500596
B2048134747842N11958552WA0060400595
B2048144747843N11958558WA0060200593
B2048154747844N11958564WA0060100592
B2048164747845N11958571WA0059900590
B2048174747846N11958578WA0059700587
B2048184747848N11958585WA0059600585
B2048194747850N11958591WA0059400584
B2048204747853N11958597WA0059300584
B2048214747855N11958603WA0059100583
B2048224747857N11958608WA0059000583
B2048234747859N11958614WA0058900582
B2048244747862N11958620WA0058800581
B2048254747865N11958626WA0058700580
B2048264747868N11958632WA0058600579
B2048274747871N11958638WA0058500579
B2048284747874N11958643WA0058400579
B2048294747876N11958648WA0058300579
B2048304747879N11958653WA0058200578
B2048314747882N11958658WA0058100576
B2048324747885N11958664WA0058000574
B2048334747888N11958670WA0057900572
B2048344747891N11958677WA0057800570
B2048354747894N11958683WA0057700569
B2048364747897N11958690WA0057500567
B2048374747900N11958696WA0057400565
B2048384747904N11958702WA0057300564
B2048394747907N11958709WA0057100562
B2048404747910N11958715WA0057000561
B2048404747910N11958715WA0057000561
B2048414747914N11958721WA0056800560
B2048424747917N11958727WA0056700558
B2048434747919N11958733WA0056600557
B2048444747921N11958740WA0056500555
B2048454747923N11958746WA0056300555
B2048464747924N11958752WA0056200555
B2048474747927N11958757WA0056100554
B2048484747929N11958763WA0056000553
B2048494747932N11958768WA0055900551
B2048504747934N11958773WA0055800551
B2048514747936N11958777WA0055700550
B2048524747939N11958780WA0055600551
B2048534747941N11958783WA0055500550
B2048544747943N11958787WA0055400549
B2048554747945N11958791WA0055300547
B2048564747946N11958796WA0055200546
B2048574747947N11958800WA0055100545
B2048584747949N11958804WA0055000544
B2048594747950N11958807WA0054900544
B2049004747950N11958810WA0054900543
B2049014747951N11958814WA0054800542
B2049024747952N11958817WA0054700542
B2049034747952N11958820WA0054600541
B2049044747953N11958823WA0054600541
B2049054747954N11958826WA0054500540
B2049064747954N11958829WA0054400539
B2049074747955N11958833WA0054300538
B2049084747956N11958836WA0054200537
B2049094747956N11958839WA0054200537
B2049104747957N11958841WA0054100536
B2049114747957N11958843WA0054000536
B2049124747958N11958845WA0054000535
B2049134747958N11958848WA0053900533
B2049144747959N11958851WA0053800532
B2049154747959N11958855WA0053700530
B2049164747959N11958857WA0053600528
B2049174747958N11958859WA0053500527
B2049184747958N11958861WA0053400525
B2049194747957N11958863WA0053200524
B2049204747956N11958865WA0053100521
B2049214747955N11958867WA0053000519
B2049224747954N11958870WA0052800517
B2049234747952N11958872WA0052700515
B2049244747952N11958875WA0052600513
B2049254747951N11958877WA0052400511
B2049264747949N11958880WA0052200509
B2049274747948N11958883WA0052000507
B2049284747947N11958886WA0051900504
B2049294747946N11958889WA0051700502
B2049304747945N11958892WA0051500500
B2049314747944N11958895WA0051300498
B2049324747943N11958897WA0051200496
B2049334747941N11958900WA0051000494
B2049344747939N11958902WA0050800492
B2049354747937N11958904WA0050600490
B2049364747936N11958906WA0050400488
B2049374747934N11958908WA0050200486
B2049384747932N11958909WA0050100484
B2049394747931N11958912WA0049800482
B2049404747929N11958914WA0049700480
B2049414747928N11958917WA0049500477
B2049424747926N11958920WA0049300476
B2049434747924N11958923WA0049100474
B2049434747924N11958923WA0049100474
B2049444747923N11958925WA0049000473
B2049454747921N11958928WA0048800472
B2049464747920N11958930WA0048600471
B2049474747919N11958933WA0048400469
B2049484747917N11958937WA0048300467
B2049494747916N11958940WA0048100465
B2049504747914N11958944WA0048000464
B2049514747913N11958947WA0047800463
B2049524747912N11958949WA0047700462
B2049534747911N11958952WA0047500460
B2049544747909N11958955WA0047400457
B2049554747907N11958959WA0047200455
B2049564747906N11958962WA0047000452
B2049574747905N11958966WA0046800450
B2049584747904N11958969WA0046700449
B2049594747903N11958971WA0046500448
B2050004747901N11958974WA0046400446
B2050014747900N11958977WA0046200444
B2050024747898N11958980WA0046000442
B2050034747896N11958983WA0045800440
B2050044747894N11958986WA0045700439
B2050054747893N11958989WA0045500438
B2050064747893N11958993WA0045400437
B2050074747893N11958996WA0045200435
B2050084747892N11959000WA0045100433
B2050094747891N11959004WA0044900431
B2050104747891N11959008WA0044800430
B2050114747890N11959012WA0044600428
B2050124747889N11959015WA0044500427
B2050134747887N11959018WA0044300426
B2050144747885N11959022WA0044200424
B2050154747884N11959026WA0044100423
B2050164747883N11959029WA0043900422
B2050174747881N11959033WA0043800421
B2050184747879N11959036WA0043700420
B2050194747876N11959038WA0043500419
B2050204747874N11959040WA0043400418
B2050214747871N11959040WA0043300418
B2050224747868N11959039WA0043300418
B2050234747866N11959036WA0043100417
B2050244747863N11959030WA0043000415
B2050254747860N11959023WA0042900413
B2050264747859N11959015WA0042800411
B2050274747858N11959006WA0042600411
B2050284747859N11958997WA0042500410
B2050294747860N11958988WA0042400408
B2050304747862N11958979WA0042300406
B2050314747864N11958970WA0042100404
B2050324747866N11958960WA0042000402
B2050334747869N11958950WA0041800400
B2050344747872N11958941WA0041700398
B2050354747875N11958931WA0041500398
B2050364747878N11958923WA0041400398
B2050374747881N11958914WA0041300398
B2050384747883N11958907WA0041200398
B2050394747887N11958899WA0041100397
B2050404747891N11958892WA0041000396
B2050414747895N11958885WA0040900394
B2050424747900N11958878WA0040800392
B2050434747905N11958873WA0040600391
B2050444747909N11958868WA0040500389
B2050454747914N11958865WA0040400388
B2050464747920N11958861WA0040200386
B2050464747920N11958861WA0040200386
B2050474747925N11958858WA0040100384
B2050484747931N11958854WA0040000382
B2050494747937N11958850WA0039800380
B2050504747942N11958847WA0039700379
B2050514747948N11958844WA0039500378
B2050524747953N11958843WA0039400376
B2050534747958N11958843WA0039200375
B2050544747962N11958846WA0039100373
B2050554747965N11958852WA0038900370
B2050564747965N11958859WA0038700368
B2050574747963N11958864WA0038600367
B2050584747959N11958866WA0038500367
B2050594747956N11958866WA0038400369
B2051004747954N11958867WA0038300369
B2051014747952N11958869WA0038200368
B2051024747950N11958872WA0038100365
B2051034747947N11958876WA0038000363
B2051044747944N11958879WA0038000363
B2051054747942N11958882WA0037900363
B2051064747940N11958884WA0037800363
B2051074747938N11958886WA0037800364
B2051084747936N11958889WA0037700363
B2051094747934N11958893WA0037700362
B2051104747932N11958897WA0037600361
B2051114747931N11958900WA0037600362
B2051124747931N11958902WA0037500364
B2051134747931N11958903WA0037500364
B2051144747930N11958905WA0037500363
B2051154747929N11958909WA0037500361
B2051164747928N11958913WA0037400358
B2051174747926N11958917WA0037400357
B2051184747924N11958919WA0037300356
B2051194747922N11958922WA0037200355
B2051204747921N11958924WA0037200354
B2051214747919N11958926WA0037100352
B2051224747918N11958928WA0037000350
B2051234747916N11958930WA0036900348
B2051244747914N11958932WA0036800345
B2051254747912N11958935WA0036600343
B2051264747910N11958938WA0036500341
B2051274747909N11958940WA0036300340
B2051284747907N11958942WA0036200338
B2051294747905N11958944WA0036100336
B2051304747903N11958945WA0035900335
B2051314747901N11958947WA0035700333
B2051324747899N11958949WA0035600331
B2051334747898N11958952WA0035400329
B2051344747897N11958955WA0035300328
B2051354747897N11958958WA0035100326
B2051364747896N11958962WA0035000323
B2051374747896N11958964WA0034800321
B2051384747896N11958968WA0034600319
B2051394747896N11958972WA0034400316
B2051404747895N11958975WA0034300314
B2051414747893N11958977WA0034000312
B2051424747891N11958980WA0033900309
B2051434747890N11958983WA0033600307
B2051444747889N11958986WA0033500305
B2051454747888N11958990WA0033200303
B2051464747890N11958994WA0033100301
B2051474747892N11958999WA0032800299
B2051484747897N11959001WA0032700297
B2051484747897N11959001WA0032700297
B2051494747902N11959001WA0032400295
B2051504747908N11958998WA0032300294
B2051514747913N11958992WA0032100292
B2051524747917N11958985WA0031900291
B2051534747920N11958976WA0031700290
B2051544747922N11958967WA0031600289
B2051554747924N11958959WA0031400287
B2051564747928N11958952WA0031300285
B2051574747934N11958945WA0031000283
B2051584747939N11958939WA0030900282
B2051594747945N11958933WA0030700280
B2052004747949N11958929WA0030500278
B2052014747954N11958927WA0030300275
B2052024747959N11958927WA0030100271
B2052034747965N11958928WA0029800268
B2052044747969N11958932WA0029700266
B2052054747972N11958936WA0029400267
B2052064747975N11958940WA0029300265
B2052074747978N11958943WA0029100265
B2052084747981N11958945WA0028900265
B2052094747983N11958949WA0028700263
B2052104747985N11958953WA0028600261
B2052114747987N11958958WA0028400260
B2052124747989N11958962WA0028300259
B2052134747992N11958965WA0028100260
B2052144747994N11958969WA0028000259
B2052154747995N11958973WA0027800257
B2052164747996N11958978WA0027700255
B2052174747996N11958983WA0027500252
B2052184747995N11958987WA0027400250
B2052194747994N11958991WA0027200248
B2052204747993N11958995WA0027100247
B2052214747992N11958999WA0026900244
B2052224747991N11959004WA0026800242
B2052234747989N11959009WA0026600239
B2052244747988N11959015WA0026400236
B2052254747986N11959021WA0026200234
B2052264747985N11959026WA0026100233
B2052274747983N11959031WA0025900231
B2052284747980N11959037WA0025800230
B2052294747978N11959042WA0025600228
B2052304747975N11959048WA0025400228
B2052314747972N11959051WA0025300228
B2052324747969N11959054WA0025200228
B2052334747966N11959056WA0025100228
B2052344747963N11959058WA0025000227
B2052354747961N11959060WA0024800225
B2052364747959N11959060WA0024700225
B2052374747957N11959061WA0024600224
B2052384747956N11959061WA0024500224
B2052394747955N11959061WA0024400224
B2052404747955N11959060WA0024400224
B2052414747955N11959060WA0024300224
B2052424747955N11959060WA0024200224
B2052434747956N11959059WA0024200224
B2052444747956N11959060WA0024100223
B2052454747956N11959060WA0024100224
B2052464747956N11959060WA0024100224
B2052474747956N11959060WA0024000224
B2052484747956N11959060WA0024000224
B2052494747956N11959060WA0024000224
B2052504747956N11959060WA0024000224
B2052514747956N11959060WA0023900225
B2052514747956N11959060WA0023900225
B2052524747956N11959060WA0023900225
B2052534747956N11959060WA0023900225
B2052544747956N11959060WA0023900225
B2052554747956N11959060WA0023900225
B2052564747956N11959060WA0023900225
B2052574747956N11959060WA0023900225
B2052584747956N11959060WA0023900225
B2052594747956N11959060WA0023900225
B2053004747956N11959060WA0023800225
B2053014747956N11959060WA0023800225
B2053024747956N11959060WA0023800225
B2053034747956N11959060WA0023800225
B2053044747956N11959060WA0023800225
B2053054747956N11959060WA0023800226
B2053064747956N11959060WA0023800226
B2053074747956N11959060WA0023800226
B2053084747956N11959060WA0023800225
B2053094747956N11959060WA0023800225
B2053104747956N11959060WA0023800225
B2053114747957N11959060WA0023800225
B2053124747957N11959060WA0023800225
B2053134747957N11959060WA0023800225
B2053144747957N11959060WA0023800225
B2053154747957N11959060WA0023800225
B2053164747957N11959060WA0023800224
B2053174747957N11959060WA0023800224
B2053184747957N11959060WA0023800224
B2053194747957N11959060WA0023800224
B2053204747957N11959060WA0023800224
B2053214747957N11959060WA0023800224
B2053224747957N11959060WA0023800224
B2053234747957N11959060WA0023800224
B2053244747957N11959060WA0023800224
B2053254747957N11959060WA0023800224
B2053264747957N11959060WA0023800224
B2053274747957N11959060WA0023800224
B2053284747958N11959059WA0023800224
B2053294747957N11959057WA0023800224
B2053304747957N11959056WA0023800224
B2053314747957N11959055WA0023800224
B2053324747957N11959054WA0023800224
B2053334747956N11959053WA0023800224
B2053344747956N11959052WA0023800223
B2053354747955N11959051WA0023800223
B2053364747955N11959051WA0023800223
B2053374747954N11959050WA0023800223
B2053384747954N11959049WA0023800223
B2053394747953N11959048WA0023800223
B2053404747953N11959047WA0023800222
B2053414747953N11959046WA0023700222
B2053424747953N11959045WA0023700222
B2053434747953N11959044WA0023700222
B2053444747953N11959043WA0023700222
B2053454747953N11959042WA0023700223
B2053464747953N11959042WA0023700223
B2053474747954N11959041WA0023700223
B2053484747953N11959041WA0023700223
B2053494747953N11959041WA0023700223
B2053504747953N11959041WA0023700223
B2053514747953N11959041WA0023700223
B2053524747953N11959041WA0023700223
B2053534747953N11959041WA0023700223
B2053544747953N11959041WA0023700223
B2053554747953N11959041WA0023700223
