AXFMSFP Flymaster Live, V1.0
HFFXA010
HFPLTPILOT:David Wheeler
HFGTYGLIDERTYPE:Niviuk Arrow P / Ozone Lyght
HFGIDGLIDERID:
HFDTM100GPSDATUM:WGS-1984
HFCIDCOMPETITIONID:404
HFCCLCOMPETITIONCLASS:
HOSITSITE:LAUNCH
HFGPS:UBLOXNEO6
HFPRSPRESSALTSENSOR:NA
HFRFWFIRMWAREVERSION:202g
HFRHWHARDWAREVERSION:1.0R2
HFFTYFRTYPE:FLYMASTER,LIVE
HFDTE160625
B1931494748215N12002309WA0153901589
B1931504748215N12002309WA0153901590
B1931514748214N12002310WA0154001591
B1931524748213N12002311WA0154001591
B1931534748211N12002313WA0154001592
B1931544748210N12002314WA0154101593
B1931554748208N12002313WA0154101595
B1931564748206N12002313WA0154201597
B1931574748204N12002312WA0154301598
B1931584748201N12002313WA0154401599
B1931594748199N12002314WA0154501601
B1932004748197N12002316WA0154601603
B1932014748195N12002317WA0154701607
B1932024748193N12002317WA0154901612
B1932034748191N12002315WA0155101615
B1932044748189N12002313WA0155301618
B1932054748186N12002311WA0155501620
B1932064748184N12002309WA0155701622
B1932074748183N12002309WA0155901624
B1932084748181N12002310WA0156101625
B1932094748180N12002311WA0156301625
B1932104748180N12002312WA0156401625
B1932114748179N12002314WA0156501625
B1932124748178N12002316WA0156601624
B1932134748176N12002318WA0156601622
B1932144748175N12002320WA0156701622
B1932154748173N12002321WA0156701623
B1932164748172N12002323WA0156801624
B1932174748170N12002324WA0156901626
B1932184748169N12002325WA0157001627
B1932194748168N12002326WA0157101628
B1932204748167N12002328WA0157101629
B1932214748167N12002329WA0157301633
B1932224748168N12002331WA0157401635
B1932234748170N12002333WA0157601638
B1932244748172N12002337WA0157701638
B1932254748174N12002343WA0157901640
B1932264748175N12002347WA0158001641
B1932274748176N12002351WA0158201643
B1932284748177N12002354WA0158301646
B1932294748178N12002357WA0158501647
B1932304748180N12002362WA0158601648
B1932314748180N12002367WA0158701648
B1932324748181N12002371WA0158801649
B1932334748181N12002375WA0159001651
B1932344748181N12002378WA0159101652
B1932354748181N12002382WA0159201653
B1932364748182N12002386WA0159301653
B1932374748183N12002390WA0159401653
B1932384748184N12002395WA0159501653
B1932394748184N12002399WA0159501652
B1932404748183N12002403WA0159601652
B1932414748183N12002407WA0159601652
B1932424748182N12002411WA0159701653
B1932434748182N12002414WA0159701653
B1932444748181N12002417WA0159801653
B1932454748180N12002419WA0159801654
B1932464748179N12002421WA0159801653
B1932474748178N12002423WA0159801652
B1932484748177N12002425WA0159901652
B1932494748176N12002428WA0159801651
B1932504748175N12002431WA0159801650
B1932514748174N12002434WA0159801650
B1932524748173N12002437WA0159801650
B1932534748173N12002440WA0159801650
B1932544748172N12002443WA0159801649
B1932554748172N12002446WA0159801649
B1932564748172N12002450WA0159801648
B1932574748172N12002454WA0159701647
B1932584748172N12002458WA0159701646
B1932594748172N12002463WA0159701646
B1933004748172N12002467WA0159601645
B1933014748171N12002470WA0159601645
B1933024748171N12002473WA0159601645
B1933034748171N12002476WA0159501644
B1933044748170N12002480WA0159501643
B1933054748170N12002484WA0159401643
B1933064748170N12002488WA0159401642
B1933074748170N12002492WA0159401642
B1933084748170N12002496WA0159301641
B1933094748169N12002499WA0159301641
B1933104748169N12002503WA0159201640
B1933114748169N12002507WA0159201640
B1933124748169N12002511WA0159101640
B1933134748170N12002515WA0159101641
B1933144748170N12002518WA0159101641
B1933154748171N12002522WA0159101641
B1933164748172N12002526WA0159101641
B1933174748172N12002529WA0159001640
B1933184748171N12002532WA0159001639
B1933194748170N12002534WA0159001639
B1933204748169N12002535WA0158901638
B1933214748168N12002536WA0158901639
B1933224748166N12002537WA0158901639
B1933234748165N12002537WA0158901639
B1933244748163N12002536WA0158801638
B1933254748161N12002535WA0158801638
B1933264748159N12002533WA0158801637
B1933274748157N12002532WA0158701636
B1933284748155N12002532WA0158701635
B1933294748153N12002532WA0158601634
B1933304748152N12002533WA0158601634
B1933314748152N12002536WA0158501633
B1933314748152N12002536WA0158501633
B1933324748151N12002539WA0158501633
B1933334748152N12002543WA0158401633
B1933344748153N12002547WA0158401633
B1933354748155N12002551WA0158401633
B1933364748157N12002555WA0158301633
B1933374748159N12002560WA0158301633
B1933384748161N12002564WA0158301633
B1933394748163N12002569WA0158301632
B1933404748165N12002573WA0158201632
B1933414748166N12002577WA0158201631
B1933424748167N12002581WA0158201631
B1933434748169N12002585WA0158201631
B1933444748170N12002589WA0158201632
B1933454748172N12002593WA0158101631
B1933464748173N12002597WA0158101630
B1933474748174N12002602WA0158101630
B1933484748176N12002606WA0158101630
B1933494748177N12002611WA0158101630
B1933504748178N12002615WA0158001630
B1933514748180N12002620WA0158001630
B1933524748182N12002624WA0158001630
B1933534748185N12002629WA0158001630
B1933544748188N12002634WA0158001629
B1933554748190N12002639WA0158001629
B1933564748192N12002644WA0158001629
B1933574748193N12002648WA0158001629
B1933584748192N12002652WA0158001629
B1933594748191N12002654WA0158001629
B1934004748190N12002655WA0157901628
B1934014748188N12002655WA0157901628
B1934024748186N12002655WA0157901628
B1934034748185N12002655WA0157901627
B1934044748183N12002656WA0157901626
B1934054748181N12002658WA0157801625
B1934064748180N12002659WA0157801624
B1934074748178N12002659WA0157701623
B1934084748176N12002659WA0157601623
B1934094748173N12002659WA0157601622
B1934104748171N12002658WA0157501622
B1934114748169N12002656WA0157501621
B1934124748166N12002654WA0157401619
B1934134748164N12002649WA0157301618
B1934144748161N12002644WA0157301617
B1934154748159N12002640WA0157201617
B1934164748156N12002637WA0157101616
B1934174748154N12002635WA0157101616
B1934184748151N12002634WA0157001614
B1934194748149N12002633WA0156901614
B1934204748147N12002634WA0156901613
B1934214748145N12002635WA0156801613
B1934224748144N12002637WA0156701613
B1934234748144N12002640WA0156701613
B1934244748143N12002643WA0156601613
B1934254748143N12002646WA0156601613
B1934264748144N12002650WA0156601612
B1934274748145N12002655WA0156501611
B1934284748146N12002660WA0156501610
B1934294748147N12002665WA0156401610
B1934304748148N12002669WA0156301609
B1934314748150N12002673WA0156301608
B1934324748151N12002677WA0156201607
B1934334748153N12002682WA0156201607
B1934334748153N12002682WA0156201607
B1934344748155N12002687WA0156101605
B1934354748157N12002692WA0156001604
B1934364748159N12002697WA0156001603
B1934374748162N12002701WA0155901602
B1934384748164N12002706WA0155801602
B1934394748168N12002711WA0155701601
B1934404748171N12002716WA0155701599
B1934414748175N12002721WA0155601598
B1934424748178N12002726WA0155501597
B1934434748181N12002731WA0155401597
B1934444748183N12002735WA0155301596
B1934454748185N12002739WA0155201595
B1934464748188N12002743WA0155201595
B1934474748191N12002748WA0155101593
B1934484748194N12002752WA0155001592
B1934494748196N12002757WA0154901591
B1934504748197N12002762WA0154801590
B1934514748199N12002766WA0154701589
B1934524748201N12002770WA0154701589
B1934534748202N12002774WA0154601588
B1934544748203N12002779WA0154501587
B1934554748204N12002784WA0154401585
B1934564748205N12002789WA0154301584
B1934574748206N12002794WA0154201583
B1934584748208N12002798WA0154201582
B1934594748209N12002803WA0154001581
B1935004748211N12002808WA0154001580
B1935014748213N12002812WA0153901579
B1935024748215N12002817WA0153801578
B1935034748217N12002822WA0153701577
B1935044748218N12002826WA0153601576
B1935054748220N12002831WA0153401574
B1935064748223N12002836WA0153401573
B1935074748225N12002841WA0153201572
B1935084748227N12002846WA0153201572
B1935094748230N12002850WA0153101571
B1935104748232N12002855WA0153001570
B1935114748234N12002860WA0152901568
B1935124748237N12002864WA0152801567
B1935134748240N12002869WA0152701566
B1935144748243N12002874WA0152601565
B1935154748246N12002878WA0152501564
B1935164748249N12002882WA0152401564
B1935174748252N12002886WA0152301562
B1935184748255N12002891WA0152201561
B1935194748258N12002896WA0152101559
B1935204748260N12002901WA0152001557
B1935214748262N12002906WA0151801556
B1935224748265N12002911WA0151701555
B1935234748267N12002915WA0151601554
B1935244748271N12002920WA0151501552
B1935254748274N12002925WA0151401551
B1935264748277N12002930WA0151301550
B1935274748279N12002935WA0151101549
B1935284748282N12002940WA0151001547
B1935294748285N12002945WA0150901546
B1935304748287N12002950WA0150801545
B1935314748290N12002955WA0150601544
B1935324748293N12002960WA0150601542
B1935334748295N12002965WA0150401541
B1935344748297N12002969WA0150301540
B1935354748300N12002974WA0150201540
B1935364748302N12002978WA0150101539
B1935364748302N12002978WA0150101539
B1935374748304N12002983WA0150001538
B1935384748306N12002987WA0149901537
B1935394748307N12002991WA0149801536
B1935404748309N12002996WA0149701535
B1935414748312N12003001WA0149601534
B1935424748314N12003006WA0149501532
B1935434748316N12003011WA0149401531
B1935444748319N12003016WA0149301530
B1935454748321N12003021WA0149201530
B1935464748323N12003025WA0149101529
B1935474748325N12003030WA0149001528
B1935484748328N12003035WA0148901527
B1935494748330N12003040WA0148801526
B1935504748332N12003045WA0148701525
B1935514748334N12003050WA0148601524
B1935524748336N12003055WA0148501523
B1935534748338N12003060WA0148401523
B1935544748340N12003065WA0148401522
B1935554748343N12003070WA0148201520
B1935564748345N12003075WA0148201519
B1935574748347N12003080WA0148001518
B1935584748349N12003086WA0148001517
B1935594748352N12003091WA0147901516
B1936004748354N12003096WA0147801516
B1936014748356N12003101WA0147701515
B1936024748358N12003106WA0147601515
B1936034748360N12003110WA0147501514
B1936044748362N12003115WA0147501513
B1936054748364N12003120WA0147401512
B1936064748366N12003125WA0147301511
B1936074748368N12003130WA0147201510
B1936084748370N12003136WA0147101509
B1936094748371N12003141WA0147001509
B1936104748373N12003146WA0147001508
B1936114748375N12003151WA0146901507
B1936124748378N12003156WA0146801506
B1936134748380N12003161WA0146701505
B1936144748382N12003167WA0146601504
B1936154748384N12003172WA0146501504
B1936164748387N12003177WA0146501504
B1936174748389N12003182WA0146401503
B1936184748391N12003186WA0146401503
B1936194748393N12003191WA0146301503
B1936204748395N12003196WA0146301502
B1936214748397N12003201WA0146201501
B1936224748398N12003206WA0146101501
B1936234748399N12003211WA0146101500
B1936244748400N12003216WA0146001500
B1936254748401N12003220WA0146001500
B1936264748403N12003225WA0145901500
B1936274748404N12003230WA0145901499
B1936284748406N12003235WA0145801498
B1936294748408N12003240WA0145801497
B1936304748410N12003245WA0145701497
B1936314748412N12003250WA0145701496
B1936324748414N12003256WA0145601495
B1936334748416N12003261WA0145501494
B1936344748417N12003266WA0145501493
B1936354748418N12003271WA0145401492
B1936364748420N12003276WA0145301492
B1936374748421N12003281WA0145301491
B1936384748422N12003286WA0145201491
B1936394748424N12003291WA0145101490
B1936394748424N12003291WA0145101490
B1936404748425N12003296WA0145101489
B1936414748426N12003301WA0145001488
B1936424748428N12003307WA0144901487
B1936434748429N12003312WA0144801486
B1936444748431N12003318WA0144801485
B1936454748432N12003323WA0144701484
B1936464748434N12003328WA0144601484
B1936474748435N12003334WA0144501483
B1936484748437N12003339WA0144501482
B1936494748439N12003344WA0144401481
B1936504748440N12003350WA0144301480
B1936514748442N12003355WA0144201479
B1936524748444N12003361WA0144101478
B1936534748446N12003367WA0144001477
B1936544748449N12003373WA0143901476
B1936554748451N12003378WA0143801475
B1936564748453N12003383WA0143801474
B1936574748454N12003388WA0143701473
B1936584748456N12003393WA0143601472
B1936594748458N12003398WA0143501471
B1937004748459N12003403WA0143401469
B1937014748461N12003408WA0143301468
B1937024748462N12003413WA0143201467
B1937034748463N12003418WA0143101465
B1937044748464N12003423WA0143001464
B1937054748465N12003428WA0142901463
B1937064748466N12003433WA0142801462
B1937074748467N12003438WA0142601461
B1937084748469N12003443WA0142601460
B1937094748470N12003448WA0142401458
B1937104748472N12003454WA0142301457
B1937114748474N12003459WA0142201456
B1937124748475N12003464WA0142101455
B1937134748476N12003469WA0142001453
B1937144748477N12003473WA0141901452
B1937154748478N12003478WA0141801451
B1937164748479N12003482WA0141701450
B1937174748479N12003486WA0141501449
B1937184748479N12003491WA0141401447
B1937194748479N12003495WA0141301446
B1937204748479N12003499WA0141201445
B1937214748480N12003503WA0141101443
B1937224748480N12003508WA0141001442
B1937234748480N12003512WA0140801441
B1937244748481N12003517WA0140701439
B1937254748481N12003521WA0140601438
B1937264748481N12003525WA0140501436
B1937274748481N12003529WA0140301435
B1937284748480N12003533WA0140201434
B1937294748480N12003537WA0140101433
B1937304748478N12003540WA0140001431
B1937314748476N12003542WA0139801430
B1937324748474N12003544WA0139701428
B1937334748472N12003546WA0139501427
B1937344748471N12003547WA0139401426
B1937354748469N12003549WA0139301424
B1937364748466N12003551WA0139101421
B1937374748464N12003552WA0139001419
B1937384748461N12003553WA0138801418
B1937394748459N12003555WA0138601416
B1937404748457N12003556WA0138501415
B1937414748455N12003558WA0138301413
B1937424748452N12003560WA0138201412
B1937424748452N12003560WA0138201412
B1937434748450N12003561WA0138001410
B1937444748448N12003562WA0137901409
B1937454748445N12003563WA0137701407
B1937464748443N12003563WA0137601406
B1937474748440N12003564WA0137401405
B1937484748438N12003565WA0137301403
B1937494748435N12003567WA0137101402
B1937504748433N12003569WA0137001401
B1937514748431N12003571WA0136901399
B1937524748429N12003573WA0136701398
B1937534748426N12003574WA0136601397
B1937544748424N12003576WA0136501395
B1937554748422N12003577WA0136301394
B1937564748420N12003578WA0136201392
B1937574748417N12003579WA0136001391
B1937584748415N12003580WA0135901389
B1937594748412N12003581WA0135701387
B1938004748410N12003581WA0135601385
B1938014748407N12003582WA0135401383
B1938024748405N12003582WA0135301381
B1938034748402N12003582WA0135101380
B1938044748399N12003583WA0135001378
B1938054748396N12003583WA0134801377
B1938064748394N12003584WA0134601375
B1938074748391N12003584WA0134401373
B1938084748389N12003585WA0134301371
B1938094748386N12003586WA0134101370
B1938104748383N12003587WA0134001368
B1938114748381N12003588WA0133801367
B1938124748378N12003589WA0133701366
B1938134748376N12003590WA0133501365
B1938144748373N12003591WA0133401364
B1938154748371N12003593WA0133201363
B1938164748369N12003594WA0133101361
B1938174748366N12003596WA0132901360
B1938184748364N12003598WA0132801359
B1938194748361N12003600WA0132701357
B1938204748359N12003602WA0132601356
B1938214748356N12003604WA0132401355
B1938224748353N12003606WA0132301353
B1938234748350N12003608WA0132101352
B1938244748348N12003609WA0132001351
B1938254748345N12003611WA0131901350
B1938264748342N12003612WA0131801349
B1938274748340N12003614WA0131601348
B1938284748338N12003616WA0131501347
B1938294748336N12003619WA0131401346
B1938304748335N12003621WA0131301345
B1938314748333N12003624WA0131201343
B1938324748331N12003626WA0131101342
B1938334748329N12003629WA0130901341
B1938344748328N12003632WA0130801340
B1938354748327N12003635WA0130701338
B1938364748326N12003639WA0130601337
B1938374748324N12003643WA0130501336
B1938384748323N12003646WA0130401335
B1938394748321N12003648WA0130201333
B1938404748319N12003651WA0130101332
B1938414748317N12003653WA0130001331
B1938424748316N12003655WA0129901330
B1938434748314N12003657WA0129801329
B1938444748312N12003660WA0129701328
B1938454748310N12003662WA0129501326
B1938454748310N12003662WA0129501326
B1938464748308N12003663WA0129501325
B1938474748305N12003664WA0129301324
B1938484748302N12003664WA0129201323
B1938494748300N12003663WA0129101321
B1938504748297N12003662WA0129001320
B1938514748295N12003662WA0128801319
B1938524748292N12003662WA0128701317
B1938534748289N12003662WA0128601316
B1938544748287N12003663WA0128501314
B1938554748284N12003664WA0128301313
B1938564748282N12003664WA0128201312
B1938574748279N12003665WA0128101311
B1938584748277N12003665WA0128001310
B1938594748275N12003664WA0127801308
B1939004748272N12003663WA0127701307
B1939014748269N12003662WA0127501305
B1939024748266N12003660WA0127401304
B1939034748263N12003658WA0127301303
B1939044748260N12003656WA0127201301
B1939054748256N12003653WA0127001300
B1939064748253N12003650WA0126901299
B1939074748250N12003646WA0126801298
B1939084748247N12003644WA0126701297
B1939094748244N12003643WA0126501295
B1939104748241N12003642WA0126401294
B1939114748238N12003641WA0126301293
B1939124748235N12003640WA0126201291
B1939134748232N12003639WA0126101290
B1939144748229N12003638WA0125901288
B1939154748226N12003638WA0125801287
B1939164748223N12003639WA0125701286
B1939174748220N12003639WA0125601285
B1939184748217N12003639WA0125501284
B1939194748214N12003639WA0125301283
B1939204748211N12003640WA0125201281
B1939214748208N12003640WA0125101280
B1939224748205N12003640WA0125001279
B1939234748203N12003640WA0124901278
B1939244748200N12003641WA0124801278
B1939254748198N12003642WA0124701277
B1939264748196N12003644WA0124601277
B1939274748194N12003646WA0124501276
B1939284748192N12003647WA0124401275
B1939294748190N12003648WA0124301274
B1939304748188N12003649WA0124301274
B1939314748186N12003650WA0124201273
B1939324748183N12003651WA0124101272
B1939334748181N12003651WA0124001271
B1939344748178N12003652WA0123901270
B1939354748176N12003652WA0123801269
B1939364748173N12003652WA0123801269
B1939374748171N12003651WA0123701268
B1939384748168N12003651WA0123601267
B1939394748166N12003650WA0123501266
B1939404748163N12003651WA0123401266
B1939414748161N12003651WA0123401265
B1939424748159N12003652WA0123301264
B1939434748157N12003653WA0123201263
B1939444748155N12003655WA0123101262
B1939454748153N12003656WA0123001261
B1939464748151N12003657WA0122901261
B1939474748149N12003659WA0122901260
B1939484748147N12003660WA0122801260
B1939484748147N12003660WA0122801260
B1939494748145N12003662WA0122701259
B1939504748143N12003663WA0122701258
B1939514748140N12003665WA0122601258
B1939524748138N12003666WA0122501257
B1939534748135N12003666WA0122401256
B1939544748133N12003667WA0122401256
B1939554748130N12003668WA0122301255
B1939564748128N12003670WA0122301255
B1939574748126N12003671WA0122201255
B1939584748123N12003673WA0122201255
B1939594748121N12003674WA0122101254
B1940004748119N12003676WA0122101254
B1940014748117N12003678WA0122001254
B1940024748114N12003681WA0122001253
B1940034748112N12003684WA0121901253
B1940044748110N12003686WA0121901253
B1940054748108N12003688WA0121801253
B1940064748105N12003690WA0121801252
B1940074748103N12003691WA0121801252
B1940084748100N12003693WA0121701251
B1940094748098N12003695WA0121701251
B1940104748096N12003697WA0121701251
B1940114748093N12003699WA0121601250
B1940124748091N12003701WA0121601249
B1940134748089N12003704WA0121501248
B1940144748086N12003706WA0121501247
B1940154748084N12003707WA0121401246
B1940164748082N12003709WA0121301245
B1940174748079N12003711WA0121201244
B1940184748077N12003713WA0121201244
B1940194748075N12003715WA0121101243
B1940204748072N12003717WA0121001242
B1940214748070N12003718WA0120901241
B1940224748067N12003719WA0120901240
B1940234748064N12003720WA0120801239
B1940244748062N12003721WA0120701238
B1940254748059N12003722WA0120601237
B1940264748057N12003724WA0120501236
B1940274748055N12003725WA0120401235
B1940284748052N12003727WA0120401234
B1940294748050N12003728WA0120301233
B1940304748048N12003730WA0120201232
B1940314748045N12003732WA0120101230
B1940324748043N12003734WA0120001229
B1940334748041N12003735WA0119801228
B1940344748038N12003737WA0119801226
B1940354748036N12003738WA0119601224
B1940364748033N12003739WA0119501223
B1940374748030N12003738WA0119401221
B1940384748026N12003737WA0119301220
B1940394748023N12003736WA0119101219
B1940404748020N12003736WA0119001218
B1940414748017N12003736WA0118901217
B1940424748014N12003736WA0118801216
B1940434748012N12003737WA0118701215
B1940444748009N12003738WA0118601213
B1940454748006N12003739WA0118401212
B1940464748003N12003740WA0118401211
B1940474748001N12003741WA0118201209
B1940484747998N12003743WA0118101208
B1940494747996N12003744WA0118001207
B1940504747993N12003745WA0117901206
B1940504747993N12003745WA0117901206
B1940514747990N12003744WA0117701205
B1940524747986N12003740WA0117601203
B1940534747983N12003735WA0117501201
B1940544747981N12003728WA0117401200
B1940554747979N12003720WA0117201199
B1940564747978N12003711WA0117201198
B1940574747977N12003702WA0117001197
B1940584747977N12003693WA0116901196
B1940594747976N12003684WA0116801194
B1941004747974N12003675WA0116701192
B1941014747972N12003667WA0116501190
B1941024747970N12003659WA0116401189
B1941034747968N12003652WA0116201187
B1941044747965N12003646WA0116101186
B1941054747962N12003641WA0115901183
B1941064747958N12003637WA0115801181
B1941074747954N12003634WA0115601180
B1941084747951N12003631WA0115501178
B1941094747948N12003630WA0115301177
B1941104747944N12003628WA0115201175
B1941114747941N12003627WA0115101173
B1941124747938N12003626WA0114901172
B1941134747935N12003627WA0114801170
B1941144747932N12003627WA0114601169
B1941154747929N12003628WA0114501167
B1941164747926N12003629WA0114401166
B1941174747923N12003630WA0114201164
B1941184747920N12003631WA0114101163
B1941194747918N12003633WA0113901161
B1941204747916N12003635WA0113801160
B1941214747914N12003638WA0113601158
B1941224747912N12003641WA0113501156
B1941234747910N12003644WA0113301154
B1941244747908N12003647WA0113201153
B1941254747907N12003650WA0113001151
B1941264747906N12003653WA0112901149
B1941274747905N12003657WA0112701148
B1941284747903N12003660WA0112601146
B1941294747901N12003662WA0112401144
B1941304747899N12003665WA0112301143
B1941314747897N12003667WA0112101141
B1941324747895N12003668WA0111901140
B1941334747893N12003670WA0111801138
B1941344747890N12003672WA0111701137
B1941354747888N12003675WA0111501135
B1941364747886N12003678WA0111301134
B1941374747884N12003681WA0111201132
B1941384747883N12003684WA0111001131
B1941394747881N12003688WA0110901129
B1941404747879N12003691WA0110701127
B1941414747877N12003694WA0110501126
B1941424747875N12003697WA0110401124
B1941434747874N12003700WA0110201123
B1941444747872N12003703WA0110101121
B1941454747871N12003706WA0109901119
B1941464747869N12003709WA0109801117
B1941474747867N12003712WA0109601116
B1941484747865N12003715WA0109501115
B1941494747863N12003718WA0109301114
B1941504747861N12003722WA0109201112
B1941514747859N12003725WA0109001110
B1941524747857N12003728WA0108901109
B1941534747855N12003731WA0108701107
B1941544747852N12003733WA0108601106
B1941544747852N12003733WA0108601106
B1941554747850N12003736WA0108401104
B1941564747847N12003739WA0108301103
B1941574747845N12003741WA0108101102
B1941584747843N12003744WA0108001100
B1941594747841N12003747WA0107801099
B1942004747840N12003750WA0107701098
B1942014747838N12003753WA0107601097
B1942024747836N12003757WA0107501095
B1942034747834N12003760WA0107301094
B1942044747831N12003763WA0107201093
B1942054747829N12003766WA0107001092
B1942064747827N12003769WA0106901091
B1942074747826N12003773WA0106801090
B1942084747825N12003777WA0106701089
B1942094747824N12003781WA0106601088
B1942104747823N12003785WA0106501086
B1942114747822N12003790WA0106301084
B1942124747820N12003794WA0106201082
B1942134747817N12003798WA0106101081
B1942144747815N12003801WA0105901080
B1942154747812N12003803WA0105801079
B1942164747809N12003804WA0105701079
B1942174747807N12003805WA0105601078
B1942184747805N12003807WA0105501077
B1942194747802N12003809WA0105301075
B1942204747799N12003813WA0105201072
B1942214747795N12003816WA0105101071
B1942224747792N12003819WA0105001071
B1942234747789N12003822WA0104801072
B1942244747786N12003824WA0104801073
B1942254747785N12003826WA0104801074
B1942264747783N12003827WA0104701075
B1942274747780N12003828WA0104701074
B1942284747776N12003829WA0104701073
B1942294747774N12003830WA0104601073
B1942304747771N12003830WA0104601074
B1942314747769N12003831WA0104601075
B1942324747767N12003832WA0104601075
B1942334747765N12003833WA0104601075
B1942344747762N12003834WA0104501074
B1942354747759N12003836WA0104501075
B1942364747757N12003838WA0104501075
B1942374747756N12003839WA0104501076
B1942384747756N12003840WA0104501076
B1942394747755N12003841WA0104501075
B1942404747753N12003843WA0104501072
B1942414747752N12003845WA0104401069
B1942424747750N12003848WA0104301067
B1942434747748N12003851WA0104201064
B1942444747748N12003855WA0104101063
B1942454747747N12003860WA0104001062
B1942464747748N12003864WA0103901061
B1942474747748N12003868WA0103701059
B1942484747748N12003873WA0103601057
B1942494747747N12003878WA0103501054
B1942504747745N12003883WA0103301052
B1942514747743N12003887WA0103201052
B1942524747741N12003891WA0103101051
B1942534747739N12003895WA0103001050
B1942544747737N12003899WA0102901049
B1942554747735N12003904WA0102701049
B1942564747733N12003908WA0102601048
B1942574747730N12003911WA0102501049
B1942574747730N12003911WA0102501049
B1942584747727N12003914WA0102501049
B1942594747724N12003917WA0102401050
B1943004747722N12003921WA0102401050
B1943014747719N12003925WA0102401050
B1943024747717N12003929WA0102301050
B1943034747715N12003934WA0102301050
B1943044747713N12003939WA0102301051
B1943054747711N12003943WA0102301053
B1943064747711N12003947WA0102301056
B1943074747712N12003951WA0102401058
B1943084747713N12003955WA0102401059
B1943094747714N12003960WA0102501060
B1943104747714N12003964WA0102601060
B1943114747715N12003968WA0102601059
B1943124747717N12003972WA0102601059
B1943134747719N12003976WA0102601057
B1943144747723N12003980WA0102601055
B1943154747726N12003984WA0102601053
B1943164747729N12003988WA0102501051
B1943174747732N12003992WA0102401049
B1943184747733N12003998WA0102301046
B1943194747734N12004003WA0102201044
B1943204747735N12004008WA0102101042
B1943214747735N12004012WA0102001041
B1943224747735N12004016WA0101901040
B1943234747734N12004019WA0101801038
B1943244747734N12004023WA0101601036
B1943254747732N12004026WA0101501034
B1943264747730N12004029WA0101301031
B1943274747727N12004029WA0101201030
B1943284747724N12004028WA0101001028
B1943294747720N12004026WA0100801026
B1943304747717N12004022WA0100701025
B1943314747714N12004018WA0100501023
B1943324747711N12004014WA0100301021
B1943334747708N12004009WA0100201019
B1943344747705N12004004WA0100001017
B1943354747702N12003997WA0099901015
B1943364747699N12003990WA0099701013
B1943374747696N12003983WA0099501011
B1943384747693N12003977WA0099301009
B1943394747690N12003971WA0099201008
B1943404747687N12003965WA0099001006
B1943414747684N12003959WA0098901006
B1943424747682N12003954WA0098701005
B1943434747680N12003950WA0098601005
B1943444747678N12003945WA0098501004
B1943454747675N12003941WA0098401001
B1943464747672N12003936WA0098201000
B1943474747669N12003931WA0098100999
B1943484747665N12003926WA0098000997
B1943494747663N12003922WA0097900996
B1943504747659N12003918WA0097700995
B1943514747656N12003914WA0097600993
B1943524747653N12003910WA0097400992
B1943534747650N12003905WA0097300991
B1943544747647N12003900WA0097200990
B1943554747645N12003895WA0097100989
B1943564747642N12003890WA0097000988
B1943574747640N12003884WA0096900987
B1943584747637N12003879WA0096700985
B1943594747634N12003874WA0096600983
B1944004747630N12003871WA0096500982
B1944004747630N12003871WA0096500982
B1944014747626N12003869WA0096300980
B1944024747623N12003867WA0096200978
B1944034747619N12003865WA0096000977
B1944044747616N12003863WA0095900975
B1944054747614N12003861WA0095800974
B1944064747611N12003860WA0095600972
B1944074747608N12003860WA0095500970
B1944084747604N12003859WA0095300967
B1944094747601N12003857WA0095200966
B1944104747597N12003854WA0095000964
B1944114747593N12003852WA0094800962
B1944124747589N12003850WA0094600961
B1944134747585N12003848WA0094500959
B1944144747581N12003847WA0094300958
B1944154747576N12003846WA0094200956
B1944164747571N12003843WA0094000954
B1944174747567N12003840WA0093900953
B1944184747563N12003838WA0093700952
B1944194747559N12003836WA0093600951
B1944204747556N12003835WA0093400950
B1944214747552N12003836WA0093300949
B1944224747548N12003837WA0093200947
B1944234747544N12003837WA0093100945
B1944244747540N12003836WA0092900944
B1944254747536N12003834WA0092800943
B1944264747532N12003833WA0092600942
B1944274747528N12003833WA0092500941
B1944284747525N12003831WA0092400939
B1944294747521N12003829WA0092300937
B1944304747517N12003825WA0092100935
B1944314747513N12003820WA0092000933
B1944324747509N12003815WA0091800931
B1944334747505N12003811WA0091700929
B1944344747501N12003806WA0091500927
B1944354747497N12003802WA0091400925
B1944364747493N12003796WA0091200923
B1944374747489N12003790WA0091000921
B1944384747486N12003782WA0090800919
B1944394747483N12003774WA0090700918
B1944404747480N12003766WA0090500916
B1944414747478N12003756WA0090300914
B1944424747477N12003746WA0090100912
B1944434747476N12003736WA0090000910
B1944444747474N12003726WA0089800908
B1944454747472N12003717WA0089600906
B1944464747470N12003707WA0089400904
B1944474747467N12003698WA0089200902
B1944484747465N12003689WA0089000900
B1944494747462N12003680WA0088900898
B1944504747460N12003671WA0088700896
B1944514747456N12003661WA0088500894
B1944524747453N12003653WA0088300892
B1944534747450N12003646WA0088100891
B1944544747447N12003639WA0088000890
B1944554747444N12003633WA0087800889
B1944564747441N12003627WA0087600886
B1944574747437N12003621WA0087500884
B1944584747433N12003616WA0087300881
B1944594747429N12003611WA0087100878
B1945004747424N12003604WA0086900876
B1945014747420N12003598WA0086700874
B1945024747416N12003592WA0086500872
B1945034747412N12003586WA0086300870
B1945034747412N12003586WA0086300870
B1945044747408N12003580WA0086100868
B1945054747404N12003574WA0086000866
B1945064747400N12003568WA0085700864
B1945074747396N12003560WA0085600862
B1945084747393N12003552WA0085300860
B1945094747390N12003544WA0085200859
B1945104747387N12003536WA0084900857
B1945114747383N12003529WA0084800856
B1945124747380N12003523WA0084600854
B1945134747376N12003517WA0084500853
B1945144747372N12003513WA0084300851
B1945154747367N12003508WA0084100851
B1945164747364N12003504WA0084000851
B1945174747360N12003501WA0083900852
B1945184747357N12003497WA0083800853
B1945194747353N12003495WA0083800852
B1945204747349N12003493WA0083700852
B1945214747345N12003492WA0083700853
B1945224747341N12003492WA0083600853
B1945234747338N12003494WA0083600854
B1945244747335N12003496WA0083600856
B1945254747333N12003499WA0083600857
B1945264747332N12003503WA0083600859
B1945274747332N12003507WA0083600860
B1945284747334N12003512WA0083700860
B1945294747337N12003516WA0083700861
B1945304747341N12003519WA0083700861
B1945314747346N12003520WA0083800861
B1945324747351N12003519WA0083800862
B1945334747356N12003516WA0083800862
B1945344747361N12003511WA0083800862
B1945354747367N12003504WA0083900861
B1945364747372N12003496WA0083800860
B1945374747375N12003486WA0083800859
B1945384747377N12003476WA0083800860
B1945394747378N12003466WA0083800860
B1945404747376N12003457WA0083800860
B1945414747374N12003449WA0083800860
B1945424747371N12003443WA0083800860
B1945434747367N12003437WA0083800861
B1945444747363N12003433WA0083800861
B1945454747360N12003430WA0083800863
B1945464747356N12003427WA0083900864
B1945474747353N12003424WA0083900865
B1945484747351N12003421WA0084000866
B1945494747348N12003419WA0084000865
B1945504747344N12003418WA0084100864
B1945514747341N12003418WA0084100863
B1945524747338N12003418WA0084100863
B1945534747336N12003418WA0084100863
B1945544747334N12003418WA0084100864
B1945554747333N12003419WA0084100864
B1945564747331N12003420WA0084100863
B1945574747329N12003422WA0084100861
B1945584747326N12003424WA0084000860
B1945594747322N12003425WA0084000860
B1946004747319N12003426WA0083900860
B1946014747316N12003427WA0083900861
B1946024747313N12003428WA0083900862
B1946034747311N12003430WA0083900862
B1946044747309N12003432WA0083900862
B1946054747307N12003434WA0083900861
B1946064747304N12003438WA0083900859
B1946064747304N12003438WA0083900859
B1946074747302N12003441WA0083800859
B1946084747300N12003444WA0083800860
B1946094747300N12003446WA0083800862
B1946104747299N12003447WA0083800863
B1946114747299N12003449WA0083900864
B1946124747297N12003452WA0083900864
B1946134747296N12003455WA0083900864
B1946144747293N12003459WA0083900863
B1946154747291N12003462WA0083900864
B1946164747290N12003465WA0084000866
B1946174747289N12003468WA0084000868
B1946184747288N12003471WA0084100870
B1946194747287N12003475WA0084200872
B1946204747286N12003478WA0084300874
B1946214747286N12003482WA0084400875
B1946224747288N12003486WA0084500875
B1946234747289N12003490WA0084600874
B1946244747291N12003495WA0084600874
B1946254747292N12003500WA0084700873
B1946264747292N12003504WA0084700872
B1946274747293N12003509WA0084700871
B1946284747293N12003514WA0084700870
B1946294747294N12003518WA0084700869
B1946304747294N12003523WA0084700868
B1946314747295N12003527WA0084700867
B1946324747295N12003532WA0084600867
B1946334747295N12003537WA0084600866
B1946344747295N12003542WA0084500865
B1946354747295N12003547WA0084500865
B1946364747296N12003551WA0084500866
B1946374747297N12003555WA0084500868
B1946384747298N12003558WA0084500869
B1946394747301N12003562WA0084600869
B1946404747303N12003566WA0084600869
B1946414747306N12003570WA0084600870
B1946424747310N12003573WA0084600871
B1946434747313N12003575WA0084700871
B1946444747317N12003577WA0084700871
B1946454747322N12003579WA0084700870
B1946464747328N12003579WA0084700869
B1946474747333N12003578WA0084600868
B1946484747339N12003575WA0084600867
B1946494747344N12003569WA0084600866
B1946504747349N12003562WA0084500865
B1946514747353N12003554WA0084500863
B1946524747355N12003544WA0084400862
B1946534747356N12003535WA0084300860
B1946544747356N12003525WA0084200859
B1946554747354N12003517WA0084100857
B1946564747352N12003509WA0084000857
B1946574747349N12003502WA0084000857
B1946584747346N12003496WA0083900856
B1946594747343N12003491WA0083800855
B1947004747339N12003486WA0083700854
B1947014747334N12003481WA0083700853
B1947024747330N12003475WA0083600852
B1947034747326N12003470WA0083500853
B1947044747322N12003464WA0083500853
B1947054747318N12003458WA0083400854
B1947064747314N12003452WA0083400854
B1947074747310N12003447WA0083400855
B1947084747305N12003441WA0083400856
B1947094747301N12003437WA0083400858
B1947104747297N12003433WA0083500860
B1947104747297N12003433WA0083500860
B1947114747294N12003432WA0083500861
B1947124747290N12003431WA0083600861
B1947134747286N12003432WA0083600861
B1947144747282N12003434WA0083600861
B1947154747279N12003438WA0083600862
B1947164747278N12003441WA0083700864
B1947174747278N12003445WA0083700866
B1947184747279N12003449WA0083800868
B1947194747282N12003452WA0083900871
B1947204747286N12003454WA0084100872
B1947214747290N12003454WA0084200874
B1947224747295N12003452WA0084300875
B1947234747300N12003448WA0084400876
B1947244747304N12003441WA0084500876
B1947254747307N12003432WA0084600876
B1947264747308N12003422WA0084700876
B1947274747307N12003412WA0084700877
B1947284747305N12003404WA0084800879
B1947294747302N12003397WA0084900880
B1947304747298N12003391WA0085000882
B1947314747293N12003387WA0085100884
B1947324747289N12003384WA0085300885
B1947334747285N12003383WA0085300886
B1947344747281N12003383WA0085500886
B1947354747277N12003384WA0085500886
B1947364747273N12003386WA0085600888
B1947374747270N12003389WA0085700890
B1947384747270N12003393WA0085900893
B1947394747270N12003396WA0086000894
B1947404747270N12003400WA0086100894
B1947414747271N12003405WA0086200894
B1947424747272N12003409WA0086300894
B1947434747275N12003413WA0086400895
B1947444747278N12003414WA0086500897
B1947454747282N12003414WA0086600898
B1947464747287N12003413WA0086700898
B1947474747292N12003410WA0086800898
B1947484747297N12003406WA0086900897
B1947494747302N12003399WA0086900898
B1947504747306N12003390WA0087000898
B1947514747308N12003381WA0087000899
B1947524747308N12003371WA0087100899
B1947534747307N12003361WA0087100899
B1947544747305N12003352WA0087200900
B1947554747303N12003345WA0087300902
B1947564747299N12003339WA0087400904
B1947574747295N12003334WA0087400904
B1947584747291N12003330WA0087500905
B1947594747287N12003326WA0087600906
B1948004747283N12003323WA0087700908
B1948014747279N12003321WA0087800910
B1948024747276N12003320WA0087900912
B1948034747272N12003319WA0088000912
B1948044747269N12003320WA0088100912
B1948054747265N12003321WA0088200911
B1948064747262N12003324WA0088200910
B1948074747259N12003327WA0088200910
B1948084747257N12003331WA0088300910
B1948094747255N12003334WA0088300909
B1948104747253N12003337WA0088300908
B1948114747252N12003342WA0088300906
B1948124747251N12003346WA0088200904
B1948134747251N12003350WA0088200902
B1948134747251N12003350WA0088200902
B1948144747251N12003354WA0088100900
B1948154747251N12003358WA0088000897
B1948164747251N12003362WA0087800894
B1948174747251N12003367WA0087700891
B1948184747251N12003372WA0087500890
B1948194747252N12003377WA0087400888
B1948204747253N12003381WA0087300887
B1948214747254N12003385WA0087200886
B1948224747255N12003389WA0087000884
B1948234747256N12003393WA0086900884
B1948244747258N12003397WA0086800883
B1948254747260N12003401WA0086700883
B1948264747263N12003405WA0086600883
B1948274747266N12003408WA0086600883
B1948284747270N12003411WA0086500885
B1948294747274N12003413WA0086500887
B1948304747277N12003414WA0086600890
B1948314747280N12003416WA0086600891
B1948324747285N12003419WA0086600891
B1948334747290N12003422WA0086600890
B1948344747296N12003424WA0086600890
B1948354747302N12003424WA0086600892
B1948364747308N12003424WA0086700894
B1948374747313N12003423WA0086700896
B1948384747319N12003422WA0086800896
B1948394747325N12003420WA0086900896
B1948404747330N12003417WA0086900896
B1948414747335N12003411WA0086900895
B1948424747340N12003404WA0086900894
B1948434747344N12003396WA0086900892
B1948444747346N12003386WA0086900890
B1948454747348N12003375WA0086800889
B1948464747349N12003365WA0086800888
B1948474747348N12003355WA0086700888
B1948484747347N12003347WA0086700888
B1948494747345N12003339WA0086700888
B1948504747343N12003332WA0086700889
B1948514747340N12003326WA0086600888
B1948524747337N12003321WA0086600888
B1948534747334N12003316WA0086600888
B1948544747331N12003310WA0086600889
B1948554747328N12003305WA0086600892
B1948564747325N12003299WA0086700893
B1948574747322N12003294WA0086700894
B1948584747319N12003290WA0086800895
B1948594747315N12003285WA0086800895
B1949004747312N12003281WA0086800895
B1949014747310N12003278WA0086900895
B1949024747307N12003275WA0086900894
B1949034747304N12003272WA0086900892
B1949044747300N12003269WA0086800890
B1949054747296N12003266WA0086800888
B1949064747292N12003262WA0086700888
B1949074747289N12003258WA0086700888
B1949084747285N12003253WA0086700889
B1949094747282N12003250WA0086700890
B1949104747278N12003246WA0086600890
B1949114747274N12003243WA0086600890
B1949124747269N12003239WA0086600890
B1949134747265N12003234WA0086600890
B1949144747260N12003229WA0086600890
B1949154747254N12003227WA0086700891
B1949164747250N12003225WA0086700893
B1949164747250N12003225WA0086700893
B1949174747247N12003225WA0086700895
B1949184747245N12003227WA0086800896
B1949194747243N12003230WA0086800895
B1949204747241N12003235WA0086900894
B1949214747241N12003239WA0086900895
B1949224747242N12003243WA0086900895
B1949234747243N12003246WA0086900894
B1949244747245N12003249WA0086900891
B1949254747247N12003253WA0086900889
B1949264747250N12003258WA0086800886
B1949274747253N12003263WA0086700886
B1949284747258N12003265WA0086600886
B1949294747263N12003266WA0086600888
B1949304747267N12003265WA0086600890
B1949314747273N12003262WA0086600892
B1949324747278N12003259WA0086700893
B1949334747285N12003255WA0086700892
B1949344747291N12003249WA0086700893
B1949354747296N12003243WA0086700892
B1949364747300N12003234WA0086800893
B1949374747303N12003225WA0086800893
B1949384747304N12003215WA0086800893
B1949394747302N12003205WA0086800892
B1949404747299N12003196WA0086800892
B1949414747296N12003189WA0086800892
B1949424747293N12003184WA0086800893
B1949434747289N12003180WA0086900895
B1949444747286N12003177WA0086900895
B1949454747282N12003174WA0086900896
B1949464747279N12003173WA0087000897
B1949474747276N12003173WA0087000897
B1949484747273N12003173WA0087100898
B1949494747271N12003175WA0087100898
B1949504747269N12003177WA0087100896
B1949514747267N12003180WA0087100894
B1949524747266N12003185WA0087100893
B1949534747265N12003189WA0087100893
B1949544747265N12003193WA0087100894
B1949554747265N12003196WA0087100896
B1949564747266N12003199WA0087100897
B1949574747266N12003202WA0087200898
B1949584747266N12003206WA0087200898
B1949594747266N12003211WA0087200898
B1950004747266N12003216WA0087300898
B1950014747267N12003220WA0087300899
B1950024747269N12003223WA0087300900
B1950034747271N12003225WA0087400900
B1950044747273N12003229WA0087400901
B1950054747275N12003233WA0087400899
B1950064747276N12003238WA0087400897
B1950074747277N12003243WA0087400896
B1950084747278N12003247WA0087400897
B1950094747280N12003250WA0087400900
B1950104747282N12003251WA0087500903
B1950114747284N12003253WA0087600906
B1950124747287N12003255WA0087700907
B1950134747289N12003260WA0087800906
B1950144747291N12003266WA0087900907
B1950154747292N12003271WA0087900910
B1950164747293N12003274WA0088100913
B1950174747295N12003276WA0088200916
B1950184747298N12003278WA0088400918
B1950194747300N12003282WA0088500918
B1950204747302N12003286WA0088600919
B1950204747302N12003286WA0088600919
B1950214747303N12003290WA0088700921
B1950224747304N12003293WA0088900923
B1950234747306N12003295WA0089000924
B1950244747308N12003297WA0089100925
B1950254747311N12003299WA0089200924
B1950264747315N12003302WA0089300922
B1950274747318N12003306WA0089300921
B1950284747320N12003311WA0089300920
B1950294747322N12003316WA0089300920
B1950304747324N12003320WA0089400920
B1950314747326N12003324WA0089400920
B1950324747328N12003327WA0089400920
B1950334747331N12003331WA0089400920
B1950344747333N12003335WA0089400920
B1950354747335N12003339WA0089500920
B1950364747337N12003343WA0089500920
B1950374747340N12003347WA0089500920
B1950384747343N12003351WA0089500920
B1950394747345N12003355WA0089500920
B1950404747348N12003359WA0089500920
B1950414747351N12003364WA0089500920
B1950424747354N12003369WA0089500919
B1950434747357N12003372WA0089500918
B1950444747360N12003376WA0089500918
B1950454747363N12003380WA0089400917
B1950464747367N12003384WA0089400915
B1950474747371N12003388WA0089300913
B1950484747375N12003392WA0089300911
B1950494747379N12003396WA0089200909
B1950504747382N12003401WA0089000908
B1950514747385N12003405WA0089000906
B1950524747388N12003409WA0088800905
B1950534747392N12003412WA0088700904
B1950544747396N12003416WA0088600902
B1950554747400N12003420WA0088500900
B1950564747403N12003424WA0088400898
B1950574747407N12003429WA0088200897
B1950584747410N12003433WA0088100896
B1950594747413N12003437WA0088000895
B1951004747417N12003440WA0087800894
B1951014747421N12003444WA0087700893
B1951024747425N12003447WA0087600893
B1951034747429N12003450WA0087500892
B1951044747432N12003453WA0087400891
B1951054747436N12003455WA0087300890
B1951064747439N12003458WA0087200888
B1951074747443N12003461WA0087100887
B1951084747447N12003464WA0087000886
B1951094747451N12003466WA0086900887
B1951104747455N12003468WA0086800887
B1951114747458N12003470WA0086800887
B1951124747462N12003472WA0086700887
B1951134747466N12003473WA0086700887
B1951144747470N12003474WA0086600887
B1951154747475N12003475WA0086600887
B1951164747480N12003475WA0086500886
B1951174747485N12003474WA0086400885
B1951184747491N12003471WA0086400885
B1951194747497N12003466WA0086300884
B1951204747502N12003458WA0086300883
B1951214747505N12003449WA0086200883
B1951224747507N12003438WA0086100882
B1951234747507N12003427WA0086100880
B1951234747507N12003427WA0086100880
B1951244747505N12003417WA0086000879
B1951254747501N12003409WA0085900878
B1951264747498N12003402WA0085800879
B1951274747494N12003396WA0085800879
B1951284747490N12003392WA0085800879
B1951294747486N12003390WA0085700879
B1951304747483N12003389WA0085700879
B1951314747480N12003389WA0085700878
B1951324747477N12003390WA0085600877
B1951334747474N12003393WA0085600876
B1951344747473N12003396WA0085500876
B1951354747472N12003400WA0085500876
B1951364747472N12003405WA0085500876
B1951374747472N12003409WA0085500876
B1951384747473N12003414WA0085400876
B1951394747474N12003418WA0085400876
B1951404747476N12003422WA0085400876
B1951414747477N12003426WA0085400876
B1951424747480N12003429WA0085300874
B1951434747483N12003432WA0085300872
B1951444747487N12003435WA0085200870
B1951454747491N12003438WA0085100868
B1951464747495N12003442WA0085000866
B1951474747499N12003445WA0084900865
B1951484747503N12003448WA0084700863
B1951494747508N12003451WA0084700861
B1951504747513N12003454WA0084500860
B1951514747518N12003456WA0084400858
B1951524747522N12003459WA0084200856
B1951534747527N12003463WA0084100854
B1951544747530N12003468WA0084000853
B1951554747533N12003473WA0083900852
B1951564747534N12003478WA0083700850
B1951574747534N12003483WA0083600849
B1951584747534N12003488WA0083400848
B1951594747532N12003493WA0083300846
B1952004747530N12003496WA0083200846
B1952014747527N12003498WA0083100845
B1952024747524N12003500WA0083000844
B1952034747521N12003501WA0082900845
B1952044747518N12003503WA0082800846
B1952054747516N12003504WA0082800847
B1952064747514N12003506WA0082800848
B1952074747512N12003509WA0082800847
B1952084747509N12003513WA0082700846
B1952094747506N12003517WA0082700845
B1952104747505N12003521WA0082700847
B1952114747504N12003524WA0082700849
B1952124747503N12003526WA0082700849
B1952134747503N12003530WA0082700849
B1952144747501N12003535WA0082700847
B1952154747499N12003540WA0082700845
B1952164747497N12003545WA0082600844
B1952174747495N12003550WA0082500843
B1952184747494N12003554WA0082500842
B1952194747493N12003558WA0082400841
B1952204747491N12003562WA0082400839
B1952214747488N12003566WA0082300837
B1952224747484N12003569WA0082100834
B1952234747480N12003571WA0082000833
B1952244747476N12003572WA0081900832
B1952254747473N12003573WA0081800831
B1952264747469N12003572WA0081700830
B1952264747469N12003572WA0081700830
B1952274747465N12003571WA0081600828
B1952284747461N12003569WA0081500826
B1952294747456N12003567WA0081300824
B1952304747451N12003565WA0081200822
B1952314747447N12003563WA0081000820
B1952324747442N12003561WA0080900818
B1952334747437N12003560WA0080700817
B1952344747433N12003559WA0080600815
B1952354747428N12003557WA0080400813
B1952364747423N12003555WA0080200811
B1952374747419N12003553WA0080100809
B1952384747414N12003550WA0079900807
B1952394747409N12003547WA0079800806
B1952404747405N12003545WA0079600803
B1952414747400N12003543WA0079500801
B1952424747395N12003540WA0079300800
B1952434747390N12003537WA0079200798
B1952444747385N12003534WA0079000796
B1952454747380N12003530WA0078800794
B1952464747375N12003527WA0078600793
B1952474747371N12003523WA0078500791
B1952484747366N12003519WA0078300790
B1952494747361N12003515WA0078200788
B1952504747356N12003510WA0078000786
B1952514747351N12003506WA0077900785
B1952524747347N12003502WA0077700783
B1952534747342N12003498WA0077600782
B1952544747337N12003494WA0077400780
B1952554747333N12003490WA0077300778
B1952564747328N12003486WA0077100777
B1952574747323N12003481WA0077000776
B1952584747318N12003477WA0076900775
B1952594747314N12003473WA0076800774
B1953004747309N12003468WA0076600773
B1953014747305N12003464WA0076500771
B1953024747300N12003461WA0076300770
B1953034747296N12003457WA0076200768
B1953044747292N12003455WA0076100767
B1953054747287N12003453WA0076000765
B1953064747283N12003451WA0075800763
B1953074747278N12003448WA0075700761
B1953084747274N12003444WA0075500760
B1953094747270N12003439WA0075400759
B1953104747266N12003436WA0075300759
B1953114747263N12003433WA0075200759
B1953124747259N12003431WA0075100759
B1953134747256N12003429WA0075000757
B1953144747252N12003427WA0074900756
B1953154747248N12003423WA0074800755
B1953164747245N12003419WA0074700755
B1953174747241N12003415WA0074600755
B1953184747238N12003412WA0074600755
B1953194747235N12003409WA0074500755
B1953204747231N12003407WA0074500754
B1953214747228N12003405WA0074400753
B1953224747224N12003403WA0074300752
B1953234747221N12003400WA0074300752
B1953244747218N12003398WA0074200751
B1953254747215N12003396WA0074100750
B1953264747211N12003395WA0074000748
B1953274747208N12003393WA0073900746
B1953284747204N12003391WA0073800745
B1953294747200N12003388WA0073700743
B1953294747200N12003388WA0073700743
B1953304747196N12003385WA0073600742
B1953314747192N12003382WA0073500742
B1953324747188N12003380WA0073400742
B1953334747185N12003378WA0073300742
B1953344747181N12003377WA0073300741
B1953354747176N12003375WA0073200740
B1953364747172N12003372WA0073100739
B1953374747167N12003370WA0073000737
B1953384747162N12003367WA0072900737
B1953394747158N12003364WA0072900738
B1953404747156N12003361WA0072900741
B1953414747154N12003356WA0072900743
B1953424747151N12003352WA0072900743
B1953434747148N12003348WA0072900742
B1953444747143N12003344WA0072900741
B1953454747137N12003340WA0072900740
B1953464747132N12003338WA0072900742
B1953474747128N12003338WA0072900745
B1953484747125N12003338WA0073000748
B1953494747123N12003338WA0073100750
B1953504747120N12003338WA0073100750
B1953514747116N12003337WA0073100747
B1953524747111N12003337WA0073100743
B1953534747105N12003336WA0073100741
B1953544747101N12003335WA0073000741
B1953554747096N12003334WA0073000742
B1953564747093N12003332WA0072900743
B1953574747089N12003331WA0072900742
B1953584747085N12003330WA0072900742
B1953594747081N12003329WA0072900741
B1954004747076N12003328WA0072800740
B1954014747072N12003325WA0072800738
B1954024747067N12003321WA0072700737
B1954034747063N12003317WA0072600735
B1954044747059N12003313WA0072500732
B1954054747054N12003309WA0072400729
B1954064747049N12003304WA0072200726
B1954074747045N12003298WA0072100723
B1954084747040N12003292WA0071900722
B1954094747036N12003286WA0071800720
B1954104747032N12003281WA0071600720
B1954114747028N12003275WA0071500719
B1954124747023N12003269WA0071400717
B1954134747019N12003263WA0071300716
B1954144747016N12003256WA0071100715
B1954154747012N12003249WA0071000714
B1954164747009N12003242WA0070900713
B1954174747005N12003235WA0070800711
B1954184747001N12003228WA0070600709
B1954194746998N12003221WA0070500707
B1954204746994N12003213WA0070300706
B1954214746991N12003206WA0070200704
B1954224746987N12003199WA0070000703
B1954234746983N12003192WA0069900701
B1954244746980N12003186WA0069700699
B1954254746976N12003180WA0069600698
B1954264746973N12003173WA0069400696
B1954274746970N12003166WA0069300695
B1954284746967N12003159WA0069200694
B1954294746964N12003152WA0069000693
B1954304746961N12003146WA0068900691
B1954314746958N12003139WA0068800690
B1954324746954N12003132WA0068600688
B1954324746954N12003132WA0068600688
B1954334746951N12003125WA0068500686
B1954344746947N12003117WA0068300684
B1954354746943N12003108WA0068200682
B1954364746940N12003100WA0068000681
B1954374746937N12003092WA0067900680
B1954384746933N12003084WA0067700678
B1954394746929N12003077WA0067600675
B1954404746924N12003069WA0067400673
B1954414746920N12003061WA0067200672
B1954424746917N12003054WA0067000672
B1954434746913N12003047WA0066900671
B1954444746910N12003040WA0066800669
B1954454746906N12003032WA0066600667
B1954464746903N12003023WA0066400665
B1954474746900N12003014WA0066300664
B1954484746896N12003006WA0066100664
B1954494746892N12002999WA0066000663
B1954504746888N12002992WA0065900661
B1954514746884N12002985WA0065800660
B1954524746881N12002978WA0065600660
B1954534746877N12002971WA0065500659
B1954544746874N12002963WA0065400657
B1954554746870N12002956WA0065300656
B1954564746867N12002948WA0065100654
B1954574746863N12002940WA0065000653
B1954584746860N12002932WA0064800651
B1954594746856N12002923WA0064700650
B1955004746853N12002914WA0064600649
B1955014746849N12002907WA0064500649
B1955024746845N12002900WA0064400648
B1955034746841N12002894WA0064300647
B1955044746837N12002888WA0064200647
B1955054746834N12002882WA0064100646
B1955064746830N12002875WA0064000645
B1955074746826N12002868WA0063900644
B1955084746823N12002862WA0063800642
B1955094746818N12002856WA0063700641
B1955104746814N12002849WA0063500639
B1955114746809N12002843WA0063500638
B1955124746805N12002836WA0063300637
B1955134746801N12002829WA0063200637
B1955144746797N12002823WA0063100636
B1955154746792N12002816WA0063100636
B1955164746788N12002811WA0063000636
B1955174746784N12002805WA0062900637
B1955184746781N12002799WA0062900638
B1955194746777N12002793WA0062900639
B1955204746773N12002787WA0062800639
B1955214746769N12002782WA0062800639
B1955224746765N12002777WA0062800640
B1955234746761N12002775WA0062800641
B1955244746758N12002773WA0062800644
B1955254746755N12002773WA0062900645
B1955264746751N12002772WA0062900647
B1955274746747N12002771WA0063000648
B1955284746744N12002768WA0063100648
B1955294746739N12002766WA0063100648
B1955304746735N12002763WA0063200648
B1955314746730N12002761WA0063200647
B1955324746725N12002757WA0063200647
B1955334746720N12002753WA0063200647
B1955344746716N12002748WA0063200646
B1955354746711N12002743WA0063200646
B1955364746706N12002738WA0063200645
B1955364746706N12002738WA0063200645
B1955374746701N12002733WA0063200645
B1955384746697N12002727WA0063200644
B1955394746693N12002720WA0063200644
B1955404746689N12002714WA0063200643
B1955414746685N12002707WA0063100641
B1955424746680N12002700WA0063000639
B1955434746675N12002693WA0063000637
B1955444746671N12002685WA0062900635
B1955454746667N12002677WA0062800633
B1955464746663N12002669WA0062700632
B1955474746660N12002660WA0062600630
B1955484746656N12002651WA0062400629
B1955494746653N12002641WA0062400627
B1955504746650N12002632WA0062200626
B1955514746647N12002622WA0062100625
B1955524746644N12002612WA0062000624
B1955534746641N12002602WA0061900623
B1955544746638N12002591WA0061800622
B1955554746637N12002581WA0061700621
B1955564746635N12002571WA0061600621
B1955574746634N12002561WA0061500620
B1955584746634N12002550WA0061400619
B1955594746633N12002539WA0061300618
B1956004746632N12002528WA0061200617
B1956014746632N12002516WA0061100616
B1956024746631N12002506WA0061000617
B1956034746631N12002497WA0060900618
B1956044746631N12002488WA0060900618
B1956054746630N12002479WA0060800616
B1956064746629N12002469WA0060700614
B1956074746628N12002458WA0060700612
B1956084746627N12002448WA0060500611
B1956094746627N12002438WA0060500611
B1956104746627N12002429WA0060400610
B1956114746627N12002420WA0060300609
B1956124746626N12002411WA0060200607
B1956134746626N12002401WA0060100605
B1956144746625N12002392WA0059900603
B1956154746624N12002382WA0059800601
B1956164746623N12002373WA0059700599
B1956174746622N12002363WA0059600597
B1956184746620N12002354WA0059400596
B1956194746619N12002345WA0059300595
B1956204746617N12002335WA0059100594
B1956214746616N12002326WA0059100594
B1956224746615N12002317WA0059000594
B1956234746614N12002309WA0058900594
B1956244746613N12002299WA0058800594
B1956254746612N12002290WA0058700593
B1956264746610N12002280WA0058700592
B1956274746609N12002271WA0058600592
B1956284746606N12002261WA0058500591
B1956294746604N12002252WA0058500591
B1956304746601N12002242WA0058400590
B1956314746599N12002232WA0058300590
B1956324746596N12002223WA0058300590
B1956334746594N12002214WA0058200590
B1956344746591N12002204WA0058200590
B1956354746589N12002195WA0058100589
B1956364746586N12002185WA0058100588
B1956374746584N12002175WA0058000588
B1956384746583N12002166WA0058000587
B1956394746581N12002157WA0057900586
B1956404746580N12002147WA0057800585
B1956404746580N12002147WA0057800585
B1956414746578N12002138WA0057800584
B1956424746576N12002128WA0057700583
B1956434746575N12002118WA0057600582
B1956444746574N12002108WA0057600582
B1956454746573N12002098WA0057500581
B1956464746572N12002087WA0057400581
B1956474746571N12002078WA0057400580
B1956484746571N12002068WA0057300580
B1956494746570N12002058WA0057200579
B1956504746570N12002048WA0057100577
B1956514746569N12002038WA0057100576
B1956524746568N12002027WA0057000574
B1956534746568N12002017WA0056900572
B1956544746568N12002006WA0056700571
B1956554746569N12001995WA0056600569
B1956564746569N12001985WA0056500567
B1956574746570N12001974WA0056400566
B1956584746569N12001963WA0056200564
B1956594746569N12001952WA0056100563
B1957004746569N12001942WA0056000561
B1957014746568N12001930WA0055900560
B1957024746568N12001919WA0055700558
B1957034746568N12001908WA0055600557
B1957044746569N12001897WA0055400555
B1957054746570N12001886WA0055300554
B1957064746570N12001875WA0055200553
B1957074746571N12001865WA0055100552
B1957084746571N12001854WA0055000551
B1957094746571N12001843WA0054900550
B1957104746571N12001832WA0054700548
B1957114746571N12001821WA0054600547
B1957124746571N12001810WA0054500547
B1957134746570N12001799WA0054400546
B1957144746568N12001789WA0054300545
B1957154746566N12001778WA0054200544
B1957164746564N12001768WA0054100544
B1957174746561N12001758WA0054100543
B1957184746558N12001749WA0054000542
B1957194746554N12001739WA0053900542
B1957204746552N12001729WA0053800541
B1957214746549N12001719WA0053700541
B1957224746547N12001710WA0053600540
B1957234746545N12001701WA0053600539
B1957244746541N12001693WA0053500538
B1957254746537N12001685WA0053400536
B1957264746532N12001679WA0053300534
B1957274746526N12001674WA0053200533
B1957284746521N12001671WA0053100533
B1957294746517N12001668WA0053100532
B1957304746512N12001667WA0052900530
B1957314746507N12001666WA0052900528
B1957324746502N12001666WA0052700526
B1957334746497N12001666WA0052600524
B1957344746492N12001665WA0052500524
B1957354746488N12001665WA0052400523
B1957364746485N12001666WA0052300523
B1957374746481N12001668WA0052200522
B1957384746478N12001671WA0052100521
B1957394746475N12001674WA0052000520
B1957404746473N12001678WA0051900519
B1957414746471N12001682WA0051800519
B1957424746470N12001686WA0051800519
B1957434746469N12001689WA0051700519
B1957434746469N12001689WA0051700519
B1957444746469N12001693WA0051600517
B1957454746468N12001697WA0051600516
B1957464746466N12001702WA0051500515
B1957474746465N12001706WA0051400514
B1957484746463N12001710WA0051400513
B1957494746460N12001713WA0051300512
B1957504746457N12001716WA0051200512
B1957514746453N12001719WA0051200511
B1957524746450N12001722WA0051100510
B1957534746447N12001726WA0051000509
B1957544746444N12001729WA0050900509
B1957554746443N12001732WA0050900508
B1957564746442N12001736WA0050800507
B1957574746441N12001739WA0050700505
B1957584746441N12001743WA0050600503
B1957594746442N12001746WA0050500500
B1958004746444N12001749WA0050300497
B1958014746448N12001751WA0050200495
B1958024746451N12001751WA0050000493
B1958034746456N12001749WA0049900490
B1958044746460N12001743WA0049700487
B1958054746464N12001736WA0049500485
B1958064746467N12001728WA0049300483
B1958074746468N12001719WA0049200482
B1958084746468N12001709WA0049000481
B1958094746466N12001700WA0048800480
B1958104746463N12001692WA0048700478
B1958114746459N12001684WA0048500476
B1958124746454N12001680WA0048300475
B1958134746449N12001677WA0048200474
B1958144746444N12001678WA0048100473
B1958154746441N12001681WA0047900471
B1958164746439N12001686WA0047800470
B1958174746438N12001691WA0047700469
B1958184746438N12001696WA0047500468
B1958194746439N12001700WA0047400467
B1958204746441N12001704WA0047300466
B1958214746444N12001706WA0047200466
B1958224746447N12001707WA0047100464
B1958234746451N12001707WA0047000462
B1958244746456N12001706WA0046800460
B1958254746461N12001703WA0046700458
B1958264746465N12001698WA0046500456
B1958274746469N12001691WA0046400455
B1958284746471N12001683WA0046200454
B1958294746473N12001674WA0046100453
B1958304746472N12001665WA0046000451
B1958314746471N12001655WA0045900450
B1958324746468N12001647WA0045700448
B1958334746464N12001641WA0045600448
B1958344746460N12001637WA0045500448
B1958354746455N12001635WA0045400447
B1958364746450N12001636WA0045200446
B1958374746446N12001638WA0045200445
B1958384746443N12001641WA0045000444
B1958394746440N12001645WA0045000443
B1958404746438N12001649WA0044800441
B1958414746436N12001655WA0044700439
B1958424746436N12001660WA0044600437
B1958434746437N12001666WA0044400435
B1958444746439N12001671WA0044300434
B1958454746443N12001675WA0044200432
B1958464746447N12001677WA0044000431
B1958474746453N12001677WA0043900430
B1958474746453N12001677WA0043900430
B1958484746458N12001674WA0043700429
B1958494746463N12001669WA0043600428
B1958504746468N12001661WA0043500426
B1958514746471N12001652WA0043400426
B1958524746472N12001642WA0043300425
B1958534746471N12001633WA0043200424
B1958544746468N12001626WA0043100422
B1958554746464N12001619WA0043000421
B1958564746460N12001615WA0042800419
B1958574746455N12001612WA0042700418
B1958584746451N12001612WA0042600418
B1958594746447N12001613WA0042500417
B1959004746445N12001617WA0042400415
B1959014746443N12001621WA0042300414
B1959024746443N12001626WA0042200413
B1959034746444N12001631WA0042100412
B1959044746447N12001635WA0041900411
B1959054746450N12001638WA0041800409
B1959064746456N12001640WA0041700408
B1959074746462N12001638WA0041600406
B1959084746468N12001633WA0041400405
B1959094746472N12001626WA0041300404
B1959104746475N12001616WA0041200402
B1959114746476N12001606WA0041100401
B1959124746475N12001597WA0040900401
B1959134746472N12001589WA0040900400
B1959144746469N12001583WA0040700398
B1959154746464N12001580WA0040600397
B1959164746460N12001579WA0040500395
B1959174746456N12001581WA0040400394
B1959184746454N12001584WA0040200393
B1959194746453N12001590WA0040100392
B1959204746454N12001595WA0040000390
B1959214746456N12001600WA0039900389
B1959224746461N12001603WA0039700388
B1959234746466N12001604WA0039600387
B1959244746471N12001601WA0039500386
B1959254746477N12001596WA0039400384
B1959264746482N12001589WA0039200382
B1959274746485N12001580WA0039100381
B1959284746487N12001571WA0039000380
B1959294746487N12001561WA0038900378
B1959304746485N12001552WA0038700376
B1959314746482N12001545WA0038600375
B1959324746479N12001539WA0038400374
B1959334746475N12001535WA0038300373
B1959344746471N12001533WA0038200371
B1959354746467N12001533WA0038100370
B1959364746463N12001534WA0037900368
B1959374746460N12001534WA0037800367
B1959384746456N12001534WA0037600366
B1959394746453N12001534WA0037500364
B1959404746449N12001534WA0037400363
B1959414746446N12001536WA0037300361
B1959424746444N12001539WA0037100359
B1959434746443N12001543WA0037000357
B1959444746443N12001548WA0036800355
B1959454746443N12001553WA0036700353
B1959464746445N12001557WA0036500352
B1959474746448N12001560WA0036300351
B1959484746453N12001562WA0036200349
B1959494746458N12001562WA0036100348
B1959504746463N12001561WA0035900346
B1959504746463N12001561WA0035900346
B1959514746468N12001558WA0035700344
B1959524746473N12001553WA0035600343
B1959534746478N12001546WA0035400341
B1959544746482N12001538WA0035200339
B1959554746485N12001532WA0035100338
B1959564746490N12001526WA0035000338
B1959574746494N12001520WA0034900336
B1959584746497N12001512WA0034700334
B1959594746501N12001503WA0034600331
B2000004746503N12001494WA0034400330
B2000014746505N12001485WA0034200329
B2000024746506N12001477WA0034100328
B2000034746506N12001469WA0034000326
B2000044746506N12001460WA0033800324
B2000054746507N12001451WA0033700322
B2000064746506N12001441WA0033500319
B2000074746504N12001433WA0033400318
B2000084746502N12001426WA0033200317
B2000094746500N12001420WA0033100317
B2000104746498N12001415WA0033000317
B2000114746495N12001410WA0032900318
B2000124746492N12001406WA0032800318
B2000134746488N12001403WA0032800318
B2000144746484N12001400WA0032800317
B2000154746480N12001398WA0032700317
B2000164746476N12001398WA0032700317
B2000174746473N12001399WA0032700317
B2000184746470N12001401WA0032700316
B2000194746468N12001403WA0032600315
B2000204746464N12001405WA0032600314
B2000214746460N12001404WA0032500312
B2000224746455N12001402WA0032400310
B2000234746450N12001400WA0032300308
B2000244746446N12001398WA0032200307
B2000254746442N12001396WA0032100306
B2000264746438N12001395WA0032000305
B2000274746433N12001393WA0031900304
B2000284746429N12001392WA0031700302
B2000294746424N12001393WA0031600300
B2000304746421N12001395WA0031400299
B2000314746418N12001399WA0031300297
B2000324746418N12001404WA0031100294
B2000334746419N12001409WA0031000292
B2000344746421N12001414WA0030700289
B2000354746425N12001417WA0030600288
B2000364746429N12001418WA0030400286
B2000374746433N12001419WA0030300284
B2000384746437N12001420WA0030000282
B2000394746441N12001423WA0029900279
B2000404746445N12001426WA0029700277
B2000414746448N12001429WA0029500274
B2000424746450N12001433WA0029300272
B2000434746451N12001437WA0029100271
B2000444746450N12001442WA0028900268
B2000454746448N12001447WA0028700266
B2000464746445N12001451WA0028500264
B2000474746442N12001454WA0028300263
B2000484746439N12001456WA0028100261
B2000494746435N12001457WA0028000260
B2000504746432N12001459WA0027800258
B2000514746429N12001460WA0027600256
B2000524746426N12001461WA0027400255
B2000534746423N12001462WA0027300253
B2000534746423N12001462WA0027300253
B2000544746420N12001464WA0027100252
B2000554746418N12001466WA0027000251
B2000564746415N12001467WA0026900250
B2000574746413N12001467WA0026800250
B2000584746410N12001468WA0026700249
B2000594746407N12001470WA0026600246
B2001004746405N12001472WA0026400244
B2001014746402N12001475WA0026300242
B2001024746401N12001479WA0026100240
B2001034746400N12001484WA0026000238
B2001044746399N12001488WA0025800236
B2001054746398N12001492WA0025700235
B2001064746397N12001496WA0025500233
B2001074746397N12001500WA0025400232
B2001084746397N12001504WA0025200230
B2001094746397N12001507WA0025100229
B2001104746397N12001509WA0024900229
B2001114746398N12001511WA0024800229
B2001124746398N12001513WA0024700229
B2001134746398N12001514WA0024600229
B2001144746398N12001514WA0024500229
B2001154746399N12001514WA0024400229
B2001164746399N12001514WA0024400229
B2001174746398N12001514WA0024300229
B2001184746399N12001514WA0024300228
B2001194746399N12001514WA0024200228
B2001204746399N12001514WA0024200229
B2001214746399N12001514WA0024200229
B2001224746399N12001514WA0024100229
B2001234746399N12001514WA0024100228
B2001244746399N12001514WA0024100228
B2001254746399N12001514WA0024100228
B2001264746399N12001514WA0024100228
B2001274746399N12001514WA0024100228
B2001284746398N12001514WA0024000228
B2001294746398N12001514WA0024000228
B2001304746398N12001514WA0024000228
B2001314746398N12001514WA0024000228
B2001324746397N12001514WA0024000228
B2001334746397N12001514WA0024000228
B2001344746397N12001514WA0024000227
B2001354746397N12001514WA0024000227
B2001364746397N12001514WA0024000227
B2001374746397N12001514WA0024000227
B2001384746396N12001514WA0024000227
B2001394746396N12001514WA0024000227
B2001404746396N12001514WA0024000227
B2001414746396N12001514WA0024000227
B2001424746396N12001514WA0024000227
B2001434746396N12001514WA0024000227
B2001444746396N12001514WA0024000227
B2001454746396N12001514WA0024000227
B2001464746397N12001514WA0023900227
B2001474746397N12001515WA0023900227
B2001484746397N12001515WA0024000227
B2001494746397N12001516WA0024000227
B2001504746398N12001517WA0024000227
B2001514746398N12001517WA0024000227
B2001524746398N12001518WA0024000227
B2001534746398N12001518WA0024000228
B2001544746398N12001519WA0024000228
B2001554746399N12001520WA0024000228
B2001564746399N12001521WA0024000227
