AXFMSFP Flymaster Live, V1.0
HFFXA010
HFPLTPILOT:Emily Reinys
HFGTYGLIDERTYPE:Niviuk Arrow / Ozone Alpina 4
HFGIDGLIDERID:
HFDTM100GPSDATUM:WGS-1984
HFCIDCOMPETITIONID:6864
HFCCLCOMPETITIONCLASS:
HOSITSITE:LAUNCH
HFGPS:UBLOXNEO6
HFPRSPRESSALTSENSOR:NA
HFRFWFIRMWAREVERSION:202g
HFRHWHARDWAREVERSION:1.0R2
HFFTYFRTYPE:FLYMASTER,LIVE
HFDTE160625
B2010134748183N12002434WA0115301177
B2010144748183N12002436WA0115201176
B2010154748183N12002438WA0115201175
B2010164748183N12002440WA0115101173
B2010174748183N12002442WA0115001171
B2010184748182N12002443WA0114901171
B2010194748182N12002444WA0114801170
B2010204748182N12002444WA0114701170
B2010214748182N12002444WA0114701168
B2010224748182N12002445WA0114601166
B2010234748181N12002446WA0114501164
B2010244748180N12002447WA0114401163
B2010254748179N12002447WA0114301163
B2010264748179N12002447WA0114201164
B2010274748179N12002447WA0114201165
B2010284748179N12002448WA0114101166
B2010294748179N12002450WA0114101166
B2010304748179N12002453WA0114101166
B2010314748178N12002455WA0114101166
B2010324748177N12002456WA0114101168
B2010334748177N12002457WA0114101169
B2010344748177N12002458WA0114101171
B2010354748178N12002459WA0114201172
B2010364748179N12002461WA0114201173
B2010374748180N12002462WA0114301173
B2010384748180N12002464WA0114301173
B2010394748179N12002465WA0114301174
B2010404748179N12002465WA0114401175
B2010414748178N12002465WA0114401175
B2010424748178N12002464WA0114501175
B2010434748177N12002463WA0114501175
B2010444748175N12002463WA0114501173
B2010454748173N12002463WA0114501172
B2010464748171N12002463WA0114501171
B2010474748168N12002462WA0114501171
B2010484748166N12002461WA0114501171
B2010494748164N12002460WA0114501171
B2010504748162N12002460WA0114501170
B2010514748159N12002461WA0114501169
B2010524748157N12002462WA0114401168
B2010534748155N12002463WA0114401168
B2010544748152N12002463WA0114401168
B2010554748151N12002463WA0114401169
B2010564748149N12002464WA0114401170
B2010574748149N12002466WA0114401171
B2010584748148N12002467WA0114501172
B2010594748148N12002468WA0114501173
B2011004748149N12002470WA0114501174
B2011014748150N12002473WA0114601173
B2011024748151N12002477WA0114601173
B2011034748153N12002480WA0114601173
B2011044748155N12002483WA0114601173
B2011054748157N12002485WA0114601173
B2011064748160N12002488WA0114601172
B2011074748162N12002491WA0114601171
B2011084748164N12002495WA0114601170
B2011094748166N12002499WA0114601168
B2011104748168N12002502WA0114501167
B2011114748169N12002506WA0114501167
B2011124748171N12002509WA0114401166
B2011134748173N12002513WA0114401166
B2011144748174N12002516WA0114401165
B2011154748176N12002519WA0114301165
B2011164748177N12002522WA0114301164
B2011174748178N12002525WA0114201162
B2011184748179N12002528WA0114101162
B2011194748179N12002531WA0114101160
B2011204748178N12002532WA0114001159
B2011214748176N12002532WA0113901158
B2011224748174N12002530WA0113801157
B2011234748172N12002529WA0113701156
B2011244748171N12002528WA0113601156
B2011254748170N12002527WA0113601156
B2011264748169N12002525WA0113501155
B2011274748167N12002524WA0113401155
B2011284748166N12002524WA0113301154
B2011294748165N12002525WA0113301153
B2011304748165N12002527WA0113201152
B2011314748164N12002528WA0113101152
B2011324748164N12002529WA0113001152
B2011334748164N12002531WA0113001152
B2011344748164N12002533WA0112901151
B2011354748164N12002536WA0112901150
B2011364748163N12002539WA0112801150
B2011374748163N12002543WA0112801149
B2011374748163N12002543WA0112801149
B2011384748162N12002546WA0112801149
B2011394748162N12002549WA0112701150
B2011404748161N12002551WA0112701151
B2011414748161N12002554WA0112701151
B2011424748161N12002557WA0112701151
B2011434748161N12002560WA0112701151
B2011444748161N12002563WA0112701152
B2011454748161N12002566WA0112701153
B2011464748162N12002569WA0112701153
B2011474748163N12002572WA0112701154
B2011484748164N12002575WA0112801154
B2011494748164N12002579WA0112801153
B2011504748165N12002583WA0112701152
B2011514748165N12002586WA0112701151
B2011524748166N12002590WA0112701151
B2011534748167N12002593WA0112701151
B2011544748168N12002596WA0112701152
B2011554748169N12002599WA0112701151
B2011564748170N12002603WA0112701152
B2011574748171N12002607WA0112701153
B2011584748172N12002611WA0112701154
B2011594748173N12002614WA0112701156
B2012004748174N12002617WA0112801157
B2012014748174N12002621WA0112801156
B2012024748175N12002625WA0112901156
B2012034748176N12002629WA0112901157
B2012044748177N12002633WA0112901157
B2012054748180N12002636WA0113001157
B2012064748183N12002640WA0113001156
B2012074748188N12002644WA0113001155
B2012084748194N12002647WA0113001154
B2012094748202N12002648WA0113001153
B2012104748210N12002645WA0113001152
B2012114748218N12002640WA0112901152
B2012124748225N12002632WA0112901152
B2012134748230N12002624WA0112901152
B2012144748234N12002614WA0112901151
B2012154748235N12002605WA0112901151
B2012164748234N12002596WA0112801150
B2012174748233N12002588WA0112801148
B2012184748232N12002581WA0112801150
B2012194748232N12002575WA0112801155
B2012204748233N12002570WA0112901158
B2012214748234N12002565WA0112901159
B2012224748232N12002561WA0113001158
B2012234748230N12002557WA0113001157
B2012244748227N12002553WA0113101158
B2012254748226N12002549WA0113201162
B2012264748226N12002546WA0113301164
B2012274748225N12002542WA0113301164
B2012284748224N12002540WA0113401161
B2012294748221N12002538WA0113401159
B2012304748218N12002536WA0113401157
B2012314748217N12002533WA0113401158
B2012324748216N12002530WA0113401159
B2012334748215N12002527WA0113401158
B2012344748213N12002525WA0113401157
B2012354748211N12002523WA0113401155
B2012364748209N12002523WA0113301153
B2012374748207N12002521WA0113301153
B2012384748205N12002519WA0113301152
B2012394748204N12002518WA0113201152
B2012404748203N12002517WA0113101151
B2012414748201N12002518WA0113101149
B2012424748199N12002519WA0113001148
B2012424748199N12002519WA0113001148
B2012434748198N12002520WA0113001147
B2012444748197N12002521WA0112901147
B2012454748196N12002523WA0112801147
B2012464748195N12002525WA0112701146
B2012474748195N12002527WA0112701145
B2012484748193N12002529WA0112601144
B2012494748192N12002529WA0112501144
B2012504748190N12002528WA0112501144
B2012514748188N12002526WA0112401144
B2012524748186N12002524WA0112301144
B2012534748185N12002521WA0112301143
B2012544748183N12002517WA0112201143
B2012554748181N12002512WA0112201143
B2012564748179N12002507WA0112101142
B2012574748177N12002503WA0112101142
B2012584748175N12002499WA0112001143
B2012594748174N12002494WA0112001143
B2013004748172N12002490WA0112001143
B2013014748170N12002485WA0112001143
B2013024748168N12002481WA0111901143
B2013034748167N12002477WA0111901143
B2013044748164N12002474WA0111901142
B2013054748162N12002473WA0111901142
B2013064748161N12002473WA0111801141
B2013074748159N12002474WA0111801141
B2013084748159N12002476WA0111801141
B2013094748159N12002478WA0111801141
B2013104748159N12002481WA0111701141
B2013114748160N12002484WA0111701141
B2013124748160N12002488WA0111701141
B2013134748161N12002491WA0111701141
B2013144748161N12002494WA0111601141
B2013154748161N12002498WA0111601141
B2013164748161N12002502WA0111601141
B2013174748161N12002505WA0111601142
B2013184748162N12002509WA0111601142
B2013194748163N12002512WA0111601143
B2013204748164N12002514WA0111701144
B2013214748164N12002516WA0111701144
B2013224748164N12002519WA0111701143
B2013234748164N12002521WA0111701143
B2013244748165N12002524WA0111701142
B2013254748165N12002527WA0111701142
B2013264748166N12002529WA0111701142
B2013274748166N12002530WA0111701143
B2013284748166N12002531WA0111701143
B2013294748167N12002533WA0111601141
B2013304748167N12002536WA0111601139
B2013314748168N12002540WA0111501137
B2013324748169N12002544WA0111501137
B2013334748170N12002547WA0111501137
B2013344748172N12002550WA0111401137
B2013354748173N12002554WA0111401136
B2013364748174N12002558WA0111301137
B2013374748173N12002562WA0111301137
B2013384748172N12002565WA0111301138
B2013394748172N12002566WA0111301140
B2013404748172N12002567WA0111401141
B2013414748173N12002568WA0111401141
B2013424748174N12002570WA0111401140
B2013434748175N12002572WA0111401138
B2013444748176N12002575WA0111301136
B2013454748177N12002578WA0111301134
B2013464748178N12002580WA0111201133
B2013464748178N12002580WA0111201133
B2013474748178N12002583WA0111201132
B2013484748179N12002585WA0111101132
B2013494748181N12002588WA0111001131
B2013504748183N12002591WA0111001130
B2013514748185N12002594WA0110901129
B2013524748186N12002598WA0110801128
B2013534748188N12002600WA0110801127
B2013544748189N12002603WA0110701127
B2013554748191N12002606WA0110701126
B2013564748193N12002609WA0110601125
B2013574748195N12002611WA0110601124
B2013584748197N12002614WA0110501124
B2013594748198N12002617WA0110501123
B2014004748199N12002620WA0110401123
B2014014748199N12002623WA0110401123
B2014024748199N12002627WA0110401123
B2014034748199N12002630WA0110301123
B2014044748198N12002632WA0110301123
B2014054748197N12002633WA0110301123
B2014064748195N12002633WA0110201124
B2014074748192N12002633WA0110201123
B2014084748190N12002631WA0110201123
B2014094748187N12002630WA0110101123
B2014104748184N12002628WA0110101123
B2014114748181N12002625WA0110101123
B2014124748179N12002621WA0110001124
B2014134748176N12002618WA0110001124
B2014144748173N12002615WA0110001123
B2014154748169N12002612WA0110001123
B2014164748166N12002609WA0110001123
B2014174748163N12002605WA0109901123
B2014184748160N12002602WA0109901123
B2014194748157N12002600WA0109901124
B2014204748154N12002597WA0109901125
B2014214748151N12002593WA0110001125
B2014224748147N12002589WA0110001126
B2014234748144N12002585WA0110001127
B2014244748141N12002581WA0110001128
B2014254748138N12002578WA0110101128
B2014264748136N12002574WA0110101129
B2014274748133N12002571WA0110101129
B2014284748130N12002567WA0110101129
B2014294748128N12002563WA0110201129
B2014304748126N12002559WA0110201129
B2014314748123N12002556WA0110201129
B2014324748121N12002552WA0110201129
B2014334748118N12002549WA0110201129
B2014344748115N12002546WA0110201130
B2014354748113N12002543WA0110201130
B2014364748110N12002541WA0110201131
B2014374748107N12002540WA0110301131
B2014384748104N12002539WA0110301132
B2014394748101N12002539WA0110301132
B2014404748098N12002540WA0110401132
B2014414748097N12002542WA0110401133
B2014424748096N12002544WA0110401133
B2014434748097N12002546WA0110501134
B2014444748098N12002548WA0110501133
B2014454748100N12002551WA0110501133
B2014464748103N12002554WA0110501132
B2014474748106N12002557WA0110501131
B2014484748108N12002559WA0110601132
B2014494748110N12002562WA0110601132
B2014504748112N12002565WA0110601132
B2014514748113N12002568WA0110601133
B2014514748113N12002568WA0110601133
B2014524748113N12002570WA0110601133
B2014534748113N12002571WA0110701134
B2014544748113N12002573WA0110701135
B2014554748112N12002574WA0110701135
B2014564748111N12002575WA0110801135
B2014574748110N12002575WA0110801134
B2014584748107N12002575WA0110701133
B2014594748104N12002574WA0110701132
B2015004748101N12002570WA0110701130
B2015014748098N12002564WA0110601129
B2015024748095N12002557WA0110601128
B2015034748093N12002552WA0110501127
B2015044748091N12002547WA0110501127
B2015054748088N12002541WA0110401126
B2015064748085N12002535WA0110301124
B2015074748082N12002529WA0110201122
B2015084748079N12002522WA0110201121
B2015094748076N12002516WA0110101120
B2015104748074N12002510WA0110001120
B2015114748071N12002504WA0109901119
B2015124748068N12002498WA0109801118
B2015134748065N12002492WA0109701116
B2015144748061N12002485WA0109601114
B2015154748057N12002478WA0109501112
B2015164748053N12002471WA0109401111
B2015174748050N12002464WA0109301111
B2015184748047N12002458WA0109301111
B2015194748044N12002452WA0109201111
B2015204748040N12002445WA0109101110
B2015214748037N12002438WA0109001109
B2015224748033N12002431WA0109001108
B2015234748029N12002423WA0108901108
B2015244748026N12002416WA0108801107
B2015254748023N12002409WA0108801108
B2015264748020N12002402WA0108701107
B2015274748017N12002395WA0108601107
B2015284748014N12002388WA0108601106
B2015294748011N12002382WA0108501105
B2015304748008N12002375WA0108501103
B2015314748005N12002367WA0108401101
B2015324748002N12002360WA0108301100
B2015334747999N12002352WA0108201100
B2015344747996N12002345WA0108201101
B2015354747994N12002339WA0108101101
B2015364747991N12002333WA0108101101
B2015374747988N12002327WA0108001100
B2015384747985N12002320WA0108001099
B2015394747981N12002313WA0107901098
B2015404747977N12002308WA0107901097
B2015414747973N12002304WA0107801097
B2015424747969N12002300WA0107801097
B2015434747966N12002298WA0107701097
B2015444747963N12002296WA0107701097
B2015454747960N12002294WA0107601096
B2015464747956N12002292WA0107601095
B2015474747952N12002289WA0107501094
B2015484747949N12002285WA0107501094
B2015494747945N12002279WA0107401093
B2015504747942N12002274WA0107301093
B2015514747938N12002268WA0107201091
B2015524747935N12002262WA0107201090
B2015534747932N12002255WA0107101089
B2015544747929N12002249WA0107001088
B2015554747926N12002242WA0106901086
B2015564747923N12002235WA0106801084
B2015574747919N12002229WA0106701081
B2015584747916N12002224WA0106601080
B2015584747916N12002224WA0106601080
B2015594747912N12002219WA0106401078
B2016004747909N12002213WA0106301076
B2016014747906N12002205WA0106201073
B2016024747903N12002198WA0106001071
B2016034747900N12002192WA0105801068
B2016044747897N12002186WA0105701066
B2016054747894N12002180WA0105501064
B2016064747891N12002172WA0105301062
B2016074747889N12002163WA0105101059
B2016084747886N12002155WA0104901057
B2016094747883N12002147WA0104701055
B2016104747880N12002139WA0104501053
B2016114747878N12002131WA0104301051
B2016124747877N12002122WA0104101047
B2016134747875N12002113WA0103801043
B2016144747872N12002104WA0103601038
B2016154747870N12002094WA0103301034
B2016164747869N12002084WA0103101031
B2016174747868N12002074WA0102701029
B2016184747867N12002064WA0102501026
B2016194747865N12002054WA0102201024
B2016204747864N12002045WA0102001022
B2016214747862N12002035WA0101701021
B2016224747861N12002027WA0101601020
B2016234747860N12002018WA0101301019
B2016244747859N12002009WA0101201017
B2016254747858N12001999WA0100901015
B2016264747857N12001989WA0100701012
B2016274747856N12001978WA0100501009
B2016284747855N12001968WA0100301007
B2016294747854N12001957WA0100001005
B2016304747853N12001948WA0099801003
B2016314747853N12001938WA0099601001
B2016324747852N12001928WA0099400998
B2016334747851N12001918WA0099100995
B2016344747849N12001908WA0098900991
B2016354747848N12001898WA0098600988
B2016364747847N12001888WA0098400985
B2016374747846N12001878WA0098100982
B2016384747845N12001869WA0097900979
B2016394747843N12001859WA0097600975
B2016404747842N12001849WA0097300972
B2016414747841N12001839WA0097000968
B2016424747840N12001829WA0096800966
B2016434747839N12001819WA0096400963
B2016444747837N12001811WA0096200961
B2016454747835N12001802WA0095900958
B2016464747834N12001794WA0095700956
B2016474747833N12001784WA0095400953
B2016484747833N12001775WA0095200950
B2016494747832N12001766WA0094800948
B2016504747830N12001758WA0094600945
B2016514747827N12001749WA0094300941
B2016524747823N12001740WA0094000936
B2016534747820N12001731WA0093700933
B2016544747817N12001723WA0093500932
B2016554747813N12001716WA0093100931
B2016564747810N12001709WA0092900929
B2016574747807N12001701WA0092600925
B2016584747803N12001692WA0092400922
B2016594747798N12001684WA0092100919
B2017004747794N12001677WA0091900918
B2017014747790N12001671WA0091700919
B2017024747786N12001665WA0091500919
B2017024747786N12001665WA0091500919
B2017034747783N12001660WA0091300917
B2017044747778N12001654WA0091200915
B2017054747772N12001649WA0090900911
B2017064747767N12001644WA0090800909
B2017074747762N12001638WA0090600909
B2017084747757N12001633WA0090400908
B2017094747752N12001628WA0090300908
B2017104747746N12001624WA0090100906
B2017114747740N12001620WA0090000904
B2017124747734N12001616WA0089900904
B2017134747728N12001612WA0089700904
B2017144747723N12001608WA0089700906
B2017154747718N12001605WA0089600906
B2017164747713N12001602WA0089500907
B2017174747708N12001600WA0089500907
B2017184747704N12001596WA0089400907
B2017194747700N12001592WA0089400906
B2017204747695N12001588WA0089300903
B2017214747689N12001584WA0089200901
B2017224747683N12001580WA0089100898
B2017234747678N12001576WA0089000898
B2017244747674N12001571WA0089000899
B2017254747671N12001565WA0088900899
B2017264747667N12001558WA0088800898
B2017274747663N12001551WA0088700895
B2017284747659N12001544WA0088600893
B2017294747655N12001535WA0088500893
B2017304747652N12001527WA0088500894
B2017314747649N12001518WA0088400894
B2017324747647N12001511WA0088300894
B2017334747644N12001503WA0088300893
B2017344747641N12001494WA0088200891
B2017354747638N12001485WA0088100890
B2017364747635N12001475WA0088000888
B2017374747632N12001466WA0087900887
B2017384747630N12001457WA0087800886
B2017394747627N12001447WA0087700884
B2017404747624N12001437WA0087600883
B2017414747622N12001427WA0087500882
B2017424747620N12001416WA0087400881
B2017434747617N12001407WA0087300880
B2017444747614N12001397WA0087200879
B2017454747612N12001387WA0087100879
B2017464747610N12001377WA0087000878
B2017474747608N12001368WA0086900877
B2017484747606N12001359WA0086900876
B2017494747603N12001350WA0086800876
B2017504747600N12001342WA0086700876
B2017514747597N12001335WA0086700876
B2017524747594N12001329WA0086600877
B2017534747591N12001322WA0086600877
B2017544747587N12001316WA0086600877
B2017554747583N12001310WA0086500876
B2017564747580N12001303WA0086500875
B2017574747576N12001297WA0086400875
B2017584747573N12001290WA0086400876
B2017594747570N12001285WA0086400878
B2018004747568N12001280WA0086400880
B2018014747566N12001276WA0086500881
B2018024747563N12001274WA0086500881
B2018034747559N12001274WA0086500880
B2018044747556N12001275WA0086500880
B2018054747553N12001277WA0086600880
B2018054747553N12001277WA0086600880
B2018064747552N12001279WA0086600882
B2018074747552N12001281WA0086600883
B2018084747552N12001283WA0086700883
B2018094747552N12001287WA0086700881
B2018104747554N12001293WA0086700879
B2018114747557N12001297WA0086700877
B2018124747562N12001298WA0086600876
B2018134747566N12001296WA0086600875
B2018144747570N12001294WA0086500876
B2018154747574N12001290WA0086500876
B2018164747579N12001287WA0086500874
B2018174747583N12001280WA0086400872
B2018184747586N12001270WA0086300869
B2018194747587N12001257WA0086200866
B2018204747587N12001246WA0086100865
B2018214747587N12001237WA0086000867
B2018224747587N12001230WA0086000870
B2018234747586N12001223WA0086000870
B2018244747585N12001216WA0085900869
B2018254747582N12001208WA0085900868
B2018264747579N12001200WA0085800866
B2018274747576N12001192WA0085800867
B2018284747573N12001184WA0085800869
B2018294747571N12001177WA0085800870
B2018304747568N12001170WA0085800871
B2018314747565N12001165WA0085800870
B2018324747562N12001159WA0085800869
B2018334747559N12001155WA0085700868
B2018344747555N12001151WA0085700867
B2018354747552N12001147WA0085700866
B2018364747548N12001144WA0085700865
B2018374747545N12001144WA0085600864
B2018384747541N12001144WA0085600863
B2018394747537N12001145WA0085500863
B2018404747533N12001143WA0085500862
B2018414747529N12001140WA0085400862
B2018424747524N12001135WA0085400862
B2018434747520N12001129WA0085300862
B2018444747515N12001125WA0085300863
B2018454747511N12001121WA0085300865
B2018464747507N12001118WA0085300867
B2018474747503N12001114WA0085400869
B2018484747499N12001109WA0085400871
B2018494747496N12001104WA0085500872
B2018504747492N12001099WA0085500872
B2018514747489N12001094WA0085600873
B2018524747486N12001087WA0085600874
B2018534747485N12001078WA0085700874
B2018544747485N12001069WA0085800874
B2018554747486N12001059WA0085800874
B2018564747488N12001050WA0085800874
B2018574747490N12001042WA0085900875
B2018584747494N12001034WA0085900875
B2018594747498N12001027WA0086000875
B2019004747502N12001021WA0086000874
B2019014747507N12001015WA0086000873
B2019024747513N12001011WA0086000872
B2019034747519N12001008WA0086000872
B2019044747524N12001007WA0085900872
B2019054747529N12001007WA0085900872
B2019064747533N12001008WA0085900872
B2019074747537N12001010WA0085900872
B2019084747541N12001012WA0085800871
B2019094747545N12001016WA0085800871
B2019094747545N12001016WA0085800871
B2019104747548N12001020WA0085800871
B2019114747550N12001024WA0085800872
B2019124747550N12001028WA0085800874
B2019134747550N12001031WA0085800875
B2019144747549N12001034WA0085800874
B2019154747549N12001039WA0085800874
B2019164747548N12001043WA0085800875
B2019174747547N12001045WA0085900877
B2019184747545N12001046WA0085900878
B2019194747544N12001047WA0085900877
B2019204747542N12001049WA0085900876
B2019214747539N12001051WA0085900873
B2019224747536N12001054WA0085800870
B2019234747533N12001056WA0085700868
B2019244747529N12001056WA0085700867
B2019254747526N12001056WA0085600866
B2019264747523N12001056WA0085500864
B2019274747520N12001056WA0085400862
B2019284747516N12001057WA0085300859
B2019294747512N12001057WA0085100856
B2019304747507N12001057WA0085000854
B2019314747503N12001058WA0084800852
B2019324747499N12001059WA0084700850
B2019334747495N12001060WA0084500849
B2019344747492N12001061WA0084400848
B2019354747490N12001063WA0084300848
B2019364747487N12001065WA0084200846
B2019374747484N12001067WA0084000845
B2019384747480N12001068WA0084000844
B2019394747476N12001068WA0083800843
B2019404747471N12001066WA0083700842
B2019414747467N12001063WA0083600841
B2019424747463N12001057WA0083500839
B2019434747460N12001050WA0083400837
B2019444747458N12001043WA0083300836
B2019454747456N12001034WA0083100834
B2019464747455N12001025WA0083000833
B2019474747454N12001015WA0082800831
B2019484747453N12001004WA0082700829
B2019494747452N12000994WA0082500827
B2019504747451N12000984WA0082400827
B2019514747451N12000975WA0082300826
B2019524747449N12000967WA0082200824
B2019534747448N12000957WA0082000821
B2019544747446N12000946WA0081900818
B2019554747444N12000934WA0081700816
B2019564747442N12000923WA0081500814
B2019574747440N12000914WA0081400814
B2019584747438N12000905WA0081200813
B2019594747436N12000896WA0081100811
B2020004747434N12000886WA0080900808
B2020014747433N12000872WA0080700802
B2020024747432N12000858WA0080500799
B2020034747432N12000845WA0080300800
B2020044747432N12000835WA0080200803
B2020054747432N12000826WA0080100804
B2020064747431N12000816WA0080000804
B2020074747430N12000804WA0079900801
B2020084747430N12000791WA0079800798
B2020094747429N12000777WA0079700797
B2020104747429N12000765WA0079600798
B2020114747428N12000755WA0079500798
B2020124747428N12000745WA0079500798
B2020134747428N12000735WA0079400797
B2020134747428N12000735WA0079400797
B2020144747428N12000723WA0079300793
B2020154747428N12000711WA0079100790
B2020164747428N12000699WA0079000787
B2020174747429N12000687WA0078800785
B2020184747430N12000677WA0078600782
B2020194747430N12000666WA0078400780
B2020204747431N12000656WA0078200776
B2020214747431N12000644WA0077900771
B2020224747431N12000631WA0077700766
B2020234747432N12000619WA0077400763
B2020244747432N12000608WA0077200762
B2020254747432N12000597WA0077000761
B2020264747432N12000588WA0076800759
B2020274747433N12000578WA0076500756
B2020284747433N12000567WA0076300752
B2020294747434N12000555WA0076000749
B2020304747435N12000543WA0075800747
B2020314747435N12000534WA0075500745
B2020324747435N12000525WA0075400744
B2020334747434N12000516WA0075100741
B2020344747434N12000505WA0074900737
B2020354747434N12000491WA0074600732
B2020364747435N12000478WA0074400730
B2020374747436N12000466WA0074100731
B2020384747436N12000457WA0074000733
B2020394747437N12000449WA0073800733
B2020404747437N12000441WA0073700733
B2020414747437N12000431WA0073500730
B2020424747437N12000420WA0073400727
B2020434747438N12000408WA0073200726
B2020444747439N12000398WA0073100726
B2020454747442N12000388WA0072900726
B2020464747445N12000378WA0072800725
B2020474747448N12000369WA0072700723
B2020484747452N12000358WA0072500721
B2020494747455N12000347WA0072400720
B2020504747458N12000337WA0072300719
B2020514747461N12000328WA0072100720
B2020524747464N12000319WA0072100720
B2020534747466N12000309WA0072000719
B2020544747467N12000299WA0071900718
B2020554747468N12000289WA0071800716
B2020564747469N12000278WA0071700715
B2020574747470N12000268WA0071600715
B2020584747471N12000258WA0071500714
B2020594747472N12000249WA0071400712
B2021004747473N12000239WA0071300709
B2021014747474N12000227WA0071100706
B2021024747475N12000214WA0071000702
B2021034747477N12000201WA0070700699
B2021044747478N12000189WA0070600697
B2021054747480N12000177WA0070400696
B2021064747482N12000166WA0070300695
B2021074747484N12000155WA0070100693
B2021084747486N12000143WA0069900691
B2021094747488N12000130WA0069700689
B2021104747491N12000117WA0069600687
B2021114747494N12000105WA0069400687
B2021124747498N12000094WA0069300687
B2021134747501N12000083WA0069100686
B2021144747504N12000071WA0069000685
B2021154747507N12000059WA0068800683
B2021164747511N12000048WA0068700682
B2021174747515N12000037WA0068600681
B2021184747519N12000027WA0068500680
B2021184747519N12000027WA0068500680
B2021194747524N12000018WA0068300679
B2021204747528N12000009WA0068200679
B2021214747533N12000001WA0068100678
B2021224747538N11959992WA0068000677
B2021234747544N11959984WA0067900675
B2021244747549N11959977WA0067800674
B2021254747555N11959969WA0067600673
B2021264747560N11959962WA0067500672
B2021274747566N11959956WA0067400672
B2021284747572N11959950WA0067300671
B2021294747577N11959944WA0067200671
B2021304747583N11959938WA0067200670
B2021314747589N11959932WA0067000670
B2021324747595N11959927WA0067000669
B2021334747602N11959921WA0066900668
B2021344747608N11959916WA0066800667
B2021354747615N11959909WA0066700666
B2021364747621N11959903WA0066600665
B2021374747628N11959897WA0066500665
B2021384747634N11959892WA0066500666
B2021394747640N11959888WA0066400666
B2021404747646N11959883WA0066400667
B2021414747652N11959877WA0066400667
B2021424747658N11959872WA0066300668
B2021434747663N11959865WA0066300668
B2021444747668N11959859WA0066300668
B2021454747674N11959852WA0066200667
B2021464747680N11959846WA0066200667
B2021474747686N11959841WA0066200667
B2021484747693N11959836WA0066200667
B2021494747699N11959831WA0066200667
B2021504747705N11959826WA0066100667
B2021514747711N11959821WA0066100667
B2021524747717N11959817WA0066100666
B2021534747724N11959812WA0066100665
B2021544747732N11959808WA0066000663
B2021554747739N11959805WA0065900662
B2021564747746N11959801WA0065900661
B2021574747753N11959798WA0065800660
B2021584747760N11959795WA0065800660
B2021594747767N11959792WA0065700659
B2022004747774N11959790WA0065600657
B2022014747781N11959787WA0065500656
B2022024747788N11959784WA0065400654
B2022034747795N11959781WA0065300652
B2022044747802N11959777WA0065200651
B2022054747809N11959773WA0065000649
B2022064747815N11959770WA0064900647
B2022074747822N11959766WA0064700645
B2022084747828N11959761WA0064600644
B2022094747834N11959755WA0064500642
B2022104747841N11959749WA0064300639
B2022114747847N11959743WA0064100638
B2022124747853N11959739WA0064000637
B2022134747859N11959735WA0063900636
B2022144747866N11959730WA0063700635
B2022154747872N11959724WA0063600635
B2022164747877N11959717WA0063500635
B2022174747882N11959709WA0063400635
B2022184747886N11959701WA0063400636
B2022194747890N11959693WA0063300637
B2022204747893N11959684WA0063300638
B2022214747896N11959676WA0063300638
B2022224747900N11959667WA0063300638
B2022224747900N11959667WA0063300638
B2022234747904N11959658WA0063300639
B2022244747909N11959652WA0063300639
B2022254747914N11959646WA0063300640
B2022264747920N11959642WA0063300640
B2022274747926N11959638WA0063300640
B2022284747931N11959636WA0063300640
B2022294747937N11959636WA0063300639
B2022304747943N11959637WA0063200638
B2022314747948N11959638WA0063200637
B2022324747954N11959641WA0063200636
B2022334747959N11959644WA0063100636
B2022344747962N11959648WA0063100635
B2022354747965N11959653WA0063000635
B2022364747966N11959657WA0063000634
B2022374747968N11959661WA0062900634
B2022384747969N11959666WA0062900633
B2022394747970N11959671WA0062800631
B2022404747971N11959677WA0062800630
B2022414747971N11959683WA0062700630
B2022424747970N11959688WA0062700631
B2022434747969N11959691WA0062600632
B2022444747968N11959694WA0062700634
B2022454747967N11959695WA0062700634
B2022464747965N11959695WA0062700634
B2022474747963N11959694WA0062700633
B2022484747961N11959693WA0062700631
B2022494747958N11959691WA0062600629
B2022504747956N11959687WA0062600628
B2022514747954N11959681WA0062500627
B2022524747952N11959675WA0062500626
B2022534747952N11959667WA0062400626
B2022544747952N11959659WA0062400625
B2022554747953N11959650WA0062300625
B2022564747956N11959640WA0062300624
B2022574747960N11959631WA0062200624
B2022584747966N11959624WA0062200623
B2022594747972N11959618WA0062100623
B2023004747979N11959615WA0062100623
B2023014747986N11959614WA0062000623
B2023024747992N11959615WA0062000623
B2023034747997N11959617WA0062000623
B2023044748001N11959620WA0061900622
B2023054748005N11959624WA0061900622
B2023064748009N11959628WA0061800622
B2023074748012N11959634WA0061800621
B2023084748014N11959639WA0061800621
B2023094748015N11959644WA0061700621
B2023104748017N11959649WA0061700622
B2023114748018N11959653WA0061700622
B2023124748019N11959658WA0061700621
B2023134748020N11959662WA0061700621
B2023144748019N11959667WA0061600620
B2023154748019N11959672WA0061600620
B2023164748018N11959676WA0061600621
B2023174748018N11959681WA0061600622
B2023184748019N11959685WA0061600623
B2023194748018N11959689WA0061700624
B2023204748017N11959693WA0061700624
B2023214748015N11959696WA0061700625
B2023224748013N11959697WA0061700626
B2023234748010N11959697WA0061800626
B2023244748007N11959696WA0061800626
B2023254748004N11959694WA0061900626
B2023254748004N11959694WA0061900626
B2023264748000N11959691WA0061900626
B2023274747997N11959687WA0061900625
B2023284747996N11959681WA0061900625
B2023294747995N11959673WA0061900624
B2023304747996N11959663WA0061900623
B2023314747998N11959653WA0061800622
B2023324748003N11959645WA0061800621
B2023334748010N11959639WA0061700619
B2023344748018N11959638WA0061700617
B2023354748024N11959640WA0061600616
B2023364748029N11959644WA0061600616
B2023374748032N11959648WA0061500616
B2023384748036N11959652WA0061400616
B2023394748039N11959656WA0061400617
B2023404748042N11959661WA0061400617
B2023414748043N11959666WA0061300617
B2023424748044N11959671WA0061300616
B2023434748045N11959677WA0061300616
B2023444748045N11959682WA0061200615
B2023454748045N11959688WA0061200615
B2023464748045N11959693WA0061200615
B2023474748044N11959697WA0061100615
B2023484748044N11959701WA0061100615
B2023494748045N11959705WA0061100615
B2023504748045N11959708WA0061000614
B2023514748044N11959712WA0061000612
B2023524748043N11959715WA0060900610
B2023534748042N11959719WA0060800608
B2023544748041N11959723WA0060700607
B2023554748041N11959727WA0060600605
B2023564748040N11959730WA0060500604
B2023574748038N11959733WA0060400604
B2023584748037N11959736WA0060400602
B2023594748035N11959738WA0060300602
B2024004748034N11959740WA0060200602
B2024014748032N11959741WA0060100602
B2024024748030N11959741WA0060100600
B2024034748027N11959741WA0060000598
B2024044748024N11959739WA0059900596
B2024054748022N11959734WA0059800595
B2024064748020N11959728WA0059700594
B2024074748019N11959722WA0059600593
B2024084748018N11959715WA0059500592
B2024094748018N11959707WA0059400591
B2024104748018N11959699WA0059300590
B2024114748017N11959690WA0059200589
B2024124748017N11959682WA0059100588
B2024134748017N11959674WA0059000589
B2024144748016N11959668WA0059000588
B2024154748015N11959660WA0058900588
B2024164748015N11959653WA0058800587
B2024174748015N11959645WA0058800587
B2024184748015N11959637WA0058700587
B2024194748017N11959629WA0058700587
B2024204748018N11959621WA0058600587
B2024214748020N11959612WA0058600585
B2024224748022N11959602WA0058500584
B2024234748024N11959592WA0058400583
B2024244748027N11959582WA0058400582
B2024254748030N11959572WA0058300581
B2024264748033N11959563WA0058200580
B2024274748036N11959553WA0058100578
B2024284748039N11959543WA0058000576
B2024284748039N11959543WA0058000576
B2024294748043N11959534WA0057900574
B2024304748047N11959524WA0057800572
B2024314748051N11959514WA0057600571
B2024324748054N11959505WA0057600570
B2024334748056N11959496WA0057400569
B2024344748058N11959486WA0057300568
B2024354748061N11959475WA0057200566
B2024364748064N11959465WA0057100564
B2024374748066N11959456WA0057000563
B2024384748069N11959447WA0056900563
B2024394748072N11959439WA0056700562
B2024404748075N11959430WA0056600560
B2024414748078N11959422WA0056500557
B2024424748082N11959413WA0056400554
B2024434748086N11959403WA0056200551
B2024444748090N11959394WA0056000549
B2024454748094N11959385WA0055800547
B2024464748097N11959378WA0055700547
B2024474748101N11959371WA0055600547
B2024484748104N11959364WA0055400546
B2024494748106N11959357WA0055300544
B2024504748110N11959349WA0055200542
B2024514748114N11959341WA0055000539
B2024524748118N11959333WA0054800537
B2024534748123N11959326WA0054600535
B2024544748127N11959320WA0054500534
B2024554748132N11959313WA0054300532
B2024564748137N11959307WA0054200529
B2024574748143N11959300WA0053900525
B2024584748148N11959291WA0053800523
B2024594748151N11959283WA0053600522
B2025004748153N11959275WA0053500523
B2025014748154N11959267WA0053300523
B2025024748155N11959260WA0053200522
B2025034748157N11959251WA0053000520
B2025044748160N11959242WA0052900518
B2025054748161N11959234WA0052700517
B2025064748162N11959225WA0052600516
B2025074748163N11959218WA0052500515
B2025084748165N11959210WA0052400514
B2025094748167N11959202WA0052200511
B2025104748167N11959193WA0052100509
B2025114748168N11959184WA0051900508
B2025124748168N11959176WA0051800507
B2025134748168N11959169WA0051600506
B2025144748169N11959162WA0051500505
B2025154748170N11959154WA0051300502
B2025164748171N11959145WA0051200499
B2025174748171N11959136WA0051000497
B2025184748171N11959128WA0050900495
B2025194748171N11959120WA0050700494
B2025204748172N11959112WA0050600492
B2025214748172N11959105WA0050400490
B2025224748173N11959097WA0050300489
B2025234748174N11959089WA0050100487
B2025244748175N11959081WA0050000485
B2025254748175N11959073WA0049800484
B2025264748176N11959065WA0049700482
B2025274748176N11959058WA0049500481
B2025284748177N11959050WA0049400480
B2025294748177N11959043WA0049300478
B2025304748177N11959035WA0049200477
B2025314748177N11959028WA0049000476
B2025324748177N11959020WA0048900474
B2025324748177N11959020WA0048900474
B2025334748176N11959013WA0048700473
B2025344748174N11959005WA0048600472
B2025354748173N11958999WA0048500471
B2025364748171N11958994WA0048400471
B2025374748170N11958988WA0048300470
B2025384748168N11958983WA0048200469
B2025394748166N11958977WA0048100467
B2025404748164N11958972WA0048000465
B2025414748162N11958967WA0047900464
B2025424748160N11958962WA0047800464
B2025434748159N11958958WA0047700463
B2025444748157N11958954WA0047600462
B2025454748155N11958948WA0047500460
B2025464748153N11958943WA0047400459
B2025474748150N11958937WA0047200458
B2025484748148N11958931WA0047200457
B2025494748146N11958926WA0047000456
B2025504748143N11958920WA0046900455
B2025514748141N11958915WA0046800454
B2025524748139N11958909WA0046700453
B2025534748136N11958904WA0046600451
B2025544748134N11958898WA0046500450
B2025554748131N11958892WA0046400449
B2025564748129N11958887WA0046300448
B2025574748126N11958881WA0046100447
B2025584748124N11958876WA0046100446
B2025594748121N11958871WA0045900444
B2026004748118N11958866WA0045800442
B2026014748115N11958862WA0045600441
B2026024748112N11958859WA0045500439
B2026034748108N11958856WA0045400438
B2026044748105N11958853WA0045300437
B2026054748101N11958849WA0045100436
B2026064748099N11958845WA0045000435
B2026074748096N11958841WA0044900434
B2026084748093N11958838WA0044800433
B2026094748089N11958834WA0044600430
B2026104748086N11958831WA0044500428
B2026114748082N11958828WA0044400426
B2026124748079N11958825WA0044300425
B2026134748076N11958824WA0044100424
B2026144748073N11958822WA0044000422
B2026154748070N11958820WA0043900421
B2026164748067N11958818WA0043800419
B2026174748065N11958816WA0043600418
B2026184748063N11958814WA0043500417
B2026194748061N11958811WA0043400415
B2026204748058N11958809WA0043300413
B2026214748056N11958808WA0043100411
B2026224748052N11958808WA0042900409
B2026234748049N11958807WA0042700408
B2026244748045N11958807WA0042600408
B2026254748043N11958807WA0042500407
B2026264748040N11958806WA0042400406
B2026274748038N11958807WA0042300405
B2026284748035N11958807WA0042200403
B2026294748032N11958807WA0042100402
B2026304748030N11958808WA0042000401
B2026314748027N11958810WA0041800401
B2026324748025N11958813WA0041800400
B2026334748024N11958817WA0041700399
B2026344748025N11958823WA0041600398
B2026354748026N11958828WA0041500397
B2026364748028N11958833WA0041400396
B2026364748028N11958833WA0041400396
B2026374748028N11958839WA0041300395
B2026384748027N11958844WA0041200394
B2026394748026N11958848WA0041100393
B2026404748024N11958850WA0041000391
B2026414748021N11958851WA0040900390
B2026424748018N11958850WA0040800389
B2026434748016N11958849WA0040700388
B2026444748014N11958846WA0040600388
B2026454748012N11958841WA0040500387
B2026464748012N11958835WA0040400387
B2026474748014N11958827WA0040300386
B2026484748019N11958822WA0040300385
B2026494748026N11958820WA0040200385
B2026504748033N11958823WA0040100384
B2026514748038N11958828WA0040000385
B2026524748041N11958833WA0039900386
B2026534748044N11958838WA0039900387
B2026544748045N11958843WA0039800385
B2026554748046N11958849WA0039700384
B2026564748044N11958855WA0039700382
B2026574748041N11958858WA0039600380
B2026584748037N11958859WA0039500378
B2026594748034N11958858WA0039400378
B2027004748031N11958856WA0039300379
B2027014748029N11958856WA0039200378
B2027024748026N11958856WA0039200378
B2027034748022N11958855WA0039100377
B2027044748019N11958856WA0039000376
B2027054748016N11958857WA0039000376
B2027064748013N11958859WA0038900377
B2027074748011N11958862WA0038900375
B2027084748011N11958867WA0038800374
B2027094748011N11958874WA0038800374
B2027104748014N11958880WA0038700373
B2027114748017N11958886WA0038600372
B2027124748020N11958890WA0038600373
B2027134748022N11958894WA0038500372
B2027144748024N11958897WA0038500372
B2027154748026N11958902WA0038400371
B2027164748029N11958906WA0038400369
B2027174748032N11958910WA0038300367
B2027184748036N11958915WA0038200365
B2027194748040N11958919WA0038100364
B2027204748043N11958924WA0038000364
B2027214748046N11958929WA0037900362
B2027224748048N11958935WA0037800361
B2027234748051N11958941WA0037600360
B2027244748054N11958946WA0037500359
B2027254748056N11958950WA0037400358
B2027264748058N11958956WA0037300357
B2027274748060N11958961WA0037100356
B2027284748062N11958967WA0037000355
B2027294748065N11958973WA0036900353
B2027304748068N11958978WA0036800352
B2027314748070N11958984WA0036600351
B2027324748072N11958990WA0036500350
B2027334748075N11958995WA0036300349
B2027344748077N11959001WA0036200348
B2027354748079N11959007WA0036100347
B2027364748081N11959012WA0036000346
B2027374748082N11959017WA0035800346
B2027384748083N11959021WA0035700344
B2027394748084N11959026WA0035600343
B2027394748084N11959026WA0035600343
B2027404748085N11959032WA0035500342
B2027414748085N11959038WA0035300340
B2027424748084N11959043WA0035200339
B2027434748082N11959047WA0035000338
B2027444748078N11959048WA0034900335
B2027454748074N11959045WA0034700329
B2027464748072N11959040WA0034600326
B2027474748071N11959034WA0034400326
B2027484748071N11959027WA0034300326
B2027494748071N11959021WA0034100324
B2027504748071N11959015WA0034000323
B2027514748072N11959009WA0033900322
B2027524748072N11959003WA0033700321
B2027534748073N11958996WA0033600319
B2027544748073N11958990WA0033400318
B2027554748074N11958985WA0033300317
B2027564748074N11958979WA0033200316
B2027574748074N11958974WA0033000314
B2027584748073N11958968WA0032900313
B2027594748073N11958962WA0032700311
B2028004748073N11958956WA0032600309
B2028014748072N11958950WA0032500308
B2028024748071N11958944WA0032400306
B2028034748070N11958939WA0032200306
B2028044748069N11958935WA0032100305
B2028054748068N11958930WA0031900303
B2028064748066N11958927WA0031800301
B2028074748064N11958924WA0031700299
B2028084748062N11958921WA0031600298
B2028094748060N11958917WA0031400296
B2028104748058N11958913WA0031300294
B2028114748055N11958910WA0031100292
B2028124748052N11958907WA0031000291
B2028134748050N11958904WA0030800289
B2028144748047N11958903WA0030700288
B2028154748045N11958902WA0030500286
B2028164748043N11958902WA0030400284
B2028174748041N11958903WA0030300283
B2028184748039N11958904WA0030100280
B2028194748037N11958907WA0030000278
B2028204748036N11958910WA0029800277
B2028214748035N11958914WA0029600275
B2028224748035N11958917WA0029500273
B2028234748032N11958921WA0029300271
B2028244748030N11958925WA0029200268
B2028254748028N11958929WA0029000266
B2028264748027N11958935WA0028800264
B2028274748026N11958939WA0028600263
B2028284748026N11958944WA0028500262
B2028294748026N11958947WA0028400261
B2028304748026N11958952WA0028300259
B2028314748027N11958956WA0028100258
B2028324748028N11958961WA0028000256
B2028334748029N11958966WA0027900254
B2028344748029N11958971WA0027800253
B2028354748030N11958976WA0027600251
B2028364748031N11958981WA0027500249
B2028374748031N11958986WA0027400248
B2028384748032N11958991WA0027300245
B2028394748033N11958997WA0027200244
B2028404748034N11959002WA0027100243
B2028414748035N11959008WA0027000242
B2028424748036N11959013WA0026900241
B2028434748036N11959018WA0026800240
B2028434748036N11959018WA0026800240
B2028444748033N11959023WA0026700239
B2028454748029N11959026WA0026600235
B2028464748024N11959025WA0026500231
B2028474748020N11959023WA0026300231
B2028484748017N11959022WA0026200230
B2028494748013N11959022WA0026100229
B2028504748010N11959024WA0026000228
B2028514748007N11959025WA0025900228
B2028524748004N11959025WA0025800227
B2028534748000N11959026WA0025600227
B2028544747997N11959028WA0025500226
B2028554747994N11959032WA0025400225
B2028564747990N11959034WA0025300224
B2028574747986N11959036WA0025100222
B2028584747982N11959038WA0025000221
B2028594747978N11959041WA0024900220
B2029004747975N11959045WA0024800220
B2029014747972N11959048WA0024700219
B2029024747969N11959051WA0024600219
B2029034747967N11959054WA0024400217
B2029044747966N11959055WA0024400216
B2029054747965N11959056WA0024200215
B2029064747964N11959057WA0024200215
B2029074747964N11959057WA0024100215
B2029084747965N11959057WA0024000215
B2029094747965N11959057WA0024000216
B2029104747965N11959057WA0023900216
B2029114747965N11959057WA0023900217
B2029124747965N11959057WA0023800217
B2029134747965N11959057WA0023800218
B2029144747965N11959056WA0023800218
B2029154747966N11959056WA0023700218
B2029164747966N11959056WA0023700218
B2029174747966N11959056WA0023700219
B2029184747966N11959056WA0023700219
B2029194747966N11959056WA0023600219
B2029204747966N11959056WA0023600219
B2029214747966N11959057WA0023600220
B2029224747967N11959057WA0023600220
B2029234747967N11959057WA0023600220
B2029244747967N11959058WA0023600220
B2029254747968N11959058WA0023600220
B2029264747968N11959058WA0023600220
B2029274747968N11959058WA0023600220
B2029284747968N11959058WA0023600220
B2029294747968N11959058WA0023600220
B2029304747968N11959058WA0023600220
B2029314747968N11959058WA0023600221
B2029324747968N11959058WA0023600221
B2029334747968N11959058WA0023600221
B2029344747968N11959058WA0023600223
B2029354747968N11959058WA0023600224
B2029364747968N11959058WA0023600224
B2029374747968N11959058WA0023600223
B2029384747967N11959058WA0023600223
B2029394747967N11959058WA0023500223
B2029404747967N11959058WA0023500223
B2029414747967N11959058WA0023500222
B2029424747966N11959057WA0023500222
B2029434747966N11959057WA0023500222
B2029444747965N11959057WA0023500222
B2029454747965N11959056WA0023500222
B2029464747965N11959056WA0023500222
