AXFMSFP Flymaster Live, V1.0
HFFXA010
HFPLTPILOT:Jeff Speer
HFGTYGLIDERTYPE:Gin Genie X Lite / Ozone Photon
HFGIDGLIDERID:
HFDTM100GPSDATUM:WGS-1984
HFCIDCOMPETITIONID:427
HFCCLCOMPETITIONCLASS:
HOSITSITE:LAUNCH
HFGPS:UBLOXNEO6
HFPRSPRESSALTSENSOR:NA
HFRFWFIRMWAREVERSION:202g
HFRHWHARDWAREVERSION:1.0R2
HFFTYFRTYPE:FLYMASTER,LIVE
HFDTE160625
B1908564748243N12002360WA0109301124
B1908574748243N12002363WA0109201124
B1908584748243N12002367WA0109201123
B1908594748243N12002371WA0109101122
B1909004748243N12002375WA0109101121
B1909014748243N12002380WA0109101119
B1909024748243N12002385WA0109001118
B1909034748242N12002389WA0109001117
B1909044748240N12002394WA0108901116
B1909054748238N12002399WA0108801116
B1909064748236N12002402WA0108801118
B1909074748233N12002404WA0108801120
B1909084748230N12002405WA0108901122
B1909094748228N12002407WA0108901123
B1909104748225N12002409WA0108901123
B1909114748223N12002412WA0108901122
B1909124748220N12002415WA0108901121
B1909134748217N12002418WA0108901121
B1909144748214N12002420WA0108901122
B1909154748212N12002422WA0109001123
B1909164748210N12002424WA0109001125
B1909174748208N12002426WA0109101126
B1909184748205N12002428WA0109101127
B1909194748203N12002430WA0109201127
B1909204748200N12002433WA0109301127
B1909214748198N12002435WA0109301127
B1909224748195N12002438WA0109401128
B1909234748193N12002440WA0109401129
B1909244748191N12002441WA0109501129
B1909254748188N12002442WA0109501129
B1909264748185N12002442WA0109501128
B1909274748181N12002442WA0109501127
B1909284748177N12002441WA0109501126
B1909294748173N12002440WA0109501126
B1909304748169N12002438WA0109501126
B1909314748166N12002437WA0109501126
B1909324748163N12002436WA0109501125
B1909334748159N12002436WA0109501124
B1909344748156N12002435WA0109401123
B1909354748154N12002435WA0109401123
B1909364748151N12002436WA0109401122
B1909374748148N12002437WA0109301121
B1909384748145N12002440WA0109201119
B1909394748142N12002442WA0109201117
B1909404748139N12002443WA0109001116
B1909414748136N12002444WA0109001114
B1909424748133N12002445WA0108901113
B1909434748130N12002447WA0108801111
B1909444748127N12002449WA0108701110
B1909454748123N12002451WA0108601108
B1909464748120N12002454WA0108401106
B1909474748116N12002456WA0108301105
B1909484748113N12002458WA0108201103
B1909494748110N12002459WA0108101102
B1909504748107N12002460WA0107901100
B1909514748103N12002460WA0107801097
B1909524748099N12002458WA0107601094
B1909534748095N12002455WA0107401091
B1909544748091N12002450WA0107201088
B1909554748087N12002444WA0107001086
B1909564748084N12002438WA0106901087
B1909574748081N12002432WA0106801087
B1909584748079N12002425WA0106601088
B1909594748076N12002419WA0106601088
B1910004748072N12002413WA0106501088
B1910014748068N12002409WA0106401087
B1910024748063N12002408WA0106401088
B1910034748058N12002408WA0106301088
B1910044748054N12002411WA0106201089
B1910054748051N12002416WA0106201089
B1910064748049N12002421WA0106201091
B1910074748047N12002425WA0106201094
B1910084748046N12002428WA0106301096
B1910094748045N12002432WA0106401097
B1910104748045N12002436WA0106401097
B1910114748047N12002442WA0106401095
B1910124748050N12002446WA0106301092
B1910134748054N12002450WA0106301090
B1910144748059N12002452WA0106201088
B1910154748064N12002452WA0106101086
B1910164748070N12002450WA0106001084
B1910174748074N12002446WA0105901082
B1910184748079N12002441WA0105701079
B1910194748082N12002434WA0105601077
B1910204748085N12002426WA0105401074
B1910214748087N12002417WA0105301071
B1910224748088N12002408WA0105101069
B1910234748089N12002400WA0105001068
B1910244748090N12002393WA0104801067
B1910254748092N12002386WA0104701066
B1910264748093N12002378WA0104601064
B1910274748093N12002367WA0104401062
B1910284748092N12002355WA0104201060
B1910294748090N12002344WA0104101059
B1910304748086N12002336WA0104001059
B1910314748081N12002330WA0103901059
B1910324748075N12002326WA0103801060
B1910334748070N12002323WA0103801062
B1910334748070N12002323WA0103801062
B1910344748065N12002322WA0103801063
B1910354748059N12002321WA0103801064
B1910364748055N12002322WA0103801065
B1910374748050N12002322WA0103801065
B1910384748045N12002323WA0103801067
B1910394748041N12002323WA0103801068
B1910404748038N12002325WA0103901069
B1910414748035N12002330WA0103901069
B1910424748034N12002336WA0103901069
B1910434748033N12002343WA0103901069
B1910444748032N12002348WA0104001071
B1910454748030N12002354WA0104001072
B1910464748029N12002359WA0104101073
B1910474748026N12002365WA0104101074
B1910484748024N12002370WA0104201074
B1910494748022N12002375WA0104201075
B1910504748020N12002379WA0104301077
B1910514748018N12002383WA0104401079
B1910524748016N12002388WA0104501079
B1910534748015N12002392WA0104601080
B1910544748014N12002397WA0104701081
B1910554748013N12002403WA0104701082
B1910564748011N12002408WA0104801083
B1910574748010N12002413WA0104901085
B1910584748008N12002417WA0105001086
B1910594748007N12002422WA0105101087
B1911004748006N12002426WA0105201088
B1911014748007N12002430WA0105301088
B1911024748008N12002436WA0105401088
B1911034748010N12002442WA0105401087
B1911044748013N12002447WA0105501087
B1911054748016N12002453WA0105501088
B1911064748020N12002457WA0105601089
B1911074748023N12002461WA0105701090
B1911084748027N12002464WA0105701090
B1911094748031N12002466WA0105801091
B1911104748035N12002468WA0105901091
B1911114748040N12002468WA0105901090
B1911124748046N12002467WA0105901090
B1911134748051N12002465WA0105901090
B1911144748057N12002462WA0106001090
B1911154748062N12002459WA0106001091
B1911164748067N12002456WA0106001092
B1911174748073N12002452WA0106101093
B1911184748077N12002447WA0106101094
B1911194748082N12002441WA0106201094
B1911204748085N12002435WA0106201093
B1911214748089N12002428WA0106201093
B1911224748091N12002420WA0106301093
B1911234748091N12002412WA0106301092
B1911244748091N12002403WA0106301090
B1911254748089N12002395WA0106201089
B1911264748085N12002388WA0106201087
B1911274748081N12002382WA0106101086
B1911284748076N12002379WA0106101084
B1911294748072N12002376WA0106001083
B1911304748067N12002375WA0105901082
B1911314748062N12002375WA0105901081
B1911324748058N12002375WA0105801080
B1911334748053N12002377WA0105701079
B1911344748049N12002379WA0105601078
B1911354748045N12002383WA0105501078
B1911354748045N12002383WA0105501078
B1911364748042N12002387WA0105501079
B1911374748039N12002392WA0105401081
B1911384748036N12002396WA0105401082
B1911394748033N12002401WA0105401084
B1911404748030N12002406WA0105401084
B1911414748028N12002412WA0105501086
B1911424748027N12002417WA0105501088
B1911434748027N12002422WA0105601089
B1911444748028N12002427WA0105601089
B1911454748030N12002432WA0105601088
B1911464748034N12002436WA0105701086
B1911474748039N12002438WA0105601084
B1911484748044N12002437WA0105601082
B1911494748050N12002435WA0105501081
B1911504748055N12002429WA0105501080
B1911514748059N12002421WA0105401080
B1911524748062N12002412WA0105401080
B1911534748064N12002402WA0105401082
B1911544748067N12002394WA0105401084
B1911554748069N12002385WA0105401087
B1911564748070N12002377WA0105501089
B1911574748070N12002369WA0105601090
B1911584748068N12002361WA0105701090
B1911594748065N12002352WA0105701089
B1912004748061N12002345WA0105701088
B1912014748057N12002339WA0105701089
B1912024748052N12002336WA0105801089
B1912034748046N12002336WA0105801091
B1912044748042N12002337WA0105901093
B1912054748039N12002341WA0105901096
B1912064748038N12002345WA0106101098
B1912074748037N12002350WA0106201099
B1912084748037N12002356WA0106301100
B1912094748038N12002361WA0106401100
B1912104748040N12002367WA0106501101
B1912114748043N12002371WA0106501102
B1912124748047N12002375WA0106601102
B1912134748052N12002377WA0106701104
B1912144748057N12002379WA0106801105
B1912154748061N12002379WA0106901107
B1912164748066N12002379WA0107001108
B1912174748071N12002377WA0107101108
B1912184748076N12002371WA0107201108
B1912194748081N12002365WA0107301108
B1912204748086N12002358WA0107401109
B1912214748089N12002350WA0107401111
B1912224748090N12002342WA0107601113
B1912234748090N12002335WA0107601114
B1912244748089N12002327WA0107701114
B1912254748087N12002319WA0107801112
B1912264748083N12002311WA0107801110
B1912274748078N12002305WA0107801110
B1912284748073N12002302WA0107801110
B1912294748068N12002301WA0107801112
B1912304748064N12002300WA0107901115
B1912314748060N12002299WA0108001118
B1912324748056N12002299WA0108101120
B1912334748052N12002298WA0108201122
B1912344748047N12002299WA0108401124
B1912354748043N12002300WA0108501125
B1912364748040N12002303WA0108601126
B1912374748037N12002307WA0108701127
B1912374748037N12002307WA0108701127
B1912384748036N12002312WA0108801129
B1912394748036N12002317WA0108901129
B1912404748037N12002321WA0109001129
B1912414748041N12002325WA0109101130
B1912424748045N12002327WA0109201130
B1912434748049N12002328WA0109201130
B1912444748054N12002328WA0109301130
B1912454748059N12002328WA0109401130
B1912464748064N12002326WA0109401129
B1912474748069N12002324WA0109401129
B1912484748075N12002320WA0109501128
B1912494748079N12002315WA0109501129
B1912504748083N12002309WA0109501131
B1912514748087N12002303WA0109601133
B1912524748089N12002297WA0109701134
B1912534748091N12002291WA0109801135
B1912544748093N12002283WA0109801134
B1912554748093N12002274WA0109901133
B1912564748091N12002266WA0109901132
B1912574748088N12002257WA0109901132
B1912584748085N12002250WA0109901132
B1912594748082N12002244WA0109901135
B1913004748079N12002237WA0110001136
B1913014748077N12002230WA0110101138
B1913024748074N12002222WA0110101139
B1913034748070N12002215WA0110201140
B1913044748066N12002210WA0110301140
B1913054748061N12002208WA0110301140
B1913064748055N12002207WA0110301140
B1913074748051N12002207WA0110401142
B1913084748047N12002209WA0110501144
B1913094748043N12002211WA0110501145
B1913104748040N12002214WA0110701146
B1913114748036N12002217WA0110701147
B1913124748033N12002220WA0110801147
B1913134748031N12002223WA0110901148
B1913144748029N12002226WA0111001149
B1913154748027N12002230WA0111001150
B1913164748025N12002235WA0111101150
B1913174748023N12002239WA0111201151
B1913184748020N12002243WA0111301151
B1913194748018N12002247WA0111301152
B1913204748017N12002252WA0111401152
B1913214748018N12002257WA0111401151
B1913224748019N12002262WA0111401149
B1913234748021N12002268WA0111401147
B1913244748024N12002273WA0111401145
B1913254748028N12002278WA0111301144
B1913264748031N12002282WA0111301143
B1913274748035N12002286WA0111201142
B1913284748038N12002289WA0111201141
B1913294748042N12002292WA0111101139
B1913304748046N12002295WA0111001138
B1913314748051N12002298WA0111001136
B1913324748055N12002300WA0110901136
B1913334748060N12002303WA0110801135
B1913344748064N12002306WA0110701135
B1913354748069N12002309WA0110701134
B1913364748073N12002312WA0110601134
B1913374748077N12002316WA0110601133
B1913384748081N12002320WA0110501133
B1913394748085N12002322WA0110401132
B1913394748085N12002322WA0110401132
B1913404748089N12002324WA0110401132
B1913414748093N12002326WA0110301131
B1913424748097N12002327WA0110301129
B1913434748101N12002331WA0110201127
B1913444748103N12002336WA0110001124
B1913454748105N12002342WA0109901121
B1913464748105N12002348WA0109801118
B1913474748104N12002353WA0109601117
B1913484748103N12002359WA0109501115
B1913494748101N12002364WA0109401114
B1913504748099N12002369WA0109201112
B1913514748096N12002374WA0109101110
B1913524748094N12002379WA0108901108
B1913534748091N12002384WA0108801106
B1913544748088N12002390WA0108601105
B1913554748086N12002395WA0108501104
B1913564748085N12002400WA0108301103
B1913574748084N12002405WA0108201102
B1913584748083N12002411WA0108001100
B1913594748083N12002417WA0107901098
B1914004748082N12002423WA0107801097
B1914014748082N12002429WA0107601095
B1914024748081N12002436WA0107501093
B1914034748081N12002442WA0107301092
B1914044748081N12002449WA0107201090
B1914054748080N12002455WA0107001089
B1914064748080N12002461WA0106901088
B1914074748079N12002467WA0106801087
B1914084748079N12002473WA0106701087
B1914094748079N12002480WA0106601088
B1914104748079N12002486WA0106501088
B1914114748078N12002492WA0106401088
B1914124748078N12002499WA0106301087
B1914134748078N12002506WA0106301087
B1914144748077N12002514WA0106201087
B1914154748076N12002521WA0106201089
B1914164748075N12002526WA0106201091
B1914174748073N12002531WA0106201094
B1914184748072N12002535WA0106301096
B1914194748072N12002539WA0106401099
B1914204748074N12002543WA0106501100
B1914214748078N12002545WA0106601100
B1914224748083N12002544WA0106601100
B1914234748089N12002539WA0106701100
B1914244748093N12002532WA0106701099
B1914254748096N12002523WA0106701099
B1914264748096N12002514WA0106801100
B1914274748095N12002506WA0106901101
B1914284748092N12002498WA0106901101
B1914294748088N12002493WA0107001102
B1914304748083N12002489WA0107001102
B1914314748078N12002487WA0107101102
B1914324748073N12002489WA0107101101
B1914334748068N12002492WA0107101102
B1914344748064N12002496WA0107201103
B1914354748062N12002501WA0107201105
B1914364748060N12002505WA0107301108
B1914374748059N12002510WA0107401110
B1914384748057N12002515WA0107501111
B1914394748057N12002521WA0107601111
B1914404748057N12002526WA0107701112
B1914414748059N12002531WA0107801112
B1914424748063N12002534WA0107901112
B1914424748063N12002534WA0107901112
B1914434748067N12002535WA0107901111
B1914444748073N12002535WA0107901109
B1914454748078N12002533WA0107901107
B1914464748084N12002528WA0107901105
B1914474748089N12002521WA0107801103
B1914484748093N12002512WA0107701102
B1914494748096N12002503WA0107701102
B1914504748099N12002495WA0107701103
B1914514748101N12002486WA0107701103
B1914524748103N12002478WA0107701104
B1914534748105N12002469WA0107701104
B1914544748106N12002460WA0107701104
B1914554748105N12002450WA0107701103
B1914564748103N12002441WA0107701103
B1914574748100N12002433WA0107701104
B1914584748097N12002426WA0107701104
B1914594748093N12002419WA0107701103
B1915004748088N12002413WA0107701102
B1915014748083N12002408WA0107701102
B1915024748078N12002403WA0107701104
B1915034748072N12002399WA0107701105
B1915044748068N12002395WA0107801108
B1915054748064N12002391WA0107901110
B1915064748060N12002389WA0108001112
B1915074748055N12002388WA0108101112
B1915084748050N12002389WA0108201111
B1915094748045N12002392WA0108201111
B1915104748040N12002396WA0108201110
B1915114748036N12002400WA0108301112
B1915124748032N12002403WA0108401115
B1915134748029N12002407WA0108401118
B1915144748027N12002413WA0108601121
B1915154748026N12002418WA0108701124
B1915164748027N12002423WA0108801126
B1915174748030N12002427WA0108901128
B1915184748035N12002427WA0109101129
B1915194748040N12002426WA0109201130
B1915204748045N12002421WA0109301130
B1915214748050N12002413WA0109401130
B1915224748053N12002404WA0109501130
B1915234748055N12002393WA0109601132
B1915244748054N12002383WA0109701133
B1915254748052N12002373WA0109801135
B1915264748047N12002365WA0110001137
B1915274748042N12002360WA0110101139
B1915284748036N12002357WA0110301141
B1915294748030N12002357WA0110401142
B1915304748025N12002358WA0110501143
B1915314748020N12002361WA0110601145
B1915324748016N12002364WA0110801147
B1915334748013N12002369WA0110901149
B1915344748010N12002374WA0111101151
B1915354748008N12002379WA0111201154
B1915364748006N12002383WA0111401157
B1915374748006N12002387WA0111501159
B1915384748008N12002391WA0111701160
B1915394748011N12002394WA0111801159
B1915404748017N12002396WA0111901158
B1915414748022N12002394WA0112001158
B1915424748028N12002391WA0112101158
B1915434748033N12002386WA0112101159
B1915444748038N12002381WA0112201159
B1915454748042N12002375WA0112301160
B1915454748042N12002375WA0112301160
B1915464748046N12002369WA0112401161
B1915474748050N12002362WA0112401161
B1915484748054N12002354WA0112501162
B1915494748056N12002346WA0112601163
B1915504748057N12002336WA0112701163
B1915514748057N12002326WA0112701163
B1915524748056N12002315WA0112801163
B1915534748054N12002304WA0112901164
B1915544748052N12002294WA0112901164
B1915554748049N12002285WA0113001166
B1915564748046N12002277WA0113101167
B1915574748041N12002270WA0113201167
B1915584748036N12002264WA0113301167
B1915594748032N12002260WA0113301169
B1916004748028N12002257WA0113501171
B1916014748024N12002256WA0113501172
B1916024748020N12002255WA0113601172
B1916034748016N12002256WA0113701172
B1916044748012N12002258WA0113701172
B1916054748008N12002261WA0113801172
B1916064748005N12002265WA0113801173
B1916074748002N12002269WA0113901174
B1916084747998N12002273WA0113901176
B1916094747995N12002277WA0114001177
B1916104747993N12002282WA0114101179
B1916114747992N12002287WA0114101180
B1916124747992N12002292WA0114201180
B1916134747993N12002296WA0114301179
B1916144747996N12002301WA0114301179
B1916154747999N12002305WA0114401178
B1916164748003N12002309WA0114401177
B1916174748007N12002312WA0114401178
B1916184748012N12002314WA0114401178
B1916194748016N12002315WA0114401179
B1916204748021N12002315WA0114501180
B1916214748025N12002316WA0114501180
B1916224748029N12002316WA0114501180
B1916234748034N12002315WA0114601180
B1916244748040N12002312WA0114601179
B1916254748046N12002307WA0114601179
B1916264748051N12002301WA0114601179
B1916274748055N12002294WA0114601180
B1916284748058N12002285WA0114701181
B1916294748061N12002276WA0114701182
B1916304748063N12002267WA0114801183
B1916314748064N12002257WA0114801183
B1916324748064N12002247WA0114901184
B1916334748063N12002237WA0114901184
B1916344748061N12002227WA0115001185
B1916354748059N12002218WA0115001185
B1916364748056N12002209WA0115101186
B1916374748052N12002201WA0115101187
B1916384748048N12002195WA0115201188
B1916394748044N12002189WA0115301189
B1916404748039N12002184WA0115401188
B1916414748034N12002180WA0115401189
B1916424748029N12002177WA0115501189
B1916434748024N12002174WA0115501189
B1916444748018N12002173WA0115601190
B1916454748013N12002171WA0115601190
B1916464748007N12002170WA0115701191
B1916474748003N12002171WA0115701191
B1916484747998N12002173WA0115701192
B1916484747998N12002173WA0115701192
B1916494747995N12002177WA0115801193
B1916504747993N12002182WA0115801193
B1916514747992N12002187WA0115801193
B1916524747992N12002192WA0115901193
B1916534747992N12002197WA0115901193
B1916544747992N12002202WA0115901193
B1916554747994N12002208WA0115901191
B1916564747996N12002214WA0115901190
B1916574747999N12002220WA0115901189
B1916584748002N12002225WA0115801189
B1916594748006N12002229WA0115801188
B1917004748010N12002232WA0115801187
B1917014748014N12002235WA0115701186
B1917024748020N12002238WA0115601184
B1917034748026N12002241WA0115601183
B1917044748031N12002244WA0115501183
B1917054748036N12002246WA0115501185
B1917064748040N12002248WA0115401185
B1917074748043N12002249WA0115401185
B1917084748048N12002249WA0115401184
B1917094748053N12002248WA0115401182
B1917104748058N12002245WA0115301180
B1917114748063N12002240WA0115201179
B1917124748068N12002233WA0115101178
B1917134748072N12002225WA0115101179
B1917144748075N12002218WA0115101181
B1917154748079N12002211WA0115101181
B1917164748082N12002203WA0115101181
B1917174748085N12002193WA0115001180
B1917184748087N12002182WA0115001179
B1917194748089N12002170WA0114901179
B1917204748090N12002159WA0114901180
B1917214748091N12002151WA0115001183
B1917224748090N12002142WA0115001184
B1917234748089N12002134WA0115001183
B1917244748085N12002126WA0115001181
B1917254748080N12002119WA0115001179
B1917264748075N12002112WA0114901178
B1917274748070N12002107WA0114901179
B1917284748066N12002102WA0115001180
B1917294748061N12002099WA0115001181
B1917304748056N12002097WA0115001181
B1917314748052N12002095WA0115001180
B1917324748047N12002095WA0115001181
B1917334748043N12002096WA0115001181
B1917344748039N12002098WA0115001182
B1917354748035N12002100WA0115001183
B1917364748032N12002103WA0115001183
B1917374748029N12002106WA0115001183
B1917384748026N12002110WA0115001184
B1917394748024N12002113WA0115001184
B1917404748022N12002117WA0115001184
B1917414748021N12002122WA0115001184
B1917424748020N12002127WA0115001183
B1917434748019N12002132WA0115001181
B1917444748019N12002138WA0114901180
B1917454748020N12002143WA0114901178
B1917464748020N12002149WA0114801176
B1917474748021N12002156WA0114701174
B1917484748022N12002163WA0114601172
B1917494748023N12002169WA0114501170
B1917504748025N12002175WA0114301168
B1917514748027N12002182WA0114201166
B1917514748027N12002182WA0114201166
B1917524748028N12002188WA0114101165
B1917534748029N12002194WA0114001164
B1917544748031N12002200WA0113801163
B1917554748033N12002206WA0113701162
B1917564748035N12002212WA0113601161
B1917574748038N12002217WA0113501159
B1917584748041N12002222WA0113301158
B1917594748044N12002227WA0113201157
B1918004748047N12002232WA0113101155
B1918014748051N12002235WA0113001153
B1918024748055N12002239WA0112801151
B1918034748059N12002243WA0112701149
B1918044748063N12002246WA0112501146
B1918054748068N12002249WA0112401144
B1918064748073N12002252WA0112201143
B1918074748078N12002255WA0112101142
B1918084748083N12002257WA0111901141
B1918094748089N12002258WA0111801140
B1918104748094N12002258WA0111701138
B1918114748100N12002258WA0111501136
B1918124748106N12002259WA0111401134
B1918134748112N12002260WA0111201133
B1918144748117N12002261WA0111101131
B1918154748122N12002262WA0110901130
B1918164748126N12002265WA0110801129
B1918174748129N12002269WA0110701126
B1918184748131N12002275WA0110401124
B1918194748132N12002282WA0110301121
B1918204748132N12002288WA0110101120
B1918214748132N12002294WA0110001119
B1918224748132N12002300WA0109801118
B1918234748132N12002306WA0109701117
B1918244748131N12002311WA0109501116
B1918254748130N12002317WA0109401114
B1918264748130N12002323WA0109201113
B1918274748129N12002329WA0109101111
B1918284748128N12002336WA0108901110
B1918294748127N12002342WA0108801109
B1918304748126N12002348WA0108701109
B1918314748125N12002353WA0108601110
B1918324748125N12002358WA0108601113
B1918334748124N12002362WA0108501114
B1918344748124N12002366WA0108501114
B1918354748124N12002370WA0108501113
B1918364748125N12002374WA0108401112
B1918374748126N12002379WA0108401111
B1918384748127N12002384WA0108301110
B1918394748127N12002390WA0108301109
B1918404748128N12002396WA0108201108
B1918414748128N12002401WA0108101108
B1918424748128N12002406WA0108101108
B1918434748129N12002410WA0108101109
B1918444748130N12002414WA0108001109
B1918454748130N12002418WA0108001109
B1918464748131N12002423WA0108001108
B1918474748132N12002428WA0108001107
B1918484748134N12002434WA0107901107
B1918494748135N12002439WA0107901107
B1918504748137N12002443WA0107901108
B1918514748138N12002446WA0107901107
B1918524748139N12002450WA0107801106
B1918534748140N12002454WA0107801105
B1918534748140N12002454WA0107801105
B1918544748142N12002459WA0107801105
B1918554748142N12002464WA0107701105
B1918564748143N12002468WA0107701105
B1918574748142N12002474WA0107701105
B1918584748141N12002479WA0107701106
B1918594748140N12002483WA0107701107
B1919004748139N12002487WA0107701107
B1919014748137N12002490WA0107701107
B1919024748135N12002493WA0107701107
B1919034748133N12002496WA0107701106
B1919044748130N12002498WA0107701104
B1919054748127N12002501WA0107701103
B1919064748124N12002503WA0107601101
B1919074748121N12002505WA0107501100
B1919084748118N12002508WA0107401099
B1919094748117N12002512WA0107401097
B1919104748117N12002517WA0107301096
B1919114748117N12002522WA0107201095
B1919124748117N12002527WA0107101093
B1919134748116N12002532WA0107001092
B1919144748116N12002536WA0106901090
B1919154748116N12002541WA0106801089
B1919164748116N12002546WA0106601087
B1919174748115N12002551WA0106501085
B1919184748114N12002556WA0106301084
B1919194748112N12002561WA0106201082
B1919204748110N12002565WA0106001080
B1919214748108N12002568WA0105901079
B1919224748106N12002571WA0105701078
B1919234748104N12002574WA0105601076
B1919244748102N12002577WA0105501074
B1919254748099N12002580WA0105401073
B1919264748096N12002583WA0105201071
B1919274748093N12002585WA0105101069
B1919284748090N12002587WA0104901068
B1919294748087N12002588WA0104801066
B1919304748083N12002589WA0104601065
B1919314748079N12002589WA0104501064
B1919324748075N12002588WA0104301064
B1919334748071N12002586WA0104201064
B1919344748067N12002583WA0104101064
B1919354748063N12002580WA0104001064
B1919364748060N12002578WA0104001064
B1919374748056N12002575WA0103901063
B1919384748053N12002573WA0103801062
B1919394748049N12002571WA0103701060
B1919404748045N12002568WA0103601058
B1919414748041N12002566WA0103501056
B1919424748037N12002562WA0103301053
B1919434748033N12002558WA0103201050
B1919444748028N12002553WA0103001048
B1919454748024N12002547WA0102901046
B1919464748020N12002540WA0102701044
B1919474748016N12002533WA0102601043
B1919484748012N12002525WA0102401041
B1919494748008N12002516WA0102201039
B1919504748005N12002508WA0102001037
B1919514748002N12002500WA0101901036
B1919524747999N12002491WA0101701034
B1919534747997N12002483WA0101601032
B1919544747995N12002474WA0101401030
B1919554747994N12002465WA0101301027
B1919554747994N12002465WA0101301027
B1919564747992N12002455WA0101101024
B1919574747991N12002446WA0100901022
B1919584747990N12002437WA0100701020
B1919594747988N12002428WA0100601019
B1920004747986N12002420WA0100401017
B1920014747984N12002413WA0100301015
B1920024747980N12002406WA0100101013
B1920034747977N12002400WA0099901010
B1920044747972N12002394WA0099701009
B1920054747968N12002389WA0099601007
B1920064747964N12002385WA0099401005
B1920074747959N12002381WA0099201004
B1920084747955N12002378WA0099001003
B1920094747950N12002378WA0098901002
B1920104747946N12002378WA0098701001
B1920114747943N12002379WA0098601000
B1920124747940N12002381WA0098400998
B1920134747937N12002384WA0098300996
B1920144747934N12002388WA0098100994
B1920154747932N12002392WA0097900992
B1920164747930N12002397WA0097700991
B1920174747928N12002402WA0097600989
B1920184747927N12002407WA0097400989
B1920194747927N12002412WA0097300987
B1920204747928N12002418WA0097100985
B1920214747928N12002423WA0097000984
B1920224747929N12002429WA0096800982
B1920234747930N12002434WA0096700982
B1920244747932N12002438WA0096500982
B1920254747933N12002443WA0096400981
B1920264747934N12002448WA0096300980
B1920274747936N12002452WA0096200979
B1920284747937N12002457WA0096000977
B1920294747938N12002462WA0095900975
B1920304747938N12002467WA0095800974
B1920314747938N12002472WA0095700973
B1920324747936N12002476WA0095500972
B1920334747934N12002480WA0095400970
B1920344747931N12002483WA0095300968
B1920354747928N12002485WA0095200967
B1920364747923N12002485WA0095000966
B1920374747919N12002483WA0094900965
B1920384747915N12002477WA0094700964
B1920394747911N12002470WA0094700963
B1920404747908N12002463WA0094500962
B1920414747905N12002454WA0094500962
B1920424747903N12002444WA0094400961
B1920434747902N12002434WA0094300961
B1920444747903N12002424WA0094200960
B1920454747904N12002414WA0094100958
B1920464747906N12002404WA0094100957
B1920474747908N12002394WA0094000958
B1920484747910N12002384WA0094000959
B1920494747913N12002375WA0093900960
B1920504747916N12002367WA0093900960
B1920514747919N12002361WA0093900960
B1920524747923N12002354WA0093900959
B1920534747927N12002347WA0093800958
B1920544747930N12002338WA0093700956
B1920554747932N12002328WA0093700955
B1920564747932N12002318WA0093600954
B1920574747931N12002309WA0093500953
B1920574747931N12002309WA0093500953
B1920584747929N12002300WA0093500953
B1920594747925N12002292WA0093400951
B1921004747921N12002285WA0093300949
B1921014747916N12002278WA0093200947
B1921024747911N12002272WA0093100945
B1921034747905N12002266WA0093000944
B1921044747900N12002261WA0092800942
B1921054747895N12002255WA0092700940
B1921064747889N12002250WA0092600938
B1921074747884N12002246WA0092500936
B1921084747878N12002242WA0092300935
B1921094747872N12002239WA0092100934
B1921104747867N12002236WA0092000932
B1921114747861N12002233WA0091900931
B1921124747856N12002231WA0091700931
B1921134747851N12002230WA0091600929
B1921144747846N12002230WA0091500928
B1921154747841N12002231WA0091300926
B1921164747836N12002233WA0091200925
B1921174747832N12002235WA0091100924
B1921184747827N12002238WA0091000924
B1921194747823N12002241WA0090900924
B1921204747820N12002244WA0090800925
B1921214747817N12002246WA0090800926
B1921224747813N12002249WA0090700925
B1921234747809N12002252WA0090700925
B1921244747805N12002255WA0090600926
B1921254747803N12002258WA0090600927
B1921264747801N12002262WA0090600929
B1921274747800N12002266WA0090600929
B1921284747800N12002270WA0090600929
B1921294747800N12002275WA0090600929
B1921304747799N12002281WA0090600930
B1921314747798N12002285WA0090600932
B1921324747797N12002290WA0090700935
B1921334747797N12002293WA0090800937
B1921344747798N12002297WA0090900939
B1921354747799N12002303WA0091000939
B1921364747801N12002309WA0091100939
B1921374747804N12002314WA0091100940
B1921384747808N12002319WA0091200941
B1921394747811N12002321WA0091300942
B1921404747816N12002321WA0091400943
B1921414747820N12002320WA0091500942
B1921424747826N12002317WA0091500942
B1921434747831N12002313WA0091500941
B1921444747836N12002307WA0091600942
B1921454747839N12002298WA0091700943
B1921464747841N12002289WA0091700944
B1921474747840N12002280WA0091800944
B1921484747837N12002272WA0091800944
B1921494747833N12002267WA0091800944
B1921504747828N12002265WA0091900942
B1921514747823N12002266WA0091900941
B1921524747819N12002269WA0091800941
B1921534747816N12002275WA0091800942
B1921544747814N12002280WA0091800943
B1921554747813N12002285WA0091900946
B1921564747811N12002289WA0092000948
B1921574747810N12002293WA0092000949
B1921584747809N12002297WA0092100949
B1921594747808N12002302WA0092100949
B1921594747808N12002302WA0092100949
B1922004747807N12002309WA0092100949
B1922014747807N12002314WA0092200949
B1922024747806N12002318WA0092200950
B1922034747806N12002322WA0092200950
B1922044747807N12002326WA0092200948
B1922054747807N12002330WA0092200945
B1922064747808N12002335WA0092100943
B1922074747808N12002340WA0092100940
B1922084747807N12002346WA0091900937
B1922094747806N12002351WA0091900936
B1922104747803N12002355WA0091700935
B1922114747800N12002357WA0091600934
B1922124747796N12002357WA0091500932
B1922134747790N12002354WA0091400929
B1922144747785N12002350WA0091200927
B1922154747781N12002343WA0091100924
B1922164747777N12002334WA0090900922
B1922174747774N12002326WA0090800920
B1922184747772N12002317WA0090600919
B1922194747770N12002308WA0090500918
B1922204747769N12002299WA0090300916
B1922214747768N12002290WA0090200914
B1922224747767N12002281WA0090000912
B1922234747767N12002271WA0089900910
B1922244747768N12002261WA0089700908
B1922254747770N12002251WA0089600906
B1922264747774N12002242WA0089400906
B1922274747779N12002235WA0089300906
B1922284747785N12002230WA0089200906
B1922294747790N12002227WA0089100906
B1922304747794N12002224WA0089100907
B1922314747799N12002221WA0089000907
B1922324747804N12002220WA0089000905
B1922334747808N12002219WA0088900905
B1922344747812N12002219WA0088800904
B1922354747815N12002216WA0088800905
B1922364747819N12002211WA0088700905
B1922374747823N12002201WA0088700902
B1922384747826N12002191WA0088600900
B1922394747828N12002180WA0088500899
B1922404747828N12002169WA0088400900
B1922414747826N12002159WA0088400902
B1922424747822N12002152WA0088400904
B1922434747819N12002146WA0088400907
B1922444747817N12002141WA0088500909
B1922454747815N12002136WA0088500909
B1922464747811N12002132WA0088500908
B1922474747807N12002128WA0088500906
B1922484747801N12002125WA0088500905
B1922494747797N12002125WA0088400904
B1922504747792N12002125WA0088400904
B1922514747789N12002126WA0088400904
B1922524747786N12002126WA0088400904
B1922534747782N12002124WA0088400902
B1922544747777N12002122WA0088300900
B1922554747773N12002118WA0088200897
B1922564747768N12002112WA0088100894
B1922574747764N12002106WA0088000892
B1922584747760N12002098WA0087800889
B1922594747756N12002091WA0087600886
B1923004747752N12002084WA0087500884
B1923014747748N12002077WA0087300882
B1923024747744N12002071WA0087100880
B1923024747744N12002071WA0087100880
B1923034747740N12002065WA0087000877
B1923044747737N12002058WA0086700875
B1923054747733N12002051WA0086600872
B1923064747730N12002044WA0086300869
B1923074747726N12002036WA0086200865
B1923084747722N12002029WA0085900862
B1923094747718N12002021WA0085700858
B1923104747714N12002014WA0085400856
B1923114747710N12002008WA0085200854
B1923124747707N12002002WA0084900852
B1923134747703N12001996WA0084700850
B1923144747700N12001989WA0084500847
B1923154747697N12001983WA0084300845
B1923164747693N12001975WA0084000842
B1923174747690N12001968WA0083900839
B1923184747686N12001961WA0083600837
B1923194747682N12001954WA0083400835
B1923204747678N12001948WA0083200833
B1923214747674N12001942WA0083000833
B1923224747670N12001936WA0082800834
B1923234747666N12001931WA0082800836
B1923244747663N12001926WA0082700838
B1923254747660N12001921WA0082600839
B1923264747656N12001917WA0082600840
B1923274747652N12001914WA0082600841
B1923284747647N12001913WA0082600839
B1923294747643N12001913WA0082500838
B1923304747638N12001914WA0082500838
B1923314747634N12001916WA0082400838
B1923324747630N12001918WA0082400838
B1923334747627N12001921WA0082400837
B1923344747625N12001925WA0082300836
B1923354747623N12001929WA0082300835
B1923364747621N12001933WA0082200834
B1923374747619N12001937WA0082100832
B1923384747616N12001939WA0082000830
B1923394747611N12001939WA0081900827
B1923404747606N12001937WA0081700823
B1923414747600N12001932WA0081600820
B1923424747595N12001925WA0081400818
B1923434747592N12001917WA0081200816
B1923444747588N12001908WA0081100815
B1923454747586N12001899WA0081000815
B1923464747584N12001891WA0080800815
B1923474747582N12001884WA0080800816
B1923484747581N12001878WA0080700815
B1923494747580N12001872WA0080700814
B1923504747579N12001865WA0080600813
B1923514747579N12001858WA0080600811
B1923524747579N12001850WA0080500808
B1923534747578N12001841WA0080400805
B1923544747577N12001832WA0080200803
B1923554747576N12001823WA0080100801
B1923564747574N12001814WA0080000801
B1923574747572N12001804WA0079900800
B1923584747570N12001794WA0079700803
B1923594747569N12001785WA0079700807
B1924004747567N12001778WA0079700810
B1924014747566N12001771WA0079700811
B1924024747565N12001763WA0079800813
B1924034747562N12001756WA0079800812
B1924044747559N12001749WA0079700810
B1924054747557N12001741WA0079700809
B1924054747557N12001741WA0079700809
B1924064747555N12001733WA0079700809
B1924074747553N12001726WA0079600808
B1924084747551N12001719WA0079600808
B1924094747548N12001713WA0079600808
B1924104747544N12001707WA0079500807
B1924114747541N12001702WA0079500806
B1924124747538N12001696WA0079500806
B1924134747534N12001690WA0079400805
B1924144747531N12001685WA0079400805
B1924154747528N12001679WA0079400806
B1924164747524N12001674WA0079400806
B1924174747521N12001670WA0079400807
B1924184747518N12001667WA0079400807
B1924194747514N12001665WA0079400807
B1924204747510N12001665WA0079400805
B1924214747505N12001667WA0079300804
B1924224747500N12001669WA0079300804
B1924234747496N12001671WA0079300804
B1924244747493N12001674WA0079300805
B1924254747490N12001678WA0079300805
B1924264747488N12001682WA0079200804
B1924274747487N12001687WA0079200803
B1924284747485N12001693WA0079100802
B1924294747484N12001698WA0079100800
B1924304747483N12001704WA0079000800
B1924314747483N12001710WA0078900798
B1924324747484N12001716WA0078800797
B1924334747486N12001722WA0078700796
B1924344747488N12001727WA0078600796
B1924354747491N12001731WA0078600796
B1924364747494N12001735WA0078500796
B1924374747497N12001738WA0078500796
B1924384747501N12001742WA0078400796
B1924394747504N12001744WA0078400797
B1924404747508N12001747WA0078400797
B1924414747512N12001749WA0078400798
B1924424747516N12001750WA0078400800
B1924434747519N12001752WA0078400801
B1924444747523N12001753WA0078400800
B1924454747527N12001754WA0078400799
B1924464747531N12001752WA0078400798
B1924474747536N12001748WA0078300796
B1924484747540N12001742WA0078200794
B1924494747544N12001734WA0078200792
B1924504747546N12001725WA0078000790
B1924514747548N12001716WA0078000789
B1924524747548N12001705WA0077900788
B1924534747547N12001695WA0077800788
B1924544747545N12001687WA0077700789
B1924554747542N12001680WA0077700789
B1924564747538N12001675WA0077700789
B1924574747535N12001669WA0077600789
B1924584747531N12001663WA0077600788
B1924594747527N12001658WA0077500787
B1925004747523N12001652WA0077500788
B1925014747519N12001646WA0077500787
B1925024747515N12001641WA0077400788
B1925034747512N12001637WA0077400788
B1925044747508N12001635WA0077400788
B1925054747504N12001633WA0077400787
B1925064747499N12001632WA0077300786
B1925074747494N12001631WA0077300784
B1925084747489N12001630WA0077200783
B1925084747489N12001630WA0077200783
B1925094747484N12001629WA0077200783
B1925104747479N12001628WA0077100782
B1925114747474N12001627WA0077000781
B1925124747469N12001626WA0077000780
B1925134747465N12001627WA0076900779
B1925144747461N12001630WA0076800779
B1925154747459N12001635WA0076800779
B1925164747457N12001640WA0076700778
B1925174747457N12001645WA0076600777
B1925184747457N12001651WA0076500776
B1925194747458N12001657WA0076500776
B1925204747460N12001662WA0076400775
B1925214747463N12001667WA0076400774
B1925224747467N12001670WA0076300774
B1925234747472N12001670WA0076300774
B1925244747476N12001669WA0076200774
B1925254747481N12001667WA0076200773
B1925264747486N12001663WA0076100772
B1925274747491N12001659WA0076100771
B1925284747495N12001654WA0076000769
B1925294747500N12001649WA0075900768
B1925304747505N12001643WA0075800766
B1925314747509N12001635WA0075700765
B1925324747512N12001626WA0075600765
B1925334747514N12001617WA0075600764
B1925344747516N12001608WA0075500764
B1925354747517N12001599WA0075500764
B1925364747517N12001590WA0075400764
B1925374747519N12001581WA0075400763
B1925384747520N12001571WA0075300764
B1925394747521N12001563WA0075300764
B1925404747521N12001554WA0075300765
B1925414747522N12001546WA0075300765
B1925424747522N12001537WA0075300765
B1925434747522N12001528WA0075300766
B1925444747522N12001519WA0075300766
B1925454747522N12001510WA0075300768
B1925464747520N12001502WA0075400771
B1925474747518N12001496WA0075500773
B1925484747515N12001491WA0075600776
B1925494747511N12001489WA0075700777
B1925504747507N12001490WA0075800778
B1925514747505N12001493WA0075900780
B1925524747503N12001497WA0076000782
B1925534747503N12001502WA0076100784
B1925544747505N12001507WA0076300785
B1925554747509N12001512WA0076400786
B1925564747513N12001516WA0076500788
B1925574747518N12001517WA0076600790
B1925584747524N12001516WA0076800792
B1925594747530N12001511WA0076900794
B1926004747534N12001503WA0077100796
B1926014747537N12001493WA0077200798
B1926024747536N12001483WA0077400801
B1926034747533N12001476WA0077600803
B1926044747529N12001472WA0077800805
B1926054747525N12001472WA0077900806
B1926064747521N12001473WA0078100807
B1926074747518N12001474WA0078200810
B1926084747516N12001476WA0078400813
B1926094747514N12001479WA0078500815
B1926104747513N12001484WA0078700815
B1926104747513N12001484WA0078700815
B1926114747513N12001490WA0078800815
B1926124747515N12001496WA0079000815
B1926134747519N12001500WA0079000815
B1926144747524N12001502WA0079100814
B1926154747530N12001501WA0079200815
B1926164747535N12001497WA0079200815
B1926174747541N12001492WA0079300817
B1926184747546N12001487WA0079400819
B1926194747550N12001481WA0079500821
B1926204747555N12001475WA0079700822
B1926214747558N12001467WA0079800823
B1926224747561N12001457WA0079900824
B1926234747561N12001448WA0080000825
B1926244747559N12001439WA0080100827
B1926254747555N12001434WA0080200827
B1926264747551N12001431WA0080300827
B1926274747547N12001430WA0080400828
B1926284747544N12001431WA0080500829
B1926294747540N12001432WA0080600830
B1926304747537N12001435WA0080700830
B1926314747535N12001440WA0080700831
B1926324747534N12001446WA0080800831
B1926334747534N12001452WA0080800832
B1926344747536N12001456WA0081000835
B1926354747538N12001459WA0081100837
B1926364747540N12001460WA0081200838
B1926374747542N12001461WA0081300837
B1926384747546N12001462WA0081300835
B1926394747551N12001463WA0081300833
B1926404747556N12001465WA0081300831
B1926414747561N12001466WA0081200830
B1926424747566N12001469WA0081200830
B1926434747570N12001471WA0081200831
B1926444747574N12001473WA0081200831
B1926454747578N12001474WA0081200831
B1926464747582N12001473WA0081200830
B1926474747587N12001469WA0081100827
B1926484747592N12001464WA0081100825
B1926494747596N12001456WA0081000822
B1926504747599N12001447WA0080900820
B1926514747601N12001436WA0080800819
B1926524747603N12001427WA0080700819
B1926534747604N12001418WA0080700820
B1926544747604N12001410WA0080700822
B1926554747604N12001402WA0080600821
B1926564747602N12001395WA0080600820
B1926574747600N12001388WA0080500818
B1926584747597N12001381WA0080500817
B1926594747594N12001374WA0080400817
B1927004747591N12001369WA0080400817
B1927014747587N12001366WA0080300816
B1927024747583N12001362WA0080300816
B1927034747579N12001360WA0080200815
B1927044747574N12001359WA0080100815
B1927054747570N12001359WA0080100815
B1927064747566N12001361WA0080100817
B1927074747564N12001363WA0080100819
B1927084747562N12001365WA0080100820
B1927094747560N12001367WA0080100820
B1927104747558N12001371WA0080100820
B1927114747557N12001375WA0080100819
B1927124747556N12001379WA0080100818
B1927124747556N12001379WA0080100818
B1927134747556N12001384WA0080100818
B1927144747557N12001389WA0080100817
B1927154747559N12001394WA0080000817
B1927164747560N12001398WA0080000816
B1927174747563N12001402WA0079900814
B1927184747565N12001406WA0079900812
B1927194747569N12001410WA0079800810
B1927204747573N12001412WA0079700808
B1927214747577N12001413WA0079600806
B1927224747582N12001412WA0079400804
B1927234747588N12001410WA0079300801
B1927244747593N12001406WA0079200799
B1927254747599N12001400WA0079000797
B1927264747604N12001393WA0078900795
B1927274747608N12001386WA0078800794
B1927284747612N12001377WA0078600793
B1927294747615N12001368WA0078500792
B1927304747619N12001359WA0078400793
B1927314747621N12001351WA0078300795
B1927324747624N12001343WA0078300798
B1927334747627N12001336WA0078300799
B1927344747628N12001329WA0078300799
B1927354747629N12001320WA0078300798
B1927364747628N12001312WA0078300797
B1927374747625N12001304WA0078200796
B1927384747622N12001298WA0078200795
B1927394747618N12001293WA0078100795
B1927404747615N12001289WA0078100795
B1927414747611N12001286WA0078100795
B1927424747607N12001284WA0078100796
B1927434747603N12001283WA0078000796
B1927444747599N12001284WA0078000797
B1927454747597N12001287WA0078000797
B1927464747594N12001290WA0078000798
B1927474747593N12001294WA0078000798
B1927484747591N12001298WA0078000798
B1927494747590N12001301WA0078000798
B1927504747588N12001305WA0078000798
B1927514747588N12001308WA0078000797
B1927524747588N12001312WA0078000795
B1927534747588N12001317WA0077900793
B1927544747590N12001323WA0077800791
B1927554747592N12001328WA0077800789
B1927564747594N12001333WA0077600787
B1927574747597N12001337WA0077600786
B1927584747601N12001341WA0077500785
B1927594747604N12001345WA0077400785
B1928004747608N12001349WA0077300784
B1928014747613N12001352WA0077200783
B1928024747618N12001355WA0077100783
B1928034747623N12001357WA0077100783
B1928044747628N12001357WA0077000783
B1928054747633N12001355WA0077000782
B1928064747639N12001351WA0076900780
B1928074747645N12001346WA0076800779
B1928084747649N12001339WA0076700779
B1928094747652N12001333WA0076700779
B1928104747654N12001325WA0076600778
B1928114747655N12001317WA0076600777
B1928124747657N12001308WA0076500776
B1928134747657N12001299WA0076400775
B1928144747657N12001290WA0076300774
B1928154747655N12001282WA0076200773
B1928154747655N12001282WA0076200773
B1928164747654N12001275WA0076100771
B1928174747651N12001268WA0076100770
B1928184747649N12001260WA0076000770
B1928194747646N12001253WA0075900770
B1928204747643N12001246WA0075900769
B1928214747640N12001240WA0075800769
B1928224747636N12001234WA0075700767
B1928234747632N12001229WA0075600767
B1928244747629N12001223WA0075600767
B1928254747626N12001218WA0075500766
B1928264747622N12001212WA0075500766
B1928274747619N12001206WA0075400766
B1928284747616N12001200WA0075300765
B1928294747613N12001193WA0075300764
B1928304747609N12001187WA0075200763
B1928314747606N12001181WA0075200764
B1928324747602N12001176WA0075100765
B1928334747600N12001169WA0075100765
B1928344747597N12001162WA0075100764
B1928354747594N12001154WA0075000763
B1928364747592N12001145WA0075000762
B1928374747590N12001136WA0075000762
B1928384747589N12001128WA0074900763
B1928394747588N12001120WA0074900762
B1928404747588N12001112WA0074900762
B1928414747587N12001103WA0074800761
B1928424747586N12001095WA0074800761
B1928434747586N12001087WA0074800760
B1928444747586N12001079WA0074700760
B1928454747586N12001070WA0074700759
B1928464747587N12001062WA0074700759
B1928474747587N12001053WA0074600758
B1928484747588N12001044WA0074600757
B1928494747590N12001035WA0074600756
B1928504747593N12001027WA0074500756
B1928514747596N12001019WA0074500756
B1928524747598N12001011WA0074500755
B1928534747602N12001003WA0074400755
B1928544747605N12000995WA0074400753
B1928554747608N12000987WA0074300752
B1928564747611N12000978WA0074300751
B1928574747613N12000969WA0074200749
B1928584747615N12000959WA0074100747
B1928594747616N12000949WA0074000745
B1929004747618N12000940WA0073900743
B1929014747620N12000929WA0073800741
B1929024747621N12000919WA0073700740
B1929034747622N12000909WA0073600739
B1929044747624N12000900WA0073500739
B1929054747625N12000891WA0073500739
B1929064747627N12000882WA0073400739
B1929074747628N12000872WA0073300739
B1929084747629N12000863WA0073300739
B1929094747630N12000854WA0073200739
B1929104747631N12000846WA0073200739
B1929114747631N12000838WA0073200738
B1929124747631N12000830WA0073100738
B1929134747631N12000822WA0073100736
B1929144747630N12000814WA0073000735
B1929154747629N12000806WA0072900734
B1929164747628N12000797WA0072800732
B1929174747627N12000788WA0072700731
B1929184747627N12000780WA0072600730
B1929184747627N12000780WA0072600730
B1929194747626N12000772WA0072600728
B1929204747626N12000764WA0072400726
B1929214747625N12000756WA0072300724
B1929224747625N12000747WA0072200721
B1929234747624N12000738WA0072000717
B1929244747622N12000727WA0071800713
B1929254747621N12000716WA0071600709
B1929264747620N12000705WA0071300707
B1929274747619N12000694WA0071200705
B1929284747618N12000685WA0071000704
B1929294747616N12000676WA0070800703
B1929304747614N12000667WA0070600700
B1929314747613N12000657WA0070500697
B1929324747611N12000647WA0070200695
B1929334747610N12000636WA0070000692
B1929344747608N12000626WA0069800690
B1929354747607N12000615WA0069600688
B1929364747605N12000604WA0069400686
B1929374747603N12000594WA0069200684
B1929384747601N12000583WA0069000682
B1929394747599N12000572WA0068900680
B1929404747598N12000561WA0068600677
B1929414747596N12000549WA0068400674
B1929424747595N12000537WA0068200672
B1929434747594N12000526WA0068000671
B1929444747593N12000515WA0067900671
B1929454747592N12000505WA0067800671
B1929464747592N12000495WA0067600670
B1929474747591N12000484WA0067500668
B1929484747591N12000473WA0067300666
B1929494747591N12000462WA0067200663
B1929504747590N12000450WA0067000661
B1929514747590N12000439WA0066800659
B1929524747590N12000428WA0066600658
B1929534747590N12000417WA0066500657
B1929544747589N12000407WA0066300656
B1929554747588N12000397WA0066200654
B1929564747587N12000387WA0066000651
B1929574747586N12000377WA0065900649
B1929584747585N12000366WA0065700647
B1929594747584N12000356WA0065500645
B1930004747583N12000346WA0065300643
B1930014747582N12000336WA0065200642
B1930024747581N12000326WA0065000640
B1930034747581N12000316WA0064800639
B1930044747581N12000306WA0064700638
B1930054747581N12000296WA0064500638
B1930064747580N12000287WA0064400638
B1930074747579N12000278WA0064300638
B1930084747579N12000269WA0064200637
B1930094747578N12000260WA0064100637
B1930104747578N12000250WA0064000636
B1930114747577N12000241WA0064000636
B1930124747577N12000232WA0063900636
B1930134747577N12000223WA0063900636
B1930144747577N12000216WA0063800637
B1930154747576N12000209WA0063800639
B1930164747576N12000202WA0063800639
B1930174747576N12000195WA0063800638
B1930184747576N12000187WA0063800637
B1930194747576N12000178WA0063700635
B1930204747576N12000169WA0063700635
B1930214747577N12000161WA0063600635
B1930214747577N12000161WA0063600635
B1930224747577N12000153WA0063600636
B1930234747578N12000145WA0063600636
B1930244747578N12000137WA0063500635
B1930254747578N12000128WA0063500634
B1930264747578N12000119WA0063400633
B1930274747577N12000110WA0063400632
B1930284747577N12000102WA0063300632
B1930294747576N12000094WA0063200632
B1930304747575N12000086WA0063200631
B1930314747574N12000077WA0063100629
B1930324747573N12000069WA0063000628
B1930334747572N12000060WA0063000626
B1930344747571N12000051WA0062900625
B1930354747571N12000043WA0062800624
B1930364747570N12000034WA0062700622
B1930374747569N12000025WA0062600620
B1930384747568N12000016WA0062400617
B1930394747568N12000007WA0062300615
B1930404747568N11959997WA0062200612
B1930414747567N11959987WA0062000610
B1930424747567N11959978WA0061900609
B1930434747566N11959969WA0061800608
B1930444747565N11959960WA0061600605
B1930454747564N11959950WA0061400602
B1930464747563N11959939WA0061200599
B1930474747563N11959928WA0061100597
B1930484747562N11959918WA0060900596
B1930494747562N11959908WA0060700595
B1930504747561N11959899WA0060600595
B1930514747561N11959890WA0060500593
B1930524747560N11959881WA0060300591
B1930534747559N11959872WA0060200590
B1930544747559N11959862WA0060100588
B1930554747559N11959853WA0060000587
B1930564747558N11959844WA0059800586
B1930574747557N11959836WA0059700585
B1930584747556N11959827WA0059600584
B1930594747554N11959819WA0059500582
B1931004747551N11959811WA0059300581
B1931014747548N11959804WA0059200580
B1931024747544N11959797WA0059100579
B1931034747540N11959790WA0059000578
B1931044747535N11959784WA0058800577
B1931054747531N11959778WA0058700576
B1931064747527N11959773WA0058600575
B1931074747522N11959767WA0058500574
B1931084747517N11959762WA0058400574
B1931094747513N11959757WA0058300572
B1931104747509N11959751WA0058100570
B1931114747505N11959744WA0058000568
B1931124747501N11959737WA0057900567
B1931134747498N11959731WA0057800566
B1931144747495N11959725WA0057600565
B1931154747492N11959719WA0057600564
B1931164747488N11959714WA0057400563
B1931174747485N11959709WA0057300562
B1931184747482N11959704WA0057200561
B1931194747478N11959699WA0057000559
B1931204747475N11959694WA0056900557
B1931214747471N11959689WA0056700555
B1931224747467N11959684WA0056600553
B1931234747464N11959679WA0056400551
B1931244747460N11959673WA0056200550
B1931244747460N11959673WA0056200550
B1931254747456N11959668WA0056100548
B1931264747453N11959663WA0055900547
B1931274747449N11959657WA0055800545
B1931284747445N11959651WA0055600543
B1931294747442N11959644WA0055400542
B1931304747439N11959638WA0055200540
B1931314747436N11959631WA0055100540
B1931324747434N11959625WA0054900539
B1931334747432N11959619WA0054800539
B1931344747430N11959612WA0054700537
B1931354747428N11959606WA0054600536
B1931364747425N11959600WA0054400534
B1931374747423N11959593WA0054300532
B1931384747422N11959585WA0054100530
B1931394747421N11959578WA0054000528
B1931404747420N11959570WA0053800527
B1931414747419N11959561WA0053700526
B1931424747417N11959553WA0053500524
B1931434747416N11959545WA0053400523
B1931444747415N11959536WA0053200522
B1931454747414N11959528WA0053100521
B1931464747414N11959521WA0053000520
B1931474747413N11959515WA0052900519
B1931484747412N11959508WA0052700517
B1931494747411N11959500WA0052600515
B1931504747409N11959493WA0052500514
B1931514747406N11959487WA0052400513
B1931524747402N11959482WA0052200511
B1931534747397N11959479WA0052100510
B1931544747392N11959477WA0051900509
B1931554747387N11959477WA0051800508
B1931564747382N11959478WA0051600507
B1931574747378N11959482WA0051500506
B1931584747374N11959486WA0051300504
B1931594747370N11959492WA0051200503
B1932004747368N11959498WA0051100502
B1932014747367N11959505WA0050900500
B1932024747367N11959512WA0050700499
B1932034747367N11959519WA0050600497
B1932044747368N11959525WA0050400496
B1932054747370N11959532WA0050300494
B1932064747372N11959539WA0050100493
B1932074747374N11959545WA0050000492
B1932084747376N11959550WA0049900492
B1932094747379N11959555WA0049800492
B1932104747382N11959560WA0049700491
B1932114747386N11959565WA0049600489
B1932124747391N11959571WA0049500488
B1932134747395N11959576WA0049400488
B1932144747399N11959581WA0049300488
B1932154747403N11959585WA0049200489
B1932164747406N11959589WA0049200490
B1932174747409N11959593WA0049100490
B1932184747412N11959597WA0049100489
B1932194747415N11959603WA0049000488
B1932204747417N11959609WA0049000486
B1932214747419N11959616WA0048900485
B1932224747420N11959623WA0048800485
B1932234747421N11959629WA0048800486
B1932244747421N11959636WA0048700485
B1932254747421N11959642WA0048700484
B1932264747420N11959650WA0048600482
B1932274747419N11959657WA0048500481
B1932274747419N11959657WA0048500481
B1932284747417N11959665WA0048400481
B1932294747414N11959671WA0048400481
B1932304747412N11959678WA0048300481
B1932314747409N11959685WA0048300481
B1932324747406N11959692WA0048200481
B1932334747403N11959698WA0048200481
B1932344747399N11959702WA0048100479
B1932354747394N11959705WA0048000478
B1932364747389N11959707WA0047900475
B1932374747383N11959708WA0047800473
B1932384747378N11959708WA0047700472
B1932394747373N11959708WA0047600471
B1932404747369N11959707WA0047500470
B1932414747365N11959705WA0047400468
B1932424747360N11959703WA0047200466
B1932434747356N11959698WA0047100463
B1932444747352N11959693WA0046900461
B1932454747349N11959686WA0046800460
B1932464747346N11959680WA0046600459
B1932474747344N11959673WA0046500458
B1932484747343N11959665WA0046400458
B1932494747343N11959657WA0046300456
B1932504747344N11959648WA0046200455
B1932514747344N11959640WA0046100454
B1932524747344N11959632WA0045900453
B1932534747345N11959624WA0045800452
B1932544747347N11959617WA0045700451
B1932554747349N11959609WA0045600449
B1932564747352N11959602WA0045500447
B1932574747354N11959594WA0045400446
B1932584747357N11959586WA0045200445
B1932594747360N11959578WA0045100445
B1933004747363N11959571WA0045000444
B1933014747367N11959565WA0045000444
B1933024747370N11959560WA0044900444
B1933034747374N11959555WA0044800444
B1933044747378N11959550WA0044700443
B1933054747382N11959545WA0044700441
B1933064747387N11959539WA0044500439
B1933074747391N11959533WA0044500438
B1933084747395N11959527WA0044300437
B1933094747398N11959521WA0044300437
B1933104747402N11959516WA0044200437
B1933114747405N11959511WA0044100436
B1933124747410N11959506WA0044000434
B1933134747414N11959501WA0043900431
B1933144747419N11959495WA0043800429
B1933154747424N11959489WA0043600427
B1933164747428N11959483WA0043500425
B1933174747432N11959477WA0043400424
B1933184747436N11959471WA0043200423
B1933194747440N11959466WA0043100423
B1933204747443N11959461WA0043000422
B1933214747447N11959456WA0042900421
B1933224747450N11959450WA0042800419
B1933234747454N11959443WA0042700416
B1933244747458N11959436WA0042500413
B1933254747463N11959430WA0042300411
B1933264747467N11959424WA0042100410
B1933274747471N11959418WA0042000408
B1933284747475N11959412WA0041800407
B1933294747480N11959406WA0041700406
B1933304747484N11959400WA0041600404
B1933314747489N11959394WA0041400404
B1933314747489N11959394WA0041400404
B1933324747493N11959388WA0041300403
B1933334747496N11959382WA0041200403
B1933344747500N11959376WA0041100402
B1933354747504N11959370WA0041000401
B1933364747508N11959363WA0040800399
B1933374747512N11959357WA0040700398
B1933384747516N11959350WA0040600396
B1933394747519N11959344WA0040500395
B1933404747523N11959338WA0040400394
B1933414747527N11959332WA0040300393
B1933424747531N11959326WA0040200392
B1933434747535N11959319WA0040100390
B1933444747539N11959313WA0039900389
B1933454747543N11959306WA0039800388
B1933464747547N11959300WA0039700386
B1933474747551N11959294WA0039600385
B1933484747554N11959287WA0039400384
B1933494747558N11959281WA0039300383
B1933504747562N11959275WA0039200381
B1933514747567N11959269WA0039100380
B1933524747571N11959263WA0038900379
B1933534747575N11959257WA0038800378
B1933544747579N11959251WA0038700377
B1933554747584N11959245WA0038600375
B1933564747588N11959238WA0038500374
B1933574747592N11959232WA0038400373
B1933584747596N11959226WA0038300372
B1933594747601N11959220WA0038200371
B1934004747605N11959214WA0038000370
B1934014747609N11959208WA0038000369
B1934024747614N11959201WA0037800368
B1934034747618N11959194WA0037700366
B1934044747622N11959188WA0037600366
B1934054747625N11959181WA0037500365
B1934064747629N11959174WA0037400364
B1934074747632N11959167WA0037300363
B1934084747636N11959160WA0037200362
B1934094747640N11959153WA0037100361
B1934104747643N11959146WA0037000360
B1934114747647N11959139WA0036900359
B1934124747651N11959132WA0036800358
B1934134747654N11959124WA0036700357
B1934144747658N11959117WA0036600356
B1934154747662N11959110WA0036500355
B1934164747666N11959103WA0036400354
B1934174747670N11959097WA0036300353
B1934184747674N11959090WA0036200351
B1934194747678N11959084WA0036100350
B1934204747683N11959078WA0036000349
B1934214747687N11959071WA0035900348
B1934224747692N11959065WA0035800347
B1934234747696N11959059WA0035700346
B1934244747700N11959053WA0035500345
B1934254747705N11959046WA0035500344
B1934264747710N11959040WA0035300343
B1934274747715N11959034WA0035300341
B1934284747720N11959028WA0035100340
B1934294747725N11959023WA0035000339
B1934304747730N11959018WA0034900338
B1934314747735N11959013WA0034800337
B1934324747740N11959008WA0034700336
B1934334747746N11959002WA0034600334
B1934334747746N11959002WA0034600334
B1934344747751N11958997WA0034500333
B1934354747756N11958991WA0034400332
B1934364747761N11958986WA0034200331
B1934374747766N11958980WA0034100330
B1934384747771N11958974WA0034000329
B1934394747776N11958969WA0033900328
B1934404747780N11958964WA0033800327
B1934414747785N11958959WA0033700326
B1934424747790N11958954WA0033600325
B1934434747794N11958949WA0033500324
B1934444747800N11958944WA0033400322
B1934454747805N11958939WA0033300321
B1934464747810N11958934WA0033200321
B1934474747814N11958930WA0033100320
B1934484747819N11958925WA0033000319
B1934494747823N11958920WA0032900318
B1934504747829N11958915WA0032800316
B1934514747834N11958911WA0032700315
B1934524747840N11958907WA0032600314
B1934534747845N11958904WA0032500313
B1934544747850N11958900WA0032400312
B1934554747855N11958897WA0032300311
B1934564747860N11958894WA0032200309
B1934574747866N11958891WA0032100307
B1934584747872N11958889WA0031900305
B1934594747878N11958887WA0031800305
B1935004747883N11958886WA0031700304
B1935014747888N11958884WA0031600303
B1935024747894N11958883WA0031500302
B1935034747899N11958881WA0031400300
B1935044747904N11958878WA0031300299
B1935054747910N11958876WA0031200297
B1935064747915N11958874WA0031100296
B1935074747920N11958872WA0031000295
B1935084747925N11958870WA0030900294
B1935094747931N11958869WA0030800293
B1935104747936N11958867WA0030700291
B1935114747942N11958865WA0030600290
B1935124747948N11958864WA0030500290
B1935134747954N11958864WA0030400289
B1935144747959N11958864WA0030300288
B1935154747964N11958864WA0030200288
B1935164747970N11958864WA0030100287
B1935174747975N11958864WA0030000286
B1935184747980N11958865WA0029900284
B1935194747986N11958867WA0029800283
B1935204747991N11958869WA0029700282
B1935214747996N11958872WA0029600281
B1935224748001N11958874WA0029500281
B1935234748006N11958875WA0029400280
B1935244748011N11958878WA0029300279
B1935254748017N11958880WA0029200278
B1935264748022N11958884WA0029100276
B1935274748027N11958888WA0029000275
B1935284748031N11958893WA0028900274
B1935294748035N11958898WA0028800274
B1935304748036N11958904WA0028700273
B1935314748035N11958911WA0028600271
B1935324748032N11958917WA0028400268
B1935334748028N11958920WA0028300267
B1935344748024N11958921WA0028200266
B1935354748019N11958920WA0028100265
B1935364748016N11958919WA0028000266
B1935364748016N11958919WA0028000266
B1935374748012N11958917WA0027900266
B1935384748009N11958917WA0027800265
B1935394748004N11958917WA0027700263
B1935404747999N11958919WA0027500261
B1935414747995N11958922WA0027400260
B1935424747992N11958927WA0027300259
B1935434747991N11958934WA0027200259
B1935444747991N11958941WA0027100258
B1935454747992N11958949WA0027000257
B1935464747995N11958956WA0026800256
B1935474747999N11958961WA0026800255
B1935484748003N11958966WA0026600254
B1935494748007N11958971WA0026600253
B1935504748012N11958976WA0026400252
B1935514748016N11958982WA0026300251
B1935524748019N11958988WA0026200249
B1935534748022N11958995WA0026100248
B1935544748024N11959002WA0026000247
B1935554748024N11959010WA0025900246
B1935564748023N11959016WA0025800245
B1935574748020N11959020WA0025700244
B1935584748015N11959024WA0025500241
B1935594748011N11959026WA0025400239
B1936004748007N11959027WA0025300238
B1936014748003N11959027WA0025200238
B1936024747998N11959028WA0025000236
B1936034747994N11959030WA0024900235
B1936044747989N11959032WA0024800233
B1936054747985N11959035WA0024700232
B1936064747981N11959039WA0024500230
B1936074747977N11959043WA0024400229
B1936084747973N11959048WA0024300228
B1936094747970N11959053WA0024200227
B1936104747966N11959057WA0024000226
B1936114747962N11959062WA0023900224
B1936124747958N11959065WA0023800223
B1936134747955N11959069WA0023700223
B1936144747953N11959071WA0023600223
B1936154747951N11959073WA0023500222
B1936164747950N11959074WA0023400222
B1936174747949N11959074WA0023400221
B1936184747948N11959074WA0023300221
B1936194747948N11959074WA0023300221
B1936204747949N11959074WA0023300221
B1936214747949N11959074WA0023200222
B1936224747949N11959074WA0023200222
B1936234747948N11959075WA0023200222
B1936244747948N11959074WA0023200223
B1936254747948N11959074WA0023100223
B1936264747948N11959075WA0023100223
B1936274747948N11959075WA0023100223
B1936284747948N11959075WA0023100223
B1936294747948N11959075WA0023100223
B1936304747948N11959075WA0023100223
B1936314747948N11959075WA0023100224
B1936324747948N11959075WA0023100224
B1936334747948N11959075WA0023100224
B1936344747948N11959075WA0023000224
B1936354747949N11959076WA0023000224
B1936364747949N11959076WA0023000224
B1936374747949N11959077WA0023000224
B1936384747949N11959077WA0023000223
B1936394747949N11959077WA0023000223
B1936394747949N11959077WA0023000223
B1936404747949N11959077WA0023000223
B1936414747949N11959077WA0023000223
B1936424747949N11959077WA0023000223
B1936434747949N11959078WA0023000223
B1936444747949N11959078WA0023000223
B1936454747949N11959078WA0023000224
B1936464747949N11959079WA0023000223
B1936474747949N11959079WA0023000223
B1936484747949N11959079WA0023000222
B1936494747949N11959079WA0023000222
B1936504747949N11959079WA0023000222
B1936514747949N11959079WA0023000222
B1936524747949N11959080WA0023000222
B1936534747949N11959080WA0023000222
B1936544747949N11959080WA0023000223
B1936554747948N11959080WA0023000223
B1936564747948N11959080WA0023000222
B1936574747948N11959080WA0023000223
B1936584747948N11959080WA0023000223
B1936594747948N11959080WA0023000223
B1937004747948N11959080WA0023000223
B1937014747948N11959081WA0023000223
B1937024747948N11959081WA0023000223
B1937034747948N11959081WA0023000223
B1937044747948N11959081WA0023000222
B1937054747947N11959081WA0023000222
B1937064747947N11959081WA0023000222
B1937074747946N11959081WA0023000222
B1937084747945N11959081WA0023000222
B1937094747945N11959081WA0023000222
B1937104747944N11959081WA0023000222
B1937114747944N11959081WA0023000222
B1937124747943N11959081WA0023000222
B1937134747943N11959081WA0023000222
B1937144747942N11959081WA0023000221
B1937154747942N11959081WA0023000221
B1937164747941N11959082WA0023000221
B1937174747940N11959082WA0023000221
B1937184747939N11959082WA0023000221
B1937194747939N11959082WA0023000221
B1937204747938N11959082WA0023000221
B1937214747938N11959082WA0023000220
B1937224747937N11959082WA0023000220
B1937234747937N11959082WA0023000220
B1937244747936N11959083WA0023000220
B1937254747935N11959083WA0023000220
B1937264747935N11959083WA0023000220
B1937274747934N11959083WA0023000220
B1937284747934N11959083WA0023000221
B1937294747933N11959083WA0023000220
B1937304747933N11959083WA0023000221
B1937314747932N11959083WA0023000221
B1937324747931N11959083WA0023000221
B1937334747931N11959083WA0023000221
B1937344747930N11959084WA0023000221
B1937354747930N11959084WA0023000221
B1937364747929N11959084WA0023000221
B1937374747929N11959084WA0023000221
B1937384747929N11959084WA0023000221
B1937394747928N11959084WA0023000220
B1937404747927N11959084WA0023000220
B1937414747927N11959084WA0023000220
B1937424747926N11959085WA0023000220
