AXFMSFP Flymaster Live, V1.0
HFFXA010
HFPLTPILOT:Jeff Opekar
HFGTYGLIDERTYPE:Skywalk Range 3 / Nova Codex
HFGIDGLIDERID:
HFDTM100GPSDATUM:WGS-1984
HFCIDCOMPETITIONID:418
HFCCLCOMPETITIONCLASS:
HOSITSITE:LAUNCH
HFGPS:UBLOXNEO6
HFPRSPRESSALTSENSOR:NA
HFRFWFIRMWAREVERSION:202g
HFRHWHARDWAREVERSION:1.0R2
HFFTYFRTYPE:FLYMASTER,LIVE
HFDTE160625
B2007164748241N12002357WA0109501123
B2007174748242N12002357WA0109501123
B2007184748242N12002356WA0109501124
B2007194748242N12002356WA0109501124
B2007204748242N12002355WA0109501124
B2007214748242N12002354WA0109501124
B2007224748241N12002354WA0109601124
B2007234748241N12002355WA0109601124
B2007244748241N12002357WA0109601122
B2007254748241N12002359WA0109601122
B2007264748241N12002361WA0109601121
B2007274748241N12002364WA0109501121
B2007284748241N12002366WA0109501121
B2007294748241N12002369WA0109501120
B2007304748241N12002371WA0109501120
B2007314748241N12002374WA0109501119
B2007324748241N12002377WA0109501119
B2007334748242N12002379WA0109501119
B2007344748241N12002381WA0109501119
B2007354748242N12002384WA0109501119
B2007364748243N12002387WA0109501118
B2007374748245N12002391WA0109501116
B2007384748246N12002396WA0109401115
B2007394748246N12002400WA0109401115
B2007404748246N12002402WA0109401116
B2007414748246N12002404WA0109501117
B2007424748246N12002406WA0109501117
B2007434748246N12002410WA0109501116
B2007444748245N12002414WA0109501116
B2007454748245N12002416WA0109501118
B2007464748245N12002418WA0109601120
B2007474748245N12002419WA0109601121
B2007484748244N12002421WA0109701122
B2007494748244N12002423WA0109701124
B2007504748245N12002425WA0109801126
B2007514748247N12002428WA0109901128
B2007524748249N12002430WA0110101130
B2007534748249N12002432WA0110101130
B2007544748248N12002433WA0110201131
B2007554748249N12002436WA0110301133
B2007564748251N12002440WA0110401136
B2007574748253N12002442WA0110501138
B2007584748254N12002445WA0110701140
B2007594748255N12002447WA0110801141
B2008004748255N12002448WA0111001143
B2008014748255N12002449WA0111101144
B2008024748256N12002449WA0111301149
B2008034748256N12002449WA0111401152
B2008044748256N12002449WA0111601154
B2008054748257N12002449WA0111701155
B2008064748257N12002450WA0111901157
B2008074748257N12002451WA0112001159
B2008084748258N12002453WA0112201161
B2008094748259N12002453WA0112301163
B2008104748259N12002453WA0112601166
B2008114748259N12002453WA0112701168
B2008124748259N12002452WA0112901169
B2008134748258N12002452WA0113001170
B2008144748257N12002452WA0113201170
B2008154748258N12002452WA0113301172
B2008164748258N12002452WA0113401172
B2008174748260N12002454WA0113501172
B2008184748260N12002457WA0113601172
B2008194748261N12002461WA0113601171
B2008204748261N12002466WA0113601170
B2008214748260N12002470WA0113601171
B2008214748260N12002470WA0113601171
B2008224748260N12002473WA0113701172
B2008234748260N12002475WA0113801174
B2008244748260N12002477WA0113801176
B2008254748260N12002480WA0113901175
B2008264748260N12002483WA0113901175
B2008274748260N12002487WA0114001175
B2008284748259N12002490WA0114001176
B2008294748258N12002491WA0114001179
B2008304748258N12002491WA0114101183
B2008314748258N12002491WA0114201184
B2008324748259N12002492WA0114301185
B2008334748258N12002495WA0114401185
B2008344748256N12002498WA0114401184
B2008354748255N12002499WA0114401185
B2008364748254N12002499WA0114501188
B2008374748254N12002498WA0114501190
B2008384748254N12002497WA0114601190
B2008394748255N12002497WA0114701189
B2008404748254N12002498WA0114701186
B2008414748253N12002499WA0114601184
B2008424748252N12002500WA0114601183
B2008434748251N12002502WA0114601184
B2008444748252N12002502WA0114601185
B2008454748252N12002503WA0114601184
B2008464748252N12002503WA0114601182
B2008474748251N12002504WA0114501179
B2008484748250N12002505WA0114401176
B2008494748248N12002507WA0114301174
B2008504748247N12002508WA0114201173
B2008514748246N12002510WA0114101172
B2008524748245N12002511WA0114001171
B2008534748245N12002511WA0113901170
B2008544748244N12002511WA0113801169
B2008554748243N12002510WA0113801168
B2008564748241N12002509WA0113601166
B2008574748239N12002509WA0113501164
B2008584748237N12002508WA0113401163
B2008594748235N12002508WA0113301162
B2009004748234N12002508WA0113201162
B2009014748232N12002508WA0113101161
B2009024748230N12002508WA0113001160
B2009034748229N12002508WA0112901159
B2009044748227N12002509WA0112801159
B2009054748225N12002509WA0112801158
B2009064748223N12002509WA0112701158
B2009074748222N12002509WA0112601158
B2009084748220N12002510WA0112601157
B2009094748218N12002510WA0112501156
B2009104748216N12002510WA0112401156
B2009114748214N12002510WA0112401155
B2009124748212N12002511WA0112301154
B2009134748210N12002511WA0112301154
B2009144748208N12002512WA0112201152
B2009154748205N12002512WA0112201151
B2009164748203N12002513WA0112101150
B2009174748201N12002514WA0112101149
B2009184748199N12002516WA0112001149
B2009194748197N12002517WA0111901148
B2009204748194N12002518WA0111901148
B2009214748192N12002519WA0111901148
B2009224748190N12002520WA0111801148
B2009234748188N12002520WA0111801148
B2009244748186N12002521WA0111801148
B2009254748184N12002523WA0111801147
B2009254748184N12002523WA0111801147
B2009264748182N12002525WA0111801147
B2009274748180N12002527WA0111701147
B2009284748179N12002529WA0111701147
B2009294748178N12002531WA0111701148
B2009304748177N12002533WA0111701148
B2009314748176N12002534WA0111701148
B2009324748175N12002536WA0111701147
B2009334748174N12002538WA0111701147
B2009344748172N12002539WA0111701147
B2009354748170N12002541WA0111701147
B2009364748168N12002542WA0111701147
B2009374748166N12002542WA0111701147
B2009384748165N12002543WA0111801147
B2009394748163N12002544WA0111801147
B2009404748161N12002546WA0111701146
B2009414748159N12002547WA0111701146
B2009424748157N12002549WA0111701145
B2009434748155N12002551WA0111701145
B2009444748153N12002552WA0111701145
B2009454748151N12002554WA0111701146
B2009464748149N12002555WA0111701146
B2009474748147N12002556WA0111701145
B2009484748145N12002557WA0111701143
B2009494748143N12002558WA0111601142
B2009504748142N12002559WA0111601141
B2009514748141N12002560WA0111501140
B2009524748141N12002560WA0111401138
B2009534748140N12002559WA0111401137
B2009544748138N12002559WA0111301134
B2009554748135N12002558WA0111201132
B2009564748132N12002558WA0111001130
B2009574748129N12002558WA0110901130
B2009584748126N12002558WA0110801131
B2009594748124N12002558WA0110801133
B2010004748123N12002557WA0110801135
B2010014748121N12002557WA0110801136
B2010024748120N12002556WA0110801138
B2010034748118N12002556WA0110901140
B2010044748117N12002556WA0111001141
B2010054748117N12002557WA0111001143
B2010064748117N12002559WA0111101145
B2010074748118N12002561WA0111201146
B2010084748121N12002563WA0111301147
B2010094748125N12002565WA0111401149
B2010104748128N12002566WA0111501150
B2010114748131N12002568WA0111501151
B2010124748131N12002571WA0111601151
B2010134748131N12002573WA0111701151
B2010144748130N12002574WA0111801151
B2010154748129N12002574WA0111801152
B2010164748128N12002574WA0111901153
B2010174748127N12002574WA0112001153
B2010184748126N12002573WA0112101153
B2010194748125N12002572WA0112101152
B2010204748123N12002572WA0112101151
B2010214748122N12002572WA0112101150
B2010224748121N12002573WA0112201150
B2010234748120N12002573WA0112201151
B2010244748118N12002574WA0112101149
B2010254748115N12002574WA0112101147
B2010264748113N12002574WA0112101147
B2010274748110N12002575WA0112001146
B2010284748109N12002575WA0112001147
B2010294748107N12002575WA0112001147
B2010304748106N12002576WA0111901146
B2010314748104N12002576WA0111901144
B2010324748102N12002578WA0111801142
B2010334748100N12002581WA0111801141
B2010334748100N12002581WA0111801141
B2010344748098N12002584WA0111701141
B2010354748098N12002587WA0111601142
B2010364748097N12002589WA0111601142
B2010374748097N12002590WA0111501141
B2010384748096N12002592WA0111501140
B2010394748095N12002595WA0111401138
B2010404748095N12002599WA0111301137
B2010414748094N12002602WA0111201136
B2010424748093N12002605WA0111101135
B2010434748092N12002608WA0111101134
B2010444748092N12002612WA0111001133
B2010454748092N12002615WA0110901132
B2010464748092N12002619WA0110801131
B2010474748093N12002624WA0110801130
B2010484748094N12002629WA0110701129
B2010494748096N12002634WA0110601128
B2010504748098N12002639WA0110501127
B2010514748101N12002644WA0110401125
B2010524748103N12002649WA0110201124
B2010534748105N12002654WA0110201123
B2010544748105N12002658WA0110001122
B2010554748105N12002661WA0110001120
B2010564748104N12002663WA0109901119
B2010574748103N12002665WA0109801118
B2010584748101N12002665WA0109701118
B2010594748100N12002664WA0109601117
B2011004748097N12002663WA0109501116
B2011014748094N12002662WA0109401115
B2011024748091N12002661WA0109301113
B2011034748088N12002660WA0109201113
B2011044748085N12002659WA0109101112
B2011054748082N12002659WA0109001112
B2011064748080N12002658WA0109001112
B2011074748077N12002657WA0108901111
B2011084748074N12002654WA0108801110
B2011094748071N12002652WA0108801109
B2011104748067N12002649WA0108701108
B2011114748064N12002646WA0108601107
B2011124748061N12002644WA0108501106
B2011134748057N12002643WA0108501106
B2011144748054N12002643WA0108401105
B2011154748052N12002643WA0108301104
B2011164748049N12002643WA0108201103
B2011174748047N12002642WA0108201103
B2011184748044N12002641WA0108101102
B2011194748041N12002639WA0108001102
B2011204748039N12002637WA0107901101
B2011214748036N12002634WA0107901100
B2011224748033N12002631WA0107801099
B2011234748030N12002629WA0107701098
B2011244748027N12002626WA0107601096
B2011254748023N12002624WA0107601094
B2011264748020N12002622WA0107501093
B2011274748017N12002620WA0107401092
B2011284748014N12002618WA0107301091
B2011294748011N12002617WA0107201091
B2011304748008N12002616WA0107101089
B2011314748006N12002616WA0107001087
B2011324748003N12002616WA0106901085
B2011334748000N12002617WA0106801084
B2011344747998N12002618WA0106601083
B2011354747995N12002618WA0106501082
B2011364747993N12002619WA0106401081
B2011374747991N12002620WA0106301081
B2011374747991N12002620WA0106301081
B2011384747990N12002621WA0106201080
B2011394747988N12002622WA0106101079
B2011404747985N12002623WA0106001077
B2011414747983N12002623WA0105901074
B2011424747980N12002623WA0105701073
B2011434747977N12002623WA0105601071
B2011444747974N12002622WA0105401069
B2011454747971N12002621WA0105301067
B2011464747969N12002620WA0105101065
B2011474747966N12002619WA0105001063
B2011484747963N12002617WA0104801061
B2011494747959N12002614WA0104701060
B2011504747956N12002612WA0104501057
B2011514747953N12002609WA0104401056
B2011524747950N12002607WA0104201055
B2011534747947N12002604WA0104101053
B2011544747944N12002601WA0103901051
B2011554747941N12002597WA0103801049
B2011564747937N12002592WA0103601046
B2011574747934N12002588WA0103401044
B2011584747930N12002583WA0103201043
B2011594747928N12002577WA0103101042
B2012004747925N12002571WA0102901039
B2012014747923N12002565WA0102801037
B2012024747920N12002558WA0102601035
B2012034747917N12002551WA0102501032
B2012044747913N12002545WA0102201028
B2012054747909N12002540WA0102101025
B2012064747905N12002535WA0101801023
B2012074747901N12002530WA0101601022
B2012084747897N12002526WA0101501022
B2012094747893N12002522WA0101401021
B2012104747889N12002518WA0101201020
B2012114747885N12002516WA0101101020
B2012124747883N12002515WA0101001022
B2012134747881N12002514WA0100901023
B2012144747879N12002513WA0100901024
B2012154747878N12002511WA0100901025
B2012164747875N12002509WA0100901026
B2012174747872N12002508WA0100901027
B2012184747870N12002508WA0100901027
B2012194747867N12002508WA0101001028
B2012204747866N12002507WA0101001030
B2012214747865N12002506WA0101101031
B2012224747864N12002506WA0101201032
B2012234747863N12002506WA0101201032
B2012244747864N12002507WA0101301032
B2012254747864N12002508WA0101401032
B2012264747866N12002509WA0101401032
B2012274747867N12002510WA0101401032
B2012284747870N12002511WA0101401032
B2012294747872N12002512WA0101401033
B2012304747876N12002512WA0101401033
B2012314747879N12002513WA0101301033
B2012324747882N12002513WA0101301032
B2012334747884N12002513WA0101301032
B2012344747883N12002514WA0101201031
B2012354747881N12002513WA0101101029
B2012364747879N12002512WA0101101029
B2012374747877N12002510WA0101101028
B2012384747875N12002507WA0101101029
B2012394747872N12002503WA0101001028
B2012404747869N12002499WA0101001028
B2012414747866N12002495WA0101001029
B2012424747863N12002492WA0101001030
B2012424747863N12002492WA0101001030
B2012434747861N12002489WA0101001030
B2012444747858N12002487WA0101001032
B2012454747855N12002485WA0101101033
B2012464747851N12002484WA0101101036
B2012474747849N12002484WA0101201038
B2012484747848N12002484WA0101301043
B2012494747848N12002485WA0101501047
B2012504747849N12002487WA0101601050
B2012514747852N12002489WA0101801052
B2012524747857N12002489WA0102001053
B2012534747862N12002486WA0102101052
B2012544747868N12002480WA0102201052
B2012554747873N12002471WA0102301052
B2012564747876N12002461WA0102401054
B2012574747877N12002449WA0102501056
B2012584747878N12002438WA0102701058
B2012594747878N12002429WA0102801060
B2013004747876N12002420WA0102901062
B2013014747874N12002412WA0103001063
B2013024747871N12002406WA0103201065
B2013034747868N12002401WA0103301067
B2013044747866N12002399WA0103501070
B2013054747864N12002399WA0103701072
B2013064747864N12002401WA0103901075
B2013074747866N12002402WA0104101078
B2013084747868N12002403WA0104301081
B2013094747872N12002403WA0104501085
B2013104747877N12002402WA0104801086
B2013114747884N12002401WA0105001087
B2013124747891N12002397WA0105201089
B2013134747897N12002389WA0105401091
B2013144747901N12002380WA0105601093
B2013154747905N12002370WA0105801095
B2013164747908N12002359WA0106001097
B2013174747909N12002348WA0106201099
B2013184747909N12002337WA0106401099
B2013194747907N12002328WA0106601100
B2013204747903N12002320WA0106701101
B2013214747900N12002315WA0106901103
B2013224747897N12002311WA0107101106
B2013234747895N12002309WA0107301109
B2013244747892N12002307WA0107501112
B2013254747890N12002306WA0107701115
B2013264747889N12002306WA0107901117
B2013274747889N12002307WA0108101119
B2013284747890N12002309WA0108301122
B2013294747891N12002310WA0108501124
B2013304747893N12002311WA0108701126
B2013314747896N12002312WA0108901128
B2013324747900N12002312WA0109101130
B2013334747904N12002314WA0109301131
B2013344747909N12002314WA0109501133
B2013354747915N12002313WA0109701136
B2013364747921N12002307WA0109901138
B2013374747927N12002299WA0110101138
B2013384747931N12002287WA0110301139
B2013394747933N12002275WA0110401141
B2013404747932N12002264WA0110601142
B2013414747929N12002257WA0110701143
B2013424747926N12002251WA0110901144
B2013434747923N12002248WA0111001146
B2013444747920N12002245WA0111201148
B2013454747918N12002242WA0111301151
B2013464747916N12002239WA0111601153
B2013464747916N12002239WA0111601153
B2013474747914N12002238WA0111701156
B2013484747912N12002237WA0111901159
B2013494747912N12002238WA0112101161
B2013504747913N12002239WA0112301162
B2013514747914N12002240WA0112401162
B2013524747917N12002242WA0112501162
B2013534747922N12002242WA0112601162
B2013544747927N12002241WA0112701161
B2013554747933N12002239WA0112801160
B2013564747939N12002236WA0112901160
B2013574747945N12002231WA0112901159
B2013584747950N12002222WA0112901158
B2013594747955N12002210WA0112901156
B2014004747957N12002197WA0113001156
B2014014747957N12002185WA0113001159
B2014024747956N12002176WA0113101162
B2014034747955N12002169WA0113101164
B2014044747952N12002163WA0113201165
B2014054747950N12002158WA0113301166
B2014064747947N12002153WA0113401168
B2014074747945N12002150WA0113401170
B2014084747944N12002147WA0113601172
B2014094747943N12002144WA0113601173
B2014104747942N12002142WA0113701173
B2014114747941N12002141WA0113701172
B2014124747939N12002141WA0113801171
B2014134747938N12002141WA0113801173
B2014144747937N12002139WA0113801175
B2014154747935N12002136WA0113901176
B2014164747933N12002133WA0114001177
B2014174747930N12002131WA0114001178
B2014184747927N12002128WA0114101181
B2014194747925N12002126WA0114201184
B2014204747924N12002124WA0114401188
B2014214747924N12002122WA0114501190
B2014224747924N12002122WA0114701192
B2014234747924N12002122WA0114801193
B2014244747924N12002123WA0114901194
B2014254747925N12002124WA0115101197
B2014264747928N12002124WA0115301201
B2014274747932N12002124WA0115501205
B2014284747937N12002124WA0115701207
B2014294747944N12002123WA0115901207
B2014304747951N12002119WA0116101209
B2014314747958N12002111WA0116301210
B2014324747965N12002100WA0116501210
B2014334747968N12002088WA0116601211
B2014344747970N12002076WA0116801213
B2014354747971N12002066WA0116901216
B2014364747971N12002057WA0117201218
B2014374747970N12002049WA0117301220
B2014384747968N12002043WA0117501220
B2014394747966N12002039WA0117601221
B2014404747964N12002034WA0117801223
B2014414747962N12002030WA0117901225
B2014424747960N12002027WA0118101228
B2014434747959N12002025WA0118301232
B2014444747959N12002024WA0118501234
B2014454747959N12002024WA0118701237
B2014464747960N12002024WA0119001239
B2014474747962N12002026WA0119101242
B2014484747965N12002027WA0119301243
B2014494747970N12002030WA0119501244
B2014504747976N12002031WA0119701245
B2014514747984N12002029WA0119901246
B2014514747984N12002029WA0119901246
B2014524747992N12002023WA0120001246
B2014534748000N12002014WA0120201247
B2014544748006N12002002WA0120401249
B2014554748010N12001989WA0120501250
B2014564748010N12001978WA0120601250
B2014574748007N12001969WA0120701250
B2014584748004N12001964WA0120801251
B2014594748002N12001961WA0120901253
B2015004748001N12001961WA0121101257
B2015014748002N12001961WA0121201260
B2015024748002N12001961WA0121501263
B2015034748002N12001960WA0121701266
B2015044748003N12001959WA0121901267
B2015054748003N12001959WA0122101268
B2015064748005N12001960WA0122301270
B2015074748009N12001962WA0122401271
B2015084748013N12001963WA0122601272
B2015094748020N12001962WA0122701272
B2015104748027N12001958WA0122801271
B2015114748035N12001950WA0122801269
B2015124748042N12001940WA0122901268
B2015134748047N12001927WA0122901268
B2015144748051N12001915WA0123001269
B2015154748052N12001903WA0123101270
B2015164748051N12001894WA0123101271
B2015174748049N12001886WA0123201271
B2015184748047N12001880WA0123301273
B2015194748046N12001876WA0123401277
B2015204748045N12001872WA0123501280
B2015214748045N12001867WA0123601282
B2015224748044N12001864WA0123801284
B2015234748043N12001862WA0123901284
B2015244748042N12001862WA0124001284
B2015254748041N12001861WA0124001285
B2015264748041N12001861WA0124101287
B2015274748042N12001860WA0124201289
B2015284748043N12001859WA0124301289
B2015294748043N12001858WA0124401289
B2015304748042N12001859WA0124401287
B2015314748041N12001860WA0124401285
B2015324748042N12001862WA0124401285
B2015334748042N12001863WA0124401285
B2015344748043N12001864WA0124401286
B2015354748044N12001864WA0124401286
B2015364748045N12001866WA0124401287
B2015374748046N12001868WA0124401287
B2015384748047N12001869WA0124501288
B2015394748048N12001869WA0124501289
B2015404748048N12001869WA0124601289
B2015414748047N12001867WA0124601290
B2015424748046N12001866WA0124601289
B2015434748045N12001863WA0124601289
B2015444748043N12001860WA0124601289
B2015454748041N12001856WA0124601288
B2015464748039N12001852WA0124701288
B2015474748037N12001849WA0124701287
B2015484748034N12001846WA0124701287
B2015494748033N12001843WA0124701287
B2015504748031N12001841WA0124701287
B2015514748029N12001840WA0124701286
B2015524748028N12001838WA0124601285
B2015534748027N12001837WA0124601284
B2015544748026N12001836WA0124501284
B2015554748025N12001834WA0124501283
B2015564748023N12001831WA0124501282
B2015574748020N12001827WA0124401280
B2015584748018N12001822WA0124401280
B2015584748018N12001822WA0124401280
B2015594748016N12001817WA0124401280
B2016004748015N12001813WA0124301281
B2016014748013N12001809WA0124301280
B2016024748011N12001806WA0124301280
B2016034748008N12001804WA0124301279
B2016044748006N12001801WA0124301279
B2016054748004N12001799WA0124301280
B2016064748003N12001797WA0124301281
B2016074748002N12001796WA0124301281
B2016084748001N12001795WA0124301281
B2016094748000N12001794WA0124301281
B2016104747998N12001792WA0124301281
B2016114747997N12001791WA0124201279
B2016124747995N12001791WA0124201278
B2016134747994N12001791WA0124101277
B2016144747993N12001791WA0124101276
B2016154747991N12001790WA0124001274
B2016164747990N12001788WA0123901273
B2016174747988N12001786WA0123801272
B2016184747986N12001784WA0123701270
B2016194747984N12001782WA0123601268
B2016204747982N12001782WA0123501267
B2016214747980N12001781WA0123401265
B2016224747979N12001781WA0123301264
B2016234747977N12001781WA0123101263
B2016244747976N12001780WA0123001261
B2016254747975N12001778WA0122901260
B2016264747973N12001774WA0122701258
B2016274747970N12001771WA0122501255
B2016284747967N12001768WA0122401254
B2016294747965N12001763WA0122201252
B2016304747962N12001758WA0122101249
B2016314747959N12001751WA0121901246
B2016324747957N12001745WA0121701244
B2016334747954N12001739WA0121501243
B2016344747951N12001734WA0121401243
B2016354747948N12001729WA0121201241
B2016364747945N12001724WA0121001239
B2016374747942N12001719WA0120901237
B2016384747939N12001714WA0120701236
B2016394747936N12001710WA0120501233
B2016404747933N12001705WA0120401231
B2016414747931N12001701WA0120201229
B2016424747929N12001696WA0120101227
B2016434747927N12001691WA0119901226
B2016444747925N12001683WA0119701223
B2016454747925N12001673WA0119501220
B2016464747925N12001662WA0119401218
B2016474747926N12001652WA0119201217
B2016484747929N12001642WA0119001217
B2016494747932N12001633WA0118801216
B2016504747936N12001623WA0118701215
B2016514747941N12001615WA0118501214
B2016524747945N12001605WA0118401213
B2016534747951N12001596WA0118301213
B2016544747957N12001588WA0118201213
B2016554747963N12001581WA0118101212
B2016564747969N12001574WA0118001211
B2016574747974N12001566WA0117901209
B2016584747980N12001559WA0117801208
B2016594747985N12001551WA0117701207
B2017004747991N12001544WA0117701205
B2017014747996N12001535WA0117601204
B2017024748001N12001525WA0117501203
B2017024748001N12001525WA0117501203
B2017034748005N12001514WA0117401202
B2017044748009N12001504WA0117401202
B2017054748012N12001493WA0117301202
B2017064748016N12001482WA0117201201
B2017074748020N12001470WA0117201201
B2017084748023N12001458WA0117201202
B2017094748026N12001447WA0117101202
B2017104748030N12001435WA0117101202
B2017114748033N12001423WA0117101203
B2017124748036N12001412WA0117201204
B2017134748039N12001400WA0117201205
B2017144748041N12001388WA0117201205
B2017154748042N12001376WA0117201206
B2017164748041N12001365WA0117301207
B2017174748040N12001355WA0117301207
B2017184748038N12001346WA0117401208
B2017194748036N12001339WA0117401209
B2017204748033N12001334WA0117401209
B2017214748030N12001331WA0117501209
B2017224748028N12001329WA0117501209
B2017234748025N12001329WA0117501209
B2017244748024N12001329WA0117601210
B2017254748024N12001331WA0117601211
B2017264748025N12001333WA0117601211
B2017274748025N12001334WA0117601212
B2017284748026N12001337WA0117701211
B2017294748028N12001339WA0117701212
B2017304748030N12001342WA0117701212
B2017314748033N12001344WA0117801213
B2017324748036N12001345WA0117801214
B2017334748040N12001345WA0117801214
B2017344748046N12001345WA0117801213
B2017354748053N12001342WA0117901212
B2017364748060N12001337WA0117901212
B2017374748066N12001328WA0117901213
B2017384748071N12001318WA0118001213
B2017394748075N12001309WA0118001213
B2017404748080N12001299WA0118001211
B2017414748085N12001289WA0117901209
B2017424748089N12001277WA0117901206
B2017434748092N12001263WA0117801204
B2017444748093N12001250WA0117701204
B2017454748093N12001238WA0117701206
B2017464748092N12001228WA0117701208
B2017474748090N12001219WA0117701209
B2017484748089N12001209WA0117701209
B2017494748087N12001200WA0117701209
B2017504748084N12001191WA0117701208
B2017514748080N12001184WA0117601208
B2017524748077N12001179WA0117601209
B2017534748075N12001174WA0117601209
B2017544748072N12001170WA0117601210
B2017554748069N12001166WA0117701210
B2017564748065N12001163WA0117701210
B2017574748063N12001162WA0117701211
B2017584748061N12001162WA0117701213
B2017594748060N12001163WA0117801216
B2018004748060N12001165WA0117901217
B2018014748060N12001167WA0118001218
B2018024748061N12001170WA0118001218
B2018034748063N12001173WA0118101219
B2018044748067N12001175WA0118101220
B2018054748072N12001176WA0118201220
B2018054748072N12001176WA0118201220
B2018064748077N12001176WA0118301221
B2018074748083N12001174WA0118301220
B2018084748089N12001170WA0118401220
B2018094748095N12001164WA0118401219
B2018104748101N12001156WA0118401219
B2018114748105N12001146WA0118401218
B2018124748109N12001135WA0118501218
B2018134748111N12001124WA0118501217
B2018144748113N12001112WA0118501217
B2018154748113N12001102WA0118501218
B2018164748113N12001091WA0118501218
B2018174748112N12001081WA0118501218
B2018184748110N12001072WA0118501218
B2018194748107N12001064WA0118501218
B2018204748104N12001057WA0118501219
B2018214748101N12001052WA0118601220
B2018224748099N12001050WA0118601222
B2018234748097N12001048WA0118701223
B2018244748094N12001047WA0118701225
B2018254748093N12001047WA0118801226
B2018264748091N12001046WA0118901228
B2018274748090N12001047WA0119001229
B2018284748089N12001049WA0119001230
B2018294748089N12001051WA0119101231
B2018304748090N12001053WA0119201232
B2018314748090N12001055WA0119301233
B2018324748090N12001056WA0119401234
B2018334748091N12001058WA0119501236
B2018344748092N12001061WA0119501237
B2018354748093N12001063WA0119701239
B2018364748095N12001065WA0119801241
B2018374748098N12001067WA0119901242
B2018384748101N12001069WA0120001242
B2018394748106N12001070WA0120001240
B2018404748112N12001070WA0120101239
B2018414748118N12001068WA0120101239
B2018424748123N12001065WA0120201239
B2018434748129N12001060WA0120201238
B2018444748136N12001054WA0120201237
B2018454748142N12001046WA0120201235
B2018464748148N12001037WA0120201234
B2018474748153N12001027WA0120201233
B2018484748157N12001018WA0120201233
B2018494748160N12001007WA0120201232
B2018504748162N12000996WA0120101231
B2018514748161N12000984WA0120101229
B2018524748160N12000974WA0120001228
B2018534748157N12000965WA0119901228
B2018544748154N12000959WA0119901229
B2018554748152N12000953WA0119901229
B2018564748149N12000948WA0119901229
B2018574748146N12000944WA0119801230
B2018584748143N12000941WA0119801230
B2018594748140N12000938WA0119801231
B2019004748136N12000936WA0119801231
B2019014748134N12000934WA0119801232
B2019024748131N12000932WA0119901233
B2019034748128N12000930WA0119901235
B2019044748126N12000928WA0120001237
B2019054748124N12000927WA0120101238
B2019064748122N12000926WA0120101238
B2019074748120N12000926WA0120201238
B2019084748119N12000927WA0120201239
B2019094748118N12000929WA0120301240
B2019094748118N12000929WA0120301240
B2019104748117N12000929WA0120401242
B2019114748116N12000930WA0120501245
B2019124748115N12000929WA0120601247
B2019134748115N12000930WA0120701248
B2019144748117N12000933WA0120801248
B2019154748121N12000934WA0120901246
B2019164748127N12000934WA0121001246
B2019174748133N12000929WA0121001246
B2019184748139N12000921WA0121101247
B2019194748143N12000911WA0121201248
B2019204748146N12000900WA0121201248
B2019214748148N12000889WA0121301249
B2019224748148N12000878WA0121301250
B2019234748146N12000868WA0121401250
B2019244748143N12000859WA0121401251
B2019254748141N12000852WA0121501251
B2019264748138N12000847WA0121501253
B2019274748134N12000843WA0121601254
B2019284748131N12000840WA0121601254
B2019294748128N12000838WA0121701255
B2019304748125N12000838WA0121701255
B2019314748122N12000838WA0121801256
B2019324748120N12000839WA0121801256
B2019334748118N12000841WA0121801257
B2019344748116N12000844WA0121901256
B2019354748114N12000847WA0121901257
B2019364748113N12000850WA0121901257
B2019374748112N12000853WA0122001258
B2019384748111N12000856WA0122001258
B2019394748109N12000859WA0122001259
B2019404748108N12000862WA0122101259
B2019414748106N12000865WA0122101259
B2019424748103N12000867WA0122101258
B2019434748101N12000868WA0122201258
B2019444748098N12000870WA0122201259
B2019454748096N12000871WA0122301260
B2019464748093N12000872WA0122301260
B2019474748091N12000873WA0122301260
B2019484748087N12000874WA0122401258
B2019494748083N12000875WA0122401256
B2019504748079N12000876WA0122401255
B2019514748076N12000879WA0122401255
B2019524748074N12000883WA0122401255
B2019534748072N12000887WA0122301254
B2019544748071N12000892WA0122301252
B2019554748070N12000897WA0122201251
B2019564748070N12000904WA0122201250
B2019574748071N12000910WA0122101251
B2019584748072N12000915WA0122101252
B2019594748072N12000919WA0122101253
B2020004748073N12000924WA0122101253
B2020014748073N12000928WA0122001252
B2020024748074N12000934WA0122001250
B2020034748074N12000940WA0122001248
B2020044748074N12000946WA0121901247
B2020054748074N12000951WA0121801247
B2020064748074N12000954WA0121801248
B2020074748074N12000958WA0121701247
B2020084748075N12000961WA0121701248
B2020094748075N12000963WA0121701247
B2020104748074N12000966WA0121701247
B2020114748075N12000968WA0121701247
B2020124748074N12000970WA0121601247
B2020134748074N12000972WA0121601246
B2020134748074N12000972WA0121601246
B2020144748073N12000975WA0121601246
B2020154748073N12000978WA0121601247
B2020164748074N12000981WA0121601248
B2020174748075N12000983WA0121601249
B2020184748075N12000986WA0121601250
B2020194748075N12000989WA0121701250
B2020204748075N12000991WA0121701251
B2020214748075N12000993WA0121701252
B2020224748075N12000994WA0121801252
B2020234748074N12000995WA0121801251
B2020244748073N12000997WA0121801250
B2020254748073N12000999WA0121801249
B2020264748072N12001000WA0121801248
B2020274748071N12001001WA0121801247
B2020284748071N12001002WA0121701245
B2020294748070N12001004WA0121701243
B2020304748068N12001006WA0121601240
B2020314748067N12001008WA0121501238
B2020324748065N12001010WA0121401237
B2020334748064N12001011WA0121201235
B2020344748063N12001012WA0121101234
B2020354748061N12001014WA0120901232
B2020364748060N12001016WA0120801230
B2020374748059N12001017WA0120601227
B2020384748057N12001019WA0120401224
B2020394748056N12001021WA0120201221
B2020404748054N12001022WA0120001219
B2020414748051N12001023WA0119801217
B2020424748048N12001023WA0119701214
B2020434748045N12001022WA0119501212
B2020444748043N12001021WA0119301210
B2020454748041N12001022WA0119101208
B2020464748039N12001022WA0119001207
B2020474748038N12001023WA0118801206
B2020484748037N12001023WA0118601205
B2020494748035N12001023WA0118401203
B2020504748034N12001024WA0118301201
B2020514748033N12001025WA0118101198
B2020524748032N12001027WA0117901197
B2020534748031N12001027WA0117801196
B2020544748030N12001027WA0117701196
B2020554748030N12001027WA0117501197
B2020564748030N12001027WA0117501197
B2020574748030N12001028WA0117301196
B2020584748030N12001028WA0117301195
B2020594748029N12001029WA0117201195
B2021004748029N12001030WA0117101195
B2021014748030N12001031WA0117001194
B2021024748030N12001031WA0117001194
B2021034748029N12001031WA0116901193
B2021044748028N12001031WA0116801191
B2021054748026N12001032WA0116701190
B2021064748025N12001033WA0116601190
B2021074748024N12001034WA0116501191
B2021084748023N12001034WA0116501192
B2021094748023N12001034WA0116401191
B2021104748022N12001035WA0116401190
B2021114748020N12001037WA0116401190
B2021124748019N12001039WA0116301191
B2021134748018N12001039WA0116301193
B2021144748017N12001039WA0116301194
B2021154748016N12001039WA0116401195
B2021164748014N12001039WA0116401196
B2021174748012N12001040WA0116401196
B2021184748009N12001041WA0116401197
