AXFMSFP Flymaster Live, V1.0
HFFXA010
HFPLTPILOT:Joseph Giglio
HFGTYGLIDERTYPE:Bogdan Fly Cocon V3 / Phi Maestro 2
HFGIDGLIDERID:
HFDTM100GPSDATUM:WGS-1984
HFCIDCOMPETITIONID:7171
HFCCLCOMPETITIONCLASS:
HOSITSITE:LAUNCH
HFGPS:UBLOXNEO6
HFPRSPRESSALTSENSOR:NA
HFRFWFIRMWAREVERSION:202g
HFRHWHARDWAREVERSION:1.0R2
HFFTYFRTYPE:FLYMASTER,LIVE
HFDTE160625
B2023154748240N12002362WA0109501123
B2023164748240N12002364WA0109501123
B2023174748240N12002367WA0109501122
B2023184748239N12002370WA0109501122
B2023194748238N12002374WA0109401121
B2023204748237N12002378WA0109401119
B2023214748236N12002382WA0109401118
B2023224748235N12002386WA0109401117
B2023234748235N12002391WA0109301115
B2023244748233N12002396WA0109301114
B2023254748231N12002401WA0109201112
B2023264748229N12002405WA0109101111
B2023274748227N12002408WA0109101111
B2023284748225N12002411WA0109001111
B2023294748222N12002413WA0108901110
B2023304748219N12002415WA0108801109
B2023314748217N12002420WA0108701108
B2023324748214N12002423WA0108601107
B2023334748211N12002428WA0108501106
B2023344748208N12002433WA0108501107
B2023354748206N12002436WA0108501110
B2023364748205N12002438WA0108501113
B2023374748205N12002439WA0108501116
B2023384748204N12002440WA0108601116
B2023394748202N12002441WA0108601115
B2023404748198N12002444WA0108601113
B2023414748195N12002446WA0108601112
B2023424748192N12002447WA0108601112
B2023434748190N12002448WA0108601113
B2023444748187N12002449WA0108701113
B2023454748184N12002449WA0108701113
B2023464748180N12002451WA0108601111
B2023474748177N12002452WA0108601111
B2023484748174N12002454WA0108601113
B2023494748171N12002454WA0108701116
B2023504748169N12002454WA0108701118
B2023514748166N12002454WA0108701120
B2023524748164N12002454WA0108701122
B2023534748162N12002454WA0108801125
B2023544748159N12002453WA0108901129
B2023554748157N12002450WA0109001133
B2023564748156N12002448WA0109201137
B2023574748155N12002446WA0109401140
B2023584748155N12002446WA0109601143
B2023594748155N12002446WA0109701144
B2024004748155N12002445WA0110001144
B2024014748153N12002443WA0110101144
B2024024748151N12002441WA0110301143
B2024034748149N12002440WA0110401143
B2024044748148N12002439WA0110501142
B2024054748146N12002438WA0110601143
B2024064748144N12002438WA0110701144
B2024074748143N12002438WA0110801144
B2024084748142N12002439WA0110901144
B2024094748140N12002440WA0110901144
B2024104748139N12002441WA0111001144
B2024114748138N12002443WA0111101145
B2024124748137N12002445WA0111101145
B2024134748137N12002446WA0111101145
B2024144748136N12002447WA0111201144
B2024154748135N12002448WA0111201143
B2024164748133N12002450WA0111201142
B2024174748131N12002452WA0111201140
B2024184748129N12002455WA0111201139
B2024194748127N12002457WA0111201138
B2024204748125N12002457WA0111201139
B2024214748123N12002456WA0111101140
B2024224748120N12002455WA0111101139
B2024234748118N12002454WA0111101139
B2024244748115N12002454WA0111101138
B2024254748112N12002454WA0111101137
B2024264748110N12002453WA0111001137
B2024274748108N12002453WA0111001137
B2024284748106N12002453WA0111001137
B2024284748106N12002453WA0111001137
B2024294748104N12002453WA0111001136
B2024304748102N12002454WA0110901135
B2024314748099N12002455WA0110901135
B2024324748097N12002455WA0110801135
B2024334748095N12002456WA0110801135
B2024344748094N12002456WA0110801135
B2024354748092N12002457WA0110801135
B2024364748090N12002457WA0110701134
B2024374748087N12002458WA0110701134
B2024384748085N12002459WA0110601133
B2024394748082N12002459WA0110601132
B2024404748079N12002460WA0110601132
B2024414748077N12002460WA0110601131
B2024424748074N12002459WA0110501131
B2024434748071N12002458WA0110501131
B2024444748068N12002457WA0110401130
B2024454748066N12002456WA0110401130
B2024464748063N12002455WA0110401130
B2024474748061N12002456WA0110301129
B2024484748059N12002456WA0110301129
B2024494748057N12002458WA0110201128
B2024504748056N12002459WA0110201128
B2024514748055N12002460WA0110201128
B2024524748054N12002462WA0110101128
B2024534748053N12002464WA0110101128
B2024544748053N12002466WA0110001128
B2024554748052N12002468WA0110001128
B2024564748051N12002470WA0110001129
B2024574748050N12002471WA0110001129
B2024584748048N12002472WA0109901129
B2024594748046N12002473WA0109901129
B2025004748045N12002473WA0109901130
B2025014748043N12002473WA0109901130
B2025024748041N12002472WA0109901131
B2025034748040N12002471WA0109901131
B2025044748038N12002469WA0110001131
B2025054748037N12002468WA0110001131
B2025064748036N12002468WA0110001130
B2025074748034N12002468WA0110001129
B2025084748033N12002468WA0109901128
B2025094748031N12002467WA0109901127
B2025104748029N12002466WA0109901126
B2025114748027N12002465WA0109901125
B2025124748025N12002463WA0109801124
B2025134748023N12002461WA0109801123
B2025144748021N12002459WA0109701122
B2025154748020N12002457WA0109701121
B2025164748018N12002454WA0109601121
B2025174748015N12002451WA0109601119
B2025184748013N12002447WA0109501118
B2025194748011N12002444WA0109401118
B2025204748009N12002441WA0109401118
B2025214748008N12002438WA0109301118
B2025224748007N12002436WA0109301117
B2025234748006N12002435WA0109201116
B2025244748004N12002434WA0109101115
B2025254748002N12002433WA0109101114
B2025264748001N12002432WA0109001114
B2025274747999N12002430WA0108901113
B2025284747997N12002428WA0108801113
B2025294747994N12002426WA0108801112
B2025304747992N12002424WA0108701111
B2025314747990N12002421WA0108701111
B2025324747988N12002419WA0108601110
B2025324747988N12002419WA0108601110
B2025334747987N12002417WA0108601108
B2025344747985N12002416WA0108401106
B2025354747984N12002415WA0108401104
B2025364747982N12002416WA0108301103
B2025374747981N12002416WA0108201102
B2025384747980N12002417WA0108101101
B2025394747979N12002417WA0108001100
B2025404747978N12002418WA0107901098
B2025414747976N12002418WA0107801097
B2025424747973N12002417WA0107601096
B2025434747971N12002416WA0107601094
B2025444747969N12002416WA0107401093
B2025454747966N12002415WA0107301092
B2025464747964N12002415WA0107101091
B2025474747961N12002415WA0107001090
B2025484747959N12002414WA0106901089
B2025494747957N12002415WA0106801089
B2025504747954N12002414WA0106701088
B2025514747951N12002413WA0106701088
B2025524747949N12002412WA0106601087
B2025534747946N12002410WA0106501086
B2025544747942N12002409WA0106401085
B2025554747939N12002408WA0106301084
B2025564747935N12002406WA0106201083
B2025574747932N12002405WA0106201082
B2025584747929N12002403WA0106101082
B2025594747926N12002401WA0106001081
B2026004747923N12002401WA0105901080
B2026014747920N12002400WA0105801079
B2026024747917N12002400WA0105701077
B2026034747913N12002399WA0105701077
B2026044747910N12002397WA0105601077
B2026054747907N12002396WA0105501076
B2026064747905N12002394WA0105401076
B2026074747903N12002393WA0105401075
B2026084747900N12002391WA0105301074
B2026094747897N12002389WA0105201072
B2026104747894N12002388WA0105101071
B2026114747891N12002386WA0105001070
B2026124747888N12002385WA0104901070
B2026134747885N12002383WA0104801069
B2026144747882N12002381WA0104701067
B2026154747879N12002379WA0104701066
B2026164747876N12002377WA0104501063
B2026174747873N12002376WA0104401061
B2026184747870N12002375WA0104301059
B2026194747867N12002374WA0104201057
B2026204747863N12002372WA0104001054
B2026214747859N12002370WA0103901052
B2026224747855N12002369WA0103701050
B2026234747851N12002369WA0103601049
B2026244747848N12002368WA0103401048
B2026254747844N12002367WA0103301048
B2026264747840N12002365WA0103101048
B2026274747836N12002364WA0103001048
B2026284747833N12002363WA0102901048
B2026294747829N12002361WA0102801047
B2026304747826N12002359WA0102801046
B2026314747822N12002357WA0102701046
B2026324747820N12002356WA0102601046
B2026334747817N12002355WA0102601046
B2026344747815N12002354WA0102501046
B2026354747813N12002352WA0102401046
B2026364747811N12002351WA0102301045
B2026364747811N12002351WA0102301045
B2026374747808N12002350WA0102301043
B2026384747805N12002350WA0102201041
B2026394747802N12002350WA0102101038
B2026404747800N12002351WA0102001037
B2026414747797N12002352WA0101901036
B2026424747795N12002353WA0101801036
B2026434747792N12002355WA0101701035
B2026444747789N12002356WA0101601035
B2026454747786N12002356WA0101501035
B2026464747783N12002356WA0101501036
B2026474747780N12002356WA0101401036
B2026484747777N12002356WA0101301037
B2026494747775N12002356WA0101301039
B2026504747774N12002356WA0101301040
B2026514747775N12002356WA0101301041
B2026524747775N12002355WA0101301040
B2026534747774N12002354WA0101301038
B2026544747772N12002354WA0101201035
B2026554747769N12002354WA0101101031
B2026564747766N12002354WA0101101028
B2026574747762N12002353WA0101001026
B2026584747758N12002351WA0100901026
B2026594747755N12002350WA0100801027
B2027004747752N12002348WA0100701027
B2027014747749N12002345WA0100701028
B2027024747746N12002342WA0100601028
B2027034747744N12002339WA0100601028
B2027044747741N12002337WA0100501027
B2027054747738N12002336WA0100501026
B2027064747734N12002335WA0100401025
B2027074747729N12002334WA0100401023
B2027084747724N12002332WA0100301022
B2027094747719N12002331WA0100201022
B2027104747715N12002329WA0100201023
B2027114747711N12002327WA0100101024
B2027124747707N12002325WA0100101023
B2027134747704N12002323WA0100001023
B2027144747700N12002321WA0100001023
B2027154747697N12002319WA0100001023
B2027164747694N12002317WA0099901023
B2027174747690N12002313WA0099901024
B2027184747687N12002309WA0099901024
B2027194747684N12002306WA0099801023
B2027204747681N12002302WA0099801022
B2027214747677N12002299WA0099801021
B2027224747674N12002296WA0099701019
B2027234747670N12002293WA0099701018
B2027244747667N12002290WA0099601017
B2027254747664N12002287WA0099601017
B2027264747661N12002283WA0099501017
B2027274747658N12002279WA0099501015
B2027284747655N12002275WA0099401014
B2027294747652N12002270WA0099301012
B2027304747648N12002265WA0099201010
B2027314747645N12002260WA0099201009
B2027324747641N12002255WA0099101009
B2027334747638N12002250WA0099001009
B2027344747634N12002244WA0098901010
B2027354747632N12002239WA0098901011
B2027364747629N12002234WA0098801011
B2027374747626N12002229WA0098801011
B2027384747623N12002223WA0098801011
B2027394747620N12002218WA0098801012
B2027394747620N12002218WA0098801012
B2027404747618N12002212WA0098701012
B2027414747615N12002206WA0098701011
B2027424747612N12002198WA0098701010
B2027434747609N12002190WA0098701008
B2027444747605N12002182WA0098701006
B2027454747602N12002174WA0098601005
B2027464747598N12002167WA0098601004
B2027474747594N12002160WA0098501003
B2027484747590N12002153WA0098401001
B2027494747587N12002146WA0098401000
B2027504747582N12002140WA0098300998
B2027514747578N12002133WA0098200996
B2027524747574N12002126WA0098100994
B2027534747569N12002119WA0098000993
B2027544747565N12002113WA0097900993
B2027554747561N12002107WA0097800993
B2027564747558N12002102WA0097700993
B2027574747555N12002098WA0097600992
B2027584747552N12002094WA0097500991
B2027594747548N12002089WA0097400989
B2028004747543N12002084WA0097300986
B2028014747539N12002078WA0097300984
B2028024747534N12002074WA0097100984
B2028034747530N12002070WA0097000983
B2028044747526N12002066WA0096900983
B2028054747522N12002062WA0096800984
B2028064747518N12002057WA0096800983
B2028074747514N12002052WA0096700984
B2028084747510N12002047WA0096700985
B2028094747507N12002041WA0096600986
B2028104747503N12002035WA0096600988
B2028114747501N12002029WA0096600990
B2028124747500N12002024WA0096700992
B2028134747498N12002019WA0096700992
B2028144747495N12002014WA0096700991
B2028154747491N12002008WA0096700988
B2028164747487N12002002WA0096700987
B2028174747483N12001997WA0096700987
B2028184747480N12001993WA0096700989
B2028194747477N12001990WA0096800991
B2028204747473N12001987WA0096800991
B2028214747469N12001986WA0096800990
B2028224747465N12001985WA0096800989
B2028234747461N12001983WA0096800990
B2028244747458N12001979WA0096900991
B2028254747455N12001975WA0096900991
B2028264747452N12001972WA0096900991
B2028274747448N12001968WA0096900990
B2028284747443N12001965WA0096900989
B2028294747438N12001960WA0096900989
B2028304747433N12001956WA0096900989
B2028314747429N12001951WA0096900989
B2028324747425N12001945WA0096900990
B2028334747422N12001938WA0096900990
B2028344747418N12001932WA0096900991
B2028354747415N12001926WA0096900991
B2028364747411N12001919WA0096900992
B2028374747407N12001913WA0096900992
B2028384747404N12001907WA0096900992
B2028394747400N12001902WA0097000994
B2028404747397N12001897WA0097000994
B2028414747394N12001891WA0097000995
B2028424747390N12001884WA0097100994
B2028434747386N12001877WA0097100994
B2028434747386N12001877WA0097100994
B2028444747383N12001870WA0097100994
B2028454747381N12001864WA0097100994
B2028464747379N12001859WA0097100994
B2028474747377N12001854WA0097200993
B2028484747374N12001848WA0097200993
B2028494747372N12001842WA0097200992
B2028504747369N12001835WA0097200992
B2028514747367N12001828WA0097200992
B2028524747364N12001823WA0097200993
B2028534747362N12001817WA0097200993
B2028544747360N12001810WA0097200993
B2028554747357N12001802WA0097200992
B2028564747354N12001795WA0097200991
B2028574747352N12001788WA0097200992
B2028584747350N12001782WA0097200992
B2028594747348N12001775WA0097200992
B2029004747346N12001767WA0097200991
B2029014747344N12001759WA0097200989
B2029024747341N12001752WA0097200988
B2029034747339N12001746WA0097100988
B2029044747336N12001741WA0097100988
B2029054747334N12001735WA0097100989
B2029064747331N12001728WA0097100990
B2029074747328N12001722WA0097000991
B2029084747326N12001714WA0097100991
B2029094747323N12001707WA0097100991
B2029104747321N12001698WA0097100990
B2029114747318N12001690WA0097100990
B2029124747316N12001683WA0097100990
B2029134747313N12001675WA0097100991
B2029144747311N12001667WA0097100990
B2029154747308N12001658WA0097100989
B2029164747305N12001650WA0097100989
B2029174747302N12001642WA0097100989
B2029184747300N12001633WA0097100989
B2029194747297N12001624WA0097100990
B2029204747295N12001616WA0097100990
B2029214747293N12001607WA0097100990
B2029224747290N12001599WA0097100989
B2029234747288N12001591WA0097100988
B2029244747285N12001583WA0097100986
B2029254747282N12001575WA0097100984
B2029264747280N12001567WA0097000982
B2029274747278N12001558WA0097000980
B2029284747275N12001547WA0096900978
B2029294747272N12001537WA0096800976
B2029304747269N12001527WA0096700975
B2029314747266N12001518WA0096600974
B2029324747263N12001510WA0096500974
B2029334747260N12001501WA0096400973
B2029344747257N12001492WA0096300972
B2029354747255N12001482WA0096300972
B2029364747252N12001473WA0096100971
B2029374747249N12001463WA0096100970
B2029384747247N12001453WA0096000970
B2029394747245N12001444WA0095900969
B2029404747244N12001434WA0095800968
B2029414747242N12001424WA0095800967
B2029424747240N12001414WA0095700964
B2029434747237N12001404WA0095600962
B2029444747234N12001394WA0095500960
B2029454747231N12001385WA0095400958
B2029464747228N12001376WA0095200957
B2029464747228N12001376WA0095200957
B2029474747224N12001369WA0095100955
B2029484747221N12001362WA0095000952
B2029494747218N12001355WA0094800949
B2029504747215N12001346WA0094600944
B2029514747212N12001337WA0094400939
B2029524747208N12001329WA0094200934
B2029534747204N12001320WA0094000930
B2029544747201N12001311WA0093700927
B2029554747198N12001301WA0093400923
B2029564747195N12001291WA0093100920
B2029574747192N12001282WA0092900917
B2029584747190N12001273WA0092600914
B2029594747187N12001264WA0092300911
B2030004747184N12001254WA0092000907
B2030014747181N12001245WA0091800903
B2030024747178N12001235WA0091400899
B2030034747174N12001225WA0091100895
B2030044747170N12001214WA0090800892
B2030054747167N12001204WA0090500889
B2030064747165N12001193WA0090100886
B2030074747162N12001183WA0089900884
B2030084747160N12001172WA0089500882
B2030094747157N12001162WA0089300879
B2030104747154N12001152WA0088900877
B2030114747151N12001141WA0088700873
B2030124747148N12001131WA0088400871
B2030134747146N12001120WA0088200869
B2030144747142N12001109WA0087800866
B2030154747139N12001099WA0087600864
B2030164747136N12001089WA0087300861
B2030174747133N12001078WA0087100859
B2030184747130N12001067WA0086800856
B2030194747127N12001056WA0086600854
B2030204747125N12001044WA0086300851
B2030214747123N12001034WA0086100849
B2030224747122N12001023WA0085800846
B2030234747120N12001011WA0085600842
B2030244747118N12000999WA0085200839
B2030254747117N12000987WA0085000835
B2030264747116N12000975WA0084700833
B2030274747114N12000965WA0084500832
B2030284747111N12000955WA0084200830
B2030294747109N12000947WA0084000828
B2030304747106N12000938WA0083700826
B2030314747105N12000928WA0083500823
B2030324747103N12000918WA0083200820
B2030334747102N12000908WA0083000816
B2030344747101N12000898WA0082700814
B2030354747101N12000890WA0082500811
B2030364747101N12000881WA0082200807
B2030374747100N12000873WA0082000805
B2030384747099N12000864WA0081700802
B2030394747098N12000856WA0081500798
B2030404747096N12000847WA0081100795
B2030414747095N12000837WA0080900791
B2030424747093N12000828WA0080500787
B2030434747091N12000818WA0080300783
B2030444747090N12000809WA0079900780
B2030454747089N12000799WA0079700776
B2030464747089N12000788WA0079300772
B2030474747088N12000777WA0079000767
B2030484747087N12000767WA0078600764
B2030494747086N12000757WA0078400762
B2030494747086N12000757WA0078400762
B2030504747084N12000748WA0078000758
B2030514747083N12000738WA0077700755
B2030524747083N12000726WA0077400752
B2030534747083N12000715WA0077100748
B2030544747083N12000703WA0076700744
B2030554747083N12000692WA0076400742
B2030564747084N12000680WA0076100739
B2030574747085N12000669WA0075800736
B2030584747085N12000656WA0075400734
B2030594747086N12000644WA0075200732
B2031004747086N12000633WA0074800730
B2031014747086N12000621WA0074600730
B2031024747085N12000611WA0074300729
B2031034747085N12000601WA0074100728
B2031044747085N12000592WA0073800728
B2031054747085N12000581WA0073700726
B2031064747085N12000569WA0073400725
B2031074747085N12000557WA0073300724
B2031084747085N12000545WA0073000723
B2031094747086N12000533WA0072900723
B2031104747087N12000522WA0072700723
B2031114747088N12000511WA0072600723
B2031124747089N12000500WA0072500723
B2031134747090N12000489WA0072400724
B2031144747091N12000478WA0072300725
B2031154747092N12000468WA0072200725
B2031164747093N12000457WA0072200726
B2031174747094N12000447WA0072200727
B2031184747096N12000436WA0072100728
B2031194747097N12000425WA0072100729
B2031204747098N12000414WA0072100730
B2031214747100N12000403WA0072100732
B2031224747100N12000393WA0072200735
B2031234747101N12000384WA0072200739
B2031244747102N12000377WA0072300741
B2031254747103N12000369WA0072400741
B2031264747104N12000358WA0072500740
B2031274747107N12000346WA0072500739
B2031284747109N12000334WA0072600737
B2031294747112N12000323WA0072600738
B2031304747114N12000312WA0072700739
B2031314747116N12000301WA0072700740
B2031324747118N12000290WA0072800741
B2031334747121N12000279WA0072800742
B2031344747124N12000269WA0072900743
B2031354747126N12000259WA0072900745
B2031364747129N12000249WA0073000748
B2031374747130N12000240WA0073100751
B2031384747132N12000230WA0073200754
B2031394747134N12000221WA0073300757
B2031404747135N12000213WA0073500759
B2031414747136N12000205WA0073600761
B2031424747137N12000197WA0073800762
B2031434747138N12000188WA0073900763
B2031444747139N12000179WA0074100763
B2031454747140N12000170WA0074200764
B2031464747141N12000161WA0074400765
B2031474747142N12000152WA0074500766
B2031484747142N12000143WA0074600766
B2031494747143N12000134WA0074700767
B2031504747143N12000125WA0074800768
B2031514747144N12000115WA0074900768
B2031524747145N12000106WA0075000769
B2031524747145N12000106WA0075000769
B2031534747146N12000097WA0075100771
B2031544747146N12000088WA0075200773
B2031554747147N12000081WA0075300775
B2031564747147N12000072WA0075400776
B2031574747148N12000062WA0075500777
B2031584747149N12000052WA0075700778
B2031594747149N12000042WA0075800780
B2032004747150N12000032WA0075900782
B2032014747151N12000023WA0076000784
B2032024747151N12000014WA0076200785
B2032034747152N12000005WA0076300785
B2032044747153N11959996WA0076400786
B2032054747153N11959986WA0076500786
B2032064747154N11959977WA0076600786
B2032074747155N11959966WA0076700785
B2032084747156N11959956WA0076800785
B2032094747157N11959946WA0076900785
B2032104747158N11959936WA0076900785
B2032114747160N11959925WA0077000784
B2032124747160N11959914WA0077000784
B2032134747160N11959903WA0077000784
B2032144747161N11959891WA0077000784
B2032154747161N11959881WA0077100785
B2032164747161N11959871WA0077100785
B2032174747163N11959860WA0077100784
B2032184747164N11959849WA0077100784
B2032194747165N11959838WA0077100783
B2032204747166N11959827WA0077100783
B2032214747167N11959815WA0077100783
B2032224747167N11959803WA0077100782
B2032234747166N11959791WA0077100782
B2032244747166N11959779WA0077100783
B2032254747166N11959767WA0077100783
B2032264747166N11959755WA0077100783
B2032274747166N11959743WA0077100783
B2032284747166N11959732WA0077100783
B2032294747167N11959720WA0077100783
B2032304747169N11959709WA0077100784
B2032314747170N11959698WA0077100784
B2032324747171N11959687WA0077100784
B2032334747172N11959675WA0077100783
B2032344747173N11959663WA0077100782
B2032354747175N11959650WA0077100781
B2032364747177N11959638WA0077100781
B2032374747180N11959627WA0077100781
B2032384747182N11959618WA0077100781
B2032394747185N11959611WA0077100780
B2032404747188N11959603WA0077000778
B2032414747192N11959595WA0077000774
B2032424747197N11959585WA0076900769
B2032434747202N11959575WA0076800766
B2032444747206N11959565WA0076700766
B2032454747208N11959556WA0076600766
B2032464747211N11959547WA0076400765
B2032474747213N11959538WA0076300762
B2032484747217N11959527WA0076200758
B2032494747221N11959516WA0076000755
B2032504747225N11959505WA0075800752
B2032514747228N11959495WA0075700751
B2032524747230N11959486WA0075500749
B2032534747233N11959476WA0075400747
B2032544747237N11959466WA0075100745
B2032554747240N11959456WA0075000742
B2032554747240N11959456WA0075000742
B2032564747244N11959445WA0074800740
B2032574747247N11959435WA0074600739
B2032584747249N11959425WA0074400737
B2032594747252N11959416WA0074200736
B2033004747254N11959406WA0074000734
B2033014747257N11959396WA0073900732
B2033024747260N11959386WA0073700730
B2033034747263N11959376WA0073500729
B2033044747266N11959367WA0073300727
B2033054747268N11959357WA0073200725
B2033064747270N11959346WA0073000723
B2033074747273N11959335WA0072800720
B2033084747275N11959324WA0072600718
B2033094747279N11959313WA0072400715
B2033104747282N11959302WA0072200712
B2033114747285N11959291WA0072000710
B2033124747288N11959280WA0071800707
B2033134747291N11959270WA0071600705
B2033144747294N11959259WA0071300703
B2033154747297N11959249WA0071200702
B2033164747299N11959238WA0070900700
B2033174747301N11959227WA0070800698
B2033184747303N11959215WA0070500697
B2033194747306N11959204WA0070400696
B2033204747308N11959194WA0070300696
B2033214747312N11959185WA0070100696
B2033224747315N11959175WA0070000695
B2033234747318N11959166WA0069800695
B2033244747321N11959156WA0069700694
B2033254747324N11959146WA0069600693
B2033264747327N11959136WA0069400693
B2033274747330N11959126WA0069300692
B2033284747333N11959115WA0069300690
B2033294747336N11959105WA0069100688
B2033304747338N11959096WA0069000686
B2033314747341N11959086WA0068900684
B2033324747345N11959077WA0068700681
B2033334747350N11959069WA0068600679
B2033344747355N11959062WA0068500677
B2033354747360N11959057WA0068300675
B2033364747365N11959054WA0068100673
B2033374747370N11959053WA0068000670
B2033384747375N11959053WA0067800667
B2033394747380N11959054WA0067600665
B2033404747385N11959053WA0067500663
B2033414747390N11959051WA0067300662
B2033424747395N11959045WA0067100659
B2033434747401N11959038WA0066900656
B2033444747405N11959028WA0066700652
B2033454747409N11959019WA0066500650
B2033464747413N11959009WA0066200649
B2033474747417N11959001WA0066100647
B2033484747422N11958993WA0065800646
B2033494747427N11958985WA0065700644
B2033504747432N11958977WA0065500642
B2033514747438N11958970WA0065300639
B2033524747444N11958965WA0065000638
B2033534747450N11958962WA0064900636
B2033544747456N11958962WA0064700634
B2033554747461N11958966WA0064500631
B2033564747464N11958972WA0064300627
B2033574747463N11958977WA0064100623
B2033584747459N11958978WA0063900620
B2033594747455N11958973WA0063600618
B2033594747455N11958973WA0063600618
B2034004747454N11958963WA0063400615
B2034014747457N11958952WA0063100611
B2034024747464N11958946WA0062900607
B2034034747472N11958947WA0062600604
B2034044747477N11958953WA0062400602
B2034054747478N11958959WA0062100600
B2034064747476N11958963WA0061900599
B2034074747476N11958967WA0061600598
B2034084747476N11958971WA0061400598
B2034094747476N11958976WA0061100596
B2034104747477N11958981WA0061000595
B2034114747478N11958987WA0060700595
B2034124747478N11958992WA0060600595
B2034134747479N11958996WA0060400595
B2034144747481N11958999WA0060300595
B2034154747484N11959003WA0060100594
B2034164747489N11959005WA0060000592
B2034174747495N11959004WA0059800589
B2034184747502N11959000WA0059700586
B2034194747507N11958991WA0059500584
B2034204747510N11958981WA0059400583
B2034214747510N11958972WA0059200581
B2034224747508N11958964WA0059100580
B2034234747504N11958958WA0058900579
B2034244747501N11958956WA0058800578
B2034254747498N11958958WA0058600577
B2034264747496N11958964WA0058500575
B2034274747497N11958970WA0058300573
B2034284747500N11958975WA0058200572
B2034294747504N11958978WA0058100572
B2034304747509N11958978WA0058000572
B2034314747513N11958978WA0057800571
B2034324747518N11958978WA0057700570
B2034334747524N11958978WA0057600569
B2034344747529N11958978WA0057500567
B2034354747535N11958977WA0057300567
B2034364747540N11958977WA0057300567
B2034374747545N11958977WA0057100566
B2034384747550N11958977WA0057100565
B2034394747556N11958979WA0056900563
B2034404747561N11958981WA0056900562
B2034414747566N11958984WA0056700561
B2034424747568N11958988WA0056700561
B2034434747568N11958992WA0056600560
B2034444747567N11958996WA0056500557
B2034454747566N11959000WA0056400556
B2034464747567N11959004WA0056300555
B2034474747570N11959007WA0056200555
B2034484747574N11959009WA0056100554
B2034494747578N11959010WA0056000554
B2034504747581N11959011WA0055900555
B2034514747583N11959013WA0055800555
B2034524747583N11959017WA0055700553
B2034534747580N11959021WA0055600550
B2034544747577N11959025WA0055600548
B2034554747574N11959029WA0055500548
B2034564747572N11959031WA0055400549
B2034574747573N11959035WA0055300550
B2034584747575N11959039WA0055300549
B2034594747577N11959043WA0055200549
B2035004747579N11959048WA0055200549
B2035014747581N11959052WA0055100550
B2035024747584N11959055WA0055100551
B2035034747586N11959058WA0055100552
B2035034747586N11959058WA0055100552
B2035044747589N11959062WA0055100553
B2035054747591N11959065WA0055100553
B2035064747593N11959069WA0055000553
B2035074747594N11959072WA0055000553
B2035084747595N11959075WA0055000553
B2035094747596N11959078WA0055000555
B2035104747597N11959080WA0055100556
B2035114747598N11959082WA0055100557
B2035124747599N11959085WA0055100557
B2035134747599N11959088WA0055100557
B2035144747598N11959091WA0055200559
B2035154747595N11959092WA0055200561
B2035164747592N11959093WA0055300563
B2035174747589N11959093WA0055400564
B2035184747586N11959093WA0055400565
B2035194747583N11959095WA0055500564
B2035204747583N11959098WA0055500563
B2035214747583N11959102WA0055600562
B2035224747586N11959105WA0055600561
B2035234747589N11959107WA0055600560
B2035244747592N11959108WA0055600560
B2035254747596N11959109WA0055600559
B2035264747601N11959110WA0055600557
B2035274747605N11959111WA0055500556
B2035284747610N11959111WA0055500555
B2035294747615N11959111WA0055400554
B2035304747621N11959109WA0055400554
B2035314747626N11959106WA0055300553
B2035324747631N11959104WA0055300553
B2035334747635N11959102WA0055300552
B2035344747640N11959101WA0055200551
B2035354747645N11959099WA0055100551
B2035364747650N11959098WA0055100551
B2035374747655N11959097WA0055000551
B2035384747658N11959099WA0055000552
B2035394747661N11959101WA0055000551
B2035404747662N11959104WA0055000550
B2035414747662N11959107WA0054900549
B2035424747660N11959109WA0054900547
B2035434747658N11959110WA0054800545
B2035444747656N11959112WA0054800544
B2035454747653N11959114WA0054600543
B2035464747651N11959116WA0054600542
B2035474747649N11959119WA0054500543
B2035484747647N11959121WA0054400543
B2035494747646N11959122WA0054400544
B2035504747644N11959125WA0054300544
B2035514747644N11959127WA0054300543
B2035524747644N11959131WA0054200542
B2035534747646N11959134WA0054100540
B2035544747647N11959139WA0054100539
B2035554747649N11959144WA0054000538
B2035564747649N11959147WA0053900540
B2035574747649N11959149WA0053900542
B2035584747648N11959150WA0053800542
B2035594747645N11959152WA0053800542
B2036004747641N11959155WA0053800541
B2036014747638N11959156WA0053700541
B2036024747633N11959155WA0053700542
B2036034747629N11959152WA0053700543
B2036044747625N11959148WA0053700543
B2036054747620N11959143WA0053700543
B2036054747620N11959143WA0053700543
B2036064747616N11959136WA0053700543
B2036074747612N11959129WA0053800544
B2036084747608N11959123WA0053800544
B2036094747603N11959118WA0053800545
B2036104747599N11959116WA0053800544
B2036114747595N11959116WA0053800544
B2036124747592N11959118WA0053800543
B2036134747590N11959121WA0053800544
B2036144747591N11959123WA0053800545
B2036154747593N11959124WA0053900544
B2036164747596N11959124WA0053900543
B2036174747601N11959123WA0053900542
B2036184747606N11959119WA0053800541
B2036194747610N11959113WA0053800540
B2036204747612N11959103WA0053800539
B2036214747612N11959093WA0053700537
B2036224747609N11959084WA0053700535
B2036234747603N11959080WA0053600534
B2036244747598N11959082WA0053600531
B2036254747598N11959088WA0053500530
B2036264747602N11959091WA0053400528
B2036274747608N11959085WA0053300524
B2036284747612N11959073WA0053200521
B2036294747612N11959059WA0053000520
B2036304747609N11959048WA0052900520
B2036314747606N11959040WA0052800521
B2036324747603N11959035WA0052700523
B2036334747599N11959030WA0052600524
B2036344747596N11959026WA0052600524
B2036354747592N11959023WA0052500523
B2036364747588N11959022WA0052400523
B2036374747586N11959022WA0052400523
B2036384747585N11959024WA0052400523
B2036394747584N11959026WA0052300522
B2036404747585N11959029WA0052300522
B2036414747586N11959032WA0052200521
B2036424747588N11959036WA0052200521
B2036434747591N11959038WA0052100521
B2036444747594N11959039WA0052100522
B2036454747596N11959040WA0052000521
B2036464747599N11959040WA0052000520
B2036474747602N11959042WA0052000519
B2036484747606N11959044WA0051900518
B2036494747609N11959046WA0051900518
B2036504747612N11959048WA0051900520
B2036514747613N11959050WA0051800522
B2036524747615N11959053WA0051800523
B2036534747616N11959056WA0051900524
B2036544747618N11959058WA0051900526
B2036554747621N11959061WA0051900528
B2036564747623N11959063WA0052000530
B2036574747627N11959064WA0052100532
B2036584747632N11959065WA0052100534
B2036594747638N11959064WA0052200535
B2037004747645N11959062WA0052300535
B2037014747652N11959057WA0052400536
B2037024747658N11959050WA0052400537
B2037034747662N11959041WA0052500537
B2037044747665N11959031WA0052600537
B2037054747667N11959021WA0052700537
B2037064747670N11959012WA0052700537
B2037074747673N11959005WA0052800536
B2037084747677N11958996WA0052800534
B2037094747681N11958987WA0052800533
B2037094747681N11958987WA0052800533
B2037104747684N11958979WA0052800531
B2037114747688N11958970WA0052800530
B2037124747693N11958963WA0052700529
B2037134747698N11958957WA0052700528
B2037144747702N11958951WA0052700529
B2037154747706N11958946WA0052600529
B2037164747710N11958941WA0052600530
B2037174747714N11958936WA0052500531
B2037184747719N11958933WA0052500530
B2037194747723N11958933WA0052500529
B2037204747726N11958935WA0052400528
B2037214747727N11958939WA0052400528
B2037224747726N11958943WA0052400527
B2037234747724N11958946WA0052400527
B2037244747722N11958950WA0052300527
B2037254747721N11958954WA0052300528
B2037264747722N11958956WA0052300528
B2037274747724N11958959WA0052300527
B2037284747727N11958961WA0052200525
B2037294747730N11958964WA0052200522
B2037304747734N11958966WA0052100521
B2037314747736N11958970WA0052000520
B2037324747737N11958974WA0051900519
B2037334747735N11958978WA0051900517
B2037344747731N11958981WA0051800514
B2037354747729N11958984WA0051700513
B2037364747728N11958987WA0051600513
B2037374747730N11958990WA0051500512
B2037384747733N11958993WA0051400509
B2037394747736N11958996WA0051300507
B2037404747738N11958999WA0051100504
B2037414747738N11959003WA0051000502
B2037424747737N11959007WA0050800501
B2037434747734N11959009WA0050700500
B2037444747730N11959009WA0050600498
B2037454747726N11959009WA0050400497
B2037464747723N11959009WA0050300496
B2037474747721N11959011WA0050100495
B2037484747721N11959015WA0050000493
B2037494747722N11959019WA0049800490
B2037504747726N11959021WA0049700489
B2037514747731N11959019WA0049500487
B2037524747736N11959013WA0049400483
B2037534747740N11959003WA0049200479
B2037544747739N11958990WA0049000475
B2037554747734N11958981WA0048800471
B2037564747728N11958980WA0048600467
B2037574747725N11958986WA0048300465
B2037584747728N11958991WA0048100461
B2037594747736N11958991WA0047800457
B2038004747742N11958982WA0047600453
B2038014747742N11958968WA0047300450
B2038024747737N11958959WA0047100447
B2038034747731N11958958WA0046800444
B2038044747728N11958963WA0046500441
B2038054747730N11958969WA0046200438
B2038064747737N11958970WA0046000435
B2038074747743N11958964WA0045600432
B2038084747746N11958954WA0045400430
B2038094747746N11958943WA0045100428
B2038104747744N11958933WA0044900427
B2038114747741N11958926WA0044600426
B2038124747738N11958921WA0044400426
B2038124747738N11958921WA0044400426
B2038134747734N11958918WA0044100425
B2038144747730N11958916WA0044000424
B2038154747726N11958917WA0043700422
B2038164747724N11958921WA0043600420
B2038174747723N11958925WA0043400418
B2038184747723N11958929WA0043200418
B2038194747725N11958932WA0043000418
B2038204747727N11958934WA0042900418
B2038214747729N11958937WA0042700417
B2038224747732N11958940WA0042600415
B2038234747735N11958943WA0042400412
B2038244747738N11958947WA0042300410
B2038254747740N11958950WA0042200409
B2038264747743N11958954WA0042100408
B2038274747745N11958957WA0041900406
B2038284747748N11958961WA0041800404
B2038294747750N11958964WA0041600402
B2038304747753N11958969WA0041500400
B2038314747755N11958973WA0041300398
B2038324747757N11958976WA0041200398
B2038334747759N11958979WA0041000397
B2038344747760N11958981WA0040900395
B2038354747762N11958983WA0040700394
B2038364747764N11958986WA0040600392
B2038374747766N11958989WA0040400390
B2038384747768N11958992WA0040300389
B2038394747769N11958995WA0040100388
B2038404747770N11958997WA0040000388
B2038414747772N11959000WA0039800387
B2038424747774N11959002WA0039700386
B2038434747776N11959005WA0039600384
B2038444747778N11959008WA0039500382
B2038454747780N11959011WA0039300381
B2038464747781N11959014WA0039300381
B2038474747782N11959018WA0039100379
B2038484747783N11959021WA0039000378
B2038494747784N11959024WA0038900377
B2038504747785N11959026WA0038800376
B2038514747785N11959029WA0038600375
B2038524747785N11959031WA0038500374
B2038534747784N11959033WA0038400372
B2038544747783N11959036WA0038300370
B2038554747782N11959038WA0038200369
B2038564747781N11959040WA0038100368
B2038574747780N11959041WA0038000367
B2038584747779N11959043WA0037900366
B2038594747777N11959045WA0037700365
B2039004747775N11959047WA0037700364
B2039014747775N11959050WA0037500364
B2039024747776N11959053WA0037500364
B2039034747778N11959056WA0037300364
B2039044747781N11959058WA0037300363
B2039054747785N11959060WA0037200362
B2039064747788N11959061WA0037100362
B2039074747792N11959063WA0037000361
B2039084747796N11959064WA0036900360
B2039094747801N11959065WA0036800360
B2039104747805N11959067WA0036800360
B2039114747807N11959070WA0036700359
B2039124747809N11959073WA0036600359
B2039134747809N11959076WA0036600359
B2039144747808N11959079WA0036500358
B2039154747806N11959082WA0036500358
B2039154747806N11959082WA0036500358
B2039164747803N11959083WA0036400358
B2039174747800N11959083WA0036300357
B2039184747797N11959083WA0036300356
B2039194747793N11959082WA0036300355
B2039204747790N11959081WA0036200353
B2039214747787N11959081WA0036200352
B2039224747783N11959081WA0036100349
B2039234747779N11959081WA0036000347
B2039244747775N11959080WA0035900346
B2039254747770N11959078WA0035800346
B2039264747766N11959074WA0035800345
B2039274747763N11959069WA0035700345
B2039284747761N11959062WA0035600345
B2039294747760N11959052WA0035500345
B2039304747761N11959043WA0035500344
B2039314747762N11959034WA0035400343
B2039324747765N11959024WA0035400342
B2039334747769N11959015WA0035300341
B2039344747774N11959005WA0035200340
B2039354747779N11958997WA0035100339
B2039364747785N11958990WA0035000339
B2039374747789N11958982WA0034900338
B2039384747794N11958974WA0034800337
B2039394747798N11958964WA0034700335
B2039404747801N11958954WA0034600333
B2039414747804N11958943WA0034500331
B2039424747808N11958933WA0034400330
B2039434747812N11958923WA0034300329
B2039444747816N11958915WA0034200328
B2039454747821N11958907WA0034100327
B2039464747826N11958899WA0034000326
B2039474747831N11958893WA0033900323
B2039484747838N11958887WA0033800322
B2039494747844N11958883WA0033600320
B2039504747850N11958880WA0033500319
B2039514747856N11958877WA0033400318
B2039524747861N11958875WA0033300318
B2039534747865N11958873WA0033200319
B2039544747869N11958872WA0033100318
B2039554747873N11958871WA0033000316
B2039564747877N11958871WA0033000315
B2039574747880N11958872WA0032900314
B2039584747884N11958874WA0032800313
B2039594747888N11958877WA0032700312
B2040004747892N11958880WA0032600312
B2040014747896N11958882WA0032500311
B2040024747898N11958883WA0032400311
B2040034747901N11958885WA0032300310
B2040044747904N11958888WA0032300307
B2040054747908N11958892WA0032100305
B2040064747911N11958895WA0032100303
B2040074747914N11958897WA0031900302
B2040084747917N11958900WA0031900301
B2040094747919N11958902WA0031700300
B2040104747922N11958905WA0031600299
B2040114747925N11958908WA0031500297
B2040124747928N11958912WA0031400295
B2040134747931N11958915WA0031200295
B2040144747934N11958917WA0031100294
B2040154747937N11958919WA0031000294
B2040164747940N11958919WA0030900294
B2040174747943N11958920WA0030800293
B2040184747946N11958921WA0030700292
B2040184747946N11958921WA0030700292
B2040194747949N11958924WA0030600292
B2040204747951N11958927WA0030500292
B2040214747954N11958930WA0030400292
B2040224747957N11958931WA0030300292
B2040234747960N11958932WA0030200292
B2040244747964N11958933WA0030100291
B2040254747967N11958934WA0030000290
B2040264747970N11958936WA0029900289
B2040274747973N11958939WA0029800289
B2040284747976N11958943WA0029800288
B2040294747978N11958947WA0029700288
B2040304747981N11958951WA0029600288
B2040314747984N11958953WA0029500287
B2040324747987N11958954WA0029400287
B2040334747991N11958956WA0029300287
B2040344747994N11958958WA0029300288
B2040354747996N11958962WA0029200287
B2040364747998N11958966WA0029100287
B2040374747998N11958969WA0029100288
B2040384747997N11958972WA0029000287
B2040394747995N11958975WA0028900286
B2040404747992N11958977WA0028900285
B2040414747991N11958981WA0028800284
B2040424747991N11958985WA0028700281
B2040434747993N11958989WA0028600279
B2040444747995N11958993WA0028500277
B2040454747997N11958995WA0028400277
B2040464747997N11958997WA0028300276
B2040474747998N11959000WA0028200274
B2040484747998N11959004WA0028100271
B2040494747998N11959008WA0028000268
B2040504747999N11959011WA0027900267
B2040514748000N11959013WA0027700267
B2040524748001N11959015WA0027600266
B2040534748000N11959018WA0027500264
B2040544747999N11959021WA0027400260
B2040554747997N11959024WA0027300258
B2040564747994N11959025WA0027200258
B2040574747992N11959025WA0027000257
B2040584747990N11959027WA0026900256
B2040594747988N11959029WA0026800254
B2041004747985N11959033WA0026700253
B2041014747984N11959035WA0026600252
B2041024747982N11959038WA0026500252
B2041034747981N11959040WA0026400251
B2041044747979N11959045WA0026300249
B2041054747976N11959050WA0026200245
B2041064747974N11959053WA0026100244
B2041074747971N11959055WA0026000244
B2041084747968N11959055WA0026000244
B2041094747965N11959056WA0025800242
B2041104747963N11959058WA0025800240
B2041114747960N11959062WA0025600238
B2041124747958N11959065WA0025600237
B2041134747956N11959067WA0025400236
B2041144747955N11959068WA0025400236
B2041154747953N11959071WA0025200236
B2041164747952N11959074WA0025200234
B2041174747950N11959077WA0025100233
B2041184747948N11959079WA0025000232
B2041194747946N11959080WA0024900231
B2041204747945N11959080WA0024800230
B2041214747943N11959081WA0024700228
B2041214747943N11959081WA0024700228
B2041224747942N11959081WA0024600227
B2041234747941N11959082WA0024500226
B2041244747941N11959081WA0024500225
B2041254747941N11959080WA0024400225
B2041264747941N11959080WA0024300224
B2041274747942N11959080WA0024200224
B2041284747942N11959080WA0024100224
B2041294747942N11959080WA0024100224
B2041304747942N11959080WA0024000224
B2041314747942N11959080WA0024000224
B2041324747942N11959080WA0023900224
B2041334747942N11959080WA0023900224
B2041344747942N11959080WA0023900224
B2041354747942N11959080WA0023800224
B2041364747942N11959080WA0023800224
B2041374747942N11959080WA0023800224
B2041384747942N11959080WA0023800224
B2041394747942N11959079WA0023800224
B2041404747942N11959079WA0023800224
B2041414747942N11959079WA0023800223
B2041424747943N11959078WA0023800223
B2041434747943N11959078WA0023700223
B2041444747943N11959078WA0023700223
B2041454747943N11959078WA0023700223
B2041464747943N11959078WA0023700223
B2041474747943N11959078WA0023700223
B2041484747944N11959078WA0023700223
B2041494747944N11959078WA0023700223
B2041504747944N11959078WA0023700223
B2041514747944N11959078WA0023700223
B2041524747944N11959078WA0023700223
B2041534747944N11959078WA0023700223
B2041544747944N11959078WA0023700223
B2041554747944N11959078WA0023700222
B2041564747944N11959078WA0023700222
B2041574747944N11959078WA0023700222
B2041584747944N11959078WA0023700222
B2041594747944N11959078WA0023700222
B2042004747943N11959077WA0023600223
B2042014747943N11959076WA0023600223
B2042024747943N11959076WA0023600223
B2042034747943N11959075WA0023600222
B2042044747943N11959074WA0023600222
B2042054747943N11959074WA0023600222
B2042064747943N11959073WA0023600222
B2042074747943N11959072WA0023600222
B2042084747942N11959072WA0023600221
B2042094747942N11959071WA0023600221
B2042104747942N11959070WA0023600221
B2042114747942N11959070WA0023600221
B2042124747941N11959069WA0023600221
B2042134747941N11959069WA0023600221
B2042144747941N11959068WA0023600221
B2042154747941N11959067WA0023600221
B2042164747941N11959067WA0023600221
B2042174747941N11959066WA0023600221
B2042184747941N11959066WA0023600221
B2042194747941N11959065WA0023600222
B2042204747941N11959064WA0023600222
B2042214747940N11959063WA0023600222
B2042224747940N11959063WA0023600222
B2042234747939N11959062WA0023600221
B2042244747939N11959062WA0023600221
