AXFMSFP Flymaster Live, V1.0
HFFXA010
HFPLTPILOT:Nathan Pohl
HFGTYGLIDERTYPE:Woody Valley G2O Light 2 / Ozone Swift 6
HFGIDGLIDERID:
HFDTM100GPSDATUM:WGS-1984
HFCIDCOMPETITIONID:1211
HFCCLCOMPETITIONCLASS:
HOSITSITE:LAUNCH
HFGPS:UBLOXNEO6
HFPRSPRESSALTSENSOR:NA
HFRFWFIRMWAREVERSION:202g
HFRHWHARDWAREVERSION:1.0R2
HFFTYFRTYPE:FLYMASTER,LIVE
HFDTE160625
B1920334748241N12002364WA0109001116
B1920344748241N12002366WA0109001116
B1920354748242N12002370WA0109001116
B1920364748243N12002373WA0109001115
B1920374748243N12002376WA0109001114
B1920384748242N12002379WA0108901113
B1920394748242N12002383WA0108901112
B1920404748243N12002388WA0108801110
B1920414748244N12002394WA0108701108
B1920424748244N12002400WA0108601107
B1920434748244N12002405WA0108601106
B1920444748243N12002411WA0108501105
B1920454748242N12002415WA0108401106
B1920464748243N12002420WA0108401105
B1920474748244N12002426WA0108401104
B1920484748246N12002432WA0108301101
B1920494748246N12002439WA0108201099
B1920504748246N12002446WA0108001097
B1920514748246N12002453WA0108001096
B1920524748246N12002461WA0107801095
B1920534748246N12002468WA0107701094
B1920544748247N12002474WA0107601094
B1920554748246N12002481WA0107501093
B1920564748245N12002487WA0107301091
B1920574748243N12002493WA0107201089
B1920584748241N12002498WA0107101087
B1920594748240N12002504WA0107001086
B1921004748238N12002510WA0106901086
B1921014748237N12002515WA0106801084
B1921024748235N12002521WA0106601083
B1921034748233N12002527WA0106501081
B1921044748231N12002533WA0106401079
B1921054748228N12002539WA0106301078
B1921064748225N12002544WA0106101078
B1921074748222N12002547WA0106001078
B1921084748219N12002550WA0105901078
B1921094748215N12002553WA0105901079
B1921104748211N12002556WA0105801080
B1921114748207N12002558WA0105801082
B1921124748204N12002559WA0105801085
B1921134748202N12002560WA0105801087
B1921144748200N12002560WA0105901089
B1921154748197N12002559WA0105901089
B1921164748195N12002560WA0106001089
B1921174748192N12002561WA0106001088
B1921184748189N12002563WA0106001087
B1921194748186N12002565WA0106001087
B1921204748184N12002568WA0106001087
B1921214748182N12002572WA0106001086
B1921224748180N12002576WA0105901085
B1921234748178N12002581WA0105901083
B1921244748175N12002586WA0105801081
B1921254748172N12002591WA0105701079
B1921264748168N12002595WA0105701079
B1921274748166N12002599WA0105601081
B1921284748164N12002602WA0105601084
B1921294748162N12002604WA0105701087
B1921304748161N12002606WA0105701090
B1921314748160N12002608WA0105801093
B1921324748158N12002609WA0105901095
B1921334748157N12002611WA0106001097
B1921344748154N12002613WA0106201098
B1921354748151N12002614WA0106201098
B1921364748147N12002615WA0106401099
B1921374748143N12002613WA0106401101
B1921384748139N12002608WA0106601103
B1921394748135N12002599WA0106701103
B1921404748132N12002589WA0106801103
B1921414748129N12002578WA0106801105
B1921424748127N12002569WA0107001107
B1921434748125N12002559WA0107101110
B1921444748123N12002551WA0107301112
B1921454748121N12002543WA0107401114
B1921464748118N12002538WA0107501115
B1921474748114N12002536WA0107601115
B1921484748110N12002538WA0107801114
B1921494748108N12002544WA0107801113
B1921504748107N12002549WA0107901115
B1921514748107N12002552WA0108001118
B1921524748107N12002555WA0108101121
B1921534748108N12002556WA0108201122
B1921544748108N12002558WA0108401123
B1921554748109N12002561WA0108401121
B1921564748111N12002566WA0108501119
B1921574748114N12002572WA0108501118
B1921584748116N12002577WA0108601119
B1921594748118N12002582WA0108601121
B1921594748118N12002582WA0108601121
B1922004748120N12002585WA0108701123
B1922014748122N12002589WA0108801125
B1922024748125N12002594WA0108901126
B1922034748128N12002597WA0109001126
B1922044748132N12002599WA0109001126
B1922054748136N12002600WA0109101126
B1922064748141N12002601WA0109101124
B1922074748146N12002602WA0109101123
B1922084748151N12002604WA0109101121
B1922094748155N12002608WA0109101121
B1922104748156N12002613WA0109101120
B1922114748155N12002618WA0109001118
B1922124748152N12002621WA0109001118
B1922134748148N12002621WA0109001117
B1922144748144N12002618WA0108901117
B1922154748140N12002611WA0108901116
B1922164748138N12002601WA0108801115
B1922174748136N12002591WA0108801113
B1922184748135N12002581WA0108701113
B1922194748133N12002571WA0108601113
B1922204748131N12002561WA0108601114
B1922214748129N12002553WA0108601115
B1922224748128N12002545WA0108601116
B1922234748126N12002537WA0108601115
B1922244748123N12002529WA0108601114
B1922254748118N12002523WA0108601113
B1922264748112N12002522WA0108501113
B1922274748108N12002525WA0108501113
B1922284748106N12002530WA0108501114
B1922294748107N12002535WA0108501116
B1922304748108N12002539WA0108601118
B1922314748110N12002542WA0108601120
B1922324748114N12002544WA0108701121
B1922334748118N12002546WA0108701121
B1922344748122N12002550WA0108801120
B1922354748127N12002554WA0108801119
B1922364748131N12002557WA0108801119
B1922374748135N12002561WA0108801120
B1922384748139N12002563WA0108901121
B1922394748144N12002566WA0108901120
B1922404748148N12002568WA0108901120
B1922414748153N12002571WA0108901121
B1922424748157N12002574WA0108901122
B1922434748161N12002578WA0109001122
B1922444748165N12002583WA0109001123
B1922454748168N12002587WA0109101125
B1922464748171N12002592WA0109101127
B1922474748174N12002595WA0109201130
B1922484748176N12002598WA0109401133
B1922494748178N12002600WA0109401134
B1922504748179N12002603WA0109601133
B1922514748181N12002608WA0109601132
B1922524748182N12002613WA0109601129
B1922534748183N12002619WA0109601128
B1922544748184N12002625WA0109601127
B1922554748183N12002630WA0109601127
B1922564748183N12002634WA0109601126
B1922574748184N12002639WA0109601126
B1922584748185N12002644WA0109501125
B1922594748187N12002649WA0109501124
B1923004748190N12002654WA0109401122
B1923014748193N12002658WA0109401121
B1923024748196N12002664WA0109301119
B1923024748196N12002664WA0109301119
B1923034748199N12002669WA0109201118
B1923044748201N12002676WA0109101116
B1923054748203N12002682WA0109101116
B1923064748205N12002688WA0109001116
B1923074748207N12002693WA0108901116
B1923084748208N12002697WA0108901115
B1923094748210N12002702WA0108801114
B1923104748212N12002708WA0108701112
B1923114748214N12002715WA0108601109
B1923124748216N12002722WA0108501108
B1923134748217N12002728WA0108401107
B1923144748217N12002734WA0108301109
B1923154748217N12002739WA0108201109
B1923164748216N12002743WA0108201110
B1923174748216N12002748WA0108201109
B1923184748217N12002754WA0108101107
B1923194748217N12002760WA0108001105
B1923204748218N12002767WA0107901104
B1923214748218N12002773WA0107801103
B1923224748217N12002778WA0107701102
B1923234748215N12002782WA0107701103
B1923244748212N12002784WA0107601103
B1923254748209N12002784WA0107601103
B1923264748204N12002783WA0107501102
B1923274748200N12002781WA0107501101
B1923284748196N12002779WA0107401101
B1923294748193N12002776WA0107301100
B1923304748190N12002770WA0107301100
B1923314748187N12002762WA0107201098
B1923324748185N12002753WA0107101096
B1923334748184N12002744WA0107001095
B1923344748182N12002735WA0107001095
B1923354748181N12002727WA0106901095
B1923364748179N12002718WA0106801094
B1923374748177N12002710WA0106801094
B1923384748176N12002701WA0106701094
B1923394748174N12002694WA0106701094
B1923404748173N12002686WA0106601093
B1923414748171N12002680WA0106601093
B1923424748168N12002673WA0106501092
B1923434748164N12002667WA0106501091
B1923444748159N12002661WA0106401090
B1923454748154N12002657WA0106401091
B1923464748150N12002652WA0106401093
B1923474748147N12002645WA0106401095
B1923484748144N12002638WA0106401095
B1923494748142N12002630WA0106501095
B1923504748140N12002623WA0106501095
B1923514748137N12002616WA0106501093
B1923524748135N12002608WA0106401091
B1923534748132N12002602WA0106401089
B1923544748129N12002597WA0106301087
B1923554748125N12002594WA0106201086
B1923564748122N12002593WA0106101084
B1923574748118N12002594WA0106101083
B1923584748117N12002597WA0106001082
B1923594748116N12002600WA0105901081
B1924004748117N12002605WA0105801079
B1924014748118N12002609WA0105701076
B1924024748118N12002616WA0105501072
B1924034748118N12002623WA0105401070
B1924044748117N12002631WA0105201068
B1924054748117N12002638WA0105001068
B1924054748117N12002638WA0105001068
B1924064748117N12002644WA0104901068
B1924074748117N12002651WA0104801068
B1924084748119N12002657WA0104701067
B1924094748120N12002663WA0104601067
B1924104748120N12002668WA0104501067
B1924114748120N12002673WA0104401068
B1924124748120N12002679WA0104401068
B1924134748119N12002685WA0104301068
B1924144748119N12002691WA0104301068
B1924154748118N12002697WA0104301068
B1924164748117N12002702WA0104201069
B1924174748115N12002708WA0104201069
B1924184748114N12002713WA0104201069
B1924194748113N12002719WA0104201069
B1924204748112N12002724WA0104201069
B1924214748111N12002729WA0104201070
B1924224748111N12002734WA0104201070
B1924234748111N12002739WA0104201069
B1924244748112N12002744WA0104201069
B1924254748114N12002750WA0104101068
B1924264748116N12002756WA0104101068
B1924274748119N12002762WA0104101068
B1924284748123N12002767WA0104101069
B1924294748126N12002771WA0104101069
B1924304748130N12002775WA0104101070
B1924314748135N12002778WA0104101070
B1924324748140N12002779WA0104101071
B1924334748146N12002776WA0104201071
B1924344748152N12002770WA0104201070
B1924354748157N12002762WA0104201068
B1924364748161N12002753WA0104101068
B1924374748161N12002743WA0104101069
B1924384748160N12002736WA0104101069
B1924394748156N12002730WA0104101067
B1924404748151N12002727WA0104101066
B1924414748147N12002727WA0104101065
B1924424748143N12002730WA0104001063
B1924434748141N12002736WA0104001062
B1924444748140N12002742WA0103901062
B1924454748140N12002748WA0103901063
B1924464748140N12002753WA0103901063
B1924474748140N12002757WA0103801063
B1924484748139N12002761WA0103801062
B1924494748138N12002764WA0103801061
B1924504748136N12002768WA0103701059
B1924514748132N12002769WA0103601057
B1924524748128N12002767WA0103501054
B1924534748123N12002762WA0103401051
B1924544748119N12002753WA0103201049
B1924554748118N12002743WA0103101048
B1924564748117N12002732WA0102901047
B1924574748117N12002722WA0102801046
B1924584748117N12002712WA0102701044
B1924594748116N12002702WA0102601042
B1925004748114N12002692WA0102401040
B1925014748112N12002683WA0102301038
B1925024748109N12002675WA0102101038
B1925034748106N12002668WA0102001038
B1925044748103N12002663WA0101901038
B1925054748100N12002658WA0101801037
B1925064748096N12002653WA0101701035
B1925074748091N12002647WA0101601033
B1925084748086N12002640WA0101401031
B1925084748086N12002640WA0101401031
B1925094748083N12002632WA0101301031
B1925104748079N12002625WA0101201032
B1925114748076N12002617WA0101201032
B1925124748073N12002609WA0101101033
B1925134748070N12002601WA0101101033
B1925144748066N12002592WA0101001033
B1925154748063N12002583WA0101001033
B1925164748060N12002574WA0101001035
B1925174748057N12002566WA0101001037
B1925184748054N12002559WA0101001040
B1925194748052N12002553WA0101101044
B1925204748049N12002549WA0101201046
B1925214748046N12002548WA0101301048
B1925224748042N12002551WA0101401047
B1925234748041N12002558WA0101501046
B1925244748042N12002565WA0101601046
B1925254748045N12002571WA0101601048
B1925264748049N12002574WA0101701050
B1925274748052N12002576WA0101801052
B1925284748055N12002578WA0101801051
B1925294748056N12002581WA0101901051
B1925304748057N12002585WA0101901050
B1925314748058N12002588WA0101901048
B1925324748059N12002592WA0101901047
B1925334748061N12002597WA0101901044
B1925344748062N12002601WA0101801043
B1925354748064N12002605WA0101801042
B1925364748066N12002609WA0101701041
B1925374748068N12002614WA0101701039
B1925384748071N12002618WA0101601038
B1925394748073N12002623WA0101501037
B1925404748076N12002627WA0101401036
B1925414748079N12002631WA0101301035
B1925424748081N12002636WA0101201034
B1925434748084N12002640WA0101101033
B1925444748087N12002644WA0101001032
B1925454748090N12002649WA0101001032
B1925464748092N12002653WA0100901031
B1925474748095N12002658WA0100801030
B1925484748098N12002662WA0100701030
B1925494748100N12002666WA0100701031
B1925504748101N12002670WA0100601031
B1925514748102N12002675WA0100601031
B1925524748102N12002680WA0100501030
B1925534748103N12002686WA0100501028
B1925544748104N12002692WA0100401027
B1925554748105N12002698WA0100401027
B1925564748106N12002703WA0100301027
B1925574748107N12002708WA0100301027
B1925584748108N12002713WA0100201026
B1925594748108N12002719WA0100101025
B1926004748109N12002725WA0100101024
B1926014748110N12002731WA0100001022
B1926024748111N12002738WA0099901020
B1926034748111N12002745WA0099801020
B1926044748110N12002750WA0099701019
B1926054748108N12002754WA0099701019
B1926064748105N12002759WA0099601019
B1926074748102N12002763WA0099501017
B1926084748099N12002768WA0099401016
B1926094748096N12002772WA0099401016
B1926104748092N12002777WA0099301014
B1926104748092N12002777WA0099301014
B1926114748088N12002781WA0099201012
B1926124748084N12002786WA0099001010
B1926134748080N12002792WA0098901009
B1926144748076N12002797WA0098801007
B1926154748071N12002802WA0098701005
B1926164748066N12002807WA0098501003
B1926174748061N12002812WA0098401001
B1926184748056N12002817WA0098301000
B1926194748051N12002822WA0098200999
B1926204748047N12002826WA0098000999
B1926214748042N12002831WA0097900998
B1926224748037N12002835WA0097800998
B1926234748033N12002840WA0097800997
B1926244748028N12002845WA0097600996
B1926254748023N12002849WA0097600995
B1926264748018N12002854WA0097500994
B1926274748013N12002858WA0097400994
B1926284748009N12002862WA0097300994
B1926294748005N12002866WA0097300995
B1926304748001N12002869WA0097200994
B1926314747997N12002872WA0097200994
B1926324747993N12002876WA0097100993
B1926334747989N12002880WA0097100991
B1926344747984N12002885WA0097000990
B1926354747980N12002889WA0096900990
B1926364747975N12002893WA0096800989
B1926374747970N12002896WA0096800989
B1926384747964N12002899WA0096700988
B1926394747959N12002902WA0096700987
B1926404747953N12002905WA0096600986
B1926414747947N12002909WA0096500986
B1926424747942N12002912WA0096500987
B1926434747939N12002915WA0096500992
B1926444747937N12002917WA0096600997
B1926454747936N12002919WA0096701001
B1926464747935N12002921WA0096901004
B1926474747934N12002922WA0097001005
B1926484747933N12002923WA0097101006
B1926494747931N12002924WA0097201006
B1926504747929N12002926WA0097301006
B1926514747928N12002929WA0097401005
B1926524747926N12002934WA0097401004
B1926534747926N12002939WA0097501003
B1926544747927N12002944WA0097501004
B1926554747928N12002947WA0097601005
B1926564747930N12002951WA0097601005
B1926574747931N12002954WA0097601004
B1926584747931N12002958WA0097601002
B1926594747930N12002962WA0097600999
B1927004747928N12002964WA0097500998
B1927014747926N12002964WA0097500997
B1927024747923N12002962WA0097400997
B1927034747920N12002957WA0097300995
B1927044747917N12002950WA0097200993
B1927054747915N12002940WA0097100990
B1927064747915N12002929WA0097000989
B1927074747917N12002918WA0096900988
B1927084747921N12002906WA0096800987
B1927094747925N12002896WA0096700987
B1927104747930N12002886WA0096600986
B1927114747933N12002875WA0096600985
B1927124747937N12002865WA0096500984
B1927124747937N12002865WA0096500984
B1927134747940N12002855WA0096400983
B1927144747943N12002844WA0096300984
B1927154747945N12002834WA0096300985
B1927164747946N12002824WA0096300986
B1927174747947N12002814WA0096300987
B1927184747947N12002805WA0096300988
B1927194747947N12002796WA0096300988
B1927204747946N12002787WA0096300988
B1927214747945N12002777WA0096300986
B1927224747944N12002766WA0096200984
B1927234747943N12002754WA0096200984
B1927244747943N12002744WA0096100984
B1927254747943N12002735WA0096100985
B1927264747943N12002727WA0096100986
B1927274747942N12002719WA0096100986
B1927284747938N12002712WA0096100986
B1927294747934N12002705WA0096100986
B1927304747930N12002700WA0096100987
B1927314747925N12002697WA0096100988
B1927324747921N12002696WA0096200990
B1927334747916N12002695WA0096200991
B1927344747911N12002695WA0096300991
B1927354747905N12002695WA0096300993
B1927364747900N12002694WA0096400994
B1927374747894N12002693WA0096500996
B1927384747888N12002691WA0096600998
B1927394747883N12002688WA0096701000
B1927404747878N12002685WA0096801002
B1927414747874N12002681WA0096901005
B1927424747871N12002677WA0097101007
B1927434747867N12002673WA0097201009
B1927444747863N12002671WA0097401010
B1927454747859N12002671WA0097501010
B1927464747855N12002673WA0097601011
B1927474747853N12002677WA0097701012
B1927484747853N12002681WA0097901012
B1927494747854N12002687WA0097901012
B1927504747857N12002694WA0098001012
B1927514747860N12002698WA0098101013
B1927524747863N12002699WA0098301016
B1927534747868N12002698WA0098401018
B1927544747873N12002694WA0098501019
B1927554747878N12002689WA0098601018
B1927564747882N12002681WA0098701019
B1927574747884N12002671WA0098801020
B1927584747884N12002661WA0098901022
B1927594747884N12002652WA0099001024
B1928004747882N12002644WA0099101028
B1928014747881N12002637WA0099301032
B1928024747878N12002631WA0099501035
B1928034747876N12002626WA0099701037
B1928044747872N12002621WA0099901038
B1928054747867N12002618WA0100001038
B1928064747862N12002615WA0100201039
B1928074747856N12002615WA0100301040
B1928084747852N12002616WA0100501041
B1928094747848N12002619WA0100601043
B1928104747845N12002623WA0100701045
B1928114747843N12002627WA0100801046
B1928124747842N12002632WA0101001046
B1928134747842N12002637WA0101101047
B1928144747842N12002643WA0101201047
B1928154747845N12002648WA0101301048
B1928154747845N12002648WA0101301048
B1928164747848N12002652WA0101401049
B1928174747852N12002655WA0101501051
B1928184747855N12002657WA0101601051
B1928194747859N12002660WA0101701050
B1928204747862N12002664WA0101801048
B1928214747866N12002668WA0101801045
B1928224747871N12002673WA0101801043
B1928234747874N12002677WA0101701043
B1928244747876N12002680WA0101701042
B1928254747878N12002685WA0101701040
B1928264747879N12002690WA0101601038
B1928274747881N12002695WA0101501035
B1928284747883N12002700WA0101401033
B1928294747884N12002705WA0101301032
B1928304747884N12002710WA0101201030
B1928314747884N12002715WA0101101027
B1928324747884N12002720WA0100901025
B1928334747883N12002725WA0100801023
B1928344747882N12002730WA0100601021
B1928354747881N12002735WA0100501019
B1928364747879N12002739WA0100301018
B1928374747878N12002745WA0100201016
B1928384747877N12002751WA0100001014
B1928394747878N12002757WA0099801012
B1928404747878N12002764WA0099701011
B1928414747878N12002770WA0099601011
B1928424747878N12002777WA0099401011
B1928434747880N12002782WA0099401013
B1928444747882N12002786WA0099301016
B1928454747884N12002790WA0099301018
B1928464747886N12002795WA0099301020
B1928474747886N12002802WA0099301021
B1928484747887N12002808WA0099401024
B1928494747888N12002814WA0099401027
B1928504747890N12002820WA0099501029
B1928514747892N12002826WA0099601031
B1928524747894N12002832WA0099801034
B1928534747895N12002838WA0099901036
B1928544747895N12002845WA0100001038
B1928554747894N12002851WA0100201040
B1928564747893N12002856WA0100401043
B1928574747893N12002861WA0100501046
B1928584747893N12002866WA0100701048
B1928594747894N12002871WA0100901049
B1929004747894N12002876WA0101001049
B1929014747895N12002880WA0101101049
B1929024747896N12002885WA0101301048
B1929034747898N12002889WA0101301046
B1929044747900N12002894WA0101301045
B1929054747903N12002899WA0101401042
B1929064747906N12002904WA0101301041
B1929074747910N12002907WA0101301040
B1929084747914N12002910WA0101301039
B1929094747920N12002911WA0101301037
B1929104747926N12002912WA0101201035
B1929114747932N12002913WA0101101034
B1929124747938N12002913WA0101001033
B1929134747944N12002913WA0101001033
B1929144747950N12002912WA0100901033
B1929154747956N12002912WA0100901032
B1929164747962N12002912WA0100801031
B1929174747969N12002912WA0100701031
B1929184747975N12002912WA0100601030
B1929184747975N12002912WA0100601030
B1929194747982N12002911WA0100601029
B1929204747989N12002911WA0100501029
B1929214747995N12002910WA0100501028
B1929224748002N12002908WA0100401028
B1929234748008N12002906WA0100301028
B1929244748014N12002905WA0100301027
B1929254748020N12002903WA0100201026
B1929264748026N12002903WA0100101025
B1929274748033N12002902WA0100101023
B1929284748040N12002903WA0100001022
B1929294748047N12002903WA0099901021
B1929304748053N12002903WA0099801021
B1929314748059N12002903WA0099801021
B1929324748065N12002903WA0099701021
B1929334748070N12002904WA0099701021
B1929344748076N12002906WA0099601020
B1929354748081N12002908WA0099501019
B1929364748087N12002910WA0099501018
B1929374748093N12002913WA0099401016
B1929384748099N12002916WA0099301015
B1929394748105N12002918WA0099201015
B1929404748111N12002920WA0099201014
B1929414748117N12002922WA0099101014
B1929424748123N12002923WA0099001013
B1929434748128N12002925WA0099001012
B1929444748134N12002927WA0098901012
B1929454748140N12002929WA0098801011
B1929464748146N12002931WA0098801010
B1929474748151N12002934WA0098701010
B1929484748156N12002938WA0098601010
B1929494748161N12002941WA0098601012
B1929504748164N12002946WA0098601013
B1929514748165N12002951WA0098701014
B1929524748163N12002956WA0098601012
B1929534748158N12002958WA0098601009
B1929544748154N12002956WA0098501009
B1929554748151N12002951WA0098501010
B1929564748150N12002945WA0098401010
B1929574748149N12002939WA0098401010
B1929584748146N12002932WA0098401008
B1929594748143N12002925WA0098301004
B1930004748138N12002919WA0098101001
B1930014748133N12002914WA0098001001
B1930024748130N12002909WA0097901001
B1930034748127N12002903WA0097801001
B1930044748124N12002898WA0097701000
B1930054748120N12002892WA0097700998
B1930064748116N12002886WA0097500996
B1930074748111N12002880WA0097400994
B1930084748107N12002874WA0097300994
B1930094748103N12002869WA0097200994
B1930104748101N12002863WA0097100994
B1930114748098N12002857WA0097000994
B1930124748095N12002850WA0097000993
B1930134748092N12002842WA0096900991
B1930144748089N12002834WA0096800989
B1930154748085N12002826WA0096700988
B1930164748082N12002819WA0096600987
B1930174748079N12002812WA0096500988
B1930184748077N12002806WA0096400989
B1930194748075N12002799WA0096400990
B1930204748073N12002793WA0096400990
B1930214748070N12002789WA0096400989
B1930214748070N12002789WA0096400989
B1930224748065N12002786WA0096300988
B1930234748061N12002786WA0096300987
B1930244748057N12002786WA0096200986
B1930254748053N12002788WA0096200987
B1930264748052N12002791WA0096200988
B1930274748052N12002795WA0096200989
B1930284748053N12002800WA0096200988
B1930294748056N12002807WA0096200987
B1930304748058N12002813WA0096100986
B1930314748061N12002819WA0096100987
B1930324748062N12002823WA0096100988
B1930334748063N12002827WA0096100988
B1930344748065N12002831WA0096100988
B1930354748067N12002836WA0096100986
B1930364748067N12002841WA0096100985
B1930374748066N12002846WA0096000984
B1930384748063N12002849WA0096000983
B1930394748058N12002848WA0095900980
B1930404748053N12002844WA0095800979
B1930414748049N12002836WA0095800977
B1930424748047N12002826WA0095700977
B1930434748046N12002816WA0095600977
B1930444748045N12002806WA0095500976
B1930454748042N12002795WA0095500975
B1930464748039N12002785WA0095400974
B1930474748035N12002775WA0095300975
B1930484748031N12002767WA0095300978
B1930494748028N12002762WA0095300980
B1930504748025N12002758WA0095400981
B1930514748022N12002757WA0095400980
B1930524748018N12002758WA0095400979
B1930534748014N12002760WA0095400977
B1930544748010N12002760WA0095300976
B1930554748005N12002759WA0095300976
B1930564748001N12002756WA0095200975
B1930574747996N12002752WA0095200974
B1930584747992N12002746WA0095100973
B1930594747988N12002740WA0095100970
B1931004747984N12002733WA0095000968
B1931014747979N12002727WA0094900966
B1931024747974N12002720WA0094700965
B1931034747970N12002714WA0094700964
B1931044747967N12002707WA0094600964
B1931054747963N12002701WA0094500963
B1931064747959N12002694WA0094400963
B1931074747956N12002686WA0094300963
B1931084747952N12002678WA0094300962
B1931094747949N12002671WA0094200962
B1931104747945N12002663WA0094100961
B1931114747941N12002655WA0094100959
B1931124747937N12002647WA0094000958
B1931134747932N12002638WA0093900958
B1931144747928N12002629WA0093800959
B1931154747924N12002622WA0093800961
B1931164747920N12002617WA0093800963
B1931174747916N12002615WA0093800963
B1931184747911N12002614WA0093800962
B1931194747908N12002617WA0093800961
B1931204747906N12002622WA0093800959
B1931214747906N12002627WA0093700959
B1931224747909N12002631WA0093700958
B1931234747913N12002634WA0093700959
B1931244747917N12002637WA0093600959
B1931244747917N12002637WA0093600959
B1931254747920N12002641WA0093600960
B1931264747923N12002646WA0093600960
B1931274747926N12002651WA0093600959
B1931284747929N12002655WA0093600960
B1931294747931N12002660WA0093600961
B1931304747930N12002664WA0093600961
B1931314747927N12002666WA0093600961
B1931324747923N12002666WA0093600961
B1931334747917N12002662WA0093600961
B1931344747913N12002655WA0093700962
B1931354747911N12002646WA0093700963
B1931364747910N12002636WA0093700963
B1931374747910N12002626WA0093700963
B1931384747910N12002615WA0093700963
B1931394747908N12002605WA0093800963
B1931404747904N12002599WA0093800963
B1931414747900N12002595WA0093800963
B1931424747896N12002596WA0093800963
B1931434747894N12002600WA0093800962
B1931444747894N12002606WA0093800961
B1931454747896N12002612WA0093800960
B1931464747898N12002616WA0093700961
B1931474747900N12002619WA0093800962
B1931484747901N12002622WA0093800962
B1931494747901N12002625WA0093800961
B1931504747902N12002629WA0093700960
B1931514747903N12002633WA0093700959
B1931524747905N12002637WA0093700959
B1931534747906N12002640WA0093700960
B1931544747906N12002643WA0093700960
B1931554747904N12002646WA0093600959
B1931564747900N12002646WA0093600957
B1931574747895N12002644WA0093500954
B1931584747890N12002639WA0093400952
B1931594747886N12002631WA0093300952
B1932004747884N12002621WA0093300952
B1932014747882N12002612WA0093200954
B1932024747882N12002603WA0093200955
B1932034747881N12002593WA0093200955
B1932044747881N12002582WA0093200954
B1932054747881N12002571WA0093100953
B1932064747881N12002559WA0093100953
B1932074747880N12002549WA0093100953
B1932084747879N12002539WA0093000953
B1932094747878N12002528WA0093000953
B1932104747877N12002518WA0093000951
B1932114747876N12002507WA0092900950
B1932124747874N12002496WA0092800948
B1932134747873N12002486WA0092800947
B1932144747871N12002475WA0092700945
B1932154747869N12002465WA0092600943
B1932164747867N12002455WA0092400942
B1932174747865N12002446WA0092400941
B1932184747862N12002436WA0092200939
B1932194747859N12002427WA0092100938
B1932204747856N12002418WA0092000936
B1932214747853N12002409WA0091900935
B1932224747850N12002401WA0091700934
B1932234747848N12002392WA0091700933
B1932244747845N12002383WA0091500931
B1932254747841N12002374WA0091400928
B1932264747838N12002366WA0091200927
B1932274747833N12002358WA0091100926
B1932274747833N12002358WA0091100926
B1932284747829N12002350WA0091000927
B1932294747825N12002343WA0091000929
B1932304747821N12002336WA0090900930
B1932314747817N12002330WA0090900931
B1932324747813N12002324WA0090900932
B1932334747810N12002318WA0090900933
B1932344747806N12002311WA0090900934
B1932354747802N12002305WA0091000933
B1932364747799N12002299WA0091000934
B1932374747795N12002295WA0091000934
B1932384747791N12002290WA0091000933
B1932394747787N12002286WA0091000931
B1932404747782N12002283WA0090900929
B1932414747778N12002281WA0090800926
B1932424747774N12002282WA0090700924
B1932434747772N12002286WA0090600922
B1932444747772N12002291WA0090500920
B1932454747774N12002296WA0090400917
B1932464747777N12002300WA0090200915
B1932474747780N12002304WA0090100913
B1932484747782N12002308WA0090000912
B1932494747781N12002313WA0089800909
B1932504747777N12002316WA0089600906
B1932514747772N12002317WA0089500902
B1932524747767N12002313WA0089200899
B1932534747763N12002305WA0089000898
B1932544747760N12002296WA0088800897
B1932554747759N12002286WA0088700896
B1932564747759N12002277WA0088500896
B1932574747759N12002267WA0088400896
B1932584747760N12002257WA0088300896
B1932594747760N12002247WA0088200895
B1933004747761N12002237WA0088100893
B1933014747761N12002227WA0088000891
B1933024747760N12002217WA0087800889
B1933034747758N12002208WA0087700887
B1933044747756N12002199WA0087500884
B1933054747753N12002192WA0087400882
B1933064747749N12002184WA0087200879
B1933074747744N12002178WA0087000877
B1933084747740N12002173WA0086800876
B1933094747736N12002168WA0086700875
B1933104747731N12002164WA0086500872
B1933114747727N12002159WA0086300870
B1933124747721N12002153WA0086100867
B1933134747716N12002148WA0085900865
B1933144747711N12002143WA0085700864
B1933154747707N12002139WA0085600864
B1933164747703N12002135WA0085400862
B1933174747698N12002130WA0085300860
B1933184747693N12002126WA0085000858
B1933194747688N12002123WA0084900857
B1933204747683N12002121WA0084700856
B1933214747678N12002121WA0084600855
B1933224747674N12002120WA0084500855
B1933234747669N12002119WA0084300853
B1933244747663N12002117WA0084200851
B1933254747658N12002116WA0084100850
B1933264747653N12002115WA0083900849
B1933274747648N12002116WA0083800848
B1933284747644N12002116WA0083700848
B1933294747639N12002117WA0083600847
B1933304747634N12002116WA0083400845
B1933314747629N12002116WA0083300843
B1933314747629N12002116WA0083300843
B1933324747624N12002115WA0083200841
B1933334747619N12002114WA0083100840
B1933344747614N12002113WA0082900838
B1933354747609N12002111WA0082800836
B1933364747603N12002110WA0082600834
B1933374747598N12002110WA0082500832
B1933384747593N12002110WA0082300831
B1933394747588N12002112WA0082200830
B1933404747584N12002114WA0082100830
B1933414747580N12002117WA0082000829
B1933424747576N12002121WA0081800827
B1933434747572N12002125WA0081700826
B1933444747567N12002129WA0081600825
B1933454747563N12002133WA0081500823
B1933464747559N12002137WA0081300822
B1933474747555N12002142WA0081200821
B1933484747550N12002146WA0081100821
B1933494747546N12002150WA0081000821
B1933504747542N12002154WA0080900821
B1933514747539N12002158WA0080900821
B1933524747535N12002162WA0080800821
B1933534747532N12002166WA0080800821
B1933544747530N12002170WA0080700822
B1933554747527N12002175WA0080700823
B1933564747524N12002179WA0080700824
B1933574747521N12002183WA0080700825
B1933584747518N12002186WA0080700826
B1933594747516N12002190WA0080700826
B1934004747513N12002193WA0080800827
B1934014747510N12002197WA0080800827
B1934024747507N12002202WA0080900828
B1934034747505N12002206WA0080900831
B1934044747507N12002210WA0081000834
B1934054747510N12002213WA0081100835
B1934064747516N12002213WA0081200836
B1934074747522N12002209WA0081300838
B1934084747527N12002201WA0081500841
B1934094747529N12002191WA0081600843
B1934104747530N12002181WA0081800845
B1934114747528N12002172WA0081900848
B1934124747526N12002165WA0082100850
B1934134747522N12002159WA0082200852
B1934144747518N12002156WA0082400854
B1934154747513N12002156WA0082500853
B1934164747508N12002158WA0082700854
B1934174747504N12002161WA0082800856
B1934184747502N12002165WA0083000858
B1934194747503N12002168WA0083100860
B1934204747505N12002170WA0083300860
B1934214747510N12002170WA0083300859
B1934224747515N12002169WA0083400857
B1934234747522N12002165WA0083400857
B1934244747527N12002160WA0083500858
B1934254747532N12002154WA0083600862
B1934264747537N12002148WA0083700865
B1934274747540N12002140WA0083800868
B1934284747543N12002132WA0084000869
B1934294747545N12002122WA0084100871
B1934304747546N12002112WA0084300871
B1934314747544N12002102WA0084400871
B1934324747541N12002093WA0084500871
B1934334747536N12002086WA0084600873
B1934334747536N12002086WA0084600873
B1934344747532N12002082WA0084700875
B1934354747528N12002080WA0084800877
B1934364747523N12002080WA0084900878
B1934374747519N12002081WA0085000878
B1934384747514N12002083WA0085100879
B1934394747510N12002086WA0085200880
B1934404747506N12002090WA0085400882
B1934414747503N12002094WA0085500883
B1934424747502N12002098WA0085600885
B1934434747501N12002102WA0085700886
B1934444747500N12002105WA0085900887
B1934454747499N12002110WA0085900886
B1934464747499N12002114WA0086000885
B1934474747499N12002119WA0086100884
B1934484747500N12002124WA0086100883
B1934494747502N12002129WA0086100881
B1934504747505N12002133WA0086100880
B1934514747510N12002135WA0086100879
B1934524747515N12002134WA0086100879
B1934534747520N12002131WA0086100879
B1934544747525N12002125WA0086000879
B1934554747531N12002119WA0086000879
B1934564747536N12002113WA0086000879
B1934574747542N12002108WA0086000880
B1934584747547N12002103WA0086000881
B1934594747553N12002098WA0086000882
B1935004747558N12002091WA0086000884
B1935014747562N12002084WA0086100885
B1935024747567N12002077WA0086200887
B1935034747572N12002071WA0086200889
B1935044747577N12002066WA0086300889
B1935054747583N12002061WA0086300889
B1935064747589N12002055WA0086400888
B1935074747593N12002047WA0086400889
B1935084747596N12002038WA0086500890
B1935094747596N12002028WA0086500890
B1935104747594N12002018WA0086500888
B1935114747590N12002010WA0086500887
B1935124747586N12002004WA0086500887
B1935134747581N12002002WA0086500887
B1935144747577N12002003WA0086500887
B1935154747575N12002007WA0086500887
B1935164747574N12002011WA0086600888
B1935174747575N12002015WA0086600891
B1935184747577N12002018WA0086700893
B1935194747580N12002019WA0086800895
B1935204747585N12002019WA0086900895
B1935214747590N12002018WA0086900895
B1935224747596N12002014WA0086900894
B1935234747601N12002007WA0087000894
B1935244747605N12001998WA0087000893
B1935254747607N12001988WA0087000893
B1935264747608N12001978WA0087000893
B1935274747607N12001968WA0087000892
B1935284747605N12001958WA0087000891
B1935294747601N12001950WA0087000890
B1935304747596N12001945WA0087000889
B1935314747590N12001943WA0086900888
B1935324747586N12001945WA0086900886
B1935334747581N12001948WA0086800885
B1935344747578N12001952WA0086800887
B1935354747574N12001954WA0086800888
B1935364747570N12001955WA0086900891
B1935364747570N12001955WA0086900891
B1935374747567N12001956WA0086900893
B1935384747564N12001957WA0087000895
B1935394747562N12001960WA0087000895
B1935404747559N12001963WA0087100895
B1935414747557N12001965WA0087100896
B1935424747553N12001965WA0087200897
B1935434747549N12001964WA0087300897
B1935444747545N12001963WA0087300898
B1935454747541N12001964WA0087400898
B1935464747538N12001965WA0087400899
B1935474747536N12001969WA0087500899
B1935484747536N12001972WA0087500899
B1935494747537N12001977WA0087500898
B1935504747540N12001980WA0087600896
B1935514747544N12001982WA0087600896
B1935524747548N12001984WA0087500896
B1935534747553N12001984WA0087500895
B1935544747558N12001984WA0087500895
B1935554747563N12001983WA0087500895
B1935564747569N12001981WA0087500894
B1935574747575N12001979WA0087400893
B1935584747580N12001977WA0087400892
B1935594747586N12001974WA0087400892
B1936004747592N12001973WA0087300892
B1936014747598N12001973WA0087300892
B1936024747604N12001975WA0087300894
B1936034747608N12001977WA0087300895
B1936044747612N12001979WA0087400896
B1936054747616N12001980WA0087400896
B1936064747621N12001982WA0087400895
B1936074747627N12001984WA0087400893
B1936084747634N12001985WA0087300892
B1936094747641N12001984WA0087300894
B1936104747646N12001982WA0087400895
B1936114747650N12001978WA0087400896
B1936124747654N12001972WA0087400895
B1936134747658N12001963WA0087400893
B1936144747661N12001953WA0087300890
B1936154747661N12001942WA0087200888
B1936164747659N12001932WA0087100887
B1936174747656N12001925WA0087100885
B1936184747651N12001921WA0086900883
B1936194747645N12001919WA0086800881
B1936204747640N12001917WA0086700880
B1936214747635N12001913WA0086600879
B1936224747631N12001907WA0086500878
B1936234747626N12001899WA0086400876
B1936244747623N12001890WA0086200875
B1936254747620N12001881WA0086100875
B1936264747619N12001871WA0086000875
B1936274747619N12001861WA0086000874
B1936284747620N12001851WA0085800872
B1936294747619N12001839WA0085700869
B1936304747618N12001826WA0085500867
B1936314747617N12001814WA0085400865
B1936324747617N12001802WA0085300864
B1936334747618N12001791WA0085100863
B1936344747619N12001779WA0085000862
B1936354747619N12001768WA0084900863
B1936364747617N12001758WA0084800863
B1936374747616N12001748WA0084800863
B1936384747615N12001738WA0084700863
B1936394747614N12001728WA0084700863
B1936394747614N12001728WA0084700863
B1936404747614N12001718WA0084600862
B1936414747613N12001707WA0084500863
B1936424747613N12001697WA0084500864
B1936434747612N12001688WA0084500864
B1936444747611N12001679WA0084500864
B1936454747610N12001668WA0084500863
B1936464747608N12001658WA0084400861
B1936474747607N12001647WA0084400861
B1936484747607N12001638WA0084300860
B1936494747607N12001628WA0084300859
B1936504747608N12001617WA0084200857
B1936514747609N12001606WA0084200857
B1936524747610N12001597WA0084100857
B1936534747612N12001589WA0084100857
B1936544747613N12001582WA0084000856
B1936554747615N12001574WA0084000854
B1936564747616N12001565WA0083800850
B1936574747617N12001555WA0083700846
B1936584747618N12001544WA0083500842
B1936594747619N12001532WA0083400840
B1937004747619N12001522WA0083200839
B1937014747620N12001513WA0083100840
B1937024747620N12001504WA0082900839
B1937034747621N12001495WA0082800838
B1937044747622N12001486WA0082600836
B1937054747624N12001477WA0082500835
B1937064747626N12001468WA0082400834
B1937074747628N12001458WA0082300832
B1937084747630N12001449WA0082100831
B1937094747632N12001438WA0082000829
B1937104747633N12001428WA0081900828
B1937114747634N12001419WA0081800827
B1937124747636N12001410WA0081600826
B1937134747637N12001401WA0081600825
B1937144747639N12001391WA0081400822
B1937154747640N12001380WA0081300820
B1937164747641N12001369WA0081100820
B1937174747642N12001359WA0081100820
B1937184747643N12001349WA0080900819
B1937194747644N12001339WA0080800817
B1937204747644N12001329WA0080700815
B1937214747646N12001317WA0080600812
B1937224747647N12001307WA0080400810
B1937234747649N12001297WA0080300810
B1937244747650N12001289WA0080100810
B1937254747651N12001281WA0080000809
B1937264747651N12001273WA0079900808
B1937274747652N12001264WA0079800805
B1937284747653N12001254WA0079600802
B1937294747654N12001243WA0079500800
B1937304747656N12001233WA0079300799
B1937314747658N12001223WA0079200798
B1937324747660N12001214WA0079000797
B1937334747662N12001205WA0078900796
B1937344747665N12001196WA0078700795
B1937354747667N12001187WA0078600793
B1937364747670N12001177WA0078500791
B1937374747673N12001167WA0078300790
B1937384747675N12001157WA0078200789
B1937394747677N12001148WA0078100788
B1937404747680N12001139WA0077900788
B1937414747682N12001131WA0077900787
B1937424747685N12001123WA0077700787
B1937424747685N12001123WA0077700787
B1937434747688N12001116WA0077700788
B1937444747690N12001110WA0077600789
B1937454747691N12001103WA0077600791
B1937464747690N12001097WA0077600791
B1937474747688N12001092WA0077600791
B1937484747685N12001091WA0077600792
B1937494747681N12001094WA0077600792
B1937504747680N12001101WA0077600792
B1937514747681N12001108WA0077600792
B1937524747684N12001114WA0077600794
B1937534747688N12001117WA0077600795
B1937544747692N12001118WA0077700796
B1937554747698N12001120WA0077700795
B1937564747704N12001120WA0077700794
B1937574747711N12001118WA0077700792
B1937584747717N12001114WA0077700791
B1937594747722N12001107WA0077700791
B1938004747725N12001099WA0077600791
B1938014747727N12001091WA0077600791
B1938024747726N12001083WA0077600792
B1938034747725N12001075WA0077600793
B1938044747725N12001068WA0077700794
B1938054747724N12001061WA0077700795
B1938064747724N12001053WA0077700795
B1938074747724N12001045WA0077700796
B1938084747724N12001039WA0077800797
B1938094747724N12001032WA0077800798
B1938104747724N12001025WA0077900798
B1938114747724N12001017WA0077900797
B1938124747724N12001010WA0077900797
B1938134747725N12001002WA0077900798
B1938144747727N12000995WA0077900798
B1938154747728N12000987WA0078000798
B1938164747729N12000980WA0078000798
B1938174747731N12000972WA0078000797
B1938184747732N12000964WA0078000797
B1938194747735N12000957WA0078000797
B1938204747737N12000950WA0078000796
B1938214747740N12000942WA0078000795
B1938224747742N12000934WA0078000795
B1938234747744N12000926WA0077900794
B1938244747747N12000919WA0077900793
B1938254747750N12000911WA0077900792
B1938264747753N12000903WA0077800791
B1938274747757N12000894WA0077800789
B1938284747759N12000885WA0077700788
B1938294747762N12000877WA0077600788
B1938304747765N12000869WA0077600789
B1938314747768N12000861WA0077600790
B1938324747772N12000854WA0077600791
B1938334747775N12000847WA0077600791
B1938344747778N12000838WA0077600791
B1938354747780N12000829WA0077600792
B1938364747781N12000820WA0077600792
B1938374747781N12000812WA0077600792
B1938384747780N12000802WA0077600791
B1938394747778N12000793WA0077600790
B1938404747775N12000785WA0077600791
B1938414747772N12000778WA0077600791
B1938424747769N12000772WA0077600791
B1938434747766N12000767WA0077600791
B1938444747763N12000763WA0077600791
B1938454747759N12000759WA0077600790
B1938454747759N12000759WA0077600790
B1938464747754N12000754WA0077500790
B1938474747750N12000749WA0077500790
B1938484747746N12000744WA0077500791
B1938494747742N12000740WA0077500792
B1938504747738N12000736WA0077500793
B1938514747734N12000733WA0077600792
B1938524747729N12000730WA0077600792
B1938534747724N12000726WA0077600792
B1938544747720N12000721WA0077600793
B1938554747718N12000714WA0077600794
B1938564747718N12000706WA0077600794
B1938574747720N12000698WA0077600793
B1938584747725N12000693WA0077600791
B1938594747730N12000691WA0077600789
B1939004747735N12000693WA0077500789
B1939014747737N12000700WA0077500788
B1939024747735N12000709WA0077400785
B1939034747730N12000715WA0077400784
B1939044747725N12000716WA0077300786
B1939054747720N12000713WA0077300788
B1939064747716N12000708WA0077300789
B1939074747713N12000702WA0077300790
B1939084747709N12000696WA0077300789
B1939094747705N12000693WA0077300788
B1939104747701N12000691WA0077300787
B1939114747696N12000691WA0077300787
B1939124747693N12000692WA0077200786
B1939134747689N12000692WA0077200785
B1939144747685N12000691WA0077100784
B1939154747680N12000690WA0077100782
B1939164747675N12000688WA0076900780
B1939174747671N12000684WA0076900779
B1939184747668N12000679WA0076800779
B1939194747666N12000672WA0076700779
B1939204747667N12000663WA0076700778
B1939214747670N12000654WA0076600776
B1939224747675N12000646WA0076500774
B1939234747680N12000640WA0076400773
B1939244747685N12000638WA0076300774
B1939254747690N12000637WA0076300774
B1939264747695N12000638WA0076200773
B1939274747700N12000640WA0076100770
B1939284747705N12000642WA0076000768
B1939294747711N12000643WA0075900766
B1939304747717N12000643WA0075800765
B1939314747723N12000642WA0075700764
B1939324747728N12000639WA0075600763
B1939334747734N12000636WA0075500761
B1939344747740N12000633WA0075300758
B1939354747746N12000630WA0075200756
B1939364747753N12000626WA0075000754
B1939374747759N12000622WA0074900754
B1939384747764N12000618WA0074800756
B1939394747769N12000615WA0074800756
B1939404747774N12000612WA0074700757
B1939414747779N12000608WA0074700756
B1939424747785N12000605WA0074600756
B1939434747791N12000601WA0074500755
B1939444747797N12000598WA0074500755
B1939454747803N12000596WA0074500756
B1939464747809N12000594WA0074400757
B1939474747815N12000591WA0074400759
B1939484747820N12000588WA0074500762
B1939484747820N12000588WA0074500762
B1939494747824N12000584WA0074600765
B1939504747825N12000579WA0074700768
B1939514747825N12000572WA0074800768
B1939524747822N12000567WA0074900768
B1939534747817N12000565WA0074900768
B1939544747813N12000566WA0075000770
B1939554747810N12000571WA0075100771
B1939564747808N12000577WA0075200772
B1939574747808N12000585WA0075200773
B1939584747811N12000592WA0075300774
B1939594747815N12000597WA0075400775
B1940004747821N12000599WA0075500775
B1940014747826N12000600WA0075600776
B1940024747831N12000597WA0075700778
B1940034747835N12000592WA0075800780
B1940044747837N12000585WA0075900781
B1940054747837N12000577WA0076000782
B1940064747836N12000571WA0076100783
B1940074747833N12000567WA0076200785
B1940084747830N12000565WA0076300787
B1940094747825N12000566WA0076400787
B1940104747821N12000568WA0076500788
B1940114747816N12000570WA0076600789
B1940124747812N12000571WA0076700791
B1940134747808N12000572WA0076800792
B1940144747804N12000571WA0077000793
B1940154747800N12000571WA0077000793
B1940164747795N12000570WA0077100792
B1940174747790N12000571WA0077200791
B1940184747785N12000573WA0077200790
B1940194747781N12000576WA0077200790
B1940204747779N12000579WA0077300791
B1940214747778N12000584WA0077300792
B1940224747778N12000589WA0077400791
B1940234747780N12000594WA0077400790
B1940244747784N12000600WA0077400789
B1940254747788N12000604WA0077400789
B1940264747793N12000606WA0077400789
B1940274747798N12000606WA0077400789
B1940284747804N12000604WA0077400789
B1940294747809N12000600WA0077400789
B1940304747813N12000595WA0077400789
B1940314747817N12000587WA0077400788
B1940324747820N12000579WA0077400788
B1940334747822N12000571WA0077400789
B1940344747822N12000563WA0077400790
B1940354747821N12000556WA0077400790
B1940364747819N12000550WA0077400790
B1940374747817N12000543WA0077400789
B1940384747814N12000537WA0077400789
B1940394747810N12000532WA0077400788
B1940404747806N12000530WA0077400788
B1940414747802N12000530WA0077400787
B1940424747798N12000531WA0077300786
B1940434747796N12000534WA0077300786
B1940444747794N12000537WA0077300786
B1940454747792N12000542WA0077300786
B1940464747791N12000546WA0077200785
B1940474747791N12000550WA0077200784
B1940484747791N12000555WA0077100784
B1940494747791N12000559WA0077100783
B1940504747792N12000562WA0077100782
B1940504747792N12000562WA0077100782
B1940514747792N12000567WA0077000780
B1940524747794N12000571WA0076900779
B1940534747796N12000576WA0076900777
B1940544747799N12000580WA0076700776
B1940554747803N12000584WA0076700775
B1940564747807N12000588WA0076600774
B1940574747811N12000592WA0076500773
B1940584747815N12000596WA0076400772
B1940594747819N12000601WA0076300770
B1941004747824N12000606WA0076200770
B1941014747829N12000610WA0076100769
B1941024747834N12000614WA0076000769
B1941034747839N12000617WA0076000769
B1941044747843N12000621WA0075900768
B1941054747848N12000625WA0075800767
B1941064747854N12000629WA0075700765
B1941074747860N12000633WA0075700764
B1941084747867N12000635WA0075600765
B1941094747873N12000636WA0075600767
B1941104747879N12000633WA0075500768
B1941114747885N12000629WA0075500769
B1941124747890N12000622WA0075500769
B1941134747893N12000614WA0075500770
B1941144747895N12000607WA0075600771
B1941154747894N12000600WA0075600772
B1941164747891N12000596WA0075700774
B1941174747888N12000594WA0075700775
B1941184747884N12000594WA0075800776
B1941194747880N12000594WA0075800778
B1941204747877N12000597WA0075900780
B1941214747876N12000600WA0076000782
B1941224747876N12000606WA0076100783
B1941234747877N12000612WA0076200783
B1941244747880N12000618WA0076300783
B1941254747885N12000623WA0076400784
B1941264747890N12000626WA0076500785
B1941274747897N12000625WA0076600786
B1941284747903N12000621WA0076700787
B1941294747909N12000613WA0076700787
B1941304747913N12000604WA0076800788
B1941314747914N12000595WA0076900791
B1941324747913N12000589WA0077100794
B1941334747910N12000586WA0077200795
B1941344747907N12000584WA0077300796
B1941354747903N12000584WA0077400796
B1941364747899N12000583WA0077500798
B1941374747896N12000582WA0077600800
B1941384747894N12000579WA0077800802
B1941394747891N12000577WA0077900803
B1941404747889N12000575WA0078000803
B1941414747886N12000575WA0078100804
B1941424747883N12000577WA0078200804
B1941434747881N12000581WA0078300804
B1941444747882N12000588WA0078300804
B1941454747884N12000594WA0078400805
B1941464747887N12000600WA0078500805
B1941474747891N12000605WA0078600807
B1941484747894N12000611WA0078700808
B1941494747897N12000617WA0078700810
B1941504747900N12000624WA0078900812
B1941514747903N12000631WA0079000814
B1941524747905N12000638WA0079100816
B1941534747908N12000645WA0079300819
B1941544747911N12000652WA0079400821
B1941544747911N12000652WA0079400821
B1941554747915N12000660WA0079600822
B1941564747918N12000667WA0079700824
B1941574747921N12000674WA0079900826
B1941584747924N12000681WA0080100828
B1941594747927N12000687WA0080200831
B1942004747930N12000691WA0080400833
B1942014747936N12000695WA0080600834
B1942024747942N12000697WA0080700835
B1942034747950N12000697WA0080900835
B1942044747957N12000694WA0081000836
B1942054747962N12000689WA0081100839
B1942064747966N12000682WA0081300840
B1942074747968N12000674WA0081400841
B1942084747969N12000665WA0081600841
B1942094747968N12000657WA0081700841
B1942104747966N12000650WA0081800842
B1942114747963N12000645WA0081900845
B1942124747960N12000643WA0082000847
B1942134747957N12000644WA0082200850
B1942144747954N12000646WA0082400853
B1942154747952N12000649WA0082600857
B1942164747951N12000653WA0082800859
B1942174747951N12000659WA0082900861
B1942184747951N12000665WA0083100862
B1942194747951N12000672WA0083300862
B1942204747951N12000679WA0083500863
B1942214747951N12000684WA0083600864
B1942224747952N12000689WA0083700863
B1942234747954N12000695WA0083800862
B1942244747956N12000701WA0083800860
B1942254747960N12000708WA0083800858
B1942264747964N12000714WA0083800857
B1942274747968N12000720WA0083900858
B1942284747972N12000724WA0083900860
B1942294747976N12000727WA0084000863
B1942304747981N12000729WA0084100865
B1942314747986N12000728WA0084200867
B1942324747991N12000726WA0084300869
B1942334747997N12000723WA0084400870
B1942344748002N12000720WA0084600872
B1942354748008N12000717WA0084700873
B1942364748015N12000714WA0084800876
B1942374748021N12000711WA0084900877
B1942384748027N12000708WA0085100879
B1942394748033N12000704WA0085200881
B1942404748039N12000700WA0085400882
B1942414748045N12000696WA0085500883
B1942424748051N12000692WA0085600884
B1942434748056N12000687WA0085700885
B1942444748059N12000681WA0085900886
B1942454748062N12000674WA0086000886
B1942464748062N12000667WA0086100887
B1942474748061N12000661WA0086200887
B1942484748059N12000656WA0086300888
B1942494748057N12000652WA0086400888
B1942504748054N12000649WA0086400888
B1942514748051N12000647WA0086500888
B1942524748047N12000646WA0086600889
B1942534748044N12000646WA0086700893
B1942544748041N12000648WA0086800896
B1942554748039N12000649WA0086900899
B1942564748037N12000650WA0087100902
B1942574748034N12000650WA0087300904
B1942574748034N12000650WA0087300904
B1942584748031N12000649WA0087500906
B1942594748029N12000649WA0087600908
B1943004748026N12000649WA0087800908
B1943014748024N12000651WA0087900909
B1943024748022N12000654WA0088000909
B1943034748021N12000660WA0088100909
B1943044748022N12000667WA0088200909
B1943054748024N12000675WA0088300909
B1943064748026N12000682WA0088400910
B1943074748029N12000688WA0088400912
B1943084748032N12000694WA0088600913
B1943094748035N12000700WA0088600914
B1943104748038N12000705WA0088800915
B1943114748041N12000710WA0088800916
B1943124748045N12000713WA0089000917
B1943134748050N12000714WA0089000916
B1943144748057N12000713WA0089100916
B1943154748063N12000708WA0089100916
B1943164748067N12000702WA0089200918
B1943174748069N12000695WA0089300920
B1943184748070N12000688WA0089400921
B1943194748071N12000679WA0089500922
B1943204748071N12000672WA0089600924
B1943214748070N12000667WA0089700925
B1943224748068N12000664WA0089800926
B1943234748065N12000662WA0089900925
B1943244748062N12000661WA0089900924
B1943254748059N12000662WA0090000924
B1943264748056N12000663WA0090000925
B1943274748053N12000665WA0090100925
B1943284748050N12000668WA0090100925
B1943294748048N12000671WA0090100925
B1943304748046N12000675WA0090200925
B1943314748044N12000680WA0090200924
B1943324748042N12000684WA0090200923
B1943334748040N12000689WA0090200922
B1943344748038N12000694WA0090100922
B1943354748038N12000699WA0090100921
B1943364748039N12000703WA0090100919
B1943374748040N12000708WA0090000917
B1943384748043N12000713WA0089900915
B1943394748047N12000718WA0089800912
B1943404748052N12000721WA0089700910
B1943414748058N12000723WA0089600908
B1943424748064N12000722WA0089400905
B1943434748071N12000721WA0089300902
B1943444748078N12000719WA0089100900
B1943454748085N12000716WA0089000900
B1943464748092N12000713WA0088900901
B1943474748099N12000710WA0088800902
B1943484748105N12000707WA0088800904
B1943494748112N12000705WA0088700905
B1943504748119N12000702WA0088700905
B1943514748126N12000700WA0088700907
B1943524748132N12000697WA0088800909
B1943534748138N12000694WA0088800911
B1943544748143N12000691WA0088900912
B1943554748149N12000688WA0088900913
B1943564748154N12000684WA0089000913
B1943574748159N12000680WA0089000913
B1943584748163N12000674WA0089100913
B1943594748166N12000666WA0089100912
B1944004748168N12000658WA0089100911
B1944004748168N12000658WA0089100911
B1944014748169N12000649WA0089100911
B1944024748171N12000641WA0089100912
B1944034748171N12000635WA0089100913
B1944044748170N12000630WA0089200914
B1944054748169N12000626WA0089200914
B1944064748166N12000624WA0089200913
B1944074748163N12000623WA0089200912
B1944084748160N12000624WA0089200912
B1944094748158N12000625WA0089200913
B1944104748156N12000626WA0089200914
B1944114748154N12000627WA0089300915
B1944124748152N12000629WA0089300915
B1944134748151N12000631WA0089300916
B1944144748150N12000635WA0089400916
B1944154748150N12000641WA0089400915
B1944164748152N12000648WA0089400914
B1944174748154N12000655WA0089400914
B1944184748158N12000661WA0089400915
B1944194748163N12000666WA0089400917
B1944204748168N12000669WA0089500918
B1944214748175N12000670WA0089500919
B1944224748182N12000668WA0089500919
B1944234748190N12000663WA0089600918
B1944244748197N12000657WA0089600919
B1944254748203N12000651WA0089700922
B1944264748208N12000645WA0089800925
B1944274748210N12000638WA0089800927
B1944284748212N12000631WA0090000927
B1944294748213N12000624WA0090000927
B1944304748212N12000618WA0090100927
B1944314748210N12000613WA0090100928
B1944324748208N12000610WA0090200928
B1944334748206N12000609WA0090300929
B1944344748204N12000610WA0090400930
B1944354748202N12000611WA0090400930
B1944364748201N12000613WA0090500931
B1944374748199N12000615WA0090500930
B1944384748197N12000617WA0090500930
B1944394748196N12000621WA0090600930
B1944404748196N12000625WA0090600931
B1944414748198N12000631WA0090600930
B1944424748201N12000638WA0090700929
B1944434748204N12000645WA0090700928
B1944444748209N12000651WA0090700928
B1944454748215N12000656WA0090700928
B1944464748221N12000660WA0090700930
B1944474748227N12000662WA0090700931
B1944484748234N12000661WA0090800932
B1944494748241N12000659WA0090800932
B1944504748248N12000654WA0090800932
B1944514748256N12000649WA0090900931
B1944524748262N12000643WA0090900932
B1944534748267N12000636WA0090900932
B1944544748270N12000628WA0090900933
B1944554748271N12000620WA0091000933
B1944564748269N12000613WA0091000932
B1944574748267N12000608WA0091000931
B1944584748264N12000605WA0090900930
B1944594748261N12000603WA0090900930
B1945004748258N12000602WA0090900930
B1945014748257N12000601WA0090900929
B1945024748255N12000598WA0090800928
B1945034748254N12000592WA0090800926
B1945034748254N12000592WA0090800926
B1945044748254N12000585WA0090700924
B1945054748256N12000577WA0090600922
B1945064748259N12000569WA0090500921
B1945074748263N12000562WA0090400920
B1945084748266N12000556WA0090300919
B1945094748269N12000550WA0090300918
B1945104748270N12000542WA0090100916
B1945114748270N12000534WA0090000915
B1945124748270N12000526WA0089900914
B1945134748269N12000520WA0089900917
B1945144748268N12000514WA0089900918
B1945154748266N12000509WA0089900919
B1945164748265N12000504WA0089800919
B1945174748263N12000497WA0089800918
B1945184748262N12000491WA0089800917
B1945194748260N12000485WA0089700916
B1945204748257N12000480WA0089700915
B1945214748253N12000476WA0089600914
B1945224748249N12000474WA0089500912
B1945234748245N12000472WA0089500910
B1945244748241N12000471WA0089300909
B1945254748237N12000470WA0089300907
B1945264748234N12000468WA0089100906
B1945274748231N12000464WA0089100905
B1945284748230N12000458WA0088900902
B1945294748230N12000449WA0088800898
B1945304748232N12000440WA0088600894
B1945314748236N12000432WA0088400890
B1945324748241N12000424WA0088100887
B1945334748245N12000417WA0087900885
B1945344748249N12000409WA0087700885
B1945354748251N12000402WA0087500883
B1945364748254N12000395WA0087300881
B1945374748258N12000387WA0087100878
B1945384748263N12000380WA0086900876
B1945394748267N12000376WA0086800876
B1945404748272N12000373WA0086600876
B1945414748275N12000370WA0086500877
B1945424748278N12000365WA0086400877
B1945434748279N12000358WA0086300877
B1945444748278N12000351WA0086200877
B1945454748275N12000347WA0086200878
B1945464748271N12000346WA0086200880
B1945474748267N12000347WA0086200880
B1945484748262N12000349WA0086100879
B1945494748258N12000353WA0086100879
B1945504748253N12000358WA0086100879
B1945514748250N12000363WA0086100879
B1945524748247N12000369WA0086100878
B1945534748245N12000374WA0086000878
B1945544748244N12000380WA0086000876
B1945554748242N12000386WA0085900874
B1945564748242N12000392WA0085800871
B1945574748242N12000399WA0085700867
B1945584748244N12000406WA0085600864
B1945594748247N12000411WA0085400861
B1946004748252N12000414WA0085200857
B1946014748257N12000414WA0085000854
B1946024748263N12000411WA0084800850
B1946034748267N12000405WA0084600846
B1946044748269N12000397WA0084300843
B1946054748269N12000389WA0084100839
B1946064748267N12000381WA0083800838
B1946064748267N12000381WA0083800838
B1946074748267N12000375WA0083600838
B1946084748267N12000370WA0083400838
B1946094748268N12000365WA0083300837
B1946104748268N12000359WA0083000835
B1946114748267N12000352WA0082900832
B1946124748267N12000345WA0082700830
B1946134748267N12000338WA0082500829
B1946144748268N12000331WA0082300828
B1946154748268N12000325WA0082200827
B1946164748268N12000318WA0082000826
B1946174748268N12000312WA0081900825
B1946184748267N12000306WA0081700823
B1946194748267N12000299WA0081500821
B1946204748268N12000291WA0081300818
B1946214748268N12000283WA0081200816
B1946224748268N12000275WA0081000814
B1946234748268N12000267WA0080800813
B1946244748267N12000261WA0080600813
B1946254748267N12000254WA0080500812
B1946264748267N12000247WA0080300810
B1946274748267N12000240WA0080200807
B1946284748267N12000232WA0080000805
B1946294748267N12000223WA0079900803
B1946304748267N12000216WA0079700802
B1946314748268N12000209WA0079500802
B1946324748268N12000201WA0079400801
B1946334748268N12000193WA0079300800
B1946344748269N12000186WA0079100800
B1946354748270N12000180WA0079100801
B1946364748270N12000173WA0079000802
B1946374748271N12000167WA0079000803
B1946384748272N12000160WA0078900803
B1946394748272N12000152WA0078900803
B1946404748272N12000144WA0078800804
B1946414748273N12000137WA0078800804
B1946424748273N12000129WA0078800804
B1946434748273N12000121WA0078800805
B1946444748274N12000113WA0078800805
B1946454748274N12000105WA0078800806
B1946464748273N12000096WA0078800806
B1946474748272N12000090WA0078900807
B1946484748269N12000085WA0078900807
B1946494748266N12000083WA0078900806
B1946504748262N12000081WA0078900805
B1946514748258N12000081WA0078900804
B1946524748254N12000082WA0078800804
B1946534748251N12000085WA0078800803
B1946544748248N12000089WA0078800801
B1946554748246N12000094WA0078700799
B1946564748244N12000101WA0078600798
B1946574748243N12000108WA0078600797
B1946584748243N12000115WA0078500795
B1946594748244N12000122WA0078400794
B1947004748245N12000130WA0078300793
B1947014748248N12000137WA0078200792
B1947024748252N12000144WA0078100791
B1947034748257N12000150WA0078100790
B1947044748262N12000155WA0078000790
B1947054748268N12000156WA0078000791
B1947064748274N12000155WA0077900793
B1947074748278N12000150WA0077900793
B1947084748281N12000144WA0077900793
B1947094748282N12000138WA0077900793
B1947104748281N12000132WA0077900794
B1947104748281N12000132WA0077900794
B1947114748279N12000128WA0077900794
B1947124748276N12000125WA0077900794
B1947134748273N12000122WA0078000795
B1947144748270N12000119WA0078000795
B1947154748266N12000115WA0078000794
B1947164748263N12000110WA0078000793
B1947174748259N12000106WA0077900792
B1947184748256N12000103WA0077900791
B1947194748253N12000100WA0077900790
B1947204748250N12000096WA0077800789
B1947214748247N12000091WA0077700787
B1947224748244N12000085WA0077600785
B1947234748241N12000079WA0077600783
B1947244748239N12000073WA0077400781
B1947254748236N12000067WA0077300780
B1947264748232N12000062WA0077200779
B1947274748229N12000058WA0077100779
B1947284748225N12000054WA0077000778
B1947294748222N12000051WA0077000777
B1947304748218N12000047WA0076800776
B1947314748214N12000043WA0076700775
B1947324748210N12000040WA0076600774
B1947334748206N12000036WA0076500773
B1947344748202N12000033WA0076400772
B1947354748198N12000030WA0076400772
B1947364748195N12000028WA0076300771
B1947374748190N12000026WA0076200769
B1947384748186N12000023WA0076100768
B1947394748181N12000022WA0076000766
B1947404748177N12000021WA0075800765
B1947414748173N12000022WA0075800764
B1947424748170N12000024WA0075600762
B1947434748166N12000027WA0075500761
B1947444748163N12000030WA0075400759
B1947454748160N12000034WA0075300757
B1947464748157N12000037WA0075100756
B1947474748153N12000040WA0075000755
B1947484748150N12000040WA0074900754
B1947494748147N12000037WA0074800753
B1947504748144N12000030WA0074600750
B1947514748144N12000020WA0074500746
B1947524748146N12000010WA0074300743
B1947534748150N12000002WA0074100743
B1947544748153N11959994WA0074000744
B1947554748155N11959987WA0073900745
B1947564748157N11959980WA0073800744
B1947574748159N11959972WA0073700742
B1947584748161N11959963WA0073500739
B1947594748164N11959953WA0073400736
B1948004748167N11959943WA0073200734
B1948014748170N11959933WA0073000733
B1948024748172N11959924WA0072800732
B1948034748175N11959916WA0072700732
B1948044748178N11959907WA0072600731
B1948054748181N11959898WA0072400729
B1948064748184N11959888WA0072200726
B1948074748186N11959875WA0072100722
B1948084748188N11959862WA0071800718
B1948094748190N11959849WA0071600715
B1948104748191N11959837WA0071400713
B1948114748192N11959825WA0071200712
B1948124748193N11959814WA0071000710
B1948134748194N11959802WA0070800708
B1948134748194N11959802WA0070800708
B1948144748194N11959791WA0070600707
B1948154748195N11959780WA0070500705
B1948164748196N11959769WA0070200703
B1948174748196N11959759WA0070100702
B1948184748197N11959749WA0069900700
B1948194748198N11959738WA0069700698
B1948204748199N11959727WA0069500695
B1948214748201N11959716WA0069400692
B1948224748203N11959704WA0069100690
B1948234748204N11959693WA0069000689
B1948244748205N11959682WA0068700687
B1948254748206N11959672WA0068600686
B1948264748207N11959661WA0068400684
B1948274748208N11959650WA0068200682
B1948284748209N11959639WA0068000679
B1948294748210N11959627WA0067800676
B1948304748210N11959616WA0067600675
B1948314748211N11959606WA0067500675
B1948324748213N11959596WA0067300674
B1948334748214N11959585WA0067200673
B1948344748214N11959575WA0067000672
B1948354748215N11959564WA0066800669
B1948364748216N11959553WA0066700667
B1948374748218N11959542WA0066500666
B1948384748220N11959533WA0066400666
B1948394748222N11959523WA0066300666
B1948404748223N11959514WA0066100665
B1948414748223N11959504WA0066000664
B1948424748223N11959495WA0065900662
B1948434748224N11959486WA0065800662
B1948444748224N11959477WA0065700662
B1948454748225N11959467WA0065600662
B1948464748226N11959459WA0065500662
B1948474748226N11959450WA0065500662
B1948484748226N11959442WA0065400662
B1948494748226N11959434WA0065400662
B1948504748227N11959426WA0065300661
B1948514748227N11959417WA0065300659
B1948524748228N11959408WA0065200658
B1948534748230N11959400WA0065100657
B1948544748231N11959392WA0065000656
B1948554748232N11959383WA0065000655
B1948564748233N11959375WA0064900654
B1948574748234N11959367WA0064800652
B1948584748234N11959358WA0064600649
B1948594748233N11959349WA0064500647
B1949004748232N11959340WA0064400645
B1949014748230N11959332WA0064300643
B1949024748229N11959325WA0064100642
B1949034748227N11959318WA0064000642
B1949044748225N11959311WA0063800640
B1949054748223N11959304WA0063700638
B1949064748221N11959297WA0063600636
B1949074748218N11959291WA0063400634
B1949084748215N11959284WA0063300633
B1949094748212N11959278WA0063200632
B1949104748210N11959273WA0063000631
B1949114748208N11959267WA0062900630
B1949124748206N11959260WA0062800629
B1949134748203N11959253WA0062700627
B1949144748201N11959246WA0062500625
B1949154748198N11959239WA0062400623
B1949164748196N11959232WA0062200622
B1949164748196N11959232WA0062200622
B1949174748193N11959226WA0062100621
B1949184748190N11959220WA0061900620
B1949194748187N11959213WA0061800618
B1949204748185N11959207WA0061600616
B1949214748182N11959200WA0061500614
B1949224748180N11959193WA0061300613
B1949234748178N11959186WA0061200612
B1949244748176N11959180WA0061100611
B1949254748175N11959174WA0061000610
B1949264748173N11959167WA0060800609
B1949274748171N11959160WA0060800608
B1949284748170N11959153WA0060600606
B1949294748169N11959146WA0060500604
B1949304748167N11959139WA0060300603
B1949314748166N11959132WA0060200601
B1949324748164N11959125WA0060000599
B1949334748162N11959118WA0059900598
B1949344748160N11959112WA0059700596
B1949354748158N11959105WA0059600594
B1949364748156N11959099WA0059400592
B1949374748154N11959092WA0059300589
B1949384748152N11959086WA0059100587
B1949394748149N11959080WA0058900586
B1949404748146N11959074WA0058700585
B1949414748144N11959068WA0058600583
B1949424748141N11959063WA0058400581
B1949434748139N11959057WA0058300579
B1949444748137N11959051WA0058100577
B1949454748134N11959045WA0057900573
B1949464748132N11959037WA0057600569
B1949474748129N11959030WA0057400565
B1949484748126N11959022WA0057100562
B1949494748124N11959013WA0056900560
B1949504748122N11959005WA0056600557
B1949514748120N11958996WA0056400554
B1949524748119N11958987WA0056100552
B1949534748117N11958977WA0055900550
B1949544748116N11958969WA0055700548
B1949554748114N11958960WA0055500546
B1949564748112N11958951WA0055200543
B1949574748110N11958943WA0055000541
B1949584748108N11958935WA0054800540
B1949594748106N11958927WA0054600537
B1950004748104N11958919WA0054300535
B1950014748102N11958912WA0054200533
B1950024748099N11958905WA0053900531
B1950034748096N11958899WA0053800529
B1950044748092N11958893WA0053500526
B1950054748089N11958886WA0053300524
B1950064748086N11958879WA0053100522
B1950074748083N11958872WA0052900520
B1950084748079N11958866WA0052700519
B1950094748076N11958860WA0052500517
B1950104748072N11958854WA0052300514
B1950114748068N11958848WA0052100512
B1950124748065N11958842WA0051900510
B1950134748061N11958836WA0051700508
B1950144748057N11958831WA0051500506
B1950154748053N11958825WA0051400504
B1950164748048N11958820WA0051100501
B1950174748044N11958815WA0051000499
B1950184748039N11958809WA0050700498
B1950194748035N11958805WA0050600498
B1950204748032N11958800WA0050400497
B1950204748032N11958800WA0050400497
B1950214748028N11958795WA0050300496
B1950224748024N11958789WA0050100495
B1950234748020N11958784WA0050000493
B1950244748015N11958778WA0049800491
B1950254748011N11958773WA0049700489
B1950264748007N11958769WA0049600488
B1950274748003N11958765WA0049400487
B1950284747999N11958761WA0049300486
B1950294747995N11958756WA0049100483
B1950304747990N11958752WA0049000481
B1950314747986N11958748WA0048800479
B1950324747982N11958744WA0048600478
B1950334747979N11958740WA0048500478
B1950344747975N11958735WA0048400477
B1950354747972N11958731WA0048300475
B1950364747968N11958726WA0048100474
B1950374747964N11958722WA0048000472
B1950384747960N11958718WA0047900471
B1950394747957N11958715WA0047800470
B1950404747954N11958711WA0047600469
B1950414747950N11958707WA0047500467
B1950424747946N11958702WA0047300464
B1950434747942N11958699WA0047200462
B1950444747938N11958696WA0047000460
B1950454747934N11958696WA0046900459
B1950464747930N11958697WA0046700457
B1950474747927N11958699WA0046600456
B1950484747923N11958702WA0046400454
B1950494747919N11958704WA0046300451
B1950504747915N11958707WA0046100449
B1950514747911N11958709WA0046000447
B1950524747907N11958711WA0045800445
B1950534747904N11958714WA0045600443
B1950544747900N11958718WA0045400440
B1950554747897N11958722WA0045200438
B1950564747893N11958726WA0045000435
B1950574747888N11958729WA0044900434
B1950584747884N11958731WA0044600432
B1950594747881N11958734WA0044500432
B1951004747877N11958737WA0044300431
B1951014747874N11958739WA0044200430
B1951024747870N11958742WA0044000428
B1951034747866N11958744WA0043900426
B1951044747863N11958747WA0043700425
B1951054747860N11958750WA0043600423
B1951064747856N11958754WA0043400421
B1951074747854N11958757WA0043300420
B1951084747851N11958760WA0043200420
B1951094747848N11958763WA0043000418
B1951104747844N11958766WA0042900416
B1951114747840N11958769WA0042800415
B1951124747836N11958773WA0042600413
B1951134747832N11958776WA0042500412
B1951144747828N11958780WA0042300411
B1951154747824N11958783WA0042200411
B1951164747821N11958786WA0042100410
B1951174747817N11958789WA0042000409
B1951184747813N11958792WA0041900408
B1951194747810N11958796WA0041800407
B1951204747807N11958801WA0041700406
B1951214747806N11958807WA0041600405
B1951224747806N11958814WA0041500404
B1951234747808N11958821WA0041400404
B1951234747808N11958821WA0041400404
B1951244747812N11958827WA0041300403
B1951254747817N11958830WA0041200403
B1951264747823N11958831WA0041100402
B1951274747829N11958828WA0041000401
B1951284747835N11958825WA0040900400
B1951294747840N11958820WA0040800399
B1951304747845N11958816WA0040700399
B1951314747849N11958813WA0040600397
B1951324747854N11958808WA0040500396
B1951334747859N11958804WA0040400393
B1951344747865N11958799WA0040200391
B1951354747870N11958794WA0040100389
B1951364747876N11958790WA0040000388
B1951374747881N11958786WA0039900387
B1951384747887N11958783WA0039700387
B1951394747892N11958779WA0039600386
B1951404747898N11958775WA0039500384
B1951414747903N11958771WA0039400382
B1951424747907N11958767WA0039200381
B1951434747912N11958764WA0039100379
B1951444747918N11958761WA0039000378
B1951454747923N11958758WA0038900376
B1951464747929N11958755WA0038700374
B1951474747935N11958753WA0038600373
B1951484747940N11958751WA0038400372
B1951494747946N11958750WA0038300370
B1951504747952N11958750WA0038100368
B1951514747958N11958750WA0038000366
B1951524747965N11958749WA0037800364
B1951534747971N11958749WA0037700363
B1951544747977N11958748WA0037500362
B1951554747983N11958747WA0037400360
B1951564747989N11958746WA0037300359
B1951574747996N11958745WA0037100357
B1951584748002N11958743WA0037000355
B1951594748009N11958742WA0036800354
B1952004748014N11958742WA0036700354
B1952014748019N11958745WA0036600354
B1952024748023N11958750WA0036500352
B1952034748025N11958758WA0036300350
B1952044748023N11958766WA0036100346
B1952054748018N11958771WA0036000343
B1952064748012N11958771WA0035700341
B1952074748007N11958771WA0035600340
B1952084748003N11958771WA0035400342
B1952094748000N11958774WA0035300342
B1952104747998N11958780WA0035100340
B1952114747998N11958787WA0035000337
B1952124747999N11958795WA0034800335
B1952134748002N11958802WA0034700334
B1952144748005N11958807WA0034500333
B1952154748010N11958810WA0034400332
B1952164748015N11958813WA0034200330
B1952174748020N11958816WA0034100328
B1952184748025N11958819WA0033900326
B1952194748030N11958823WA0033800324
B1952204748035N11958827WA0033600323
B1952214748037N11958833WA0033500322
B1952224748037N11958840WA0033300320
B1952234748034N11958847WA0033100316
B1952244748028N11958849WA0032900313
B1952254748023N11958846WA0032700310
B1952264748018N11958840WA0032500309
B1952264748018N11958840WA0032500309
B1952274748016N11958835WA0032300309
B1952284748013N11958832WA0032200310
B1952294748009N11958832WA0032000309
B1952304748005N11958836WA0031800308
B1952314748002N11958843WA0031700305
B1952324748002N11958851WA0031500304
B1952334748003N11958858WA0031400303
B1952344748006N11958864WA0031200303
B1952354748009N11958870WA0031100301
B1952364748012N11958876WA0030900299
B1952374748015N11958883WA0030800297
B1952384748018N11958889WA0030600295
B1952394748022N11958895WA0030500294
B1952404748026N11958901WA0030300292
B1952414748029N11958906WA0030200290
B1952424748032N11958912WA0030000289
B1952434748036N11958918WA0029900287
B1952444748039N11958924WA0029700287
B1952454748042N11958930WA0029600285
B1952464748045N11958936WA0029400283
B1952474748047N11958944WA0029200282
B1952484748048N11958951WA0029000280
B1952494748050N11958958WA0028900279
B1952504748052N11958965WA0028800278
B1952514748054N11958971WA0028700276
B1952524748057N11958978WA0028500274
B1952534748059N11958985WA0028400273
B1952544748060N11958991WA0028200271
B1952554748059N11958997WA0028100269
B1952564748055N11959002WA0027900267
B1952574748051N11959002WA0027800264
B1952584748047N11959000WA0027600262
B1952594748044N11958997WA0027500259
B1953004748041N11958993WA0027300257
B1953014748038N11958991WA0027200256
B1953024748034N11958990WA0027000254
B1953034748030N11958992WA0026900252
B1953044748027N11958996WA0026700249
B1953054748024N11959001WA0026600247
B1953064748022N11959007WA0026400246
B1953074748020N11959014WA0026300244
B1953084748019N11959019WA0026100243
B1953094748016N11959025WA0026000241
B1953104748011N11959028WA0025800241
B1953114748006N11959030WA0025700239
B1953124748002N11959031WA0025500238
B1953134747997N11959033WA0025300237
B1953144747993N11959034WA0025100238
B1953154747989N11959036WA0025000237
B1953164747985N11959038WA0024900235
B1953174747982N11959041WA0024800234
B1953184747978N11959044WA0024600231
B1953194747975N11959048WA0024500231
B1953204747971N11959051WA0024300231
B1953214747968N11959054WA0024200230
B1953224747965N11959056WA0024100229
B1953234747963N11959058WA0023900228
B1953244747962N11959059WA0023900228
B1953254747961N11959060WA0023800229
B1953264747960N11959060WA0023700229
B1953274747960N11959061WA0023700229
B1953284747959N11959061WA0023600232
B1953294747959N11959061WA0023500231
B1953294747959N11959061WA0023500231
B1953304747959N11959061WA0023500231
B1953314747959N11959061WA0023500230
B1953324747959N11959061WA0023400230
B1953334747959N11959061WA0023400229
B1953344747959N11959061WA0023400229
B1953354747959N11959061WA0023300228
B1953364747959N11959061WA0023300227
B1953374747959N11959061WA0023300227
B1953384747959N11959061WA0023300227
B1953394747959N11959061WA0023300227
B1953404747959N11959061WA0023300226
B1953414747959N11959061WA0023200226
B1953424747959N11959061WA0023200226
B1953434747959N11959061WA0023200226
B1953444747959N11959061WA0023200226
B1953454747959N11959061WA0023200225
B1953464747959N11959061WA0023200224
B1953474747959N11959061WA0023200223
B1953484747959N11959061WA0023200223
B1953494747958N11959061WA0023200223
B1953504747958N11959061WA0023200223
B1953514747958N11959061WA0023200223
B1953524747958N11959061WA0023200223
B1953534747958N11959061WA0023200223
B1953544747959N11959061WA0023200222
B1953554747959N11959060WA0023200222
B1953564747959N11959060WA0023200222
B1953574747959N11959060WA0023200222
B1953584747959N11959060WA0023200222
B1953594747960N11959060WA0023200222
B1954004747960N11959060WA0023200221
B1954014747960N11959060WA0023200221
B1954024747960N11959060WA0023200222
B1954034747960N11959060WA0023200221
B1954044747961N11959060WA0023200221
B1954054747961N11959060WA0023200221
B1954064747961N11959060WA0023200220
B1954074747961N11959060WA0023200220
B1954084747961N11959060WA0023200219
B1954094747961N11959060WA0023200219
B1954104747961N11959059WA0023200218
B1954114747961N11959060WA0023200218
B1954124747961N11959059WA0023200218
B1954134747960N11959059WA0023200217
B1954144747959N11959059WA0023200217
B1954154747959N11959059WA0023200217
B1954164747958N11959059WA0023200217
B1954174747958N11959059WA0023200217
B1954184747958N11959059WA0023200218
B1954194747957N11959059WA0023200218
B1954204747957N11959059WA0023100218
B1954214747956N11959058WA0023100217
B1954224747955N11959058WA0023100217
B1954234747955N11959058WA0023100216
B1954244747954N11959059WA0023100216
B1954254747954N11959058WA0023100215
B1954264747953N11959059WA0023100215
B1954274747952N11959059WA0023100215
B1954284747952N11959059WA0023100215
B1954294747951N11959059WA0023100215
B1954304747951N11959059WA0023100215
B1954314747950N11959059WA0023100215
B1954324747949N11959059WA0023100215
