AXFMSFP Flymaster Live, V1.0
HFFXA010
HFPLTPILOT:Nicholas Fulmor
HFGTYGLIDERTYPE:Supair Delight 3 / Ozone Delta 4
HFGIDGLIDERID:
HFDTM100GPSDATUM:WGS-1984
HFCIDCOMPETITIONID:208
HFCCLCOMPETITIONCLASS:
HOSITSITE:LAUNCH
HFGPS:UBLOXNEO6
HFPRSPRESSALTSENSOR:NA
HFRFWFIRMWAREVERSION:202g
HFRHWHARDWAREVERSION:1.0R2
HFFTYFRTYPE:FLYMASTER,LIVE
HFDTE160625
B2020414748241N12002364WA0109601124
B2020424748240N12002366WA0109601125
B2020434748240N12002369WA0109601124
B2020444748239N12002373WA0109601123
B2020454748238N12002377WA0109601122
B2020464748237N12002382WA0109601122
B2020474748236N12002386WA0109601121
B2020484748235N12002391WA0109501120
B2020494748234N12002397WA0109501120
B2020504748233N12002401WA0109501120
B2020514748233N12002406WA0109401121
B2020524748233N12002410WA0109401122
B2020534748232N12002414WA0109401122
B2020544748231N12002417WA0109401122
B2020554748229N12002419WA0109401121
B2020564748227N12002422WA0109401122
B2020574748225N12002424WA0109501122
B2020584748224N12002425WA0109501123
B2020594748222N12002427WA0109501123
B2021004748220N12002429WA0109501123
B2021014748218N12002431WA0109501123
B2021024748215N12002432WA0109501123
B2021034748213N12002432WA0109501122
B2021044748210N12002432WA0109501121
B2021054748207N12002431WA0109501121
B2021064748203N12002431WA0109501119
B2021074748200N12002431WA0109401119
B2021084748196N12002431WA0109401119
B2021094748193N12002432WA0109401119
B2021104748191N12002432WA0109401119
B2021114748188N12002433WA0109301119
B2021124748185N12002435WA0109301119
B2021134748182N12002436WA0109301118
B2021144748178N12002437WA0109301118
B2021154748175N12002437WA0109301118
B2021164748172N12002438WA0109301119
B2021174748169N12002440WA0109301121
B2021184748167N12002442WA0109301121
B2021194748165N12002446WA0109301122
B2021204748163N12002449WA0109401122
B2021214748160N12002453WA0109401123
B2021224748158N12002455WA0109501123
B2021234748155N12002458WA0109501123
B2021244748153N12002460WA0109501123
B2021254748151N12002463WA0109501123
B2021264748149N12002466WA0109601123
B2021274748147N12002470WA0109601122
B2021284748145N12002474WA0109601122
B2021294748144N12002479WA0109601121
B2021304748143N12002484WA0109601121
B2021314748142N12002489WA0109601121
B2021324748142N12002495WA0109601121
B2021334748142N12002500WA0109601121
B2021344748143N12002506WA0109601119
B2021354748144N12002512WA0109501118
B2021364748143N12002517WA0109501117
B2021374748143N12002522WA0109501116
B2021384748142N12002527WA0109401115
B2021394748141N12002531WA0109401114
B2021404748139N12002534WA0109301112
B2021414748136N12002538WA0109301110
B2021424748134N12002542WA0109201109
B2021434748133N12002549WA0109101107
B2021444748133N12002556WA0109001106
B2021454748134N12002563WA0108901104
B2021464748135N12002570WA0108801102
B2021474748135N12002578WA0108701101
B2021484748136N12002585WA0108501099
B2021494748137N12002593WA0108401098
B2021504748138N12002601WA0108301098
B2021514748138N12002608WA0108201097
B2021524748139N12002615WA0108001097
B2021534748140N12002622WA0108001097
B2021544748141N12002629WA0107801096
B2021554748141N12002637WA0107801095
B2021564748142N12002644WA0107701095
B2021574748142N12002651WA0107601094
B2021584748143N12002658WA0107501094
B2021594748145N12002665WA0107401093
B2022004748147N12002672WA0107301094
B2022014748149N12002678WA0107301094
B2022024748151N12002684WA0107201095
B2022034748153N12002689WA0107201095
B2022044748154N12002694WA0107101095
B2022054748154N12002699WA0107101094
B2022064748153N12002705WA0107101093
B2022074748151N12002709WA0107001093
B2022084748148N12002712WA0107001093
B2022094748145N12002714WA0107001093
B2022104748142N12002715WA0107001094
B2022114748139N12002715WA0107001096
B2022124748136N12002714WA0107001098
B2022134748133N12002711WA0107101100
B2022144748130N12002709WA0107101101
B2022154748127N12002707WA0107201101
B2022164748123N12002707WA0107201102
B2022174748120N12002710WA0107301103
B2022184748120N12002714WA0107401104
B2022194748123N12002720WA0107501104
B2022204748129N12002725WA0107501102
B2022214748138N12002726WA0107601103
B2022224748146N12002720WA0107601103
B2022224748146N12002720WA0107601103
B2022234748152N12002709WA0107701103
B2022244748155N12002694WA0107701099
B2022254748153N12002680WA0107701096
B2022264748148N12002670WA0107701096
B2022274748143N12002665WA0107701097
B2022284748139N12002662WA0107701099
B2022294748135N12002660WA0107701100
B2022304748132N12002657WA0107801101
B2022314748129N12002655WA0107801102
B2022324748125N12002655WA0107801101
B2022334748121N12002657WA0107801100
B2022344748118N12002661WA0107801100
B2022354748117N12002666WA0107801100
B2022364748116N12002672WA0107801101
B2022374748116N12002677WA0107801103
B2022384748116N12002681WA0107901105
B2022394748116N12002686WA0107901107
B2022404748116N12002690WA0108001110
B2022414748116N12002694WA0108101112
B2022424748116N12002698WA0108201114
B2022434748115N12002701WA0108301116
B2022444748113N12002704WA0108401118
B2022454748112N12002706WA0108501121
B2022464748111N12002710WA0108701123
B2022474748113N12002716WA0108801124
B2022484748118N12002722WA0108901123
B2022494748126N12002724WA0109001121
B2022504748134N12002722WA0109101121
B2022514748142N12002713WA0109201122
B2022524748147N12002701WA0109301123
B2022534748149N12002688WA0109301125
B2022544748147N12002676WA0109401128
B2022554748143N12002667WA0109501131
B2022564748139N12002661WA0109701134
B2022574748135N12002656WA0109801138
B2022584748132N12002652WA0110001142
B2022594748129N12002647WA0110101145
B2023004748126N12002643WA0110401148
B2023014748122N12002640WA0110501149
B2023024748117N12002638WA0110701150
B2023034748113N12002637WA0110901151
B2023044748109N12002639WA0111101151
B2023054748107N12002642WA0111201152
B2023064748105N12002647WA0111401152
B2023074748104N12002651WA0111501153
B2023084748103N12002655WA0111701154
B2023094748103N12002659WA0111701153
B2023104748104N12002663WA0111901152
B2023114748105N12002667WA0111901151
B2023124748107N12002673WA0112001149
B2023134748110N12002678WA0112001146
B2023144748112N12002684WA0112001145
B2023154748115N12002690WA0111901144
B2023164748118N12002695WA0111901144
B2023174748121N12002699WA0111901143
B2023184748124N12002704WA0111801141
B2023194748127N12002709WA0111801139
B2023204748129N12002714WA0111701137
B2023214748132N12002719WA0111601136
B2023224748135N12002724WA0111501134
B2023234748137N12002728WA0111401133
B2023244748141N12002733WA0111301131
B2023254748146N12002737WA0111201130
B2023254748146N12002737WA0111201130
B2023264748153N12002740WA0111001128
B2023274748161N12002741WA0110901126
B2023284748171N12002738WA0110801124
B2023294748179N12002730WA0110701123
B2023304748186N12002719WA0110501121
B2023314748190N12002706WA0110401120
B2023324748190N12002693WA0110201118
B2023334748189N12002683WA0110101116
B2023344748187N12002674WA0110001114
B2023354748185N12002666WA0109901113
B2023364748182N12002659WA0109701111
B2023374748180N12002653WA0109601110
B2023384748177N12002647WA0109401108
B2023394748174N12002641WA0109301105
B2023404748171N12002635WA0109101103
B2023414748168N12002630WA0109001100
B2023424748164N12002625WA0108801099
B2023434748161N12002620WA0108601098
B2023444748157N12002616WA0108401097
B2023454748154N12002613WA0108301097
B2023464748151N12002610WA0108201097
B2023474748149N12002607WA0108101096
B2023484748145N12002605WA0107901096
B2023494748142N12002603WA0107901095
B2023504748138N12002601WA0107801095
B2023514748135N12002601WA0107701095
B2023524748132N12002601WA0107601094
B2023534748129N12002601WA0107601094
B2023544748126N12002603WA0107501093
B2023554748123N12002604WA0107401092
B2023564748121N12002607WA0107401091
B2023574748119N12002611WA0107301090
B2023584748117N12002614WA0107301089
B2023594748115N12002618WA0107201089
B2024004748113N12002621WA0107101089
B2024014748112N12002624WA0107101089
B2024024748110N12002628WA0107001089
B2024034748109N12002632WA0107001088
B2024044748108N12002636WA0106901088
B2024054748106N12002641WA0106901088
B2024064748106N12002645WA0106901087
B2024074748106N12002649WA0106801087
B2024084748107N12002655WA0106801087
B2024094748109N12002661WA0106701086
B2024104748111N12002666WA0106701086
B2024114748114N12002672WA0106601086
B2024124748116N12002677WA0106601087
B2024134748118N12002681WA0106601087
B2024144748119N12002686WA0106501087
B2024154748120N12002691WA0106501087
B2024164748121N12002696WA0106501086
B2024174748121N12002701WA0106501086
B2024184748120N12002705WA0106401085
B2024194748118N12002709WA0106401085
B2024204748116N12002710WA0106401084
B2024214748113N12002711WA0106401084
B2024224748109N12002710WA0106301083
B2024234748106N12002707WA0106301083
B2024244748103N12002704WA0106301083
B2024254748100N12002699WA0106301082
B2024264748096N12002694WA0106201081
B2024274748093N12002689WA0106201080
B2024284748090N12002682WA0106201079
B2024284748090N12002682WA0106201079
B2024294748086N12002676WA0106101079
B2024304748084N12002669WA0106101078
B2024314748081N12002661WA0106101078
B2024324748079N12002653WA0106001078
B2024334748077N12002645WA0106001077
B2024344748075N12002637WA0105901077
B2024354748072N12002629WA0105901076
B2024364748071N12002619WA0105801074
B2024374748070N12002609WA0105801074
B2024384748071N12002598WA0105701072
B2024394748072N12002586WA0105701071
B2024404748074N12002573WA0105501069
B2024414748075N12002560WA0105501068
B2024424748075N12002548WA0105401068
B2024434748075N12002535WA0105301068
B2024444748074N12002523WA0105201069
B2024454748073N12002511WA0105201069
B2024464748073N12002499WA0105101069
B2024474748073N12002487WA0105101069
B2024484748072N12002475WA0105001069
B2024494748072N12002463WA0105001068
B2024504748072N12002451WA0104901068
B2024514748071N12002438WA0104901068
B2024524748072N12002426WA0104801068
B2024534748072N12002414WA0104801067
B2024544748073N12002401WA0104801067
B2024554748073N12002388WA0104701066
B2024564748071N12002376WA0104701066
B2024574748069N12002365WA0104701064
B2024584748065N12002356WA0104601063
B2024594748060N12002348WA0104601062
B2025004748055N12002341WA0104501062
B2025014748051N12002335WA0104501062
B2025024748046N12002329WA0104501063
B2025034748042N12002325WA0104401063
B2025044748038N12002320WA0104401063
B2025054748034N12002317WA0104401063
B2025064748030N12002316WA0104301063
B2025074748026N12002316WA0104301063
B2025084748024N12002318WA0104301063
B2025094748022N12002321WA0104301062
B2025104748022N12002325WA0104301062
B2025114748023N12002330WA0104201061
B2025124748025N12002335WA0104201061
B2025134748029N12002339WA0104201060
B2025144748034N12002342WA0104101060
B2025154748039N12002344WA0104101059
B2025164748045N12002345WA0104101058
B2025174748049N12002347WA0104101057
B2025184748052N12002350WA0104001057
B2025194748054N12002353WA0104001055
B2025204748052N12002354WA0103901053
B2025214748049N12002354WA0103801050
B2025224748045N12002350WA0103701047
B2025234748040N12002343WA0103701045
B2025244748036N12002336WA0103601045
B2025254748033N12002328WA0103501046
B2025264748030N12002321WA0103401046
B2025274748026N12002315WA0103301044
B2025284748022N12002309WA0103201042
B2025294748017N12002303WA0103101040
B2025304748012N12002296WA0103001038
B2025314748008N12002289WA0102901037
B2025324748004N12002283WA0102801037
B2025324748004N12002283WA0102801037
B2025334748000N12002277WA0102701036
B2025344747997N12002271WA0102601035
B2025354747992N12002266WA0102501033
B2025364747988N12002261WA0102401032
B2025374747983N12002256WA0102301030
B2025384747978N12002252WA0102201028
B2025394747973N12002249WA0102101027
B2025404747968N12002246WA0102001026
B2025414747963N12002244WA0101901026
B2025424747959N12002243WA0101801025
B2025434747955N12002241WA0101701023
B2025444747951N12002239WA0101501021
B2025454747947N12002237WA0101501020
B2025464747942N12002234WA0101301019
B2025474747938N12002232WA0101201018
B2025484747934N12002231WA0101101018
B2025494747930N12002230WA0101001017
B2025504747927N12002230WA0100901017
B2025514747923N12002229WA0100801016
B2025524747920N12002229WA0100701015
B2025534747916N12002228WA0100601014
B2025544747912N12002228WA0100501013
B2025554747909N12002228WA0100501012
B2025564747905N12002228WA0100401010
B2025574747902N12002228WA0100301009
B2025584747899N12002228WA0100101008
B2025594747896N12002229WA0100101006
B2026004747892N12002229WA0099901004
B2026014747888N12002230WA0099801002
B2026024747885N12002229WA0099701000
B2026034747881N12002228WA0099600999
B2026044747878N12002227WA0099400997
B2026054747874N12002225WA0099300995
B2026064747871N12002223WA0099100993
B2026074747866N12002221WA0099000990
B2026084747862N12002219WA0098800987
B2026094747858N12002217WA0098700985
B2026104747854N12002216WA0098500982
B2026114747850N12002214WA0098300980
B2026124747845N12002212WA0098100977
B2026134747841N12002209WA0097900975
B2026144747836N12002204WA0097700973
B2026154747831N12002199WA0097500972
B2026164747826N12002195WA0097300971
B2026174747821N12002190WA0097100970
B2026184747816N12002186WA0096900969
B2026194747811N12002181WA0096800967
B2026204747806N12002177WA0096600966
B2026214747800N12002173WA0096400965
B2026224747795N12002168WA0096200964
B2026234747790N12002164WA0096100963
B2026244747785N12002158WA0096000962
B2026254747780N12002152WA0095900961
B2026264747776N12002145WA0095700961
B2026274747771N12002138WA0095600962
B2026284747767N12002132WA0095500962
B2026294747763N12002126WA0095400962
B2026304747759N12002120WA0095300961
B2026314747755N12002114WA0095200958
B2026324747750N12002108WA0095100956
B2026334747745N12002101WA0095000953
B2026344747740N12002094WA0094900951
B2026354747736N12002086WA0094800949
B2026364747731N12002077WA0094600947
B2026364747731N12002077WA0094600947
B2026374747726N12002068WA0094400945
B2026384747720N12002060WA0094200944
B2026394747714N12002053WA0094100943
B2026404747708N12002049WA0094000943
B2026414747703N12002047WA0093900944
B2026424747698N12002046WA0093700945
B2026434747694N12002045WA0093700947
B2026444747690N12002044WA0093600948
B2026454747685N12002045WA0093500947
B2026464747681N12002046WA0093500947
B2026474747678N12002049WA0093400946
B2026484747674N12002052WA0093300944
B2026494747670N12002055WA0093300942
B2026504747666N12002057WA0093200939
B2026514747661N12002060WA0093100937
B2026524747656N12002061WA0093000936
B2026534747651N12002063WA0092900936
B2026544747647N12002064WA0092800936
B2026554747644N12002065WA0092700936
B2026564747641N12002066WA0092600935
B2026574747637N12002067WA0092500933
B2026584747633N12002068WA0092400932
B2026594747629N12002069WA0092300930
B2027004747625N12002070WA0092200929
B2027014747621N12002073WA0092100929
B2027024747618N12002075WA0092000929
B2027034747615N12002078WA0092000929
B2027044747612N12002083WA0091900929
B2027054747610N12002087WA0091800929
B2027064747608N12002092WA0091800929
B2027074747607N12002097WA0091700930
B2027084747608N12002102WA0091700930
B2027094747609N12002106WA0091700931
B2027104747610N12002110WA0091700932
B2027114747613N12002112WA0091700932
B2027124747617N12002114WA0091700932
B2027134747623N12002114WA0091600930
B2027144747630N12002112WA0091600928
B2027154747638N12002105WA0091600927
B2027164747645N12002093WA0091500925
B2027174747648N12002077WA0091500923
B2027184747647N12002062WA0091400923
B2027194747642N12002053WA0091300924
B2027204747637N12002049WA0091200924
B2027214747632N12002048WA0091200924
B2027224747628N12002050WA0091100923
B2027234747625N12002052WA0091100923
B2027244747622N12002055WA0091000922
B2027254747619N12002057WA0091000922
B2027264747616N12002059WA0090900922
B2027274747613N12002061WA0090900921
B2027284747609N12002062WA0090900920
B2027294747606N12002064WA0090800920
B2027304747604N12002066WA0090800921
B2027314747601N12002068WA0090700921
B2027324747599N12002071WA0090700920
B2027334747597N12002073WA0090700919
B2027344747595N12002075WA0090700919
B2027354747593N12002078WA0090600919
B2027364747592N12002080WA0090600919
B2027374747590N12002082WA0090600918
B2027384747588N12002085WA0090500916
B2027394747585N12002090WA0090500915
B2027394747585N12002090WA0090500915
B2027404747583N12002096WA0090400915
B2027414747581N12002101WA0090400916
B2027424747579N12002106WA0090400919
B2027434747576N12002108WA0090400922
B2027444747574N12002108WA0090400925
B2027454747572N12002108WA0090500927
B2027464747571N12002108WA0090600928
B2027474747569N12002109WA0090600927
B2027484747567N12002112WA0090700926
B2027494747567N12002115WA0090800926
B2027504747570N12002117WA0090800925
B2027514747575N12002118WA0090900923
B2027524747582N12002117WA0090800921
B2027534747588N12002114WA0090800920
B2027544747594N12002112WA0090800920
B2027554747599N12002111WA0090800920
B2027564747603N12002112WA0090800919
B2027574747606N12002115WA0090800918
B2027584747607N12002121WA0090800916
B2027594747606N12002124WA0090800916
B2028004747605N12002127WA0090800914
B2028014747604N12002128WA0090700915
B2028024747602N12002128WA0090700914
B2028034747600N12002127WA0090600911
B2028044747596N12002127WA0090500907
B2028054747591N12002125WA0090500903
B2028064747586N12002124WA0090300900
B2028074747581N12002123WA0090200898
B2028084747576N12002123WA0090000896
B2028094747572N12002123WA0089900895
B2028104747569N12002124WA0089700893
B2028114747565N12002124WA0089600891
B2028124747560N12002124WA0089400889
B2028134747556N12002124WA0089200887
B2028144747552N12002123WA0089000886
B2028154747548N12002123WA0088900886
B2028164747545N12002123WA0088700885
B2028174747542N12002123WA0088600885
B2028184747539N12002124WA0088500884
B2028194747537N12002124WA0088400882
B2028204747533N12002125WA0088200879
B2028214747529N12002126WA0088100878
B2028224747524N12002128WA0087900879
B2028234747520N12002129WA0087900879
B2028244747517N12002130WA0087800881
B2028254747515N12002131WA0087700884
B2028264747513N12002131WA0087700887
B2028274747512N12002132WA0087700889
B2028284747510N12002133WA0087800890
B2028294747509N12002134WA0087800891
B2028304747507N12002136WA0087900893
B2028314747507N12002139WA0087900893
B2028324747507N12002142WA0088000894
B2028334747509N12002146WA0088000895
B2028344747513N12002150WA0088100894
B2028354747520N12002152WA0088100893
B2028364747529N12002150WA0088100893
B2028374747538N12002140WA0088200895
B2028384747543N12002127WA0088200895
B2028394747544N12002111WA0088200895
B2028404747541N12002099WA0088200896
B2028414747535N12002093WA0088200896
B2028424747531N12002092WA0088300896
B2028434747527N12002095WA0088300897
B2028434747527N12002095WA0088300897
B2028444747526N12002097WA0088300897
B2028454747524N12002097WA0088400900
B2028464747523N12002097WA0088500901
B2028474747522N12002098WA0088500901
B2028484747521N12002099WA0088500900
B2028494747519N12002102WA0088600897
B2028504747517N12002107WA0088600896
B2028514747515N12002112WA0088600895
B2028524747512N12002116WA0088600896
B2028534747510N12002121WA0088600898
B2028544747507N12002125WA0088600900
B2028554747505N12002128WA0088600901
B2028564747502N12002132WA0088600901
B2028574747500N12002136WA0088600900
B2028584747498N12002140WA0088600901
B2028594747496N12002144WA0088600901
B2029004747495N12002149WA0088700901
B2029014747495N12002153WA0088700902
B2029024747496N12002157WA0088700904
B2029034747499N12002161WA0088700905
B2029044747504N12002164WA0088800905
B2029054747511N12002166WA0088800905
B2029064747519N12002163WA0088800907
B2029074747526N12002156WA0088900907
B2029084747532N12002145WA0088900906
B2029094747536N12002132WA0088900904
B2029104747536N12002117WA0088900903
B2029114747533N12002105WA0088900905
B2029124747528N12002096WA0088900905
B2029134747524N12002091WA0088900905
B2029144747519N12002088WA0088900904
B2029154747515N12002086WA0088900904
B2029164747511N12002087WA0088900903
B2029174747507N12002089WA0088800902
B2029184747504N12002093WA0088800902
B2029194747502N12002096WA0088800903
B2029204747500N12002098WA0088800906
B2029214747499N12002099WA0088800907
B2029224747497N12002101WA0088900908
B2029234747496N12002103WA0088900906
B2029244747495N12002106WA0088900904
B2029254747495N12002110WA0088900901
B2029264747494N12002113WA0088900900
B2029274747494N12002116WA0088900898
B2029284747494N12002119WA0088800896
B2029294747494N12002123WA0088700893
B2029304747493N12002127WA0088600891
B2029314747492N12002131WA0088500888
B2029324747491N12002135WA0088400886
B2029334747490N12002139WA0088300884
B2029344747489N12002143WA0088100882
B2029354747488N12002148WA0088000880
B2029364747487N12002152WA0087800878
B2029374747486N12002157WA0087700876
B2029384747485N12002160WA0087500875
B2029394747484N12002163WA0087400873
B2029404747483N12002166WA0087200871
B2029414747482N12002170WA0087100869
B2029424747480N12002173WA0086900868
B2029434747478N12002173WA0086700866
B2029444747474N12002171WA0086500864
B2029454747470N12002166WA0086400860
B2029464747466N12002158WA0086200856
B2029464747466N12002158WA0086200856
B2029474747464N12002147WA0086100853
B2029484747462N12002137WA0085900853
B2029494747461N12002126WA0085700853
B2029504747460N12002115WA0085500852
B2029514747458N12002105WA0085400850
B2029524747456N12002094WA0085200846
B2029534747454N12002081WA0085000843
B2029544747452N12002069WA0084800841
B2029554747449N12002058WA0084600839
B2029564747447N12002047WA0084400838
B2029574747445N12002036WA0084200837
B2029584747442N12002026WA0084000836
B2029594747440N12002016WA0083900834
B2030004747437N12002005WA0083600831
B2030014747434N12001994WA0083500829
B2030024747430N12001984WA0083300827
B2030034747426N12001974WA0083100825
B2030044747423N12001965WA0082900825
B2030054747419N12001956WA0082700824
B2030064747416N12001947WA0082500824
B2030074747412N12001939WA0082400824
B2030084747409N12001932WA0082200823
B2030094747405N12001927WA0082100822
B2030104747401N12001921WA0081900820
B2030114747398N12001914WA0081800817
B2030124747394N12001908WA0081700814
B2030134747391N12001901WA0081500811
B2030144747387N12001893WA0081300808
B2030154747383N12001885WA0081100804
B2030164747380N12001876WA0080900801
B2030174747377N12001868WA0080700799
B2030184747373N12001859WA0080400796
B2030194747370N12001849WA0080200794
B2030204747367N12001840WA0080000792
B2030214747364N12001831WA0079800791
B2030224747362N12001821WA0079500789
B2030234747360N12001811WA0079300787
B2030244747359N12001801WA0079100785
B2030254747357N12001791WA0078900782
B2030264747356N12001779WA0078600779
B2030274747355N12001767WA0078400776
B2030284747354N12001756WA0078100775
B2030294747354N12001744WA0078000773
B2030304747354N12001733WA0077700771
B2030314747354N12001722WA0077500769
B2030324747353N12001710WA0077200766
B2030334747353N12001698WA0077000762
B2030344747353N12001685WA0076700758
B2030354747353N12001672WA0076500755
B2030364747353N12001659WA0076200754
B2030374747353N12001648WA0076000754
B2030384747352N12001637WA0075700754
B2030394747353N12001625WA0075600753
B2030404747353N12001613WA0075300751
B2030414747354N12001600WA0075200748
B2030424747354N12001586WA0074900746
B2030434747354N12001572WA0074800745
B2030444747354N12001559WA0074600745
B2030454747353N12001547WA0074400745
B2030464747352N12001537WA0074300745
B2030474747349N12001528WA0074200746
B2030484747347N12001519WA0074000744
B2030494747344N12001510WA0073900743
B2030494747344N12001510WA0073900743
B2030504747340N12001503WA0073800742
B2030514747335N12001498WA0073700742
B2030524747330N12001495WA0073600741
B2030534747325N12001495WA0073500740
B2030544747321N12001496WA0073400737
B2030554747316N12001497WA0073300734
B2030564747311N12001497WA0073200733
B2030574747306N12001494WA0073100733
B2030584747301N12001489WA0073000733
B2030594747297N12001482WA0072900732
B2031004747294N12001474WA0072900732
B2031014747291N12001464WA0072800730
B2031024747290N12001451WA0072700729
B2031034747289N12001437WA0072700727
B2031044747288N12001423WA0072600726
B2031054747289N12001410WA0072500725
B2031064747291N12001397WA0072400726
B2031074747293N12001385WA0072400726
B2031084747296N12001373WA0072300725
B2031094747299N12001361WA0072200723
B2031104747303N12001348WA0072200720
B2031114747307N12001334WA0072100718
B2031124747311N12001320WA0072000716
B2031134747315N12001307WA0071900715
B2031144747319N12001293WA0071800714
B2031154747323N12001280WA0071700713
B2031164747327N12001267WA0071600712
B2031174747330N12001253WA0071500711
B2031184747332N12001239WA0071300711
B2031194747333N12001225WA0071300711
B2031204747333N12001212WA0071200712
B2031214747333N12001199WA0071100711
B2031224747332N12001187WA0071000711
B2031234747332N12001174WA0071000710
B2031244747333N12001160WA0070900709
B2031254747334N12001145WA0070800708
B2031264747336N12001130WA0070700707
B2031274747338N12001116WA0070700707
B2031284747340N12001103WA0070600708
B2031294747343N12001092WA0070500708
B2031304747345N12001080WA0070500706
B2031314747346N12001067WA0070400704
B2031324747347N12001054WA0070300701
B2031334747348N12001041WA0070200699
B2031344747349N12001028WA0070100697
B2031354747349N12001015WA0069900694
B2031364747348N12001002WA0069800692
B2031374747349N12000990WA0069700690
B2031384747348N12000978WA0069500690
B2031394747347N12000967WA0069400691
B2031404747345N12000957WA0069200689
B2031414747343N12000946WA0069100687
B2031424747340N12000934WA0068900685
B2031434747339N12000921WA0068800682
B2031444747339N12000909WA0068700681
B2031454747340N12000897WA0068500679
B2031464747342N12000885WA0068400677
B2031474747344N12000874WA0068200673
B2031484747347N12000862WA0068000669
B2031494747351N12000849WA0067800665
B2031504747354N12000837WA0067600660
B2031514747358N12000824WA0067400656
B2031524747362N12000813WA0067100653
B2031524747362N12000813WA0067100653
B2031534747366N12000802WA0066900651
B2031544747370N12000791WA0066600648
B2031554747374N12000779WA0066400645
B2031564747376N12000766WA0066100642
B2031574747379N12000754WA0065800639
B2031584747381N12000741WA0065500636
B2031594747383N12000729WA0065300633
B2032004747386N12000718WA0065000629
B2032014747388N12000706WA0064700625
B2032024747390N12000693WA0064400622
B2032034747393N12000680WA0064100618
B2032044747395N12000667WA0063800616
B2032054747396N12000655WA0063500614
B2032064747397N12000644WA0063200612
B2032074747399N12000635WA0063000610
B2032084747401N12000625WA0062600607
B2032094747403N12000614WA0062400603
B2032104747405N12000602WA0062000599
B2032114747407N12000591WA0061800596
B2032124747409N12000580WA0061400593
B2032134747411N12000569WA0061200591
B2032144747413N12000559WA0060800587
B2032154747415N12000547WA0060500584
B2032164747416N12000535WA0060200579
B2032174747417N12000523WA0059900574
B2032184747418N12000511WA0059500570
B2032194747419N12000500WA0059200567
B2032204747419N12000488WA0058800563
B2032214747419N12000477WA0058500559
B2032224747418N12000465WA0058100554
B2032234747417N12000452WA0057800548
B2032244747416N12000440WA0057300543
B2032254747414N12000428WA0057000540
B2032264747412N12000416WA0056600536
B2032274747411N12000403WA0056300532
B2032284747410N12000391WA0055900529
B2032294747409N12000379WA0055600527
B2032304747407N12000368WA0055200523
B2032314747405N12000356WA0054900520
B2032324747403N12000343WA0054500516
B2032334747401N12000330WA0054200512
B2032344747399N12000317WA0053800509
B2032354747397N12000304WA0053500507
B2032364747395N12000293WA0053200505
B2032374747392N12000283WA0052900503
B2032384747390N12000273WA0052600501
B2032394747388N12000262WA0052300499
B2032404747386N12000250WA0052000496
B2032414747385N12000239WA0051800495
B2032424747384N12000227WA0051500493
B2032434747383N12000215WA0051400491
B2032444747383N12000201WA0051100488
B2032454747383N12000188WA0050900488
B2032464747384N12000175WA0050700490
B2032474747385N12000163WA0050600491
B2032484747388N12000152WA0050400492
B2032494747392N12000143WA0050300492
B2032504747397N12000135WA0050200492
B2032514747403N12000129WA0050100492
B2032524747409N12000123WA0050000492
B2032534747414N12000117WA0050000492
B2032544747419N12000110WA0049900492
B2032554747424N12000102WA0049800491
B2032554747424N12000102WA0049800491
B2032564747429N12000094WA0049700490
B2032574747434N12000086WA0049700488
B2032584747439N12000078WA0049600486
B2032594747444N12000069WA0049500485
B2033004747449N12000061WA0049400484
B2033014747454N12000052WA0049400482
B2033024747459N12000043WA0049300481
B2033034747464N12000034WA0049200481
B2033044747468N12000024WA0049100480
B2033054747472N12000015WA0049000480
B2033064747476N12000004WA0049000479
B2033074747480N11959994WA0048900477
B2033084747484N11959983WA0048800476
B2033094747488N11959972WA0048700474
B2033104747492N11959961WA0048600473
B2033114747497N11959949WA0048500472
B2033124747501N11959938WA0048400471
B2033134747504N11959927WA0048300470
B2033144747507N11959915WA0048200469
B2033154747511N11959904WA0048100468
B2033164747514N11959892WA0047900466
B2033174747517N11959881WA0047800465
B2033184747521N11959870WA0047800464
B2033194747525N11959859WA0047700464
B2033204747529N11959849WA0047600463
B2033214747533N11959840WA0047500463
B2033224747537N11959830WA0047400462
B2033234747541N11959819WA0047300459
B2033244747545N11959808WA0047200457
B2033254747550N11959798WA0047100455
B2033264747554N11959787WA0047000456
B2033274747557N11959776WA0046900457
B2033284747560N11959765WA0046800456
B2033294747563N11959754WA0046800455
B2033304747566N11959743WA0046700453
B2033314747569N11959731WA0046600452
B2033324747573N11959720WA0046500450
B2033334747576N11959709WA0046400448
B2033344747579N11959698WA0046200446
B2033354747582N11959687WA0046100444
B2033364747585N11959677WA0046000443
B2033374747589N11959666WA0045800441
B2033384747592N11959655WA0045600439
B2033394747596N11959645WA0045500438
B2033404747600N11959635WA0045300436
B2033414747604N11959625WA0045200435
B2033424747607N11959616WA0045000433
B2033434747611N11959607WA0044800430
B2033444747615N11959597WA0044600427
B2033454747619N11959587WA0044500424
B2033464747624N11959576WA0044200422
B2033474747629N11959564WA0044100420
B2033484747634N11959553WA0043800420
B2033494747636N11959542WA0043700421
B2033504747638N11959532WA0043500422
B2033514747638N11959521WA0043400421
B2033524747637N11959509WA0043300420
B2033534747634N11959496WA0043200417
B2033544747630N11959484WA0043000414
B2033554747626N11959475WA0042900416
B2033564747621N11959468WA0042800418
B2033574747616N11959464WA0042800417
B2033584747611N11959462WA0042600415
B2033594747607N11959461WA0042600413
B2033594747607N11959461WA0042600413
B2034004747603N11959462WA0042500412
B2034014747600N11959465WA0042400410
B2034024747601N11959469WA0042300407
B2034034747607N11959471WA0042200402
B2034044747615N11959468WA0042000398
B2034054747622N11959461WA0041900399
B2034064747627N11959452WA0041800399
B2034074747631N11959442WA0041700401
B2034084747635N11959434WA0041600402
B2034094747638N11959426WA0041500402
B2034104747642N11959419WA0041500401
B2034114747647N11959414WA0041500400
B2034124747653N11959409WA0041400399
B2034134747660N11959406WA0041400398
B2034144747666N11959406WA0041300398
B2034154747671N11959406WA0041300397
B2034164747676N11959406WA0041200397
B2034174747682N11959405WA0041200397
B2034184747687N11959401WA0041200396
B2034194747693N11959396WA0041200395
B2034204747699N11959389WA0041100393
B2034214747705N11959382WA0041100393
B2034224747709N11959376WA0041000394
B2034234747714N11959371WA0041000394
B2034244747718N11959366WA0041000393
B2034254747723N11959360WA0041000392
B2034264747728N11959354WA0040900391
B2034274747732N11959347WA0040900390
B2034284747736N11959341WA0040800390
B2034294747740N11959334WA0040800389
B2034304747745N11959326WA0040700387
B2034314747750N11959319WA0040600386
B2034324747755N11959311WA0040600385
B2034334747760N11959303WA0040500384
B2034344747765N11959295WA0040400384
B2034354747769N11959287WA0040400384
B2034364747773N11959278WA0040300384
B2034374747777N11959270WA0040200383
B2034384747782N11959261WA0040100382
B2034394747787N11959252WA0040100381
B2034404747792N11959243WA0040000380
B2034414747797N11959235WA0040000380
B2034424747802N11959227WA0039900379
B2034434747807N11959218WA0039800378
B2034444747811N11959209WA0039700377
B2034454747815N11959198WA0039700377
B2034464747816N11959186WA0039600377
B2034474747815N11959174WA0039500375
B2034484747812N11959163WA0039400373
B2034494747808N11959155WA0039300369
B2034504747802N11959151WA0039200367
B2034514747797N11959151WA0039100364
B2034524747794N11959157WA0038900362
B2034534747795N11959164WA0038800362
B2034544747801N11959168WA0038600362
B2034554747807N11959169WA0038500362
B2034564747813N11959165WA0038300362
B2034574747819N11959160WA0038200361
B2034584747824N11959154WA0038100361
B2034594747829N11959146WA0038000361
B2035004747832N11959136WA0037900360
B2035014747832N11959126WA0037900360
B2035024747830N11959116WA0037800359
B2035034747824N11959108WA0037700357
B2035034747824N11959108WA0037700357
B2035044747818N11959105WA0037500352
B2035054747813N11959105WA0037400351
B2035064747810N11959106WA0037300352
B2035074747807N11959109WA0037200351
B2035084747805N11959112WA0037100350
B2035094747803N11959116WA0037000350
B2035104747802N11959121WA0036900349
B2035114747802N11959125WA0036800349
B2035124747804N11959129WA0036700349
B2035134747808N11959131WA0036700348
B2035144747814N11959131WA0036600346
B2035154747820N11959128WA0036600346
B2035164747825N11959122WA0036500346
B2035174747830N11959114WA0036400346
B2035184747834N11959104WA0036400345
B2035194747836N11959093WA0036300345
B2035204747836N11959081WA0036200344
B2035214747832N11959072WA0036200343
B2035224747826N11959066WA0036100342
B2035234747820N11959065WA0036100339
B2035244747814N11959065WA0036000338
B2035254747811N11959069WA0035900337
B2035264747808N11959073WA0035800335
B2035274747806N11959077WA0035800335
B2035284747804N11959081WA0035700335
B2035294747802N11959084WA0035700335
B2035304747800N11959088WA0035600334
B2035314747799N11959093WA0035600335
B2035324747799N11959098WA0035500335
B2035334747800N11959102WA0035400334
B2035344747802N11959106WA0035400334
B2035354747804N11959108WA0035300333
B2035364747806N11959110WA0035300332
B2035374747810N11959112WA0035200331
B2035384747815N11959114WA0035100330
B2035394747821N11959113WA0035100328
B2035404747827N11959108WA0035000327
B2035414747833N11959100WA0034900326
B2035424747837N11959089WA0034800325
B2035434747838N11959078WA0034700324
B2035444747835N11959065WA0034600324
B2035454747830N11959054WA0034500324
B2035464747824N11959049WA0034400324
B2035474747817N11959047WA0034300323
B2035484747813N11959049WA0034200322
B2035494747809N11959051WA0034100325
B2035504747806N11959053WA0034000325
B2035514747802N11959055WA0034000325
B2035524747799N11959058WA0033900324
B2035534747796N11959062WA0033900322
B2035544747793N11959067WA0033800321
B2035554747791N11959072WA0033700320
B2035564747790N11959078WA0033600320
B2035574747790N11959082WA0033600320
B2035584747792N11959086WA0033500319
B2035594747795N11959090WA0033400319
B2036004747798N11959093WA0033300318
B2036014747802N11959094WA0033300318
B2036024747807N11959091WA0033300318
B2036034747812N11959085WA0033200318
B2036044747817N11959078WA0033200314
B2036054747822N11959072WA0033100313
B2036054747822N11959072WA0033100313
B2036064747827N11959067WA0033100313
B2036074747831N11959064WA0033100313
B2036084747834N11959062WA0033000311
B2036094747837N11959065WA0033000311
B2036104747839N11959071WA0033000311
B2036114747840N11959077WA0032900310
B2036124747836N11959079WA0032900310
B2036134747834N11959081WA0032900310
B2036144747831N11959082WA0032800310
B2036154747828N11959083WA0032800310
B2036164747824N11959084WA0032700309
B2036174747820N11959085WA0032700309
B2036184747815N11959087WA0032700308
B2036194747810N11959090WA0032600308
B2036204747806N11959092WA0032600307
B2036214747803N11959094WA0032600307
B2036224747801N11959098WA0032600306
B2036234747799N11959103WA0032600305
B2036244747797N11959108WA0032600305
B2036254747797N11959114WA0032600304
B2036264747799N11959117WA0032600304
B2036274747803N11959119WA0032600305
B2036284747808N11959121WA0032600304
B2036294747815N11959120WA0032600302
B2036304747822N11959117WA0032600302
B2036314747827N11959112WA0032600303
B2036324747832N11959106WA0032600303
B2036334747837N11959097WA0032600301
B2036344747841N11959086WA0032600300
B2036354747843N11959075WA0032500299
B2036364747840N11959064WA0032500299
B2036374747835N11959059WA0032400298
B2036384747830N11959057WA0032300292
B2036394747825N11959057WA0032200290
B2036404747820N11959060WA0032100290
B2036414747816N11959064WA0032100289
B2036424747813N11959068WA0032000289
B2036434747810N11959073WA0031900288
B2036444747808N11959077WA0031900287
B2036454747807N11959082WA0031800286
B2036464747806N11959089WA0031800286
B2036474747805N11959096WA0031700284
B2036484747804N11959102WA0031700283
B2036494747805N11959107WA0031700282
B2036504747806N11959110WA0031700282
B2036514747809N11959111WA0031700282
B2036524747813N11959111WA0031700282
B2036534747818N11959109WA0031600280
B2036544747824N11959105WA0031600280
B2036554747829N11959096WA0031600279
B2036564747833N11959083WA0031600277
B2036574747832N11959070WA0031500276
B2036584747831N11959056WA0031400277
B2036594747826N11959047WA0031400277
B2037004747820N11959044WA0031300274
B2037014747814N11959045WA0031300270
B2037024747809N11959050WA0031200271
B2037034747805N11959055WA0031100272
B2037044747801N11959059WA0031100270
B2037054747800N11959062WA0031000269
B2037064747798N11959064WA0031000268
B2037074747796N11959068WA0031000267
B2037084747794N11959072WA0030900266
B2037094747793N11959076WA0030900265
B2037094747793N11959076WA0030900265
B2037104747791N11959079WA0030800264
B2037114747790N11959083WA0030800263
B2037124747789N11959086WA0030700262
B2037134747788N11959089WA0030700260
B2037144747787N11959093WA0030600259
B2037154747786N11959097WA0030500257
B2037164747786N11959100WA0030400256
B2037174747786N11959104WA0030400255
B2037184747788N11959107WA0030300254
B2037194747791N11959108WA0030200252
B2037204747797N11959107WA0030100250
B2037214747803N11959102WA0030000249
B2037224747809N11959095WA0029900247
B2037234747814N11959087WA0029800247
B2037244747819N11959079WA0029700246
B2037254747823N11959071WA0029600247
B2037264747827N11959064WA0029500245
B2037274747833N11959059WA0029500244
B2037284747838N11959057WA0029300243
B2037294747844N11959057WA0029300241
B2037304747848N11959058WA0029200240
B2037314747851N11959059WA0029100239
B2037324747855N11959060WA0029000238
B2037334747858N11959061WA0029000236
B2037344747862N11959062WA0028900234
B2037354747866N11959063WA0028800233
B2037364747870N11959065WA0028700232
B2037374747874N11959067WA0028600231
B2037384747878N11959070WA0028500230
B2037394747882N11959072WA0028400229
B2037404747887N11959073WA0028300229
B2037414747893N11959074WA0028200228
B2037424747899N11959073WA0028100228
B2037434747905N11959070WA0028000227
B2037444747911N11959066WA0027900226
B2037454747917N11959062WA0027800226
B2037464747923N11959058WA0027600226
B2037474747928N11959053WA0027600226
B2037484747933N11959049WA0027500225
B2037494747939N11959046WA0027400224
B2037504747944N11959043WA0027300224
B2037514747949N11959043WA0027200223
B2037524747953N11959043WA0027100221
B2037534747957N11959045WA0027000220
B2037544747961N11959046WA0026900219
B2037554747965N11959048WA0026900219
B2037564747968N11959051WA0026800219
B2037574747969N11959053WA0026700218
B2037584747970N11959056WA0026600218
B2037594747970N11959059WA0026500218
B2038004747968N11959062WA0026400218
B2038014747965N11959066WA0026300219
B2038024747961N11959070WA0026100219
B2038034747957N11959074WA0026000219
B2038044747954N11959078WA0025900218
B2038054747952N11959081WA0025800218
B2038064747950N11959084WA0025600218
B2038074747948N11959087WA0025500217
B2038084747945N11959091WA0025400216
B2038094747942N11959096WA0025300213
B2038104747938N11959100WA0025100212
B2038114747935N11959102WA0025000214
B2038124747933N11959104WA0024900217
B2038124747933N11959104WA0024900217
B2038134747932N11959105WA0024800217
B2038144747932N11959106WA0024700216
B2038154747931N11959107WA0024600216
B2038164747931N11959107WA0024500216
B2038174747931N11959106WA0024400216
B2038184747931N11959106WA0024400216
B2038194747931N11959106WA0024300216
B2038204747932N11959106WA0024300216
B2038214747932N11959107WA0024200216
B2038224747932N11959107WA0024200216
B2038234747932N11959107WA0024100216
B2038244747932N11959107WA0024100217
B2038254747932N11959107WA0024100217
B2038264747932N11959107WA0024000217
B2038274747932N11959107WA0024000216
B2038284747932N11959107WA0024000217
B2038294747932N11959107WA0024000217
B2038304747932N11959107WA0024000218
B2038314747932N11959107WA0023900218
B2038324747932N11959107WA0023900218
B2038334747932N11959107WA0023900219
B2038344747932N11959107WA0023900219
B2038354747932N11959108WA0023900219
B2038364747932N11959108WA0023900219
B2038374747932N11959108WA0023900220
B2038384747932N11959108WA0023900220
B2038394747933N11959108WA0023900220
B2038404747933N11959108WA0023900220
B2038414747933N11959108WA0023900221
B2038424747933N11959108WA0023900221
B2038434747933N11959108WA0023900221
B2038444747933N11959108WA0023900221
B2038454747934N11959108WA0023900221
B2038464747934N11959107WA0023900221
B2038474747934N11959107WA0023900221
B2038484747934N11959107WA0023800222
B2038494747934N11959107WA0023800222
B2038504747934N11959107WA0023800222
B2038514747934N11959107WA0023800221
B2038524747934N11959107WA0023800221
B2038534747934N11959107WA0023800221
B2038544747934N11959106WA0023800221
B2038554747933N11959105WA0023800221
B2038564747933N11959104WA0023800221
B2038574747932N11959103WA0023800222
B2038584747932N11959102WA0023800222
B2038594747932N11959101WA0023800223
B2039004747931N11959101WA0023800223
B2039014747931N11959100WA0023800223
B2039024747930N11959099WA0023800223
B2039034747930N11959099WA0023800224
B2039044747929N11959098WA0023800224
B2039054747929N11959098WA0023800224
B2039064747928N11959098WA0023800224
B2039074747928N11959097WA0023800224
B2039084747928N11959097WA0023800225
B2039094747927N11959097WA0023800225
B2039104747926N11959097WA0023800225
B2039114747926N11959097WA0023800225
B2039124747925N11959097WA0023800226
B2039134747925N11959097WA0023800226
B2039144747924N11959097WA0023800226
B2039154747923N11959097WA0023800227
