AXFMSFP Flymaster Live, V1.0
HFFXA010
HFPLTPILOT:Tom Zhou
HFGTYGLIDERTYPE:Advance Impress 4 / Bgd Lynx 2
HFGIDGLIDERID:
HFDTM100GPSDATUM:WGS-1984
HFCIDCOMPETITIONID:606
HFCCLCOMPETITIONCLASS:
HOSITSITE:LAUNCH
HFGPS:UBLOXNEO6
HFPRSPRESSALTSENSOR:NA
HFRFWFIRMWAREVERSION:202g
HFRHWHARDWAREVERSION:1.0R2
HFFTYFRTYPE:FLYMASTER,LIVE
HFDTE160625
B2020134748422N12001866WA0224802307
B2020144748421N12001867WA0224602305
B2020154748419N12001868WA0224502303
B2020164748418N12001869WA0224302302
B2020174748416N12001869WA0224202301
B2020184748415N12001870WA0224002300
B2020194748413N12001871WA0223902299
B2020204748412N12001871WA0223802297
B2020214748410N12001872WA0223702295
B2020224748408N12001873WA0223502293
B2020234748406N12001873WA0223402292
B2020244748404N12001873WA0223202290
B2020254748401N12001873WA0223002288
B2020264748399N12001873WA0222902287
B2020274748397N12001873WA0222702285
B2020284748395N12001873WA0222502284
B2020294748393N12001872WA0222402283
B2020304748391N12001873WA0222202281
B2020314748389N12001873WA0222102279
B2020324748387N12001874WA0221902278
B2020334748385N12001875WA0221802277
B2020344748383N12001875WA0221602275
B2020354748381N12001874WA0221502274
B2020364748379N12001874WA0221302272
B2020374748377N12001874WA0221202271
B2020384748374N12001874WA0221002268
B2020394748371N12001875WA0220902266
B2020404748368N12001875WA0220702265
B2020414748366N12001874WA0220602265
B2020424748363N12001871WA0220502265
B2020434748360N12001869WA0220402265
B2020444748358N12001866WA0220202264
B2020454748355N12001865WA0220202263
B2020464748352N12001864WA0220002261
B2020474748349N12001863WA0219902259
B2020484748345N12001862WA0219702257
B2020494748341N12001862WA0219602256
B2020504748339N12001860WA0219502256
B2020514748336N12001858WA0219402257
B2020524748334N12001856WA0219302258
B2020534748332N12001854WA0219302257
B2020544748329N12001853WA0219202256
B2020554748327N12001853WA0219102254
B2020564748324N12001853WA0219002253
B2020574748321N12001853WA0219002252
B2020584748319N12001852WA0218902252
B2020594748316N12001851WA0218802251
B2021004748314N12001849WA0218702251
B2021014748311N12001847WA0218702250
B2021024748308N12001844WA0218602248
B2021034748305N12001841WA0218502247
B2021044748302N12001838WA0218402246
B2021054748299N12001833WA0218302246
B2021064748296N12001828WA0218202245
B2021074748293N12001823WA0218102245
B2021084748290N12001818WA0218002244
B2021094748288N12001812WA0218002243
B2021104748286N12001803WA0217902241
B2021114748284N12001792WA0217802239
B2021124748283N12001780WA0217602238
B2021134748282N12001770WA0217602238
B2021144748281N12001760WA0217502240
B2021154748280N12001750WA0217402240
B2021164748279N12001741WA0217402240
B2021174748278N12001731WA0217402240
B2021184748277N12001721WA0217302239
B2021184748277N12001721WA0217302239
B2021194748276N12001710WA0217202237
B2021204748275N12001700WA0217202236
B2021214748274N12001689WA0217102235
B2021224748273N12001678WA0217002235
B2021234748272N12001668WA0216902234
B2021244748270N12001658WA0216902233
B2021254748269N12001648WA0216802232
B2021264748268N12001638WA0216702231
B2021274748266N12001628WA0216602229
B2021284748264N12001619WA0216502228
B2021294748263N12001610WA0216402227
B2021304748261N12001603WA0216302226
B2021314748258N12001597WA0216202225
B2021324748256N12001592WA0216102223
B2021334748253N12001587WA0216002222
B2021344748251N12001583WA0215802221
B2021354748248N12001581WA0215802221
B2021364748246N12001579WA0215702221
B2021374748243N12001578WA0215602220
B2021384748241N12001578WA0215502220
B2021394748239N12001578WA0215402219
B2021404748237N12001580WA0215302217
B2021414748235N12001582WA0215302216
B2021424748233N12001584WA0215202216
B2021434748231N12001586WA0215102215
B2021444748229N12001589WA0215002215
B2021454748229N12001592WA0215002215
B2021464748228N12001596WA0214902214
B2021474748228N12001601WA0214802212
B2021484748227N12001605WA0214702211
B2021494748226N12001609WA0214702210
B2021504748224N12001613WA0214602209
B2021514748223N12001617WA0214502209
B2021524748221N12001620WA0214402208
B2021534748220N12001623WA0214302207
B2021544748218N12001627WA0214202206
B2021554748216N12001630WA0214202205
B2021564748215N12001633WA0214102204
B2021574748214N12001637WA0214002203
B2021584748212N12001641WA0213902202
B2021594748211N12001645WA0213902201
B2022004748209N12001649WA0213802200
B2022014748207N12001652WA0213702199
B2022024748206N12001656WA0213602200
B2022034748205N12001659WA0213602200
B2022044748204N12001662WA0213502200
B2022054748202N12001664WA0213502199
B2022064748201N12001667WA0213402199
B2022074748199N12001670WA0213402197
B2022084748198N12001673WA0213302196
B2022094748196N12001676WA0213202195
B2022104748194N12001679WA0213202194
B2022114748193N12001683WA0213102194
B2022124748191N12001686WA0213002194
B2022134748190N12001689WA0213002193
B2022144748189N12001692WA0212902192
B2022154748187N12001694WA0212802189
B2022164748184N12001696WA0212702187
B2022174748182N12001698WA0212602185
B2022184748180N12001701WA0212502183
B2022194748179N12001703WA0212402182
B2022204748177N12001705WA0212202180
B2022214748175N12001707WA0212102178
B2022224748173N12001709WA0211902175
B2022224748173N12001709WA0211902175
B2022234748170N12001711WA0211802172
B2022244748168N12001713WA0211602170
B2022254748166N12001715WA0211502169
B2022264748164N12001717WA0211302168
B2022274748162N12001718WA0211202167
B2022284748161N12001720WA0211002165
B2022294748158N12001722WA0210902162
B2022304748156N12001725WA0210602159
B2022314748153N12001728WA0210502156
B2022324748151N12001730WA0210302155
B2022334748149N12001733WA0210102154
B2022344748148N12001735WA0209902153
B2022354748146N12001737WA0209802152
B2022364748144N12001739WA0209602149
B2022374748141N12001742WA0209502146
B2022384748138N12001744WA0209202144
B2022394748136N12001747WA0209102141
B2022404748133N12001749WA0208802140
B2022414748130N12001751WA0208702138
B2022424748127N12001753WA0208502137
B2022434748125N12001755WA0208402135
B2022444748122N12001758WA0208102134
B2022454748120N12001762WA0208002132
B2022464748118N12001765WA0207802130
B2022474748115N12001768WA0207702129
B2022484748112N12001770WA0207502128
B2022494748110N12001773WA0207402127
B2022504748108N12001775WA0207202126
B2022514748106N12001778WA0207102125
B2022524748103N12001780WA0206902123
B2022534748100N12001783WA0206802121
B2022544748097N12001786WA0206702119
B2022554748095N12001789WA0206502117
B2022564748093N12001791WA0206402116
B2022574748092N12001795WA0206202114
B2022584748090N12001798WA0206002112
B2022594748089N12001803WA0205902109
B2023004748088N12001808WA0205702106
B2023014748087N12001812WA0205502104
B2023024748087N12001816WA0205302103
B2023034748086N12001819WA0205202103
B2023044748085N12001821WA0205002103
B2023054748084N12001822WA0204902102
B2023064748083N12001824WA0204802100
B2023074748081N12001827WA0204602097
B2023084748079N12001831WA0204402094
B2023094748077N12001834WA0204302092
B2023104748075N12001837WA0204102092
B2023114748074N12001839WA0204002093
B2023124748073N12001840WA0203902094
B2023134748071N12001841WA0203802093
B2023144748069N12001842WA0203702092
B2023154748067N12001844WA0203602090
B2023164748065N12001846WA0203502089
B2023174748062N12001848WA0203402089
B2023184748060N12001849WA0203302089
B2023194748058N12001850WA0203302089
B2023204748056N12001850WA0203202089
B2023214748054N12001849WA0203102089
B2023224748051N12001847WA0203002088
B2023234748048N12001846WA0203002086
B2023244748044N12001845WA0202902084
B2023254748041N12001845WA0202802083
B2023254748041N12001845WA0202802083
B2023264748038N12001845WA0202702083
B2023274748036N12001846WA0202602083
B2023284748034N12001848WA0202502082
B2023294748033N12001851WA0202402080
B2023304748032N12001855WA0202302078
B2023314748030N12001859WA0202202077
B2023324748029N12001863WA0202102075
B2023334748027N12001866WA0202002075
B2023344748025N12001868WA0201902074
B2023354748024N12001871WA0201802073
B2023364748024N12001875WA0201702071
B2023374748023N12001878WA0201602070
B2023384748022N12001882WA0201502069
B2023394748022N12001885WA0201402068
B2023404748022N12001888WA0201302068
B2023414748022N12001890WA0201202068
B2023424748022N12001892WA0201102068
B2023434748022N12001895WA0201102067
B2023444748022N12001899WA0201002065
B2023454748022N12001902WA0200902063
B2023464748022N12001906WA0200802062
B2023474748023N12001909WA0200702062
B2023484748024N12001913WA0200702062
B2023494748026N12001916WA0200602061
B2023504748029N12001920WA0200502060
B2023514748032N12001924WA0200402059
B2023524748033N12001929WA0200302058
B2023534748034N12001932WA0200302058
B2023544748035N12001936WA0200202058
B2023554748036N12001938WA0200102058
B2023564748036N12001941WA0200102057
B2023574748036N12001944WA0200002056
B2023584748035N12001947WA0199902054
B2023594748033N12001951WA0199802052
B2024004748031N12001953WA0199702051
B2024014748028N12001955WA0199702051
B2024024748026N12001956WA0199602052
B2024034748025N12001958WA0199502052
B2024044748024N12001959WA0199502052
B2024054748022N12001961WA0199502051
B2024064748020N12001963WA0199402050
B2024074748018N12001965WA0199302048
B2024084748015N12001968WA0199202047
B2024094748013N12001970WA0199102046
B2024104748012N12001972WA0199002046
B2024114748010N12001974WA0199002047
B2024124748008N12001976WA0198902046
B2024134748006N12001978WA0198902046
B2024144748003N12001980WA0198802045
B2024154748000N12001982WA0198802044
B2024164747996N12001984WA0198702044
B2024174747993N12001985WA0198702045
B2024184747991N12001984WA0198702046
B2024194747989N12001984WA0198602047
B2024204747987N12001984WA0198602047
B2024214747985N12001986WA0198602046
B2024224747984N12001990WA0198602043
B2024234747984N12001996WA0198502041
B2024244747986N12002001WA0198402039
B2024254747990N12002006WA0198302038
B2024264747994N12002010WA0198202037
B2024274748000N12002013WA0198202036
B2024284748006N12002014WA0198002034
B2024284748006N12002014WA0198002034
B2024294748014N12002013WA0197902031
B2024304748022N12002010WA0197802028
B2024314748030N12002001WA0197602025
B2024324748038N12001992WA0197402022
B2024334748045N12001981WA0197302023
B2024344748051N12001972WA0197102023
B2024354748057N12001963WA0197002023
B2024364748063N12001953WA0196902022
B2024374748070N12001943WA0196802021
B2024384748076N12001931WA0196702020
B2024394748082N12001919WA0196602019
B2024404748089N12001909WA0196502021
B2024414748094N12001899WA0196402022
B2024424748100N12001889WA0196402024
B2024434748104N12001879WA0196402024
B2024444748108N12001868WA0196402024
B2024454748111N12001856WA0196302023
B2024464748115N12001844WA0196302022
B2024474748118N12001832WA0196202022
B2024484748121N12001820WA0196202021
B2024494748124N12001808WA0196202021
B2024504748127N12001796WA0196102021
B2024514748130N12001784WA0196102021
B2024524748133N12001771WA0196002020
B2024534748137N12001759WA0196002020
B2024544748140N12001747WA0196002019
B2024554748143N12001734WA0195902019
B2024564748146N12001722WA0195902018
B2024574748150N12001710WA0195802018
B2024584748154N12001698WA0195802017
B2024594748159N12001687WA0195702017
B2025004748164N12001676WA0195702017
B2025014748169N12001666WA0195602017
B2025024748176N12001656WA0195602016
B2025034748182N12001645WA0195502015
B2025044748188N12001635WA0195402014
B2025054748194N12001624WA0195402014
B2025064748200N12001614WA0195302014
B2025074748206N12001605WA0195302013
B2025084748212N12001596WA0195202013
B2025094748219N12001587WA0195202011
B2025104748226N12001577WA0195102009
B2025114748233N12001566WA0195002007
B2025124748240N12001556WA0194902006
B2025134748246N12001546WA0194802005
B2025144748252N12001537WA0194702005
B2025154748258N12001528WA0194602004
B2025164748265N12001518WA0194502002
B2025174748272N12001508WA0194401999
B2025184748280N12001500WA0194301996
B2025194748287N12001492WA0194201995
B2025204748294N12001485WA0194001996
B2025214748300N12001478WA0193901996
B2025224748306N12001471WA0193801995
B2025234748313N12001464WA0193701993
B2025244748321N12001456WA0193601990
B2025254748328N12001447WA0193501989
B2025264748333N12001436WA0193301987
B2025274748337N12001424WA0193201986
B2025284748339N12001412WA0193001984
B2025294748341N12001400WA0192901983
B2025304748341N12001389WA0192701982
B2025314748340N12001378WA0192601980
B2025324748338N12001370WA0192501978
B2025324748338N12001370WA0192501978
B2025334748334N12001363WA0192301976
B2025344748330N12001359WA0192101973
B2025354748327N12001359WA0192001971
B2025364748324N12001361WA0191801969
B2025374748323N12001364WA0191701968
B2025384748322N12001367WA0191501967
B2025394748321N12001369WA0191401966
B2025404748319N12001373WA0191301963
B2025414748317N12001377WA0191101960
B2025424748316N12001381WA0190901957
B2025434748314N12001385WA0190801956
B2025444748313N12001389WA0190601954
B2025454748313N12001393WA0190501954
B2025464748312N12001396WA0190301952
B2025474748311N12001399WA0190201951
B2025484748310N12001402WA0190001948
B2025494748309N12001406WA0189901946
B2025504748308N12001410WA0189601943
B2025514748307N12001414WA0189501941
B2025524748306N12001418WA0189301941
B2025534748306N12001420WA0189201940
B2025544748305N12001423WA0189001939
B2025554748304N12001426WA0188901937
B2025564748303N12001431WA0188701935
B2025574748302N12001436WA0188601932
B2025584748302N12001443WA0188401929
B2025594748301N12001449WA0188201928
B2026004748301N12001454WA0188101928
B2026014748301N12001458WA0188001928
B2026024748301N12001463WA0187801928
B2026034748300N12001468WA0187701926
B2026044748300N12001474WA0187601924
B2026054748300N12001480WA0187401922
B2026064748299N12001486WA0187301921
B2026074748299N12001491WA0187201921
B2026084748299N12001496WA0187101921
B2026094748299N12001501WA0187001920
B2026104748299N12001507WA0186801919
B2026114748299N12001512WA0186801917
B2026124748299N12001518WA0186601916
B2026134748300N12001524WA0186501915
B2026144748301N12001530WA0186401914
B2026154748303N12001535WA0186301913
B2026164748306N12001540WA0186201913
B2026174748309N12001546WA0186201912
B2026184748312N12001552WA0186001910
B2026194748314N12001558WA0186001909
B2026204748316N12001564WA0185901908
B2026214748318N12001570WA0185801908
B2026224748319N12001575WA0185701907
B2026234748321N12001580WA0185601907
B2026244748322N12001586WA0185501905
B2026254748323N12001591WA0185401903
B2026264748324N12001597WA0185301902
B2026274748324N12001603WA0185301901
B2026284748325N12001608WA0185101901
B2026294748325N12001613WA0185101900
B2026304748324N12001617WA0185001900
B2026314748324N12001620WA0184901899
B2026324748323N12001624WA0184801898
B2026334748322N12001627WA0184701896
B2026344748321N12001630WA0184601895
B2026354748319N12001632WA0184501894
B2026364748317N12001634WA0184401893
B2026364748317N12001634WA0184401893
B2026374748315N12001635WA0184301892
B2026384748312N12001637WA0184201890
B2026394748309N12001640WA0184101888
B2026404748306N12001642WA0184001887
B2026414748303N12001645WA0183901886
B2026424748301N12001647WA0183801886
B2026434748298N12001648WA0183701885
B2026444748295N12001650WA0183601883
B2026454748292N12001652WA0183501880
B2026464748288N12001655WA0183301878
B2026474748284N12001657WA0183201877
B2026484748281N12001659WA0183101878
B2026494748278N12001660WA0183001878
B2026504748276N12001661WA0182901879
B2026514748273N12001662WA0182801878
B2026524748269N12001662WA0182701876
B2026534748265N12001663WA0182601873
B2026544748261N12001665WA0182501871
B2026554748256N12001666WA0182401869
B2026564748251N12001668WA0182201869
B2026574748248N12001671WA0182201869
B2026584748244N12001673WA0182001869
B2026594748241N12001676WA0182001869
B2027004748237N12001679WA0181801868
B2027014748234N12001682WA0181801866
B2027024748231N12001685WA0181601865
B2027034748227N12001689WA0181601864
B2027044748224N12001693WA0181401863
B2027054748221N12001697WA0181401863
B2027064748219N12001701WA0181301863
B2027074748217N12001705WA0181201863
B2027084748214N12001711WA0181201862
B2027094748212N12001716WA0181101862
B2027104748210N12001721WA0181001861
B2027114748207N12001727WA0181001860
B2027124748205N12001732WA0180901859
B2027134748203N12001737WA0180801858
B2027144748201N12001743WA0180701856
B2027154748198N12001749WA0180601854
B2027164748194N12001755WA0180501852
B2027174748190N12001761WA0180401851
B2027184748186N12001765WA0180301850
B2027194748182N12001768WA0180201850
B2027204748178N12001771WA0180101850
B2027214748174N12001775WA0180001849
B2027224748170N12001779WA0179901848
B2027234748166N12001784WA0179801845
B2027244748161N12001789WA0179701844
B2027254748156N12001792WA0179601842
B2027264748151N12001794WA0179401843
B2027274748147N12001795WA0179401842
B2027284748143N12001797WA0179201841
B2027294748138N12001801WA0179101837
B2027304748133N12001804WA0178901833
B2027314748128N12001809WA0178801830
B2027324748122N12001814WA0178601828
B2027334748116N12001819WA0178401827
B2027344748111N12001823WA0178301827
B2027354748106N12001827WA0178201828
B2027364748101N12001831WA0178001828
B2027374748097N12001835WA0177901828
B2027384748091N12001839WA0177801826
B2027394748085N12001844WA0177701823
B2027394748085N12001844WA0177701823
B2027404748079N12001849WA0177601822
B2027414748074N12001853WA0177501823
B2027424748070N12001857WA0177401825
B2027434748066N12001860WA0177401827
B2027444748062N12001864WA0177301828
B2027454748059N12001867WA0177301828
B2027464748057N12001871WA0177301828
B2027474748056N12001875WA0177301829
B2027484748056N12001880WA0177301828
B2027494748058N12001885WA0177301828
B2027504748061N12001890WA0177201827
B2027514748067N12001893WA0177201826
B2027524748073N12001893WA0177201825
B2027534748079N12001890WA0177101824
B2027544748085N12001885WA0177101824
B2027554748089N12001878WA0177101823
B2027564748092N12001870WA0177001823
B2027574748094N12001861WA0177001822
B2027584748093N12001852WA0176901820
B2027594748092N12001842WA0176901818
B2028004748089N12001834WA0176801818
B2028014748085N12001828WA0176801817
B2028024748080N12001825WA0176701816
B2028034748076N12001823WA0176601815
B2028044748072N12001824WA0176601815
B2028054748069N12001825WA0176501816
B2028064748067N12001827WA0176501816
B2028074748065N12001831WA0176401816
B2028084748064N12001835WA0176401815
B2028094748064N12001840WA0176401813
B2028104748065N12001845WA0176301812
B2028114748069N12001850WA0176201811
B2028124748075N12001853WA0176101809
B2028134748082N12001853WA0176101807
B2028144748089N12001850WA0175901805
B2028154748095N12001845WA0175801804
B2028164748101N12001837WA0175701804
B2028174748105N12001828WA0175601803
B2028184748108N12001819WA0175501802
B2028194748110N12001809WA0175501801
B2028204748113N12001799WA0175401800
B2028214748114N12001789WA0175301799
B2028224748116N12001779WA0175201799
B2028234748115N12001769WA0175101798
B2028244748113N12001761WA0175001798
B2028254748110N12001754WA0174901796
B2028264748106N12001750WA0174801795
B2028274748102N12001748WA0174801794
B2028284748099N12001748WA0174701794
B2028294748097N12001750WA0174601794
B2028304748095N12001751WA0174601793
B2028314748092N12001753WA0174501792
B2028324748089N12001756WA0174401790
B2028334748086N12001760WA0174401788
B2028344748084N12001764WA0174301787
B2028354748082N12001768WA0174201788
B2028364748080N12001771WA0174101788
B2028374748079N12001774WA0174101789
B2028384748077N12001776WA0174001787
B2028394748075N12001780WA0173901784
B2028404748072N12001783WA0173801781
B2028414748069N12001787WA0173701778
B2028424748066N12001790WA0173501775
B2028434748063N12001794WA0173301773
B2028434748063N12001794WA0173301773
B2028444748060N12001797WA0173101770
B2028454748057N12001801WA0173001767
B2028464748054N12001806WA0172701764
B2028474748051N12001810WA0172601762
B2028484748049N12001815WA0172301760
B2028494748047N12001819WA0172101757
B2028504748045N12001824WA0171901755
B2028514748043N12001829WA0171701752
B2028524748041N12001834WA0171401749
B2028534748039N12001839WA0171201745
B2028544748037N12001845WA0170901741
B2028554748034N12001850WA0170701739
B2028564748032N12001855WA0170401736
B2028574748030N12001860WA0170201734
B2028584748029N12001865WA0169901732
B2028594748028N12001871WA0169701730
B2029004748026N12001876WA0169401728
B2029014748025N12001880WA0169201726
B2029024748023N12001885WA0169001724
B2029034748022N12001889WA0168801722
B2029044748021N12001894WA0168501720
B2029054748020N12001900WA0168401718
B2029064748019N12001905WA0168101716
B2029074748018N12001911WA0168001714
B2029084748017N12001916WA0167701713
B2029094748016N12001921WA0167601712
B2029104748014N12001926WA0167401710
B2029114748013N12001931WA0167201708
B2029124748011N12001936WA0167001705
B2029134748008N12001941WA0166801702
B2029144748006N12001947WA0166601700
B2029154748004N12001952WA0166401698
B2029164748003N12001955WA0166201698
B2029174748002N12001959WA0166001697
B2029184748001N12001962WA0165801695
B2029194747999N12001967WA0165701692
B2029204747997N12001972WA0165401687
B2029214747995N12001977WA0165201684
B2029224747993N12001983WA0164901682
B2029234747991N12001988WA0164801682
B2029244747989N12001992WA0164601682
B2029254747988N12001995WA0164401682
B2029264747987N12001999WA0164301682
B2029274747984N12002002WA0164101680
B2029284747981N12002005WA0164001678
B2029294747978N12002008WA0163901676
B2029304747975N12002012WA0163701675
B2029314747972N12002016WA0163601674
B2029324747969N12002019WA0163401674
B2029334747966N12002021WA0163301674
B2029344747963N12002024WA0163201673
B2029354747960N12002028WA0163101671
B2029364747957N12002033WA0163001670
B2029374747955N12002037WA0162901669
B2029384747952N12002041WA0162801669
B2029394747949N12002043WA0162701670
B2029404747946N12002046WA0162601670
B2029414747944N12002048WA0162501669
B2029424747941N12002051WA0162401667
B2029434747937N12002055WA0162401665
B2029444747934N12002058WA0162201664
B2029454747931N12002061WA0162201663
B2029464747927N12002064WA0162101663
B2029464747927N12002064WA0162101663
B2029474747924N12002066WA0162001663
B2029484747921N12002068WA0161901663
B2029494747919N12002071WA0161801661
B2029504747917N12002075WA0161701659
B2029514747916N12002080WA0161601658
B2029524747916N12002086WA0161501657
B2029534747917N12002091WA0161501657
B2029544747919N12002095WA0161401657
B2029554747922N12002099WA0161301657
B2029564747926N12002102WA0161201656
B2029574747930N12002105WA0161201656
B2029584747934N12002108WA0161101654
B2029594747937N12002112WA0161001653
B2030004747941N12002115WA0160901651
B2030014747946N12002118WA0160901651
B2030024747951N12002120WA0160801650
B2030034747956N12002122WA0160701649
B2030044747960N12002125WA0160601647
B2030054747964N12002129WA0160501646
B2030064747969N12002133WA0160401644
B2030074747974N12002138WA0160301642
B2030084747980N12002141WA0160201641
B2030094747985N12002144WA0160101640
B2030104747990N12002147WA0160001639
B2030114747994N12002150WA0159901638
B2030124747998N12002153WA0159701637
B2030134748003N12002157WA0159601635
B2030144748009N12002160WA0159501632
B2030154748014N12002163WA0159401629
B2030164748020N12002167WA0159201627
B2030174748026N12002170WA0159101626
B2030184748031N12002173WA0158901625
B2030194748037N12002175WA0158701624
B2030204748043N12002176WA0158601623
B2030214748049N12002177WA0158501621
B2030224748056N12002179WA0158301619
B2030234748062N12002182WA0158201617
B2030244748069N12002183WA0158001616
B2030254748077N12002184WA0157901615
B2030264748084N12002184WA0157701614
B2030274748090N12002184WA0157601614
B2030284748097N12002184WA0157501613
B2030294748104N12002186WA0157401611
B2030304748111N12002187WA0157201609
B2030314748118N12002189WA0157101608
B2030324748125N12002191WA0157001607
B2030334748131N12002193WA0156901607
B2030344748138N12002194WA0156801607
B2030354748144N12002195WA0156701606
B2030364748151N12002197WA0156601605
B2030374748158N12002198WA0156501603
B2030384748165N12002200WA0156301602
B2030394748172N12002201WA0156201600
B2030404748179N12002203WA0156101599
B2030414748186N12002204WA0156001598
B2030424748192N12002206WA0155901597
B2030434748199N12002208WA0155801595
B2030444748206N12002210WA0155601592
B2030454748214N12002212WA0155501589
B2030464748221N12002216WA0155301587
B2030474748228N12002220WA0155101585
B2030484748235N12002224WA0154901585
B2030494748242N12002225WA0154801585
B2030494748242N12002225WA0154801585
B2030504748249N12002226WA0154701586
B2030514748256N12002227WA0154701587
B2030524748263N12002228WA0154601586
B2030534748270N12002229WA0154501586
B2030544748278N12002230WA0154401586
B2030554748285N12002231WA0154401586
B2030564748292N12002233WA0154301586
B2030574748299N12002232WA0154301586
B2030584748307N12002230WA0154301586
B2030594748316N12002226WA0154201586
B2031004748324N12002221WA0154201588
B2031014748332N12002217WA0154301590
B2031024748338N12002211WA0154301594
B2031034748343N12002204WA0154401597
B2031044748348N12002196WA0154601599
B2031054748353N12002185WA0154601601
B2031064748355N12002174WA0154801603
B2031074748356N12002163WA0154901603
B2031084748355N12002153WA0155101604
B2031094748353N12002145WA0155201607
B2031104748350N12002138WA0155401612
B2031114748347N12002134WA0155601616
B2031124748344N12002132WA0155901620
B2031134748341N12002134WA0156101623
B2031144748338N12002137WA0156401626
B2031154748338N12002142WA0156601629
B2031164748340N12002146WA0156901632
B2031174748343N12002148WA0157101636
B2031184748346N12002149WA0157401639
B2031194748351N12002150WA0157701642
B2031204748356N12002150WA0158001643
B2031214748362N12002149WA0158101644
B2031224748368N12002147WA0158401645
B2031234748374N12002143WA0158601646
B2031244748380N12002138WA0158801648
B2031254748386N12002129WA0158901650
B2031264748390N12002118WA0159201650
B2031274748394N12002106WA0159301652
B2031284748396N12002095WA0159501655
B2031294748396N12002085WA0159701658
B2031304748395N12002076WA0159901662
B2031314748394N12002068WA0160101665
B2031324748393N12002058WA0160401668
B2031334748392N12002049WA0160601671
B2031344748391N12002040WA0160901675
B2031354748388N12002034WA0161201678
B2031364748385N12002029WA0161501681
B2031374748381N12002027WA0161701684
B2031384748378N12002026WA0162001687
B2031394748376N12002025WA0162201691
B2031404748375N12002024WA0162601694
B2031414748374N12002024WA0162801696
B2031424748374N12002026WA0163001696
B2031434748375N12002029WA0163201696
B2031444748377N12002033WA0163401695
B2031454748382N12002035WA0163501695
B2031464748388N12002036WA0163701695
B2031474748395N12002035WA0163801696
B2031484748401N12002033WA0164001698
B2031494748407N12002031WA0164101701
B2031504748413N12002029WA0164301702
B2031514748419N12002027WA0164401704
B2031524748427N12002023WA0164601705
B2031524748427N12002023WA0164601705
B2031534748434N12002016WA0164701706
B2031544748441N12002006WA0164801707
B2031554748445N12001995WA0165001710
B2031564748448N12001984WA0165201713
B2031574748448N12001974WA0165301717
B2031584748448N12001966WA0165601721
B2031594748447N12001958WA0165801724
B2032004748445N12001950WA0166101725
B2032014748443N12001944WA0166301728
B2032024748441N12001938WA0166601730
B2032034748438N12001933WA0166801732
B2032044748436N12001931WA0167001735
B2032054748433N12001930WA0167201736
B2032064748431N12001931WA0167401737
B2032074748430N12001933WA0167601739
B2032084748429N12001934WA0167801741
B2032094748430N12001936WA0168001744
B2032104748433N12001938WA0168201744
B2032114748437N12001940WA0168301745
B2032124748442N12001941WA0168501745
B2032134748448N12001941WA0168601745
B2032144748454N12001939WA0168701746
B2032154748461N12001936WA0168801747
B2032164748468N12001930WA0168901748
B2032174748475N12001923WA0169001748
B2032184748481N12001915WA0169101750
B2032194748487N12001907WA0169201752
B2032204748492N12001899WA0169401755
B2032214748495N12001889WA0169501757
B2032224748498N12001879WA0169701759
B2032234748499N12001868WA0169801760
B2032244748498N12001858WA0170001761
B2032254748495N12001851WA0170101761
B2032264748492N12001844WA0170201762
B2032274748489N12001839WA0170301763
B2032284748486N12001837WA0170501765
B2032294748484N12001837WA0170601767
B2032304748483N12001837WA0170801768
B2032314748483N12001838WA0170901769
B2032324748483N12001839WA0171001770
B2032334748484N12001841WA0171101771
B2032344748488N12001844WA0171201771
B2032354748493N12001845WA0171301770
B2032364748501N12001844WA0171401769
B2032374748509N12001839WA0171401768
B2032384748517N12001831WA0171501769
B2032394748523N12001821WA0171501772
B2032404748528N12001811WA0171701776
B2032414748532N12001800WA0171801779
B2032424748533N12001787WA0171901780
B2032434748533N12001775WA0172001779
B2032444748531N12001763WA0172101779
B2032454748528N12001755WA0172201780
B2032464748525N12001748WA0172301782
B2032474748523N12001744WA0172401784
B2032484748521N12001740WA0172601786
B2032494748519N12001739WA0172601786
B2032504748518N12001738WA0172801785
B2032514748517N12001740WA0172801784
B2032524748518N12001744WA0172901784
B2032534748521N12001747WA0173001786
B2032544748525N12001749WA0173101788
B2032554748529N12001750WA0173101789
B2032554748529N12001750WA0173101789
B2032564748534N12001749WA0173301791
B2032574748541N12001748WA0173301790
B2032584748548N12001746WA0173401790
B2032594748556N12001743WA0173401790
B2033004748563N12001739WA0173501790
B2033014748571N12001735WA0173501793
B2033024748578N12001731WA0173601796
B2033034748584N12001727WA0173701798
B2033044748592N12001725WA0173801800
B2033054748600N12001724WA0173901800
B2033064748609N12001722WA0174001801
B2033074748617N12001718WA0174101804
B2033084748624N12001712WA0174301809
B2033094748630N12001704WA0174501814
B2033104748635N12001695WA0174701818
B2033114748639N12001684WA0174901820
B2033124748641N12001672WA0175201822
B2033134748641N12001660WA0175401824
B2033144748638N12001652WA0175701828
B2033154748635N12001647WA0175901832
B2033164748633N12001643WA0176201836
B2033174748630N12001640WA0176401839
B2033184748627N12001638WA0176801841
B2033194748624N12001639WA0177001844
B2033204748623N12001642WA0177401848
B2033214748624N12001646WA0177601851
B2033224748626N12001649WA0177901855
B2033234748629N12001652WA0178201857
B2033244748633N12001655WA0178501858
B2033254748638N12001657WA0178701861
B2033264748645N12001658WA0179101864
B2033274748651N12001655WA0179301868
B2033284748658N12001648WA0179601871
B2033294748663N12001639WA0179801873
B2033304748670N12001628WA0180201874
B2033314748676N12001617WA0180401877
B2033324748682N12001606WA0180701882
B2033334748685N12001594WA0181001887
B2033344748687N12001583WA0181401891
B2033354748687N12001571WA0181601895
B2033364748686N12001560WA0182001898
B2033374748684N12001552WA0182301903
B2033384748682N12001545WA0182701906
B2033394748679N12001541WA0182901909
B2033404748676N12001539WA0183301912
B2033414748674N12001539WA0183601914
B2033424748672N12001541WA0183901915
B2033434748671N12001544WA0184101918
B2033444748671N12001548WA0184401921
B2033454748672N12001551WA0184601924
B2033464748674N12001554WA0184901925
B2033474748678N12001559WA0185101927
B2033484748682N12001564WA0185401928
B2033494748688N12001567WA0185601930
B2033504748694N12001567WA0185901935
B2033514748700N12001564WA0186101939
B2033524748706N12001560WA0186401942
B2033534748712N12001554WA0186601943
B2033544748719N12001545WA0186801944
B2033554748725N12001533WA0186901944
B2033564748729N12001520WA0187201945
B2033574748730N12001508WA0187301947
B2033584748729N12001498WA0187601950
B2033594748727N12001490WA0187801954
B2033594748727N12001490WA0187801954
B2034004748725N12001484WA0188101959
B2034014748723N12001479WA0188401963
B2034024748720N12001476WA0188701965
B2034034748718N12001476WA0188901966
B2034044748715N12001479WA0189201965
B2034054748714N12001484WA0189301966
B2034064748714N12001490WA0189601969
B2034074748717N12001494WA0189801973
B2034084748720N12001496WA0190101976
B2034094748724N12001498WA0190301979
B2034104748728N12001500WA0190601982
B2034114748734N12001500WA0190801984
B2034124748741N12001500WA0191101984
B2034134748749N12001499WA0191201985
B2034144748757N12001496WA0191401986
B2034154748764N12001489WA0191601989
B2034164748771N12001480WA0191801991
B2034174748776N12001470WA0192001994
B2034184748781N12001460WA0192301997
B2034194748786N12001451WA0192402000
B2034204748789N12001441WA0192702003
B2034214748792N12001430WA0192902005
B2034224748793N12001420WA0193202007
B2034234748792N12001409WA0193302008
B2034244748790N12001401WA0193602010
B2034254748787N12001394WA0193802012
B2034264748785N12001389WA0194102016
B2034274748783N12001385WA0194302019
B2034284748782N12001383WA0194502022
B2034294748780N12001383WA0194702023
B2034304748779N12001386WA0195002022
B2034314748780N12001391WA0195102023
B2034324748783N12001396WA0195402025
B2034334748787N12001399WA0195502029
B2034344748792N12001399WA0195802033
B2034354748797N12001399WA0196002035
B2034364748804N12001398WA0196202037
B2034374748811N12001395WA0196402038
B2034384748819N12001389WA0196602039
B2034394748826N12001380WA0196802040
B2034404748833N12001371WA0197002043
B2034414748837N12001361WA0197202047
B2034424748841N12001352WA0197402050
B2034434748843N12001342WA0197602052
B2034444748844N12001330WA0197902051
B2034454748843N12001319WA0198102051
B2034464748841N12001311WA0198302054
B2034474748839N12001306WA0198502057
B2034484748837N12001303WA0198802060
B2034494748835N12001302WA0199002063
B2034504748833N12001302WA0199202065
B2034514748832N12001303WA0199402068
B2034524748831N12001305WA0199702070
B2034534748832N12001309WA0199902071
B2034544748833N12001313WA0200102073
B2034554748835N12001318WA0200302076
B2034564748838N12001321WA0200602080
B2034574748841N12001324WA0200702083
B2034584748845N12001326WA0201002085
B2034594748850N12001328WA0201202087
B2035004748856N12001329WA0201402089
B2035014748863N12001328WA0201602090
B2035024748871N12001325WA0201802092
B2035034748878N12001318WA0202002092
B2035034748878N12001318WA0202002092
B2035044748885N12001307WA0202202092
B2035054748889N12001295WA0202302092
B2035064748892N12001282WA0202502094
B2035074748894N12001271WA0202602097
B2035084748894N12001261WA0202802099
B2035094748893N12001251WA0202902101
B2035104748892N12001242WA0203202104
B2035114748891N12001234WA0203302107
B2035124748889N12001229WA0203502110
B2035134748887N12001225WA0203702112
B2035144748884N12001222WA0204002113
B2035154748882N12001222WA0204102115
B2035164748881N12001224WA0204302117
B2035174748880N12001228WA0204502119
B2035184748882N12001231WA0204702121
B2035194748886N12001234WA0204902123
B2035204748891N12001237WA0205102125
B2035214748897N12001239WA0205202126
B2035224748905N12001239WA0205402128
B2035234748913N12001238WA0205602130
B2035244748920N12001234WA0205802133
B2035254748928N12001229WA0205902136
B2035264748935N12001222WA0206202137
B2035274748941N12001212WA0206302138
B2035284748946N12001200WA0206502139
B2035294748950N12001189WA0206602141
B2035304748953N12001177WA0206802143
B2035314748955N12001166WA0207002146
B2035324748956N12001153WA0207202149
B2035334748955N12001140WA0207402151
B2035344748953N12001129WA0207702154
B2035354748950N12001120WA0207802156
B2035364748946N12001115WA0208102159
B2035374748944N12001112WA0208302162
B2035384748941N12001112WA0208602164
B2035394748940N12001113WA0208802167
B2035404748940N12001116WA0209102170
B2035414748942N12001119WA0209202172
B2035424748946N12001122WA0209502175
B2035434748951N12001125WA0209702176
B2035444748958N12001127WA0209902179
B2035454748966N12001125WA0210102181
B2035464748974N12001121WA0210402183
B2035474748982N12001115WA0210502185
B2035484748990N12001107WA0210802187
B2035494748996N12001097WA0210902189
B2035504749002N12001084WA0211202190
B2035514749006N12001069WA0211302192
B2035524749008N12001055WA0211602196
B2035534749008N12001042WA0211802200
B2035544749007N12001031WA0212102204
B2035554749006N12001022WA0212302208
B2035564749005N12001014WA0212702211
B2035574749003N12001007WA0212902212
B2035584748999N12001000WA0213202213
B2035594748996N12000997WA0213402214
B2036004748993N12000997WA0213602216
B2036014748992N12001000WA0213802219
B2036024748992N12001002WA0214102223
B2036034748994N12001003WA0214302228
B2036044748996N12001005WA0214602232
B2036054749001N12001007WA0214902234
B2036054749001N12001007WA0214902234
B2036064749008N12001009WA0215202234
B2036074749015N12001011WA0215302235
B2036084749022N12001011WA0215602238
B2036094749029N12001008WA0215802242
B2036104749036N12001003WA0216102244
B2036114749044N12000996WA0216302246
B2036124749052N12000987WA0216502246
B2036134749059N12000979WA0216702248
B2036144749066N12000970WA0217002253
B2036154749072N12000959WA0217202257
B2036164749076N12000948WA0217502262
B2036174749079N12000935WA0217702266
B2036184749081N12000922WA0218102271
B2036194749082N12000911WA0218402276
B2036204749082N12000901WA0218802281
B2036214749080N12000891WA0219102285
B2036224749078N12000883WA0219602287
B2036234749075N12000877WA0219902291
B2036244749073N12000876WA0220302293
B2036254749073N12000878WA0220502295
B2036264749074N12000883WA0220902295
B2036274749078N12000889WA0221102298
B2036284749083N12000891WA0221502304
B2036294749090N12000891WA0221702309
B2036304749098N12000887WA0222102311
B2036314749107N12000880WA0222302313
B2036324749116N12000870WA0222602315
B2036334749123N12000858WA0222902320
B2036344749126N12000845WA0223202323
B2036354749126N12000832WA0223502324
B2036364749124N12000820WA0223802326
B2036374749121N12000811WA0224102331
B2036384749119N12000804WA0224502336
B2036394749117N12000801WA0224802341
B2036404749116N12000798WA0225202345
B2036414749115N12000797WA0225402349
B2036424749114N12000796WA0225902351
B2036434749114N12000799WA0226102352
B2036444749116N12000803WA0226402355
B2036454749119N12000808WA0226702357
B2036464749123N12000811WA0227102362
B2036474749127N12000813WA0227302366
B2036484749133N12000814WA0227702371
B2036494749139N12000815WA0228002374
B2036504749147N12000814WA0228302375
B2036514749156N12000810WA0228502376
B2036524749165N12000802WA0228802378
B2036534749172N12000792WA0229102381
B2036544749179N12000782WA0229402385
B2036554749185N12000772WA0229602389
B2036564749189N12000761WA0229902393
B2036574749193N12000750WA0230202395
B2036584749197N12000737WA0230502397
B2036594749200N12000724WA0230802400
B2037004749201N12000712WA0231102403
B2037014749200N12000702WA0231302406
B2037024749198N12000693WA0231702409
B2037034749195N12000687WA0231902411
B2037044749191N12000682WA0232202414
B2037054749189N12000680WA0232502417
B2037064749186N12000680WA0232802419
B2037074749185N12000679WA0233002423
B2037084749183N12000677WA0233402427
B2037094749182N12000676WA0233602430
B2037094749182N12000676WA0233602430
B2037104749181N12000676WA0233902434
B2037114749182N12000678WA0234202436
B2037124749186N12000681WA0234502438
B2037134749191N12000683WA0234702440
B2037144749197N12000684WA0235102443
B2037154749204N12000682WA0235302446
B2037164749212N12000678WA0235602448
B2037174749220N12000672WA0235802451
B2037184749227N12000665WA0236102455
B2037194749234N12000656WA0236402459
B2037204749239N12000646WA0236702462
B2037214749243N12000633WA0236902465
B2037224749244N12000620WA0237202467
B2037234749244N12000608WA0237502471
B2037244749242N12000598WA0237802474
B2037254749240N12000591WA0238102479
B2037264749238N12000585WA0238402481
B2037274749235N12000580WA0238702483
B2037284749233N12000576WA0239002485
B2037294749230N12000575WA0239202486
B2037304749229N12000577WA0239502489
B2037314749231N12000581WA0239702491
B2037324749235N12000584WA0240002494
B2037334749242N12000584WA0240202497
B2037344749249N12000580WA0240502500
B2037354749257N12000574WA0240702502
B2037364749264N12000565WA0241002504
B2037374749271N12000556WA0241202507
B2037384749277N12000546WA0241502510
B2037394749281N12000535WA0241602513
B2037404749284N12000522WA0241902514
B2037414749284N12000510WA0242102515
B2037424749282N12000499WA0242402517
B2037434749280N12000490WA0242602520
B2037444749277N12000484WA0242902523
B2037454749275N12000480WA0243102527
B2037464749273N12000478WA0243302530
B2037474749272N12000478WA0243602532
B2037484749272N12000480WA0243802534
B2037494749275N12000484WA0244002535
B2037504749279N12000488WA0244302536
B2037514749286N12000489WA0244402537
B2037524749293N12000490WA0244702539
B2037534749300N12000489WA0244802542
B2037544749306N12000487WA0245102545
B2037554749313N12000487WA0245302548
B2037564749320N12000487WA0245602551
B2037574749326N12000488WA0245802554
B2037584749333N12000485WA0246102558
B2037594749339N12000480WA0246302561
B2038004749346N12000472WA0246602562
B2038014749353N12000461WA0246802561
B2038024749360N12000449WA0247002562
B2038034749364N12000436WA0247202566
B2038044749367N12000424WA0247402569
B2038054749367N12000413WA0247702573
B2038064749366N12000404WA0248002575
B2038074749365N12000396WA0248202579
B2038084749363N12000388WA0248502582
B2038094749361N12000382WA0248702585
B2038104749358N12000378WA0249002588
B2038114749356N12000376WA0249202590
B2038124749354N12000377WA0249602592
B2038124749354N12000377WA0249602592
B2038134749353N12000379WA0249802595
B2038144749354N12000381WA0250102598
B2038154749357N12000383WA0250302601
B2038164749361N12000384WA0250602604
B2038174749366N12000386WA0250802606
B2038184749372N12000387WA0251102608
B2038194749379N12000386WA0251302611
B2038204749386N12000383WA0251602614
B2038214749393N12000378WA0251702616
B2038224749400N12000370WA0252002617
B2038234749406N12000360WA0252202619
B2038244749411N12000348WA0252502619
B2038254749414N12000334WA0252602620
B2038264749415N12000320WA0252802621
B2038274749416N12000308WA0253002625
B2038284749415N12000298WA0253302630
B2038294749414N12000290WA0253502633
B2038304749413N12000282WA0253802634
B2038314749410N12000277WA0253902635
B2038324749407N12000274WA0254202637
B2038334749405N12000274WA0254302639
B2038344749405N12000277WA0254602640
B2038354749407N12000280WA0254702642
B2038364749410N12000284WA0254902644
B2038374749415N12000288WA0255102646
B2038384749422N12000289WA0255302648
B2038394749429N12000288WA0255502650
B2038404749438N12000283WA0255702651
B2038414749445N12000274WA0255802652
B2038424749452N12000262WA0256002653
B2038434749456N12000249WA0256202653
B2038444749458N12000236WA0256402654
B2038454749459N12000223WA0256502656
B2038464749460N12000212WA0256702661
B2038474749461N12000201WA0256902665
B2038484749462N12000189WA0257102667
B2038494749461N12000178WA0257302669
B2038504749458N12000169WA0257502670
B2038514749455N12000162WA0257702672
B2038524749451N12000156WA0257902675
B2038534749448N12000152WA0258102678
B2038544749445N12000150WA0258402681
B2038554749444N12000151WA0258602684
B2038564749444N12000156WA0258802686
B2038574749448N12000161WA0259002687
B2038584749454N12000165WA0259202688
B2038594749461N12000166WA0259402691
B2039004749469N12000161WA0259702693
B2039014749476N12000153WA0259802696
B2039024749482N12000141WA0260102696
B2039034749485N12000127WA0260202697
B2039044749488N12000113WA0260502700
B2039054749489N12000101WA0260702703
B2039064749489N12000091WA0261002706
B2039074749487N12000082WA0261202709
B2039084749484N12000075WA0261502710
B2039094749480N12000072WA0261602712
B2039104749476N12000073WA0261902713
B2039114749475N12000076WA0262102715
B2039124749475N12000081WA0262302717
B2039134749477N12000085WA0262502721
B2039144749481N12000088WA0262702724
B2039154749486N12000090WA0262902726
B2039154749486N12000090WA0262902726
B2039164749493N12000090WA0263202728
B2039174749500N12000089WA0263302728
B2039184749508N12000083WA0263502730
B2039194749514N12000073WA0263702731
B2039204749518N12000058WA0263802730
B2039214749520N12000043WA0263902729
B2039224749520N12000029WA0264102733
B2039234749519N12000019WA0264302739
B2039244749519N12000009WA0264502744
B2039254749518N12000001WA0264702748
B2039264749517N11959991WA0265002749
B2039274749515N11959980WA0265202749
B2039284749512N11959967WA0265402749
B2039294749509N11959954WA0265502750
B2039304749507N11959942WA0265802753
B2039314749506N11959930WA0265902758
B2039324749505N11959919WA0266202762
B2039334749505N11959909WA0266402763
B2039344749505N11959899WA0266602764
B2039354749504N11959889WA0266802762
B2039364749503N11959878WA0266902760
B2039374749502N11959866WA0266902758
B2039384749501N11959853WA0267002756
B2039394749500N11959841WA0267002755
B2039404749499N11959829WA0267002754
B2039414749498N11959817WA0267002753
B2039424749497N11959805WA0266902752
B2039434749496N11959793WA0266902750
B2039444749494N11959781WA0266802749
B2039454749492N11959770WA0266802748
B2039464749490N11959757WA0266702746
B2039474749489N11959745WA0266602745
B2039484749488N11959732WA0266502744
B2039494749486N11959720WA0266502744
B2039504749484N11959708WA0266402743
B2039514749482N11959696WA0266302741
B2039524749480N11959684WA0266202740
B2039534749479N11959671WA0266102740
B2039544749477N11959659WA0266002739
B2039554749476N11959646WA0265902738
B2039564749475N11959632WA0265802737
B2039574749474N11959618WA0265702736
B2039584749473N11959604WA0265602735
B2039594749472N11959591WA0265502734
B2040004749471N11959578WA0265402733
B2040014749469N11959565WA0265302732
B2040024749468N11959552WA0265202732
B2040034749466N11959540WA0265102731
B2040044749464N11959527WA0265002730
B2040054749462N11959516WA0264902729
B2040064749459N11959504WA0264802728
B2040074749457N11959492WA0264802727
B2040084749455N11959479WA0264702726
B2040094749453N11959467WA0264602726
B2040104749451N11959455WA0264502725
B2040114749448N11959444WA0264402724
B2040124749446N11959433WA0264302723
B2040134749443N11959421WA0264202722
B2040144749441N11959409WA0264102721
B2040154749439N11959397WA0264102721
B2040164749437N11959385WA0264002720
B2040174749435N11959372WA0263902719
B2040184749434N11959359WA0263802718
B2040184749434N11959359WA0263802718
B2040194749432N11959346WA0263702717
B2040204749431N11959332WA0263602716
B2040214749430N11959319WA0263502715
B2040224749428N11959307WA0263402714
B2040234749426N11959294WA0263402713
B2040244749425N11959281WA0263202712
B2040254749423N11959268WA0263202711
B2040264749422N11959255WA0263002710
B2040274749420N11959243WA0263002709
B2040284749418N11959230WA0262802708
B2040294749416N11959218WA0262802707
B2040304749414N11959206WA0262602706
B2040314749412N11959194WA0262602705
B2040324749410N11959183WA0262402704
B2040334749407N11959172WA0262402704
B2040344749405N11959160WA0262202703
B2040354749403N11959149WA0262202702
B2040364749401N11959137WA0262002701
B2040374749399N11959125WA0262002700
B2040384749397N11959114WA0261802699
B2040394749395N11959102WA0261802698
B2040404749393N11959090WA0261602697
B2040414749392N11959079WA0261602696
B2040424749390N11959067WA0261502695
B2040434749389N11959055WA0261402695
B2040444749388N11959043WA0261302694
B2040454749387N11959031WA0261202693
B2040464749386N11959019WA0261102693
B2040474749385N11959007WA0261102692
B2040484749383N11958996WA0261002691
B2040494749382N11958984WA0260902691
B2040504749380N11958971WA0260802690
B2040514749379N11958959WA0260802689
B2040524749377N11958947WA0260702688
B2040534749375N11958935WA0260602688
B2040544749373N11958924WA0260602688
B2040554749371N11958913WA0260502688
B2040564749369N11958903WA0260402687
B2040574749366N11958892WA0260402687
B2040584749364N11958881WA0260302686
B2040594749361N11958870WA0260302685
B2041004749359N11958859WA0260202684
B2041014749357N11958847WA0260102683
B2041024749355N11958835WA0260002681
B2041034749352N11958823WA0259902680
B2041044749350N11958811WA0259802679
B2041054749347N11958800WA0259802678
B2041064749345N11958790WA0259602676
B2041074749342N11958780WA0259602675
B2041084749340N11958770WA0259402673
B2041094749337N11958758WA0259302671
B2041104749335N11958747WA0259202669
B2041114749333N11958735WA0259102668
B2041124749331N11958724WA0258902667
B2041134749329N11958712WA0258802666
B2041144749327N11958701WA0258602665
B2041154749325N11958690WA0258502663
B2041164749323N11958679WA0258402661
B2041174749321N11958668WA0258302660
B2041184749319N11958656WA0258102658
B2041194749317N11958645WA0258002656
B2041204749315N11958634WA0257802655
B2041214749313N11958623WA0257702654
B2041214749313N11958623WA0257702654
B2041224749311N11958613WA0257602652
B2041234749309N11958602WA0257402651
B2041244749307N11958591WA0257302649
B2041254749305N11958580WA0257202648
B2041264749303N11958568WA0257002646
B2041274749301N11958557WA0256902644
B2041284749299N11958546WA0256702643
B2041294749297N11958535WA0256602641
B2041304749296N11958525WA0256402640
B2041314749294N11958514WA0256302638
B2041324749292N11958502WA0256102636
B2041334749290N11958491WA0255902633
B2041344749287N11958480WA0255702631
B2041354749285N11958469WA0255602629
B2041364749283N11958459WA0255402628
B2041374749281N11958448WA0255202626
B2041384749279N11958437WA0255002624
B2041394749277N11958426WA0254902623
B2041404749274N11958415WA0254702621
B2041414749272N11958404WA0254502619
B2041424749270N11958393WA0254302617
B2041434749267N11958383WA0254202615
B2041444749265N11958372WA0253902613
B2041454749263N11958361WA0253802611
B2041464749260N11958351WA0253602609
B2041474749258N11958340WA0253402607
B2041484749256N11958329WA0253202605
B2041494749253N11958317WA0253102603
B2041504749251N11958306WA0252902602
B2041514749249N11958295WA0252702600
B2041524749246N11958284WA0252502598
B2041534749244N11958273WA0252402597
B2041544749242N11958262WA0252202595
B2041554749239N11958252WA0252102594
B2041564749236N11958242WA0251902592
B2041574749234N11958232WA0251702590
B2041584749231N11958222WA0251502588
B2041594749227N11958212WA0251402586
B2042004749224N11958202WA0251202585
B2042014749221N11958192WA0251102584
B2042024749218N11958183WA0250902582
B2042034749215N11958174WA0250802580
B2042044749212N11958165WA0250602579
B2042054749208N11958157WA0250402577
B2042064749205N11958148WA0250302575
B2042074749202N11958140WA0250102574
B2042084749199N11958132WA0249902572
B2042094749196N11958123WA0249802570
B2042104749193N11958115WA0249602568
B2042114749190N11958106WA0249502566
B2042124749187N11958098WA0249302565
B2042134749185N11958090WA0249102563
B2042144749182N11958081WA0248902561
B2042154749179N11958073WA0248802559
B2042164749176N11958064WA0248602557
B2042174749172N11958056WA0248402555
B2042184749170N11958047WA0248202553
B2042194749167N11958039WA0248102552
B2042204749164N11958030WA0247902551
B2042214749162N11958022WA0247802549
B2042224749159N11958013WA0247602547
B2042234749155N11958004WA0247402545
B2042244749152N11957995WA0247202543
B2042244749152N11957995WA0247202543
B2042254749148N11957987WA0247102541
B2042264749145N11957979WA0246902539
B2042274749142N11957970WA0246702538
B2042284749139N11957962WA0246502536
B2042294749136N11957954WA0246402535
B2042304749133N11957947WA0246202533
B2042314749130N11957940WA0246002531
B2042324749128N11957933WA0245802529
B2042334749126N11957925WA0245702527
B2042344749124N11957918WA0245502525
B2042354749121N11957912WA0245302523
B2042364749118N11957905WA0245102519
B2042374749115N11957898WA0244902517
B2042384749112N11957890WA0244702515
B2042394749109N11957882WA0244502514
B2042404749107N11957875WA0244302513
B2042414749104N11957868WA0244202511
B2042424749101N11957861WA0244002510
B2042434749099N11957853WA0243802509
B2042444749095N11957846WA0243602507
B2042454749091N11957840WA0243502505
B2042464749087N11957833WA0243302504
B2042474749083N11957826WA0243202503
B2042484749080N11957820WA0243002503
B2042494749076N11957815WA0242902502
B2042504749072N11957809WA0242802501
B2042514749068N11957803WA0242702499
B2042524749064N11957797WA0242502497
B2042534749060N11957791WA0242402495
B2042544749056N11957784WA0242202493
B2042554749053N11957779WA0242102491
B2042564749049N11957773WA0241902489
B2042574749046N11957766WA0241702486
B2042584749043N11957759WA0241502483
B2042594749039N11957753WA0241302479
B2043004749035N11957748WA0241002475
B2043014749031N11957743WA0240802472
B2043024749026N11957739WA0240502470
B2043034749023N11957736WA0240402468
B2043044749019N11957732WA0240102466
B2043054749015N11957728WA0239902464
B2043064749011N11957724WA0239602461
B2043074749007N11957720WA0239402458
B2043084749003N11957715WA0239102455
B2043094748999N11957709WA0238902452
B2043104748995N11957703WA0238602449
B2043114748992N11957698WA0238402445
B2043124748987N11957692WA0238102442
B2043134748983N11957685WA0237802438
B2043144748979N11957678WA0237502435
B2043154748975N11957670WA0237202431
B2043164748970N11957662WA0236802427
B2043174748966N11957653WA0236602423
B2043184748962N11957644WA0236202419
B2043194748957N11957635WA0235902415
B2043204748952N11957628WA0235502411
B2043214748947N11957620WA0235202406
B2043224748942N11957612WA0234802402
B2043234748937N11957601WA0234502398
B2043244748933N11957589WA0234102394
B2043254748930N11957577WA0233802391
B2043264748927N11957565WA0233402388
B2043274748925N11957553WA0233102384
B2043274748925N11957553WA0233102384
B2043284748922N11957539WA0232702380
B2043294748921N11957525WA0232402375
B2043304748919N11957509WA0231902371
B2043314748917N11957494WA0231602367
B2043324748916N11957479WA0231202365
B2043334748915N11957464WA0230902363
B2043344748913N11957451WA0230502362
B2043354748912N11957438WA0230302360
B2043364748911N11957425WA0230002358
B2043374748910N11957411WA0229702355
B2043384748909N11957398WA0229402351
B2043394748907N11957384WA0229202348
B2043404748905N11957370WA0228802346
B2043414748904N11957356WA0228602344
B2043424748903N11957343WA0228302343
B2043434748902N11957330WA0228102343
B2043444748901N11957317WA0227902342
B2043454748900N11957305WA0227802342
B2043464748899N11957292WA0227502340
B2043474748899N11957279WA0227402339
B2043484748898N11957266WA0227202337
B2043494748897N11957252WA0227102335
B2043504748896N11957238WA0226802333
B2043514748896N11957224WA0226702331
B2043524748895N11957210WA0226502330
B2043534748895N11957197WA0226402328
B2043544748895N11957183WA0226102326
B2043554748894N11957168WA0226002324
B2043564748893N11957154WA0225802323
B2043574748892N11957141WA0225702321
B2043584748891N11957128WA0225502321
B2043594748890N11957115WA0225402320
B2044004748889N11957103WA0225202319
B2044014748887N11957091WA0225102317
B2044024748884N11957079WA0224902316
B2044034748881N11957068WA0224802314
B2044044748878N11957058WA0224602312
B2044054748875N11957048WA0224502310
B2044064748871N11957040WA0224302307
B2044074748867N11957031WA0224102304
B2044084748863N11957023WA0223902300
B2044094748859N11957015WA0223702297
B2044104748855N11957007WA0223402294
B2044114748850N11956998WA0223202291
B2044124748846N11956989WA0223002288
B2044134748842N11956981WA0222802286
B2044144748838N11956972WA0222502283
B2044154748834N11956963WA0222302280
B2044164748830N11956953WA0222002277
B2044174748826N11956943WA0221802275
B2044184748822N11956934WA0221502272
B2044194748818N11956926WA0221302270
B2044204748814N11956917WA0221002268
B2044214748810N11956908WA0220802265
B2044224748807N11956899WA0220502262
B2044234748803N11956890WA0220302259
B2044244748798N11956881WA0220002255
B2044254748794N11956872WA0219802251
B2044264748789N11956862WA0219402248
B2044274748786N11956851WA0219202244
B2044284748783N11956839WA0218802241
B2044294748781N11956827WA0218602238
B2044304748778N11956814WA0218202235
B2044304748778N11956814WA0218202235
B2044314748776N11956801WA0218002231
B2044324748773N11956787WA0217602228
B2044334748770N11956774WA0217402225
B2044344748768N11956761WA0217102223
B2044354748765N11956748WA0216802221
B2044364748763N11956736WA0216502219
B2044374748760N11956724WA0216302217
B2044384748757N11956711WA0216002214
B2044394748754N11956698WA0215802211
B2044404748751N11956684WA0215502208
B2044414748748N11956671WA0215302205
B2044424748746N11956656WA0215002203
B2044434748744N11956642WA0214802201
B2044444748743N11956628WA0214502199
B2044454748742N11956614WA0214302197
B2044464748741N11956598WA0214002194
B2044474748740N11956583WA0213802191
B2044484748740N11956567WA0213502187
B2044494748738N11956551WA0213202184
B2044504748738N11956536WA0212902181
B2044514748737N11956520WA0212702179
B2044524748736N11956506WA0212402177
B2044534748736N11956491WA0212102174
B2044544748734N11956477WA0211802171
B2044554748733N11956463WA0211602168
B2044564748732N11956448WA0211302163
B2044574748731N11956433WA0211002160
B2044584748730N11956418WA0210702156
B2044594748729N11956403WA0210402152
B2045004748727N11956389WA0210002148
B2045014748725N11956374WA0209702145
B2045024748723N11956359WA0209402142
B2045034748722N11956344WA0209102140
B2045044748722N11956330WA0208802138
B2045054748721N11956316WA0208502136
B2045064748721N11956301WA0208202133
B2045074748719N11956286WA0208002129
B2045084748718N11956270WA0207602125
B2045094748717N11956254WA0207402121
B2045104748716N11956238WA0207002119
B2045114748716N11956223WA0206802117
B2045124748716N11956208WA0206502116
B2045134748715N11956193WA0206302114
B2045144748715N11956179WA0206002112
B2045154748714N11956164WA0205802110
B2045164748713N11956148WA0205602107
B2045174748712N11956133WA0205402105
B2045184748711N11956118WA0205102104
B2045194748710N11956104WA0205002104
B2045204748709N11956090WA0204802104
B2045214748708N11956077WA0204602103
B2045224748706N11956063WA0204402102
B2045234748705N11956050WA0204302101
B2045244748704N11956036WA0204102099
B2045254748702N11956023WA0204002097
B2045264748701N11956010WA0203802096
B2045274748699N11955997WA0203702094
B2045284748698N11955985WA0203602093
B2045294748696N11955973WA0203502093
B2045304748695N11955962WA0203302093
B2045314748694N11955951WA0203202092
B2045324748693N11955940WA0203102090
B2045324748693N11955940WA0203102090
B2045334748692N11955928WA0203002088
B2045344748690N11955916WA0202802086
B2045354748689N11955904WA0202702083
B2045364748687N11955891WA0202502081
B2045374748686N11955878WA0202402078
B2045384748685N11955866WA0202102077
B2045394748684N11955854WA0202002076
B2045404748684N11955844WA0201802076
B2045414748683N11955834WA0201702076
B2045424748683N11955823WA0201602075
B2045434748683N11955812WA0201502073
B2045444748682N11955801WA0201302072
B2045454748682N11955790WA0201202070
B2045464748681N11955779WA0201002069
B2045474748682N11955767WA0200902068
B2045484748683N11955755WA0200802067
B2045494748684N11955743WA0200702066
B2045504748686N11955730WA0200502064
B2045514748688N11955717WA0200402061
B2045524748690N11955704WA0200202060
B2045534748692N11955692WA0200102059
B2045544748695N11955679WA0200002058
B2045554748697N11955667WA0199902057
B2045564748699N11955654WA0199702055
B2045574748701N11955642WA0199602054
B2045584748703N11955629WA0199402051
B2045594748705N11955616WA0199302049
B2046004748707N11955603WA0199102048
B2046014748709N11955590WA0199002047
B2046024748711N11955578WA0198802045
B2046034748713N11955565WA0198702044
B2046044748714N11955553WA0198502042
B2046054748716N11955541WA0198402040
B2046064748718N11955528WA0198202037
B2046074748719N11955515WA0198002035
B2046084748720N11955503WA0197802034
B2046094748722N11955491WA0197702032
B2046104748723N11955479WA0197502031
B2046114748725N11955467WA0197402030
B2046124748726N11955455WA0197202028
B2046134748727N11955442WA0197102026
B2046144748728N11955430WA0196902024
B2046154748729N11955418WA0196802023
B2046164748731N11955406WA0196602022
B2046174748732N11955395WA0196402020
B2046184748733N11955383WA0196302019
B2046194748734N11955372WA0196102017
B2046204748735N11955360WA0195902015
B2046214748736N11955348WA0195802012
B2046224748737N11955335WA0195602010
B2046234748737N11955324WA0195502009
B2046244748737N11955312WA0195302008
B2046254748738N11955300WA0195202007
B2046264748739N11955289WA0195002006
B2046274748739N11955277WA0194902004
B2046284748740N11955266WA0194702003
B2046294748741N11955254WA0194602001
B2046304748741N11955242WA0194402000
B2046314748742N11955231WA0194301999
B2046324748743N11955220WA0194101997
B2046334748744N11955209WA0194001996
B2046344748744N11955198WA0193901994
B2046344748744N11955198WA0193901994
B2046354748744N11955186WA0193701992
B2046364748744N11955174WA0193501989
B2046374748744N11955162WA0193401987
B2046384748745N11955149WA0193201986
B2046394748745N11955137WA0193101985
B2046404748746N11955126WA0192901984
B2046414748746N11955115WA0192801983
B2046424748746N11955103WA0192701981
B2046434748747N11955092WA0192501979
B2046444748747N11955080WA0192401977
B2046454748747N11955068WA0192201975
B2046464748748N11955056WA0192001973
B2046474748748N11955044WA0191901972
B2046484748748N11955033WA0191701970
B2046494748747N11955022WA0191601969
B2046504748747N11955010WA0191401967
B2046514748747N11954999WA0191301965
B2046524748747N11954987WA0191101963
B2046534748746N11954976WA0191001962
B2046544748746N11954965WA0190801960
B2046554748745N11954954WA0190701959
B2046564748745N11954942WA0190501957
B2046574748745N11954931WA0190301955
B2046584748744N11954920WA0190201954
B2046594748743N11954909WA0190001952
B2047004748743N11954898WA0189801951
B2047014748742N11954887WA0189701949
B2047024748741N11954876WA0189501948
B2047034748740N11954865WA0189401946
B2047044748739N11954854WA0189201944
B2047054748738N11954842WA0189101941
B2047064748737N11954829WA0188901939
B2047074748736N11954817WA0188701938
B2047084748736N11954805WA0188501937
B2047094748735N11954793WA0188401936
B2047104748735N11954782WA0188201935
B2047114748735N11954769WA0188101933
B2047124748734N11954757WA0187901932
B2047134748734N11954744WA0187801930
B2047144748733N11954731WA0187601929
B2047154748733N11954719WA0187501928
B2047164748732N11954707WA0187401927
B2047174748731N11954696WA0187301927
B2047184748731N11954685WA0187101926
B2047194748730N11954673WA0187101924
B2047204748729N11954662WA0186901922
B2047214748727N11954650WA0186801920
B2047224748726N11954639WA0186601919
B2047234748724N11954628WA0186501918
B2047244748723N11954617WA0186401917
B2047254748722N11954605WA0186301916
B2047264748722N11954594WA0186101915
B2047274748721N11954582WA0186001914
B2047284748721N11954569WA0185901913
B2047294748721N11954556WA0185801911
B2047304748721N11954543WA0185701910
B2047314748721N11954530WA0185601909
B2047324748720N11954518WA0185501909
B2047334748720N11954506WA0185401908
B2047344748720N11954494WA0185301908
B2047354748720N11954481WA0185201906
B2047364748720N11954468WA0185101905
B2047374748719N11954455WA0185001904
B2047374748719N11954455WA0185001904
B2047384748719N11954442WA0184901903
B2047394748719N11954430WA0184801902
B2047404748719N11954417WA0184701901
B2047414748719N11954404WA0184601900
B2047424748719N11954391WA0184401898
B2047434748718N11954378WA0184301897
B2047444748718N11954365WA0184201895
B2047454748718N11954352WA0184101894
B2047464748718N11954340WA0184001893
B2047474748717N11954327WA0183901891
B2047484748716N11954315WA0183701890
B2047494748715N11954302WA0183601888
B2047504748713N11954290WA0183401886
B2047514748711N11954278WA0183301884
B2047524748709N11954265WA0183101882
B2047534748708N11954252WA0183001881
B2047544748706N11954240WA0182901880
B2047554748705N11954227WA0182701879
B2047564748704N11954215WA0182601877
B2047574748703N11954203WA0182501877
B2047584748703N11954190WA0182401877
B2047594748703N11954178WA0182301877
B2048004748703N11954166WA0182201876
B2048014748703N11954154WA0182101875
B2048024748703N11954142WA0182001874
B2048034748703N11954129WA0181901872
B2048044748703N11954116WA0181801870
B2048054748702N11954103WA0181701869
B2048064748702N11954090WA0181601869
B2048074748702N11954078WA0181501868
B2048084748702N11954066WA0181401867
B2048094748702N11954054WA0181301866
B2048104748702N11954040WA0181101863
B2048114748702N11954026WA0181001861
B2048124748702N11954012WA0180901860
B2048134748701N11953998WA0180801859
B2048144748701N11953986WA0180601858
B2048154748700N11953973WA0180501857
B2048164748699N11953961WA0180401857
B2048174748698N11953949WA0180301856
B2048184748698N11953936WA0180201855
B2048194748697N11953923WA0180101854
B2048204748697N11953911WA0180001853
B2048214748696N11953899WA0179901853
B2048224748696N11953887WA0179801853
B2048234748696N11953875WA0179801852
B2048244748696N11953863WA0179701851
B2048254748696N11953851WA0179601850
B2048264748695N11953839WA0179501849
B2048274748695N11953827WA0179401847
B2048284748695N11953815WA0179301846
B2048294748695N11953802WA0179201844
B2048304748695N11953790WA0179101843
B2048314748694N11953777WA0179001842
B2048324748694N11953765WA0178801841
B2048334748693N11953753WA0178701839
B2048344748693N11953740WA0178601838
B2048354748692N11953727WA0178501837
B2048364748692N11953714WA0178401836
B2048374748691N11953702WA0178301836
B2048384748691N11953690WA0178201835
B2048394748690N11953678WA0178101833
B2048404748689N11953666WA0178001832
B2048404748689N11953666WA0178001832
B2048414748689N11953654WA0177901829
B2048424748687N11953642WA0177701827
B2048434748686N11953629WA0177601824
B2048444748686N11953617WA0177401822
B2048454748685N11953605WA0177301820
B2048464748683N11953593WA0177101818
B2048474748682N11953581WA0177001816
B2048484748680N11953569WA0176801814
B2048494748680N11953556WA0176701814
B2048504748681N11953544WA0176501814
B2048514748682N11953532WA0176401815
B2048524748683N11953521WA0176301815
B2048534748684N11953509WA0176201814
B2048544748685N11953497WA0176101813
B2048554748686N11953484WA0176001811
B2048564748688N11953471WA0175901809
B2048574748690N11953457WA0175801808
B2048584748691N11953444WA0175701807
B2048594748693N11953432WA0175601808
B2049004748695N11953420WA0175501808
B2049014748698N11953408WA0175401808
B2049024748702N11953397WA0175401808
B2049034748706N11953386WA0175301807
B2049044748711N11953374WA0175201806
B2049054748715N11953363WA0175201806
B2049064748718N11953350WA0175101805
B2049074748721N11953337WA0175001804
B2049084748722N11953324WA0174901801
B2049094748723N11953309WA0174801798
B2049104748723N11953295WA0174601796
B2049114748724N11953282WA0174501794
B2049124748724N11953269WA0174401794
B2049134748725N11953257WA0174301794
B2049144748726N11953244WA0174201793
B2049154748728N11953231WA0174101791
B2049164748729N11953218WA0174001789
B2049174748730N11953204WA0173901787
B2049184748732N11953190WA0173701786
B2049194748733N11953176WA0173601785
B2049204748734N11953163WA0173501785
B2049214748735N11953149WA0173401784
B2049224748736N11953136WA0173301783
B2049234748737N11953122WA0173201782
B2049244748738N11953109WA0173001780
B2049254748738N11953095WA0172901777
B2049264748739N11953082WA0172801775
B2049274748739N11953068WA0172601773
B2049284748740N11953054WA0172501771
B2049294748741N11953040WA0172301769
B2049304748741N11953026WA0172201768
B2049314748742N11953013WA0172001766
B2049324748742N11952999WA0171801765
B2049334748742N11952986WA0171701763
B2049344748742N11952972WA0171501761
B2049354748743N11952958WA0171401758
B2049364748743N11952944WA0171101755
B2049374748744N11952930WA0171001752
B2049384748744N11952916WA0170701750
B2049394748745N11952902WA0170601748
B2049404748746N11952889WA0170301746
B2049414748746N11952875WA0170201744
B2049424748746N11952862WA0169901742
B2049434748746N11952848WA0169701739
B2049434748746N11952848WA0169701739
B2049444748746N11952834WA0169501736
B2049454748746N11952820WA0169301734
B2049464748746N11952807WA0169101732
B2049474748746N11952794WA0168901730
B2049484748745N11952781WA0168601729
B2049494748745N11952768WA0168501726
B2049504748744N11952756WA0168201724
B2049514748744N11952742WA0168101722
B2049524748744N11952728WA0167801720
B2049534748743N11952713WA0167701718
B2049544748743N11952699WA0167501718
B2049554748742N11952685WA0167301718
B2049564748742N11952672WA0167201718
B2049574748741N11952660WA0167101717
B2049584748740N11952648WA0166901717
B2049594748738N11952635WA0166801715
B2050004748736N11952622WA0166601712
B2050014748734N11952610WA0166501710
B2050024748732N11952597WA0166301708
B2050034748730N11952584WA0166201707
B2050044748728N11952572WA0166001706
B2050054748727N11952560WA0165901705
B2050064748725N11952549WA0165801703
B2050074748723N11952537WA0165601700
B2050084748721N11952524WA0165401696
B2050094748719N11952510WA0165301693
B2050104748717N11952497WA0165001691
B2050114748715N11952484WA0164901690
B2050124748713N11952473WA0164701691
B2050134748712N11952462WA0164601691
B2050144748711N11952450WA0164501691
B2050154748710N11952439WA0164401690
B2050164748708N11952427WA0164201688
B2050174748706N11952415WA0164101686
B2050184748705N11952403WA0163901684
B2050194748703N11952390WA0163801682
B2050204748702N11952377WA0163701681
B2050214748700N11952365WA0163601680
B2050224748698N11952353WA0163401678
B2050234748696N11952342WA0163301677
B2050244748694N11952330WA0163101676
B2050254748691N11952320WA0163001675
B2050264748689N11952309WA0162901673
B2050274748687N11952298WA0162801671
B2050284748684N11952287WA0162601668
B2050294748681N11952276WA0162401665
B2050304748678N11952265WA0162201663
B2050314748674N11952255WA0162101660
B2050324748671N11952244WA0161801658
B2050334748668N11952234WA0161701657
B2050344748664N11952224WA0161501654
B2050354748660N11952214WA0161301651
B2050364748656N11952203WA0161101649
B2050374748652N11952193WA0160901646
B2050384748648N11952184WA0160601644
B2050394748644N11952174WA0160501643
B2050404748640N11952166WA0160201641
B2050414748636N11952157WA0160101639
B2050424748632N11952148WA0159801636
B2050434748628N11952140WA0159701633
B2050444748623N11952131WA0159401631
B2050454748618N11952122WA0159201629
B2050464748614N11952113WA0159001628
B2050464748614N11952113WA0159001628
B2050474748611N11952104WA0158901628
B2050484748607N11952095WA0158701627
B2050494748604N11952086WA0158501626
B2050504748600N11952076WA0158301624
B2050514748595N11952066WA0158201621
B2050524748590N11952057WA0158001619
B2050534748585N11952049WA0157801617
B2050544748580N11952041WA0157601616
B2050554748576N11952033WA0157501615
B2050564748573N11952025WA0157301615
B2050574748569N11952019WA0157201613
B2050584748565N11952012WA0157001611
B2050594748560N11952005WA0156901607
B2051004748555N11951999WA0156701604
B2051014748550N11951993WA0156501602
B2051024748546N11951988WA0156301601
B2051034748542N11951983WA0156201600
B2051044748538N11951977WA0156001599
B2051054748534N11951971WA0155801597
B2051064748529N11951965WA0155601594
B2051074748525N11951958WA0155501592
B2051084748520N11951952WA0155201589
B2051094748515N11951946WA0155101587
B2051104748511N11951940WA0154901586
B2051114748507N11951933WA0154701584
B2051124748503N11951927WA0154501581
B2051134748498N11951920WA0154301578
B2051144748493N11951914WA0154101575
B2051154748487N11951908WA0153901572
B2051164748482N11951901WA0153701570
B2051174748477N11951894WA0153501569
B2051184748472N11951887WA0153301568
B2051194748468N11951880WA0153101567
B2051204748464N11951874WA0152901565
B2051214748459N11951868WA0152801563
B2051224748454N11951861WA0152501560
B2051234748449N11951854WA0152401557
B2051244748444N11951847WA0152101555
B2051254748439N11951840WA0152001554
B2051264748435N11951834WA0151701552
B2051274748430N11951829WA0151601550
B2051284748424N11951823WA0151301548
B2051294748419N11951818WA0151201545
B2051304748414N11951814WA0150901543
B2051314748408N11951809WA0150801542
B2051324748403N11951805WA0150601541
B2051334748399N11951801WA0150401540
B2051344748394N11951797WA0150301539
B2051354748388N11951792WA0150101537
B2051364748382N11951788WA0149901535
B2051374748376N11951783WA0149801533
B2051384748370N11951777WA0149601532
B2051394748365N11951771WA0149501532
B2051404748360N11951766WA0149401532
B2051414748356N11951762WA0149301532
B2051424748351N11951757WA0149101531
B2051434748345N11951752WA0149001529
B2051444748340N11951747WA0148901527
B2051454748334N11951743WA0148801525
B2051464748328N11951739WA0148601524
B2051474748324N11951734WA0148501524
B2051484748319N11951730WA0148401524
B2051484748319N11951730WA0148401524
B2051494748314N11951726WA0148301522
B2051504748309N11951722WA0148201520
B2051514748304N11951718WA0148101517
B2051524748298N11951714WA0147901515
B2051534748293N11951710WA0147801514
B2051544748289N11951705WA0147601513
B2051554748284N11951701WA0147501511
B2051564748280N11951696WA0147301509
B2051574748275N11951691WA0147201507
B2051584748270N11951687WA0147001506
B2051594748265N11951682WA0146901504
B2052004748260N11951678WA0146701503
B2052014748255N11951674WA0146601502
B2052024748250N11951670WA0146401501
B2052034748245N11951666WA0146301500
B2052044748240N11951662WA0146201499
B2052054748235N11951658WA0146101497
B2052064748229N11951654WA0146001497
B2052074748225N11951650WA0145901497
B2052084748221N11951646WA0145801498
B2052094748216N11951642WA0145701498
B2052104748212N11951638WA0145601497
B2052114748207N11951635WA0145501495
B2052124748202N11951632WA0145401494
B2052134748196N11951628WA0145401493
B2052144748191N11951625WA0145301492
B2052154748186N11951622WA0145201492
B2052164748182N11951619WA0145101491
B2052174748177N11951617WA0145001490
B2052184748172N11951614WA0144901488
B2052194748167N11951612WA0144801487
B2052204748162N11951610WA0144701486
B2052214748158N11951607WA0144601486
B2052224748155N11951605WA0144501485
B2052234748151N11951602WA0144501484
B2052244748147N11951600WA0144301481
B2052254748142N11951598WA0144201478
B2052264748137N11951596WA0144001474
B2052274748132N11951593WA0143901472
B2052284748129N11951590WA0143701471
B2052294748125N11951587WA0143601470
B2052304748122N11951584WA0143401468
B2052314748118N11951582WA0143201465
B2052324748113N11951581WA0143001461
B2052334748108N11951580WA0142801458
B2052344748104N11951581WA0142601457
B2052354748100N11951582WA0142401456
B2052364748097N11951583WA0142201455
B2052374748093N11951583WA0142101453
B2052384748089N11951584WA0141801452
B2052394748084N11951584WA0141701449
B2052404748080N11951584WA0141401446
B2052414748076N11951584WA0141301443
B2052424748072N11951584WA0141001441
B2052434748069N11951583WA0140901439
B2052444748066N11951583WA0140601437
B2052454748062N11951582WA0140501433
B2052464748058N11951581WA0140201429
B2052474748054N11951580WA0139901426
B2052484748050N11951579WA0139601423
B2052494748046N11951578WA0139401420
B2052504748041N11951577WA0139101416
B2052514748037N11951577WA0138801412
B2052514748037N11951577WA0138801412
B2052524748032N11951578WA0138501408
B2052534748026N11951578WA0138201404
B2052544748021N11951579WA0137801401
B2052554748016N11951579WA0137601399
B2052564748012N11951579WA0137201397
B2052574748008N11951579WA0137001395
B2052584748004N11951579WA0136701392
B2052594747999N11951580WA0136501388
B2053004747995N11951582WA0136101384
B2053014747990N11951584WA0135901381
B2053024747986N11951585WA0135501379
B2053034747982N11951586WA0135301377
B2053044747978N11951587WA0135001375
B2053054747973N11951589WA0134801372
B2053064747969N11951591WA0134501369
B2053074747964N11951592WA0134301367
B2053084747960N11951594WA0134001366
B2053094747955N11951595WA0133801365
B2053104747951N11951597WA0133601364
B2053114747947N11951600WA0133501362
B2053124747942N11951603WA0133201360
B2053134747938N11951605WA0133101359
B2053144747935N11951609WA0132901359
B2053154747931N11951612WA0132801358
B2053164747928N11951615WA0132601356
B2053174747924N11951618WA0132401354
B2053184747921N11951622WA0132201352
B2053194747917N11951626WA0132101349
B2053204747914N11951630WA0131901347
B2053214747910N11951634WA0131701345
B2053224747907N11951638WA0131501345
B2053234747904N11951642WA0131401345
B2053244747902N11951646WA0131301345
B2053254747900N11951650WA0131201343
B2053264747897N11951654WA0131001340
B2053274747895N11951659WA0130901338
B2053284747892N11951664WA0130701335
B2053294747889N11951669WA0130501333
B2053304747886N11951674WA0130301332
B2053314747884N11951678WA0130201332
B2053324747882N11951681WA0130101332
B2053334747879N11951685WA0130001332
B2053344747877N11951689WA0129801330
B2053354747875N11951694WA0129701328
B2053364747872N11951699WA0129601326
B2053374747869N11951705WA0129501324
B2053384747867N11951710WA0129301324
B2053394747864N11951716WA0129201324
B2053404747862N11951720WA0129101324
B2053414747860N11951723WA0129001323
B2053424747857N11951726WA0128901322
B2053434747855N11951728WA0128801322
B2053444747853N11951731WA0128701320
B2053454747851N11951735WA0128601317
B2053464747848N11951740WA0128401313
B2053474747846N11951747WA0128301310
B2053484747844N11951753WA0128101308
B2053494747843N11951759WA0128001308
B2053504747841N11951764WA0127801308
B2053514747840N11951768WA0127701308
B2053524747839N11951772WA0127601308
B2053534747839N11951777WA0127501305
B2053544747838N11951783WA0127301302
B2053554747838N11951790WA0127201300
B2053554747838N11951790WA0127201300
B2053564747837N11951796WA0127001299
B2053574747836N11951800WA0126901298
B2053584747836N11951804WA0126701298
B2053594747835N11951808WA0126701298
B2054004747835N11951811WA0126501296
B2054014747834N11951816WA0126401294
B2054024747833N11951821WA0126301290
B2054034747832N11951826WA0126101287
B2054044747832N11951831WA0125901286
B2054054747831N11951835WA0125801286
B2054064747831N11951839WA0125701285
B2054074747831N11951843WA0125501282
B2054084747830N11951848WA0125301279
B2054094747830N11951854WA0125201275
B2054104747829N11951861WA0124901272
B2054114747829N11951868WA0124801269
B2054124747829N11951875WA0124501267
B2054134747829N11951881WA0124401267
B2054144747829N11951888WA0124101265
B2054154747828N11951894WA0124001264
B2054164747828N11951901WA0123801263
B2054174747827N11951907WA0123701263
B2054184747827N11951914WA0123501262
B2054194747826N11951920WA0123401261
B2054204747826N11951928WA0123301260
B2054214747825N11951934WA0123201259
B2054224747825N11951940WA0123101260
B2054234747824N11951944WA0123001261
B2054244747824N11951948WA0122901262
B2054254747823N11951951WA0122901262
B2054264747822N11951954WA0122801262
B2054274747822N11951958WA0122801262
B2054284747821N11951961WA0122801262
B2054294747819N11951963WA0122701262
B2054304747819N11951966WA0122701262
B2054314747818N11951970WA0122701261
B2054324747818N11951974WA0122601259
B2054334747818N11951979WA0122501257
B2054344747818N11951985WA0122501256
B2054354747818N11951990WA0122401255
B2054364747818N11951996WA0122301254
B2054374747817N11952001WA0122201253
B2054384747817N11952005WA0122201253
B2054394747817N11952009WA0122101253
B2054404747816N11952012WA0122101254
B2054414747816N11952015WA0122001254
B2054424747815N11952017WA0122001254
B2054434747815N11952020WA0122001252
B2054444747814N11952024WA0121901249
B2054454747814N11952028WA0121801245
B2054464747812N11952033WA0121601243
B2054474747811N11952037WA0121501240
B2054484747810N11952041WA0121301239
B2054494747809N11952044WA0121201238
B2054504747809N11952048WA0121101238
B2054514747809N11952051WA0121001237
B2054524747809N11952055WA0120801235
B2054534747809N11952059WA0120701233
B2054544747810N11952063WA0120601232
B2054554747811N11952067WA0120501230
B2054564747812N11952071WA0120301227
B2054574747813N11952076WA0120201224
B2054584747813N11952081WA0119901221
B2054594747814N11952086WA0119801218
B2054594747814N11952086WA0119801218
B2055004747816N11952092WA0119601216
B2055014747817N11952097WA0119401214
B2055024747819N11952103WA0119201213
B2055034747821N11952108WA0119101211
B2055044747823N11952112WA0118801209
B2055054747826N11952117WA0118701208
B2055064747829N11952121WA0118501207
B2055074747833N11952124WA0118401207
B2055084747837N11952127WA0118301207
B2055094747842N11952130WA0118201206
B2055104747847N11952133WA0118001205
B2055114747852N11952136WA0117901204
B2055124747857N11952139WA0117801203
B2055134747862N11952142WA0117701202
B2055144747866N11952145WA0117501201
B2055154747871N11952148WA0117401199
B2055164747874N11952152WA0117301198
B2055174747876N11952155WA0117201198
B2055184747877N11952158WA0117101198
B2055194747878N11952160WA0117101199
B2055204747879N11952163WA0117001199
B2055214747880N11952167WA0116901199
B2055224747882N11952172WA0116901198
B2055234747885N11952178WA0116801196
B2055244747886N11952184WA0116701195
B2055254747888N11952190WA0116601196
B2055264747890N11952194WA0116601198
B2055274747892N11952197WA0116601201
B2055284747896N11952199WA0116701204
B2055294747901N11952201WA0116701204
B2055304747906N11952201WA0116801204
B2055314747912N11952201WA0116801204
B2055324747919N11952198WA0116801203
B2055334747927N11952192WA0116801199
B2055344747935N11952181WA0116701195
B2055354747941N11952166WA0116601190
B2055364747944N11952150WA0116401186
B2055374747945N11952135WA0116301185
B2055384747945N11952123WA0116101185
B2055394747944N11952113WA0116001184
B2055404747942N11952104WA0115901182
B2055414747939N11952097WA0115801180
B2055424747936N11952093WA0115601178
B2055434747934N11952092WA0115501178
B2055444747934N11952093WA0115401178
B2055454747934N11952094WA0115301180
B2055464747935N11952094WA0115301183
B2055474747936N11952094WA0115301185
B2055484747937N11952093WA0115301187
B2055494747940N11952093WA0115301187
B2055504747943N11952095WA0115301186
B2055514747949N11952096WA0115301184
B2055524747958N11952094WA0115201181
B2055534747968N11952089WA0115201179
B2055544747977N11952080WA0115101179
B2055554747985N11952069WA0115101180
B2055564747989N11952056WA0115001179
B2055574747992N11952042WA0115001177
B2055584747992N11952028WA0114801173
B2055594747990N11952017WA0114801171
B2056004747987N11952009WA0114601169
B2056014747984N11952004WA0114501169
B2056024747982N11952002WA0114401169
B2056034747980N11952001WA0114401170
B2056034747980N11952001WA0114401170
B2056044747979N11952000WA0114301170
B2056054747978N11952000WA0114201170
B2056064747976N11952000WA0114201170
B2056074747975N11952001WA0114101170
B2056084747974N11952002WA0114101171
B2056094747972N11952003WA0114101171
B2056104747970N11952003WA0114101172
B2056114747968N11952003WA0114101172
B2056124747966N11952003WA0114101174
B2056134747965N11952004WA0114101174
B2056144747964N11952004WA0114101175
B2056154747962N11952005WA0114101174
B2056164747960N11952006WA0114101172
B2056174747959N11952008WA0114101171
B2056184747958N11952009WA0114001170
B2056194747957N11952012WA0113901167
B2056204747955N11952014WA0113801164
B2056214747953N11952016WA0113701162
B2056224747951N11952018WA0113601162
B2056234747950N11952020WA0113601162
B2056244747949N11952023WA0113501162
B2056254747948N11952025WA0113401162
B2056264747947N11952028WA0113301161
B2056274747947N11952030WA0113301160
B2056284747946N11952032WA0113201159
B2056294747945N11952033WA0113101159
B2056304747945N11952035WA0113001159
B2056314747944N11952037WA0113001158
B2056324747943N11952038WA0112901157
B2056334747942N11952039WA0112801156
B2056344747940N11952041WA0112701155
B2056354747939N11952043WA0112701153
B2056364747938N11952045WA0112601152
B2056374747936N11952047WA0112501152
B2056384747935N11952049WA0112401152
B2056394747934N11952050WA0112401153
B2056404747933N11952051WA0112301153
B2056414747931N11952051WA0112301152
B2056424747929N11952053WA0112201151
B2056434747928N11952054WA0112201151
B2056444747927N11952056WA0112201152
B2056454747925N11952057WA0112201154
B2056464747924N11952057WA0112201156
B2056474747923N11952058WA0112201158
B2056484747923N11952059WA0112201158
B2056494747924N11952061WA0112301159
B2056504747927N11952061WA0112301160
B2056514747931N11952061WA0112401162
B2056524747935N11952059WA0112501163
B2056534747941N11952056WA0112501164
B2056544747948N11952052WA0112601164
B2056554747955N11952045WA0112601164
B2056564747962N11952034WA0112701163
B2056574747968N11952020WA0112701161
B2056584747970N11952003WA0112701160
B2056594747969N11951987WA0112601158
B2057004747965N11951973WA0112601156
B2057014747962N11951964WA0112601157
B2057024747959N11951958WA0112601161
B2057034747957N11951954WA0112701163
B2057044747955N11951951WA0112701164
B2057054747953N11951947WA0112701164
B2057064747951N11951946WA0112701164
B2057074747950N11951946WA0112801164
B2057074747950N11951946WA0112801164
B2057084747951N11951948WA0112801163
B2057094747953N11951950WA0112801162
B2057104747956N11951950WA0112901163
B2057114747960N11951949WA0112901164
B2057124747966N11951946WA0112901164
B2057134747972N11951942WA0112901163
B2057144747980N11951935WA0112901162
B2057154747987N11951924WA0112901161
B2057164747991N11951909WA0112801160
B2057174747992N11951894WA0112801159
B2057184747990N11951881WA0112801157
B2057194747986N11951872WA0112801156
B2057204747983N11951866WA0112701158
B2057214747981N11951863WA0112701160
B2057224747980N11951860WA0112701160
B2057234747979N11951857WA0112701160
B2057244747978N11951856WA0112701159
B2057254747977N11951855WA0112701158
B2057264747977N11951856WA0112601157
B2057274747977N11951856WA0112601158
B2057284747978N11951857WA0112601158
B2057294747979N11951859WA0112601156
B2057304747979N11951862WA0112501155
B2057314747980N11951865WA0112501153
B2057324747980N11951869WA0112401151
B2057334747980N11951871WA0112301151
B2057344747980N11951872WA0112301152
B2057354747980N11951873WA0112201153
B2057364747980N11951874WA0112201153
B2057374747979N11951875WA0112201152
B2057384747977N11951877WA0112101150
B2057394747977N11951879WA0112101149
B2057404747977N11951881WA0112001148
B2057414747977N11951882WA0111901148
B2057424747976N11951883WA0111901147
B2057434747975N11951883WA0111801146
B2057444747974N11951885WA0111701144
B2057454747973N11951888WA0111701142
B2057464747972N11951892WA0111601140
B2057474747972N11951897WA0111501140
B2057484747971N11951898WA0111501142
B2057494747971N11951898WA0111501145
B2057504747970N11951897WA0111501146
B2057514747970N11951896WA0111501146
B2057524747969N11951897WA0111501144
B2057534747968N11951900WA0111401142
B2057544747967N11951902WA0111401141
B2057554747966N11951903WA0111301141
B2057564747964N11951905WA0111301141
B2057574747963N11951906WA0111301141
B2057584747961N11951908WA0111201140
B2057594747959N11951911WA0111101138
B2058004747956N11951914WA0111101136
B2058014747954N11951916WA0111001136
B2058024747952N11951918WA0110901136
B2058034747950N11951919WA0110901135
B2058044747948N11951921WA0110801133
B2058054747946N11951922WA0110701131
B2058064747944N11951924WA0110601129
B2058074747942N11951924WA0110501129
B2058084747940N11951923WA0110301127
B2058094747938N11951922WA0110201126
B2058104747935N11951922WA0110101123
B2058104747935N11951922WA0110101123
B2058114747932N11951922WA0110001120
B2058124747929N11951923WA0109801117
B2058134747926N11951923WA0109601115
B2058144747924N11951923WA0109401115
B2058154747922N11951923WA0109301114
B2058164747920N11951923WA0109201114
B2058174747919N11951922WA0109101112
B2058184747917N11951923WA0108901111
B2058194747914N11951924WA0108801110
B2058204747911N11951926WA0108701108
B2058214747909N11951928WA0108601109
B2058224747906N11951928WA0108501110
B2058234747903N11951928WA0108401111
B2058244747901N11951928WA0108301111
B2058254747898N11951929WA0108301111
B2058264747896N11951932WA0108201109
B2058274747893N11951934WA0108101108
B2058284747891N11951937WA0108101108
B2058294747889N11951940WA0108001109
B2058304747888N11951942WA0108001110
B2058314747887N11951943WA0108001111
B2058324747885N11951945WA0108001111
B2058334747883N11951948WA0108001111
B2058344747882N11951950WA0108001111
B2058354747880N11951953WA0107901110
B2058364747879N11951955WA0107901110
B2058374747878N11951957WA0107901111
B2058384747877N11951959WA0108001112
B2058394747876N11951959WA0108001113
B2058404747875N11951958WA0108001114
B2058414747875N11951959WA0108001112
B2058424747874N11951961WA0108001110
B2058434747872N11951965WA0107901107
B2058444747869N11951968WA0107801106
B2058454747867N11951970WA0107801106
B2058464747866N11951970WA0107801108
B2058474747865N11951970WA0107801110
B2058484747864N11951970WA0107801111
B2058494747863N11951970WA0107801110
B2058504747861N11951973WA0107801108
B2058514747860N11951975WA0107701107
B2058524747859N11951977WA0107701106
B2058534747857N11951978WA0107701106
B2058544747856N11951978WA0107601107
B2058554747855N11951978WA0107601106
B2058564747854N11951979WA0107501103
B2058574747852N11951980WA0107401100
B2058584747851N11951982WA0107301095
B2058594747850N11951984WA0107101093
B2059004747849N11951985WA0107001092
B2059014747849N11951986WA0106801090
B2059024747849N11951987WA0106601087
B2059034747849N11951988WA0106501083
B2059044747848N11951991WA0106201077
B2059054747846N11951994WA0106001073
B2059064747845N11951997WA0105701071
B2059074747844N11951999WA0105501069
B2059084747843N11952002WA0105201067
B2059094747842N11952005WA0105101064
B2059104747841N11952009WA0104801061
B2059114747839N11952013WA0104601058
B2059124747838N11952018WA0104301056
B2059134747836N11952023WA0104201056
B2059134747836N11952023WA0104201056
B2059144747836N11952027WA0104001056
B2059154747835N11952030WA0103801058
B2059164747835N11952033WA0103701057
B2059174747834N11952037WA0103601056
B2059184747832N11952042WA0103501054
B2059194747831N11952048WA0103401054
B2059204747829N11952052WA0103301055
B2059214747828N11952055WA0103301058
B2059224747827N11952055WA0103201061
B2059234747826N11952055WA0103301062
B2059244747825N11952056WA0103201061
B2059254747824N11952058WA0103201060
B2059264747823N11952061WA0103201057
B2059274747821N11952064WA0103101055
B2059284747819N11952066WA0103001055
B2059294747818N11952069WA0102901054
B2059304747817N11952071WA0102901055
B2059314747817N11952074WA0102801055
B2059324747815N11952076WA0102801056
B2059334747813N11952077WA0102801056
B2059344747811N11952078WA0102801055
B2059354747809N11952080WA0102701054
B2059364747807N11952084WA0102701051
B2059374747804N11952088WA0102601050
B2059384747802N11952092WA0102501049
B2059394747801N11952095WA0102501051
B2059404747799N11952097WA0102501053
B2059414747798N11952099WA0102501053
B2059424747796N11952103WA0102401051
B2059434747795N11952108WA0102401049
B2059444747794N11952113WA0102301049
B2059454747793N11952117WA0102301050
B2059464747791N11952120WA0102301051
B2059474747791N11952122WA0102301052
B2059484747790N11952124WA0102301053
B2059494747790N11952127WA0102301052
B2059504747789N11952131WA0102301051
B2059514747788N11952135WA0102201050
B2059524747789N11952140WA0102201050
B2059534747788N11952144WA0102201051
B2059544747787N11952147WA0102201051
B2059554747785N11952150WA0102201052
B2059564747783N11952153WA0102301053
B2059574747783N11952156WA0102301054
B2059584747782N11952158WA0102301054
B2059594747782N11952160WA0102301054
B2100004747780N11952163WA0102401053
B2100014747779N11952166WA0102401052
B2100024747779N11952171WA0102301051
B2100034747778N11952175WA0102301051
B2100044747778N11952178WA0102301052
B2100054747778N11952179WA0102301053
B2100064747778N11952180WA0102401054
B2100074747779N11952181WA0102401054
B2100084747779N11952182WA0102401052
B2100094747780N11952183WA0102301050
B2100104747780N11952185WA0102301048
B2100114747781N11952188WA0102201045
B2100124747782N11952190WA0102101043
B2100134747783N11952193WA0102001041
B2100144747784N11952197WA0101901039
B2100154747785N11952200WA0101801036
B2100154747785N11952200WA0101801036
B2100164747785N11952203WA0101601035
B2100174747785N11952205WA0101501034
B2100184747786N11952207WA0101301032
B2100194747787N11952209WA0101201029
B2100204747788N11952212WA0101001025
B2100214747789N11952215WA0100801022
B2100224747790N11952219WA0100601019
B2100234747790N11952223WA0100401016
B2100244747791N11952227WA0100101014
B2100254747791N11952232WA0100001012
B2100264747791N11952236WA0099701010
B2100274747791N11952240WA0099601009
B2100284747791N11952244WA0099401008
B2100294747791N11952248WA0099201007
B2100304747791N11952252WA0099001006
B2100314747790N11952256WA0098901006
B2100324747790N11952259WA0098801006
B2100334747791N11952263WA0098701006
B2100344747791N11952266WA0098601005
B2100354747790N11952269WA0098501003
B2100364747790N11952273WA0098301000
B2100374747789N11952278WA0098200998
B2100384747787N11952283WA0098000996
B2100394747786N11952288WA0097900994
B2100404747785N11952292WA0097700993
B2100414747784N11952296WA0097600992
B2100424747783N11952300WA0097400992
B2100434747782N11952304WA0097300991
B2100444747781N11952309WA0097200989
B2100454747780N11952313WA0097100988
B2100464747780N11952317WA0096900988
B2100474747780N11952321WA0096800986
B2100484747780N11952326WA0096700984
B2100494747779N11952331WA0096600982
B2100504747779N11952337WA0096400980
B2100514747778N11952342WA0096300978
B2100524747779N11952347WA0096200978
B2100534747781N11952351WA0096100978
B2100544747782N11952355WA0095900978
B2100554747783N11952359WA0095900976
B2100564747784N11952363WA0095700974
B2100574747785N11952368WA0095600972
B2100584747786N11952372WA0095500971
B2100594747787N11952377WA0095400969
B2101004747788N11952382WA0095200968
B2101014747789N11952387WA0095100967
B2101024747789N11952390WA0095000966
B2101034747790N11952393WA0094900965
B2101044747791N11952396WA0094700963
B2101054747793N11952400WA0094600961
B2101064747794N11952404WA0094400958
B2101074747795N11952409WA0094300957
B2101084747795N11952413WA0094100956
B2101094747795N11952417WA0094000956
B2101104747794N11952420WA0093900956
B2101114747793N11952423WA0093800957
B2101124747792N11952426WA0093700957
B2101134747792N11952429WA0093700957
B2101144747791N11952434WA0093600956
B2101154747790N11952438WA0093600956
B2101164747789N11952442WA0093600957
B2101174747787N11952446WA0093500957
B2101184747786N11952450WA0093500958
B2101194747785N11952455WA0093500958
B2101194747785N11952455WA0093500958
B2101204747784N11952459WA0093500958
B2101214747784N11952464WA0093500959
B2101224747784N11952469WA0093500959
B2101234747783N11952473WA0093500960
B2101244747782N11952477WA0093500961
B2101254747780N11952480WA0093600961
B2101264747778N11952484WA0093600961
B2101274747777N11952486WA0093600961
B2101284747776N11952489WA0093600962
B2101294747776N11952491WA0093600961
B2101304747776N11952495WA0093600961
B2101314747775N11952500WA0093600959
B2101324747774N11952504WA0093600959
B2101334747773N11952506WA0093600961
B2101344747771N11952507WA0093600962
B2101354747770N11952508WA0093700963
B2101364747768N11952508WA0093700962
B2101374747764N11952509WA0093700960
B2101384747760N11952511WA0093600958
B2101394747757N11952512WA0093600957
B2101404747756N11952514WA0093600957
B2101414747756N11952516WA0093500957
B2101424747757N11952518WA0093500957
B2101434747758N11952520WA0093500957
B2101444747761N11952523WA0093400955
B2101454747763N11952527WA0093400954
B2101464747766N11952530WA0093300953
B2101474747768N11952533WA0093300954
B2101484747770N11952535WA0093300954
B2101494747771N11952537WA0093200954
B2101504747771N11952540WA0093200953
B2101514747772N11952544WA0093200951
B2101524747772N11952548WA0093100950
B2101534747773N11952552WA0093000950
B2101544747774N11952555WA0093000950
B2101554747775N11952557WA0093000951
B2101564747776N11952559WA0092900951
B2101574747779N11952560WA0092900950
B2101584747781N11952562WA0092900949
B2101594747784N11952564WA0092800948
B2102004747786N11952566WA0092800948
B2102014747787N11952568WA0092800947
B2102024747788N11952569WA0092700946
B2102034747788N11952572WA0092700945
B2102044747789N11952575WA0092600943
B2102054747789N11952578WA0092500941
B2102064747788N11952581WA0092400940
B2102074747786N11952583WA0092300939
B2102084747785N11952585WA0092200939
B2102094747783N11952587WA0092200939
B2102104747781N11952589WA0092100939
B2102114747779N11952590WA0092100938
B2102124747776N11952591WA0092000938
B2102134747773N11952592WA0092000938
B2102144747769N11952592WA0091900936
B2102154747765N11952593WA0091800935
B2102164747761N11952593WA0091700934
B2102174747757N11952594WA0091700933
B2102184747754N11952596WA0091600932
B2102194747750N11952596WA0091500932
B2102204747747N11952597WA0091400933
B2102214747744N11952597WA0091400933
B2102224747740N11952597WA0091400933
B2102234747737N11952597WA0091400934
B2102234747737N11952597WA0091400934
B2102244747734N11952596WA0091400936
B2102254747732N11952594WA0091400938
B2102264747730N11952592WA0091400938
B2102274747729N11952592WA0091400937
B2102284747729N11952594WA0091400935
B2102294747728N11952597WA0091400932
B2102304747726N11952599WA0091300931
B2102314747723N11952600WA0091200929
B2102324747721N11952599WA0091100929
B2102334747719N11952599WA0091100927
B2102344747718N11952600WA0091000925
B2102354747716N11952601WA0090900923
B2102364747714N11952602WA0090700920
B2102374747712N11952603WA0090600918
B2102384747710N11952604WA0090400916
B2102394747709N11952605WA0090200914
B2102404747707N11952607WA0090000912
B2102414747706N11952609WA0089900910
B2102424747704N11952611WA0089600908
B2102434747704N11952613WA0089500906
B2102444747703N11952616WA0089300904
B2102454747703N11952619WA0089100902
B2102464747702N11952622WA0088900901
B2102474747702N11952624WA0088800900
B2102484747701N11952626WA0088700899
B2102494747701N11952627WA0088600898
B2102504747701N11952628WA0088500898
B2102514747700N11952629WA0088400898
B2102524747700N11952629WA0088300898
B2102534747699N11952630WA0088300898
B2102544747699N11952631WA0088200898
B2102554747699N11952632WA0088100898
B2102564747699N11952633WA0088100899
B2102574747699N11952633WA0088000898
B2102584747698N11952634WA0088000898
B2102594747698N11952634WA0088000899
B2103004747698N11952635WA0087900899
B2103014747697N11952635WA0087900899
B2103024747697N11952635WA0087900899
B2103034747697N11952634WA0087900899
B2103044747697N11952634WA0087900899
B2103054747697N11952634WA0087900899
B2103064747698N11952635WA0087900899
B2103074747698N11952635WA0087900899
B2103084747698N11952635WA0087900899
B2103094747698N11952634WA0087800899
B2103104747698N11952634WA0087900899
B2103114747698N11952635WA0087800899
B2103124747698N11952634WA0087800899
B2103134747698N11952634WA0087800899
B2103144747698N11952634WA0087800899
B2103154747698N11952634WA0087800899
B2103164747698N11952634WA0087800899
B2103174747698N11952634WA0087800898
B2103184747698N11952633WA0087800899
B2103194747698N11952633WA0087800899
B2103204747698N11952632WA0087800899
B2103214747698N11952631WA0087800899
B2103224747699N11952631WA0087800899
B2103234747699N11952630WA0087800899
B2103244747699N11952630WA0087800899
B2103254747699N11952630WA0087800899
B2103264747699N11952630WA0087800899
