AXFMSFP Flymaster Live, V1.0
HFFXA010
HFPLTPILOT:Tom Swanson
HFGTYGLIDERTYPE:Bogdanfly V1 / Ozone Photon
HFGIDGLIDERID:
HFDTM100GPSDATUM:WGS-1984
HFCIDCOMPETITIONID:68
HFCCLCOMPETITIONCLASS:
HOSITSITE:LAUNCH
HFGPS:UBLOXNEO6
HFPRSPRESSALTSENSOR:NA
HFRFWFIRMWAREVERSION:202g
HFRHWHARDWAREVERSION:1.0R2
HFFTYFRTYPE:FLYMASTER,LIVE
HFDTE160625
B2026364748240N12002355WA0109701124
B2026374748240N12002355WA0109701123
B2026384748240N12002355WA0109701123
B2026394748240N12002355WA0109701123
B2026404748240N12002355WA0109701123
B2026414748240N12002355WA0109701124
B2026424748240N12002355WA0109701124
B2026434748240N12002355WA0109701124
B2026444748240N12002355WA0109701124
B2026454748240N12002355WA0109701123
B2026464748240N12002355WA0109701124
B2026474748240N12002355WA0109701124
B2026484748240N12002355WA0109701124
B2026494748240N12002355WA0109701124
B2026504748240N12002354WA0109701124
B2026514748240N12002354WA0109701124
B2026524748240N12002354WA0109701124
B2026534748240N12002355WA0109701124
B2026544748240N12002355WA0109701124
B2026554748240N12002355WA0109701124
B2026564748239N12002355WA0109701124
B2026574748239N12002355WA0109701124
B2026584748239N12002355WA0109701125
B2026594748240N12002354WA0109701125
B2027004748241N12002355WA0109701125
B2027014748241N12002356WA0109701125
B2027024748241N12002357WA0109701125
B2027034748241N12002358WA0109701125
B2027044748241N12002361WA0109701125
B2027054748242N12002365WA0109701124
B2027064748242N12002368WA0109601125
B2027074748243N12002370WA0109601125
B2027084748243N12002373WA0109601124
B2027094748243N12002376WA0109601124
B2027104748242N12002379WA0109601123
B2027114748241N12002381WA0109501122
B2027124748241N12002383WA0109501122
B2027134748240N12002385WA0109501121
B2027144748239N12002387WA0109501120
B2027154748238N12002390WA0109401119
B2027164748237N12002392WA0109401119
B2027174748236N12002394WA0109401119
B2027184748236N12002396WA0109401119
B2027194748235N12002398WA0109301119
B2027204748235N12002401WA0109301119
B2027214748234N12002403WA0109301119
B2027224748233N12002406WA0109301118
B2027234748232N12002409WA0109301118
B2027244748232N12002412WA0109201118
B2027254748231N12002415WA0109201118
B2027264748231N12002419WA0109201117
B2027274748230N12002422WA0109201116
B2027284748229N12002425WA0109101116
B2027294748227N12002428WA0109101116
B2027304748226N12002431WA0109101116
B2027314748225N12002433WA0109101116
B2027324748224N12002436WA0109101117
B2027334748223N12002438WA0109101118
B2027344748222N12002441WA0109201118
B2027354748220N12002442WA0109201119
B2027364748219N12002444WA0109201119
B2027374748217N12002445WA0109201119
B2027384748215N12002446WA0109301120
B2027394748214N12002447WA0109301121
B2027394748214N12002447WA0109301121
B2027404748213N12002449WA0109301122
B2027414748211N12002450WA0109401123
B2027424748210N12002451WA0109401124
B2027434748208N12002450WA0109501124
B2027444748206N12002448WA0109501123
B2027454748203N12002445WA0109501122
B2027464748200N12002444WA0109501122
B2027474748198N12002444WA0109501122
B2027484748197N12002447WA0109501121
B2027494748197N12002451WA0109501122
B2027504748197N12002455WA0109501122
B2027514748197N12002458WA0109601122
B2027524748196N12002460WA0109601122
B2027534748195N12002463WA0109601121
B2027544748193N12002466WA0109601120
B2027554748192N12002469WA0109601119
B2027564748191N12002473WA0109601119
B2027574748190N12002475WA0109601119
B2027584748189N12002477WA0109501119
B2027594748187N12002479WA0109501118
B2028004748185N12002481WA0109501116
B2028014748184N12002483WA0109501116
B2028024748183N12002486WA0109401117
B2028034748182N12002489WA0109401118
B2028044748182N12002491WA0109501119
B2028054748181N12002492WA0109501119
B2028064748179N12002493WA0109501119
B2028074748177N12002493WA0109501119
B2028084748176N12002495WA0109501119
B2028094748175N12002496WA0109501118
B2028104748174N12002498WA0109501117
B2028114748173N12002501WA0109401117
B2028124748170N12002502WA0109401117
B2028134748168N12002503WA0109401117
B2028144748165N12002504WA0109401118
B2028154748163N12002505WA0109401118
B2028164748161N12002507WA0109401119
B2028174748160N12002508WA0109501122
B2028184748158N12002508WA0109501125
B2028194748156N12002507WA0109601125
B2028204748152N12002506WA0109701125
B2028214748149N12002506WA0109701124
B2028224748145N12002507WA0109701124
B2028234748141N12002506WA0109701125
B2028244748138N12002506WA0109801126
B2028254748135N12002506WA0109801128
B2028264748134N12002508WA0109901131
B2028274748134N12002511WA0110001132
B2028284748134N12002516WA0110101132
B2028294748134N12002521WA0110101132
B2028304748135N12002526WA0110201133
B2028314748135N12002529WA0110301134
B2028324748134N12002532WA0110401135
B2028334748134N12002535WA0110401135
B2028344748134N12002540WA0110501135
B2028354748134N12002544WA0110601136
B2028364748133N12002546WA0110701139
B2028374748131N12002546WA0110801142
B2028384748129N12002545WA0110901145
B2028394748126N12002545WA0111101148
B2028404748125N12002546WA0111301150
B2028414748123N12002548WA0111401152
B2028424748123N12002551WA0111601154
B2028434748125N12002555WA0111701155
B2028434748125N12002555WA0111701155
B2028444748129N12002558WA0111901157
B2028454748134N12002561WA0112001159
B2028464748139N12002561WA0112301163
B2028474748144N12002561WA0112401166
B2028484748149N12002560WA0112701170
B2028494748155N12002557WA0112901173
B2028504748160N12002552WA0113201175
B2028514748166N12002546WA0113401178
B2028524748172N12002539WA0113701180
B2028534748176N12002530WA0113901184
B2028544748178N12002520WA0114201187
B2028554748179N12002510WA0114401190
B2028564748178N12002501WA0114701193
B2028574748175N12002494WA0114901195
B2028584748172N12002488WA0115201197
B2028594748169N12002483WA0115401199
B2029004748167N12002480WA0115701202
B2029014748164N12002479WA0115901205
B2029024748163N12002480WA0116101207
B2029034748162N12002483WA0116301210
B2029044748163N12002486WA0116701214
B2029054748165N12002488WA0116901217
B2029064748169N12002489WA0117201220
B2029074748174N12002490WA0117401222
B2029084748180N12002489WA0117701225
B2029094748187N12002486WA0118001228
B2029104748193N12002480WA0118301231
B2029114748199N12002472WA0118501234
B2029124748204N12002463WA0118801237
B2029134748208N12002453WA0119101240
B2029144748210N12002444WA0119401244
B2029154748210N12002434WA0119601247
B2029164748210N12002425WA0120001249
B2029174748209N12002416WA0120201250
B2029184748207N12002407WA0120401250
B2029194748204N12002400WA0120601253
B2029204748201N12002395WA0120801255
B2029214748197N12002393WA0121001257
B2029224748194N12002392WA0121301260
B2029234748192N12002392WA0121501262
B2029244748190N12002394WA0121701264
B2029254748190N12002397WA0121901265
B2029264748190N12002402WA0122101266
B2029274748190N12002406WA0122301268
B2029284748189N12002411WA0122501269
B2029294748188N12002416WA0122701271
B2029304748186N12002420WA0122901274
B2029314748186N12002425WA0123101277
B2029324748187N12002428WA0123301282
B2029334748190N12002431WA0123501285
B2029344748192N12002435WA0123801288
B2029354748195N12002440WA0124001290
B2029364748196N12002445WA0124301292
B2029374748197N12002448WA0124501296
B2029384748197N12002450WA0124801299
B2029394748197N12002451WA0125001302
B2029404748199N12002453WA0125301305
B2029414748202N12002456WA0125501306
B2029424748207N12002459WA0125801307
B2029434748212N12002460WA0125901309
B2029444748217N12002459WA0126201311
B2029454748223N12002456WA0126401313
B2029464748229N12002452WA0126601313
B2029464748229N12002452WA0126601313
B2029474748235N12002448WA0126801315
B2029484748241N12002442WA0127001317
B2029494748246N12002435WA0127101319
B2029504748250N12002426WA0127401321
B2029514748253N12002416WA0127501323
B2029524748255N12002406WA0127701324
B2029534748255N12002395WA0127901326
B2029544748254N12002385WA0128101327
B2029554748253N12002376WA0128201331
B2029564748252N12002369WA0128501334
B2029574748250N12002363WA0128601336
B2029584748247N12002358WA0128801338
B2029594748245N12002354WA0129001340
B2030004748243N12002351WA0129301345
B2030014748241N12002348WA0129501350
B2030024748240N12002347WA0129801355
B2030034748238N12002347WA0130001358
B2030044748236N12002347WA0130401361
B2030054748235N12002348WA0130601365
B2030064748234N12002349WA0131001368
B2030074748234N12002351WA0131201371
B2030084748236N12002354WA0131601374
B2030094748237N12002358WA0131801376
B2030104748239N12002362WA0132101379
B2030114748241N12002366WA0132301382
B2030124748245N12002368WA0132701385
B2030134748249N12002370WA0132901387
B2030144748253N12002371WA0133201389
B2030154748258N12002371WA0133401390
B2030164748264N12002371WA0133601390
B2030174748270N12002368WA0133801391
B2030184748277N12002364WA0134001391
B2030194748284N12002358WA0134101391
B2030204748290N12002350WA0134301392
B2030214748296N12002341WA0134401393
B2030224748300N12002332WA0134601395
B2030234748302N12002323WA0134701397
B2030244748305N12002314WA0134901398
B2030254748308N12002305WA0135001399
B2030264748309N12002295WA0135101401
B2030274748310N12002286WA0135201403
B2030284748309N12002279WA0135401404
B2030294748307N12002272WA0135601406
B2030304748305N12002267WA0135801408
B2030314748302N12002262WA0135901411
B2030324748299N12002258WA0136101414
B2030334748297N12002256WA0136301417
B2030344748294N12002254WA0136601421
B2030354748292N12002253WA0136801424
B2030364748290N12002255WA0137001427
B2030374748289N12002257WA0137201430
B2030384748288N12002260WA0137501433
B2030394748288N12002263WA0137701435
B2030404748290N12002266WA0138001437
B2030414748294N12002269WA0138201439
B2030424748298N12002272WA0138501441
B2030434748303N12002274WA0138701442
B2030444748308N12002275WA0138901443
B2030454748314N12002275WA0139101444
B2030464748320N12002274WA0139301445
B2030474748326N12002271WA0139401445
B2030484748333N12002268WA0139501444
B2030494748340N12002262WA0139601444
B2030494748340N12002262WA0139601444
B2030504748346N12002254WA0139701445
B2030514748351N12002244WA0139801445
B2030524748354N12002233WA0139901445
B2030534748356N12002222WA0140001445
B2030544748356N12002212WA0140001445
B2030554748355N12002203WA0140101446
B2030564748353N12002196WA0140201446
B2030574748350N12002190WA0140201447
B2030584748347N12002186WA0140301448
B2030594748344N12002182WA0140401450
B2031004748342N12002178WA0140501453
B2031014748341N12002175WA0140701456
B2031024748340N12002173WA0140801459
B2031034748339N12002173WA0141001462
B2031044748337N12002174WA0141201463
B2031054748336N12002175WA0141301465
B2031064748335N12002176WA0141501468
B2031074748336N12002177WA0141701470
B2031084748337N12002179WA0141901473
B2031094748340N12002182WA0142001474
B2031104748342N12002185WA0142201475
B2031114748344N12002188WA0142401477
B2031124748344N12002191WA0142601479
B2031134748344N12002193WA0142701479
B2031144748343N12002194WA0142801478
B2031154748341N12002196WA0142901478
B2031164748339N12002197WA0143001478
B2031174748337N12002196WA0143101479
B2031184748337N12002195WA0143201481
B2031194748337N12002194WA0143301481
B2031204748337N12002194WA0143401480
B2031214748336N12002194WA0143401478
B2031224748336N12002196WA0143401475
B2031234748335N12002197WA0143401473
B2031244748334N12002199WA0143401472
B2031254748335N12002200WA0143301472
B2031264748336N12002202WA0143301471
B2031274748338N12002205WA0143301470
B2031284748341N12002209WA0143201468
B2031294748343N12002211WA0143101467
B2031304748344N12002213WA0143101467
B2031314748344N12002214WA0143001466
B2031324748343N12002215WA0142901464
B2031334748342N12002216WA0142801462
B2031344748340N12002215WA0142701460
B2031354748337N12002211WA0142601458
B2031364748334N12002205WA0142401456
B2031374748332N12002196WA0142301453
B2031384748331N12002188WA0142201452
B2031394748329N12002180WA0142101452
B2031404748328N12002173WA0142001452
B2031414748326N12002166WA0141901452
B2031424748324N12002159WA0141801450
B2031434748322N12002152WA0141701449
B2031444748320N12002144WA0141601449
B2031454748319N12002137WA0141501449
B2031464748317N12002129WA0141501449
B2031474748316N12002121WA0141401449
B2031484748314N12002113WA0141301448
B2031494748313N12002104WA0141301447
B2031504748312N12002095WA0141201447
B2031514748311N12002086WA0141201447
B2031524748309N12002078WA0141101446
B2031524748309N12002078WA0141101446
B2031534748307N12002071WA0141001445
B2031544748305N12002067WA0141001445
B2031554748302N12002064WA0141001445
B2031564748300N12002062WA0141001447
B2031574748297N12002060WA0141001448
B2031584748295N12002058WA0141001450
B2031594748293N12002055WA0141001452
B2032004748291N12002053WA0141101454
B2032014748288N12002052WA0141201456
B2032024748287N12002053WA0141301457
B2032034748286N12002054WA0141401457
B2032044748284N12002056WA0141401457
B2032054748283N12002057WA0141501457
B2032064748281N12002056WA0141501459
B2032074748278N12002054WA0141601459
B2032084748276N12002050WA0141701460
B2032094748274N12002045WA0141701461
B2032104748272N12002039WA0141801462
B2032114748270N12002032WA0141901463
B2032124748269N12002025WA0142001463
B2032134748267N12002020WA0142001463
B2032144748265N12002016WA0142101463
B2032154748262N12002013WA0142101462
B2032164748260N12002012WA0142101460
B2032174748257N12002013WA0142101459
B2032184748256N12002014WA0142001458
B2032194748257N12002016WA0142001458
B2032204748259N12002018WA0142001458
B2032214748263N12002019WA0142001457
B2032224748267N12002019WA0141901455
B2032234748272N12002019WA0141901454
B2032244748278N12002017WA0141801453
B2032254748284N12002014WA0141701453
B2032264748290N12002009WA0141701452
B2032274748296N12002004WA0141601453
B2032284748302N12001997WA0141601453
B2032294748307N12001989WA0141601453
B2032304748313N12001980WA0141601452
B2032314748318N12001970WA0141501452
B2032324748324N12001960WA0141501451
B2032334748328N12001949WA0141501451
B2032344748332N12001937WA0141501452
B2032354748336N12001926WA0141401452
B2032364748339N12001914WA0141501453
B2032374748340N12001901WA0141501454
B2032384748341N12001888WA0141501454
B2032394748341N12001876WA0141501455
B2032404748339N12001866WA0141501456
B2032414748335N12001858WA0141601457
B2032424748331N12001852WA0141601458
B2032434748328N12001848WA0141701460
B2032444748325N12001847WA0141801463
B2032454748323N12001847WA0141901465
B2032464748322N12001848WA0142001466
B2032474748321N12001849WA0142101468
B2032484748321N12001850WA0142201471
B2032494748322N12001850WA0142301473
B2032504748324N12001851WA0142501475
B2032514748326N12001851WA0142601476
B2032524748329N12001852WA0142801476
B2032534748334N12001852WA0142801476
B2032544748339N12001851WA0142901476
B2032554748344N12001848WA0143001476
B2032554748344N12001848WA0143001476
B2032564748350N12001843WA0143101475
B2032574748356N12001836WA0143101474
B2032584748362N12001828WA0143201474
B2032594748367N12001819WA0143201475
B2033004748372N12001808WA0143301475
B2033014748376N12001798WA0143401476
B2033024748380N12001787WA0143401477
B2033034748384N12001777WA0143501477
B2033044748387N12001765WA0143501476
B2033054748390N12001753WA0143501474
B2033064748393N12001739WA0143501472
B2033074748395N12001726WA0143501470
B2033084748396N12001713WA0143401469
B2033094748397N12001701WA0143301468
B2033104748397N12001689WA0143301467
B2033114748397N12001677WA0143201467
B2033124748397N12001664WA0143201466
B2033134748396N12001652WA0143101466
B2033144748397N12001639WA0143101466
B2033154748397N12001628WA0143001466
B2033164748397N12001617WA0143001466
B2033174748398N12001607WA0142901465
B2033184748398N12001596WA0142901464
B2033194748398N12001585WA0142801463
B2033204748398N12001574WA0142701461
B2033214748398N12001563WA0142601459
B2033224748399N12001552WA0142501458
B2033234748398N12001543WA0142501457
B2033244748397N12001535WA0142301456
B2033254748394N12001527WA0142201453
B2033264748391N12001521WA0142101450
B2033274748388N12001515WA0141901449
B2033284748386N12001509WA0141801448
B2033294748384N12001504WA0141701447
B2033304748382N12001497WA0141501446
B2033314748380N12001488WA0141401443
B2033324748379N12001478WA0141201440
B2033334748380N12001467WA0141101437
B2033344748381N12001457WA0140901435
B2033354748383N12001446WA0140701434
B2033364748384N12001436WA0140501432
B2033374748386N12001425WA0140401429
B2033384748388N12001415WA0140201427
B2033394748389N12001405WA0140001425
B2033404748391N12001395WA0139801424
B2033414748392N12001385WA0139701423
B2033424748394N12001376WA0139501422
B2033434748395N12001366WA0139401421
B2033444748397N12001356WA0139301420
B2033454748398N12001346WA0139201419
B2033464748400N12001335WA0139001419
B2033474748401N12001325WA0138901419
B2033484748403N12001316WA0138801419
B2033494748405N12001307WA0138801418
B2033504748406N12001297WA0138601417
B2033514748405N12001288WA0138601414
B2033524748404N12001279WA0138401412
B2033534748402N12001272WA0138301411
B2033544748401N12001265WA0138201410
B2033554748399N12001260WA0138101409
B2033564748396N12001255WA0137901407
B2033574748394N12001252WA0137801405
B2033584748391N12001249WA0137601404
B2033594748389N12001247WA0137501402
B2033594748389N12001247WA0137501402
B2034004748386N12001244WA0137401401
B2034014748383N12001242WA0137301400
B2034024748381N12001240WA0137101399
B2034034748379N12001237WA0137001397
B2034044748376N12001235WA0136801396
B2034054748374N12001233WA0136701393
B2034064748371N12001230WA0136501391
B2034074748368N12001227WA0136401388
B2034084748366N12001223WA0136201385
B2034094748364N12001221WA0136001383
B2034104748361N12001220WA0135801380
B2034114748359N12001220WA0135601377
B2034124748356N12001221WA0135401375
B2034134748355N12001222WA0135201374
B2034144748353N12001221WA0135001373
B2034154748353N12001221WA0134801372
B2034164748352N12001222WA0134601369
B2034174748351N12001224WA0134501366
B2034184748350N12001227WA0134201364
B2034194748349N12001230WA0134101362
B2034204748348N12001233WA0133801360
B2034214748347N12001236WA0133701358
B2034224748347N12001239WA0133501356
B2034234748345N12001241WA0133301354
B2034244748344N12001244WA0133101351
B2034254748343N12001247WA0132901349
B2034264748342N12001249WA0132701348
B2034274748342N12001252WA0132601347
B2034284748341N12001254WA0132401345
B2034294748340N12001257WA0132201343
B2034304748338N12001259WA0132001341
B2034314748336N12001260WA0131801338
B2034324748334N12001261WA0131601336
B2034334748332N12001261WA0131401334
B2034344748329N12001259WA0131201332
B2034354748326N12001256WA0131001330
B2034364748324N12001251WA0130801328
B2034374748321N12001246WA0130601328
B2034384748320N12001241WA0130501328
B2034394748319N12001236WA0130401328
B2034404748317N12001230WA0130201326
B2034414748315N12001223WA0130101324
B2034424748313N12001216WA0129901322
B2034434748311N12001207WA0129801321
B2034444748310N12001199WA0129601320
B2034454748309N12001190WA0129501319
B2034464748307N12001182WA0129301318
B2034474748306N12001175WA0129201317
B2034484748305N12001167WA0129101315
B2034494748303N12001160WA0128901314
B2034504748301N12001154WA0128801312
B2034514748298N12001149WA0128701310
B2034524748295N12001147WA0128501308
B2034534748293N12001146WA0128401307
B2034544748291N12001146WA0128201305
B2034554748289N12001146WA0128101305
B2034564748287N12001146WA0127901304
B2034574748286N12001148WA0127801302
B2034584748284N12001149WA0127601300
B2034594748282N12001151WA0127501298
B2035004748281N12001153WA0127301296
B2035014748280N12001155WA0127201295
B2035024748279N12001156WA0127101295
B2035034748278N12001156WA0127001294
B2035034748278N12001156WA0127001294
B2035044748277N12001157WA0126801294
B2035054748275N12001158WA0126801294
B2035064748275N12001159WA0126701294
B2035074748274N12001160WA0126601294
B2035084748273N12001161WA0126501294
B2035094748273N12001162WA0126501293
B2035104748273N12001163WA0126401293
B2035114748272N12001164WA0126301293
B2035124748272N12001165WA0126301293
B2035134748271N12001166WA0126201292
B2035144748270N12001167WA0126201290
B2035154748269N12001169WA0126101288
B2035164748268N12001171WA0126001287
B2035174748267N12001173WA0125901287
B2035184748268N12001175WA0125901288
B2035194748269N12001176WA0125801288
B2035204748271N12001177WA0125801288
B2035214748273N12001179WA0125801287
B2035224748274N12001181WA0125701287
B2035234748274N12001183WA0125701285
B2035244748274N12001184WA0125601284
B2035254748273N12001186WA0125601283
B2035264748272N12001187WA0125501283
B2035274748271N12001187WA0125501283
B2035284748270N12001186WA0125401283
B2035294748269N12001186WA0125401282
B2035304748267N12001185WA0125301281
B2035314748265N12001185WA0125301279
B2035324748262N12001185WA0125201279
B2035334748261N12001185WA0125101278
B2035344748259N12001184WA0125001277
B2035354748256N12001182WA0125001275
B2035364748254N12001178WA0124901274
B2035374748250N12001171WA0124801273
B2035384748248N12001161WA0124701271
B2035394748247N12001150WA0124601270
B2035404748246N12001139WA0124501270
B2035414748247N12001127WA0124401270
B2035424748249N12001114WA0124301269
B2035434748252N12001102WA0124301269
B2035444748257N12001089WA0124201269
B2035454748263N12001078WA0124101268
B2035464748269N12001069WA0124101267
B2035474748276N12001061WA0124001267
B2035484748283N12001053WA0123901266
B2035494748289N12001046WA0123901266
B2035504748296N12001040WA0123801265
B2035514748303N12001034WA0123801264
B2035524748310N12001030WA0123701264
B2035534748317N12001026WA0123601263
B2035544748324N12001022WA0123601262
B2035554748330N12001018WA0123501262
B2035564748337N12001015WA0123401261
B2035574748344N12001013WA0123401260
B2035584748350N12001012WA0123301259
B2035594748357N12001011WA0123201257
B2036004748364N12001010WA0123101256
B2036014748371N12001009WA0123001256
B2036024748377N12001008WA0122901255
B2036034748384N12001007WA0122901256
B2036044748389N12001005WA0122801257
B2036054748394N12001004WA0122801257
B2036054748394N12001004WA0122801257
B2036064748399N12001003WA0122801256
B2036074748405N12001002WA0122701255
B2036084748410N12001002WA0122701254
B2036094748416N12001001WA0122601252
B2036104748422N12001000WA0122501252
B2036114748427N12000998WA0122501251
B2036124748433N12000997WA0122401250
B2036134748438N12000996WA0122301248
B2036144748444N12000995WA0122201246
B2036154748450N12000995WA0122101244
B2036164748456N12000995WA0122001242
B2036174748461N12000996WA0121801240
B2036184748467N12000997WA0121701238
B2036194748472N12000997WA0121601237
B2036204748477N12000996WA0121401236
B2036214748483N12000995WA0121301234
B2036224748488N12000993WA0121101231
B2036234748494N12000992WA0121001228
B2036244748501N12000991WA0120801225
B2036254748508N12000991WA0120601222
B2036264748514N12000990WA0120401220
B2036274748520N12000989WA0120201217
B2036284748527N12000989WA0119901215
B2036294748534N12000989WA0119801212
B2036304748541N12000989WA0119501210
B2036314748547N12000989WA0119301208
B2036324748554N12000989WA0119101207
B2036334748560N12000989WA0118901205
B2036344748565N12000989WA0118701204
B2036354748570N12000989WA0118601203
B2036364748575N12000990WA0118301201
B2036374748580N12000990WA0118201200
B2036384748586N12000989WA0118001198
B2036394748592N12000987WA0117901197
B2036404748598N12000984WA0117701197
B2036414748603N12000982WA0117601198
B2036424748607N12000980WA0117501200
B2036434748610N12000979WA0117501202
B2036444748613N12000977WA0117401203
B2036454748617N12000976WA0117401204
B2036464748621N12000977WA0117401205
B2036474748624N12000980WA0117401206
B2036484748626N12000984WA0117401206
B2036494748625N12000989WA0117401206
B2036504748623N12000991WA0117401207
B2036514748619N12000993WA0117401207
B2036524748615N12000992WA0117501207
B2036534748612N12000990WA0117501208
B2036544748610N12000985WA0117501208
B2036554748607N12000979WA0117501208
B2036564748605N12000972WA0117501206
B2036574748603N12000963WA0117501205
B2036584748603N12000953WA0117401203
B2036594748603N12000944WA0117401202
B2037004748605N12000934WA0117301202
B2037014748607N12000925WA0117301200
B2037024748610N12000915WA0117201198
B2037034748612N12000904WA0117101196
B2037044748614N12000893WA0117001194
B2037054748615N12000882WA0116901193
B2037064748615N12000871WA0116801192
B2037074748615N12000861WA0116701191
B2037084748614N12000852WA0116601190
B2037094748614N12000842WA0116501188
B2037094748614N12000842WA0116501188
B2037104748613N12000833WA0116401186
B2037114748613N12000823WA0116301184
B2037124748612N12000812WA0116101182
B2037134748612N12000802WA0116001180
B2037144748612N12000793WA0115801179
B2037154748612N12000784WA0115701177
B2037164748610N12000776WA0115501174
B2037174748609N12000769WA0115401171
B2037184748606N12000761WA0115101167
B2037194748604N12000753WA0115001164
B2037204748601N12000745WA0114701162
B2037214748600N12000737WA0114501160
B2037224748599N12000730WA0114301159
B2037234748598N12000723WA0114201157
B2037244748597N12000716WA0113901155
B2037254748595N12000708WA0113701152
B2037264748593N12000700WA0113501148
B2037274748591N12000692WA0113301145
B2037284748588N12000684WA0113001143
B2037294748587N12000676WA0112801141
B2037304748585N12000668WA0112601140
B2037314748583N12000660WA0112401139
B2037324748582N12000652WA0112201138
B2037334748580N12000645WA0112101137
B2037344748578N12000638WA0111901135
B2037354748576N12000631WA0111701133
B2037364748572N12000623WA0111501131
B2037374748569N12000616WA0111301129
B2037384748567N12000610WA0111201130
B2037394748564N12000604WA0111001130
B2037404748563N12000598WA0110901130
B2037414748561N12000591WA0110801129
B2037424748558N12000584WA0110701128
B2037434748556N12000577WA0110601127
B2037444748553N12000570WA0110501126
B2037454748550N12000563WA0110401127
B2037464748547N12000556WA0110301126
B2037474748544N12000548WA0110301126
B2037484748542N12000540WA0110201125
B2037494748539N12000532WA0110101124
B2037504748536N12000523WA0110001122
B2037514748533N12000514WA0109901121
B2037524748530N12000506WA0109801120
B2037534748527N12000498WA0109701118
B2037544748524N12000490WA0109601117
B2037554748520N12000483WA0109501115
B2037564748517N12000475WA0109401113
B2037574748514N12000468WA0109301112
B2037584748511N12000460WA0109101110
B2037594748507N12000452WA0109001108
B2038004748504N12000445WA0108801105
B2038014748500N12000437WA0108701103
B2038024748496N12000431WA0108501101
B2038034748492N12000425WA0108401098
B2038044748488N12000420WA0108101097
B2038054748485N12000414WA0108001095
B2038064748482N12000409WA0107801092
B2038074748478N12000405WA0107701090
B2038084748474N12000402WA0107401087
B2038094748470N12000399WA0107301085
B2038104748466N12000396WA0107001082
B2038114748462N12000393WA0106901080
B2038124748457N12000390WA0106601077
B2038124748457N12000390WA0106601077
B2038134748453N12000388WA0106501074
B2038144748448N12000386WA0106201072
B2038154748444N12000383WA0106101071
B2038164748440N12000380WA0105801069
B2038174748437N12000376WA0105701067
B2038184748433N12000373WA0105401064
B2038194748429N12000371WA0105301061
B2038204748425N12000369WA0105001058
B2038214748421N12000367WA0104801056
B2038224748418N12000364WA0104501055
B2038234748414N12000360WA0104401053
B2038244748410N12000356WA0104101050
B2038254748406N12000352WA0103901047
B2038264748401N12000348WA0103601044
B2038274748398N12000345WA0103501042
B2038284748394N12000342WA0103201041
B2038294748391N12000338WA0103001039
B2038304748388N12000334WA0102801036
B2038314748384N12000331WA0102601033
B2038324748380N12000329WA0102301030
B2038334748377N12000328WA0102101029
B2038344748374N12000327WA0101901027
B2038354748371N12000327WA0101701026
B2038364748368N12000326WA0101501025
B2038374748365N12000324WA0101401024
B2038384748361N12000322WA0101201023
B2038394748358N12000321WA0101101022
B2038404748354N12000319WA0100901020
B2038414748350N12000317WA0100801020
B2038424748346N12000314WA0100601019
B2038434748342N12000311WA0100501019
B2038444748340N12000308WA0100401020
B2038454748338N12000305WA0100301021
B2038464748337N12000303WA0100201020
B2038474748334N12000300WA0100201019
B2038484748331N12000297WA0100001015
B2038494748327N12000295WA0099901012
B2038504748324N12000291WA0099801011
B2038514748321N12000288WA0099701010
B2038524748318N12000284WA0099501009
B2038534748315N12000281WA0099401007
B2038544748312N12000278WA0099201006
B2038554748309N12000276WA0099101004
B2038564748306N12000274WA0099001003
B2038574748303N12000273WA0098801001
B2038584748300N12000271WA0098700999
B2038594748297N12000270WA0098500997
B2039004748294N12000268WA0098300994
B2039014748291N12000267WA0098200991
B2039024748287N12000266WA0097900988
B2039034748284N12000265WA0097700985
B2039044748281N12000263WA0097500982
B2039054748277N12000260WA0097300979
B2039064748274N12000257WA0097000977
B2039074748271N12000255WA0096900977
B2039084748268N12000253WA0096700978
B2039094748266N12000251WA0096600978
B2039104748264N12000249WA0096400978
B2039114748261N12000249WA0096300978
B2039124748258N12000249WA0096200977
B2039134748254N12000250WA0096100976
B2039144748251N12000250WA0096000975
B2039154748249N12000250WA0095900975
B2039154748249N12000250WA0095900975
B2039164748247N12000249WA0095800975
B2039174748247N12000247WA0095800975
B2039184748246N12000246WA0095700973
B2039194748244N12000244WA0095600971
B2039204748242N12000241WA0095400967
B2039214748239N12000237WA0095300964
B2039224748236N12000231WA0095100962
B2039234748234N12000225WA0095000961
B2039244748232N12000220WA0094800959
B2039254748230N12000214WA0094700957
B2039264748227N12000209WA0094500955
B2039274748224N12000203WA0094300952
B2039284748221N12000198WA0094100949
B2039294748217N12000192WA0093900946
B2039304748214N12000186WA0093600943
B2039314748210N12000181WA0093500940
B2039324748207N12000175WA0093200938
B2039334748203N12000169WA0093000935
B2039344748199N12000162WA0092700933
B2039354748196N12000156WA0092600930
B2039364748193N12000150WA0092300928
B2039374748189N12000145WA0092100926
B2039384748185N12000141WA0091900923
B2039394748181N12000136WA0091700920
B2039404748177N12000130WA0091400917
B2039414748173N12000123WA0091200915
B2039424748170N12000117WA0090900914
B2039434748167N12000111WA0090700912
B2039444748165N12000105WA0090500909
B2039454748162N12000099WA0090300906
B2039464748159N12000092WA0090000903
B2039474748156N12000085WA0089800900
B2039484748153N12000078WA0089500897
B2039494748150N12000072WA0089300895
B2039504748147N12000065WA0089000892
B2039514748144N12000059WA0088800889
B2039524748141N12000053WA0088500887
B2039534748138N12000046WA0088300886
B2039544748136N12000040WA0088100884
B2039554748134N12000032WA0087900881
B2039564748132N12000025WA0087600878
B2039574748130N12000017WA0087400875
B2039584748127N12000010WA0087100871
B2039594748124N12000003WA0086900869
B2040004748121N11959997WA0086600867
B2040014748118N11959990WA0086400865
B2040024748116N11959983WA0086100863
B2040034748113N11959976WA0085900860
B2040044748110N11959969WA0085600857
B2040054748107N11959962WA0085400854
B2040064748104N11959955WA0085200853
B2040074748101N11959947WA0085000851
B2040084748099N11959940WA0084700850
B2040094748096N11959933WA0084600847
B2040104748092N11959926WA0084300843
B2040114748089N11959919WA0084100840
B2040124748085N11959911WA0083800838
B2040134748082N11959903WA0083600836
B2040144748080N11959895WA0083300835
B2040154748077N11959886WA0083200833
B2040164748074N11959877WA0082900832
B2040174748071N11959868WA0082800830
B2040184748067N11959859WA0082500828
B2040184748067N11959859WA0082500828
B2040194748064N11959850WA0082400826
B2040204748061N11959841WA0082200826
B2040214748059N11959833WA0082000826
B2040224748056N11959825WA0081900825
B2040234748054N11959817WA0081800824
B2040244748051N11959809WA0081600822
B2040254748047N11959800WA0081500820
B2040264748044N11959792WA0081300820
B2040274748041N11959784WA0081200819
B2040284748039N11959777WA0081100819
B2040294748036N11959769WA0081000818
B2040304748033N11959760WA0080900816
B2040314748030N11959751WA0080800815
B2040324748027N11959742WA0080600813
B2040334748023N11959734WA0080500812
B2040344748021N11959725WA0080400811
B2040354748018N11959716WA0080300810
B2040364748016N11959706WA0080200810
B2040374748014N11959697WA0080100811
B2040384748012N11959689WA0080100811
B2040394748010N11959680WA0080000811
B2040404748008N11959671WA0080000810
B2040414748006N11959662WA0079900809
B2040424748004N11959652WA0079800807
B2040434748002N11959642WA0079800807
B2040444748000N11959633WA0079700807
B2040454747998N11959625WA0079600807
B2040464747997N11959616WA0079600806
B2040474747995N11959607WA0079500805
B2040484747993N11959598WA0079500804
B2040494747990N11959590WA0079400804
B2040504747988N11959581WA0079300803
B2040514747986N11959573WA0079300803
B2040524747984N11959564WA0079200802
B2040534747982N11959555WA0079200801
B2040544747979N11959546WA0079100800
B2040554747977N11959537WA0079000799
B2040564747974N11959528WA0078900799
B2040574747972N11959519WA0078900798
B2040584747970N11959510WA0078800797
B2040594747967N11959499WA0078700796
B2041004747965N11959488WA0078600794
B2041014747962N11959478WA0078600793
B2041024747959N11959468WA0078500794
B2041034747957N11959459WA0078400794
B2041044747955N11959449WA0078400794
B2041054747953N11959440WA0078300793
B2041064747950N11959431WA0078200791
B2041074747947N11959422WA0078200788
B2041084747944N11959412WA0078000786
B2041094747941N11959403WA0077900784
B2041104747938N11959393WA0077700782
B2041114747935N11959384WA0077600779
B2041124747932N11959374WA0077400777
B2041134747929N11959365WA0077300775
B2041144747927N11959356WA0077200775
B2041154747925N11959346WA0077100774
B2041164747924N11959337WA0076900773
B2041174747922N11959328WA0076800772
B2041184747919N11959319WA0076600769
B2041194747916N11959310WA0076500767
B2041204747913N11959301WA0076300764
B2041214747910N11959291WA0076200762
B2041214747910N11959291WA0076200762
B2041224747907N11959281WA0076000761
B2041234747905N11959272WA0075900759
B2041244747902N11959262WA0075700757
B2041254747899N11959253WA0075500754
B2041264747896N11959244WA0075300751
B2041274747892N11959234WA0075100747
B2041284747889N11959224WA0074800743
B2041294747886N11959213WA0074600739
B2041304747882N11959202WA0074300736
B2041314747878N11959192WA0074100733
B2041324747875N11959182WA0073800731
B2041334747872N11959172WA0073600729
B2041344747869N11959163WA0073400729
B2041354747866N11959153WA0073200728
B2041364747863N11959144WA0073000726
B2041374747860N11959133WA0072800724
B2041384747857N11959123WA0072600722
B2041394747854N11959113WA0072400720
B2041404747851N11959103WA0072200719
B2041414747848N11959093WA0072100718
B2041424747846N11959083WA0071900716
B2041434747843N11959072WA0071700714
B2041444747840N11959061WA0071500711
B2041454747837N11959049WA0071300708
B2041464747833N11959038WA0071100706
B2041474747830N11959027WA0070900705
B2041484747828N11959018WA0070700704
B2041494747825N11959008WA0070600703
B2041504747822N11958998WA0070400700
B2041514747818N11958987WA0070200697
B2041524747815N11958976WA0070000694
B2041534747812N11958964WA0069800692
B2041544747809N11958954WA0069600691
B2041554747806N11958944WA0069500690
B2041564747803N11958934WA0069200688
B2041574747800N11958923WA0069100685
B2041584747797N11958912WA0068900683
B2041594747793N11958901WA0068700681
B2042004747790N11958890WA0068500681
B2042014747788N11958879WA0068400681
B2042024747786N11958869WA0068300681
B2042034747783N11958858WA0068200681
B2042044747780N11958848WA0068000681
B2042054747777N11958838WA0068000681
B2042064747775N11958827WA0067900681
B2042074747774N11958817WA0067900681
B2042084747771N11958807WA0067800681
B2042094747768N11958797WA0067700679
B2042104747765N11958787WA0067600678
B2042114747762N11958776WA0067600677
B2042124747759N11958764WA0067500676
B2042134747757N11958754WA0067400678
B2042144747755N11958744WA0067400679
B2042154747753N11958734WA0067400681
B2042164747751N11958725WA0067400682
B2042174747750N11958717WA0067400683
B2042184747748N11958709WA0067500684
B2042194747745N11958701WA0067500683
B2042204747742N11958692WA0067500683
B2042214747739N11958682WA0067500683
B2042224747737N11958672WA0067500682
B2042234747736N11958661WA0067500683
B2042244747735N11958650WA0067600684
B2042244747735N11958650WA0067600684
B2042254747733N11958640WA0067600685
B2042264747732N11958630WA0067600686
B2042274747730N11958620WA0067700686
B2042284747729N11958609WA0067700686
B2042294747728N11958599WA0067700686
B2042304747727N11958588WA0067800686
B2042314747728N11958578WA0067800685
B2042324747728N11958567WA0067800685
B2042334747729N11958557WA0067800685
B2042344747729N11958546WA0067800686
B2042354747730N11958535WA0067900687
B2042364747731N11958525WA0067900688
B2042374747732N11958517WA0068000689
B2042384747732N11958509WA0068000691
B2042394747731N11958501WA0068100691
B2042404747728N11958493WA0068100690
B2042414747725N11958487WA0068200691
B2042424747722N11958481WA0068200692
B2042434747720N11958477WA0068300695
B2042444747717N11958474WA0068400698
B2042454747715N11958471WA0068500700
B2042464747711N11958468WA0068600701
B2042474747707N11958462WA0068700702
B2042484747704N11958454WA0068800704
B2042494747705N11958444WA0069000707
B2042504747707N11958435WA0069200710
B2042514747710N11958427WA0069300712
B2042524747715N11958421WA0069500713
B2042534747719N11958416WA0069600715
B2042544747724N11958412WA0069800717
B2042554747730N11958410WA0069900719
B2042564747735N11958410WA0070100720
B2042574747740N11958412WA0070200722
B2042584747744N11958414WA0070400725
B2042594747747N11958417WA0070600726
B2043004747748N11958421WA0070800727
B2043014747748N11958426WA0070900727
B2043024747747N11958430WA0071000728
B2043034747745N11958432WA0071200731
B2043044747743N11958432WA0071400734
B2043054747741N11958429WA0071500735
B2043064747737N11958425WA0071700737
B2043074747733N11958421WA0071800739
B2043084747730N11958417WA0072100742
B2043094747728N11958412WA0072200746
B2043104747726N11958405WA0072500750
B2043114747725N11958398WA0072700752
B2043124747724N11958389WA0072900755
B2043134747723N11958381WA0073100757
B2043144747725N11958372WA0073400759
B2043154747727N11958365WA0073500760
B2043164747732N11958358WA0073800761
B2043174747736N11958354WA0073900763
B2043184747740N11958352WA0074100765
B2043194747743N11958351WA0074300766
B2043204747746N11958353WA0074500767
B2043214747749N11958357WA0074600768
B2043224747751N11958362WA0074800769
B2043234747751N11958367WA0074900770
B2043244747750N11958370WA0075100772
B2043254747748N11958373WA0075200775
B2043264747745N11958374WA0075400777
B2043274747741N11958373WA0075600780
B2043274747741N11958373WA0075600780
B2043284747738N11958370WA0075800783
B2043294747734N11958364WA0076000784
B2043304747731N11958357WA0076200785
B2043314747728N11958349WA0076300786
B2043324747726N11958340WA0076500788
B2043334747724N11958330WA0076700790
B2043344747723N11958320WA0076900792
B2043354747724N11958311WA0077000793
B2043364747726N11958302WA0077200794
B2043374747728N11958293WA0077300794
B2043384747731N11958284WA0077500795
B2043394747735N11958277WA0077600796
B2043404747740N11958271WA0077700797
B2043414747745N11958266WA0077800798
B2043424747751N11958264WA0078000799
B2043434747756N11958263WA0078000800
B2043444747761N11958265WA0078200802
B2043454747765N11958268WA0078300804
B2043464747768N11958271WA0078400805
B2043474747769N11958275WA0078500807
B2043484747769N11958279WA0078700811
B2043494747768N11958281WA0078900814
B2043504747765N11958281WA0079100816
B2043514747761N11958282WA0079200817
B2043524747757N11958282WA0079400818
B2043534747753N11958281WA0079500820
B2043544747749N11958278WA0079700822
B2043554747745N11958273WA0079800823
B2043564747741N11958266WA0080000823
B2043574747737N11958259WA0080100824
B2043584747734N11958251WA0080300826
B2043594747732N11958242WA0080400828
B2044004747732N11958233WA0080500829
B2044014747732N11958223WA0080600829
B2044024747732N11958213WA0080700829
B2044034747733N11958202WA0080800829
B2044044747735N11958192WA0080900830
B2044054747737N11958182WA0081000830
B2044064747740N11958173WA0081100830
B2044074747743N11958165WA0081100830
B2044084747748N11958159WA0081200830
B2044094747753N11958154WA0081200830
B2044104747759N11958150WA0081300831
B2044114747764N11958145WA0081300832
B2044124747770N11958141WA0081400833
B2044134747775N11958136WA0081500835
B2044144747781N11958133WA0081600836
B2044154747786N11958132WA0081600838
B2044164747791N11958133WA0081800840
B2044174747796N11958135WA0081900842
B2044184747799N11958138WA0082000844
B2044194747801N11958142WA0082200847
B2044204747802N11958146WA0082400849
B2044214747801N11958150WA0082500852
B2044224747799N11958152WA0082700854
B2044234747795N11958152WA0082800856
B2044244747792N11958151WA0083100858
B2044254747789N11958147WA0083200862
B2044264747787N11958140WA0083500864
B2044274747785N11958133WA0083600866
B2044284747784N11958125WA0083900868
B2044294747784N11958115WA0084000869
B2044304747785N11958105WA0084200871
B2044304747785N11958105WA0084200871
B2044314747787N11958095WA0084400872
B2044324747790N11958085WA0084600874
B2044334747794N11958077WA0084700877
B2044344747799N11958071WA0085000879
B2044354747804N11958066WA0085100882
B2044364747810N11958062WA0085400884
B2044374747816N11958059WA0085500887
B2044384747821N11958058WA0085800890
B2044394747826N11958059WA0086000893
B2044404747829N11958061WA0086200895
B2044414747832N11958064WA0086400897
B2044424747834N11958067WA0086700900
B2044434747836N11958070WA0086900902
B2044444747836N11958075WA0087100903
B2044454747835N11958079WA0087300904
B2044464747832N11958083WA0087500904
B2044474747830N11958085WA0087600906
B2044484747826N11958086WA0087800909
B2044494747823N11958085WA0088000913
B2044504747820N11958083WA0088300916
B2044514747817N11958080WA0088500920
B2044524747814N11958076WA0088800922
B2044534747811N11958072WA0089000925
B2044544747808N11958065WA0089200926
B2044554747806N11958058WA0089400928
B2044564747804N11958050WA0089700930
B2044574747803N11958041WA0089800932
B2044584747803N11958032WA0090100934
B2044594747804N11958023WA0090300936
B2045004747806N11958013WA0090500937
B2045014747808N11958004WA0090600939
B2045024747812N11957995WA0090800940
B2045034747816N11957987WA0091000942
B2045044747821N11957981WA0091200943
B2045054747826N11957975WA0091300945
B2045064747832N11957971WA0091600947
B2045074747838N11957968WA0091700950
B2045084747844N11957967WA0091900951
B2045094747848N11957968WA0092100953
B2045104747852N11957971WA0092300955
B2045114747855N11957976WA0092400956
B2045124747857N11957981WA0092600958
B2045134747858N11957984WA0092800961
B2045144747858N11957987WA0093000964
B2045154747858N11957990WA0093100965
B2045164747857N11957994WA0093300966
B2045174747856N11957998WA0093500966
B2045184747854N11958002WA0093600967
B2045194747852N11958004WA0093800970
B2045204747850N11958005WA0094000973
B2045214747847N11958005WA0094100975
B2045224747844N11958004WA0094400977
B2045234747840N11958002WA0094500979
B2045244747838N11957998WA0094700981
B2045254747835N11957991WA0094900982
B2045264747834N11957983WA0095100983
B2045274747833N11957973WA0095200984
B2045284747834N11957963WA0095400986
B2045294747836N11957953WA0095500988
B2045304747840N11957944WA0095700990
B2045314747845N11957938WA0095900993
B2045324747850N11957933WA0096100995
B2045324747850N11957933WA0096100995
B2045334747856N11957930WA0096200998
B2045344747861N11957929WA0096501000
B2045354747866N11957929WA0096601003
B2045364747870N11957933WA0096901005
B2045374747872N11957937WA0097001006
B2045384747873N11957941WA0097301007
B2045394747873N11957945WA0097401009
B2045404747872N11957948WA0097601010
B2045414747870N11957951WA0097701011
B2045424747868N11957953WA0097901013
B2045434747865N11957952WA0098101016
B2045444747862N11957949WA0098301019
B2045454747859N11957944WA0098501021
B2045464747856N11957938WA0098701023
B2045474747854N11957930WA0098901025
B2045484747853N11957920WA0099101026
B2045494747853N11957910WA0099301028
B2045504747854N11957900WA0099501030
B2045514747856N11957891WA0099601032
B2045524747859N11957882WA0099801034
B2045534747863N11957873WA0100001036
B2045544747869N11957866WA0100201037
B2045554747874N11957860WA0100401039
B2045564747880N11957856WA0100601042
B2045574747885N11957854WA0100801045
B2045584747889N11957854WA0101001047
B2045594747894N11957855WA0101201048
B2046004747899N11957858WA0101401049
B2046014747904N11957861WA0101501049
B2046024747908N11957865WA0101701051
B2046034747911N11957868WA0101801053
B2046044747914N11957872WA0102001054
B2046054747915N11957877WA0102101055
B2046064747915N11957883WA0102301055
B2046074747914N11957888WA0102301055
B2046084747912N11957892WA0102501056
B2046094747910N11957895WA0102601057
B2046104747907N11957897WA0102701058
B2046114747904N11957898WA0102801060
B2046124747900N11957898WA0103001062
B2046134747896N11957896WA0103101064
B2046144747892N11957892WA0103201066
B2046154747889N11957887WA0103401068
B2046164747886N11957880WA0103501070
B2046174747884N11957873WA0103701072
B2046184747883N11957865WA0103901074
B2046194747883N11957856WA0104001077
B2046204747884N11957847WA0104201080
B2046214747887N11957838WA0104401081
B2046224747889N11957828WA0104601082
B2046234747893N11957818WA0104701083
B2046244747896N11957808WA0104901084
B2046254747900N11957799WA0105001086
B2046264747904N11957790WA0105201089
B2046274747909N11957784WA0105401093
B2046284747914N11957780WA0105701096
B2046294747919N11957778WA0105801097
B2046304747925N11957776WA0106001098
B2046314747931N11957775WA0106201098
B2046324747937N11957775WA0106401099
B2046334747942N11957776WA0106501100
B2046344747946N11957779WA0106601100
B2046344747946N11957779WA0106601100
B2046354747950N11957783WA0106701101
B2046364747953N11957786WA0106901103
B2046374747956N11957790WA0107001105
B2046384747957N11957794WA0107101106
B2046394747959N11957797WA0107201107
B2046404747960N11957802WA0107401108
B2046414747961N11957806WA0107501109
B2046424747961N11957810WA0107601111
B2046434747961N11957813WA0107801113
B2046444747960N11957816WA0107901115
B2046454747959N11957818WA0108001117
B2046464747957N11957822WA0108201117
B2046474747955N11957824WA0108301118
B2046484747952N11957827WA0108401119
B2046494747949N11957828WA0108501121
B2046504747946N11957829WA0108701123
B2046514747942N11957828WA0108801125
B2046524747939N11957828WA0109001127
B2046534747935N11957825WA0109101128
B2046544747931N11957822WA0109201129
B2046554747927N11957818WA0109301129
B2046564747923N11957812WA0109501130
B2046574747919N11957807WA0109601132
B2046584747916N11957800WA0109701134
B2046594747914N11957793WA0109801136
B2047004747912N11957785WA0110001138
B2047014747910N11957775WA0110101139
B2047024747909N11957766WA0110301140
B2047034747908N11957756WA0110401141
B2047044747908N11957747WA0110601143
B2047054747908N11957738WA0110701144
B2047064747909N11957728WA0110801145
B2047074747911N11957718WA0110901146
B2047084747915N11957709WA0111101148
B2047094747920N11957701WA0111201149
B2047104747925N11957693WA0111301150
B2047114747931N11957688WA0111501152
B2047124747936N11957684WA0111601155
B2047134747941N11957682WA0111701157
B2047144747946N11957680WA0111901157
B2047154747952N11957680WA0112001157
B2047164747958N11957680WA0112201158
B2047174747963N11957680WA0112301161
B2047184747967N11957681WA0112501164
B2047194747970N11957683WA0112601167
B2047204747972N11957685WA0112801169
B2047214747973N11957689WA0112901171
B2047224747974N11957692WA0113101172
B2047234747973N11957695WA0113301173
B2047244747972N11957698WA0113401175
B2047254747969N11957698WA0113601177
B2047264747966N11957697WA0113801178
B2047274747963N11957695WA0113901180
B2047284747959N11957690WA0114101181
B2047294747956N11957683WA0114201183
B2047304747954N11957675WA0114401185
B2047314747953N11957666WA0114501187
B2047324747954N11957658WA0114701189
B2047334747955N11957649WA0114901190
B2047344747958N11957640WA0115101192
B2047354747962N11957632WA0115201193
B2047364747967N11957625WA0115401194
B2047374747972N11957620WA0115501195
B2047374747972N11957620WA0115501195
B2047384747977N11957616WA0115701197
B2047394747982N11957613WA0115801198
B2047404747988N11957612WA0115901199
B2047414747993N11957614WA0116001200
B2047424747997N11957616WA0116201201
B2047434748001N11957619WA0116301204
B2047444748003N11957621WA0116501206
B2047454748005N11957624WA0116601209
B2047464748006N11957627WA0116801210
B2047474748007N11957631WA0116901210
B2047484748006N11957635WA0117101211
B2047494748005N11957639WA0117201213
B2047504748003N11957642WA0117401215
B2047514748001N11957643WA0117501217
B2047524747998N11957644WA0117701219
B2047534747994N11957644WA0117801221
B2047544747990N11957642WA0118001222
B2047554747985N11957639WA0118101223
B2047564747982N11957633WA0118201225
B2047574747979N11957626WA0118401227
B2047584747977N11957618WA0118501228
B2047594747975N11957609WA0118701229
B2048004747974N11957600WA0118801230
B2048014747974N11957590WA0118901232
B2048024747975N11957580WA0119101234
B2048034747977N11957570WA0119201236
B2048044747981N11957561WA0119401238
B2048054747985N11957554WA0119601240
B2048064747990N11957547WA0119701242
B2048074747995N11957542WA0119901243
B2048084748001N11957539WA0120101245
B2048094748006N11957537WA0120201246
B2048104748012N11957537WA0120401248
B2048114748016N11957540WA0120501249
B2048124748020N11957543WA0120701251
B2048134748023N11957547WA0120801253
B2048144748024N11957550WA0121001255
B2048154748025N11957553WA0121101257
B2048164748025N11957556WA0121301259
B2048174748025N11957559WA0121501260
B2048184748024N11957562WA0121701262
B2048194748022N11957564WA0121801262
B2048204748019N11957566WA0121901264
B2048214748016N11957567WA0122101265
B2048224748012N11957566WA0122201266
B2048234748009N11957565WA0122401268
B2048244748005N11957563WA0122501270
B2048254748001N11957560WA0122701271
B2048264747997N11957555WA0122801271
B2048274747993N11957548WA0122901272
B2048284747990N11957541WA0123001272
B2048294747987N11957533WA0123101274
B2048304747985N11957524WA0123301276
B2048314747984N11957515WA0123401278
B2048324747984N11957505WA0123601279
B2048334747984N11957495WA0123701280
B2048344747985N11957484WA0123801281
B2048354747988N11957474WA0123901282
B2048364747990N11957464WA0124001284
B2048374747994N11957456WA0124201286
B2048384747998N11957449WA0124301288
B2048394748003N11957443WA0124401289
B2048404748008N11957438WA0124601290
B2048404748008N11957438WA0124601290
B2048414748014N11957433WA0124701291
B2048424748020N11957431WA0124801292
B2048434748026N11957429WA0124901294
B2048444748031N11957430WA0125101295
B2048454748035N11957431WA0125201297
B2048464748039N11957434WA0125401298
B2048474748042N11957437WA0125501298
B2048484748045N11957441WA0125601299
B2048494748048N11957445WA0125701301
B2048504748049N11957448WA0125801302
B2048514748049N11957451WA0125901304
B2048524748048N11957455WA0126101305
B2048534748046N11957459WA0126201306
B2048544748044N11957462WA0126401307
B2048554748041N11957464WA0126501309
B2048564748038N11957465WA0126601311
B2048574748034N11957465WA0126701312
B2048584748030N11957463WA0126901313
B2048594748026N11957460WA0127001315
B2049004748022N11957456WA0127201316
B2049014748018N11957450WA0127301316
B2049024748015N11957443WA0127401317
B2049034748012N11957436WA0127501318
B2049044748010N11957428WA0127601318
B2049054748009N11957419WA0127701319
B2049064748008N11957409WA0127801319
B2049074748009N11957399WA0127801320
B2049084748010N11957390WA0127901321
B2049094748012N11957380WA0128001322
B2049104748014N11957371WA0128101323
B2049114748018N11957363WA0128201324
B2049124748022N11957356WA0128301325
B2049134748027N11957349WA0128301325
B2049144748032N11957344WA0128401326
B2049154748038N11957341WA0128501327
B2049164748044N11957340WA0128601328
B2049174748049N11957340WA0128701330
B2049184748053N11957341WA0128801331
B2049194748056N11957343WA0128901332
B2049204748059N11957347WA0129001333
B2049214748060N11957352WA0129101334
B2049224748060N11957357WA0129201335
B2049234748060N11957361WA0129301337
B2049244748058N11957364WA0129401338
B2049254748056N11957366WA0129501339
B2049264748052N11957367WA0129601340
B2049274748049N11957367WA0129701340
B2049284748045N11957365WA0129801341
B2049294748041N11957362WA0129901341
B2049304748037N11957356WA0130001341
B2049314748034N11957350WA0130001341
B2049324748032N11957343WA0130101341
B2049334748030N11957335WA0130101341
B2049344748028N11957328WA0130101340
B2049354748027N11957320WA0130101339
B2049364748027N11957310WA0130101338
B2049374748028N11957299WA0130101337
B2049384748029N11957288WA0130101336
B2049394748032N11957277WA0130101337
B2049404748034N11957268WA0130101339
B2049414748037N11957260WA0130101340
B2049424748041N11957252WA0130101340
B2049434748046N11957245WA0130101340
B2049434748046N11957245WA0130101340
B2049444748051N11957238WA0130201340
B2049454748056N11957234WA0130201340
B2049464748062N11957231WA0130201341
B2049474748067N11957228WA0130201342
B2049484748072N11957227WA0130301344
B2049494748077N11957227WA0130301345
B2049504748081N11957229WA0130401346
B2049514748085N11957233WA0130501347
B2049524748087N11957237WA0130501348
B2049534748089N11957241WA0130601349
B2049544748090N11957245WA0130701350
B2049554748091N11957249WA0130701350
B2049564748091N11957253WA0130801351
B2049574748089N11957257WA0130801350
B2049584748086N11957260WA0130901349
B2049594748084N11957262WA0130901350
B2050004748081N11957262WA0131001351
B2050014748078N11957261WA0131001352
B2050024748074N11957258WA0131101352
B2050034748070N11957254WA0131101352
B2050044748067N11957249WA0131101351
B2050054748063N11957242WA0131201350
B2050064748060N11957236WA0131201351
B2050074748058N11957230WA0131201351
B2050084748057N11957223WA0131201351
B2050094748056N11957217WA0131201350
B2050104748055N11957209WA0131201348
B2050114748053N11957201WA0131101346
B2050124748051N11957192WA0131001345
B2050134748050N11957184WA0131001344
B2050144748050N11957175WA0130901343
B2050154748049N11957166WA0130901342
B2050164748049N11957156WA0130801340
B2050174748050N11957146WA0130701338
B2050184748050N11957135WA0130601336
B2050194748051N11957124WA0130501335
B2050204748052N11957114WA0130401335
B2050214748054N11957105WA0130301335
B2050224748056N11957095WA0130301335
B2050234748058N11957086WA0130201334
B2050244748061N11957076WA0130101333
B2050254748064N11957067WA0130001332
B2050264748068N11957058WA0130001333
B2050274748071N11957051WA0130001334
B2050284748075N11957043WA0130001335
B2050294748079N11957036WA0130001336
B2050304748084N11957028WA0130001336
B2050314748090N11957021WA0130001337
B2050324748094N11957016WA0130101340
B2050334748098N11957013WA0130101344
B2050344748101N11957011WA0130301346
B2050354748105N11957009WA0130301346
B2050364748110N11957009WA0130401345
B2050374748114N11957009WA0130501346
B2050384748118N11957011WA0130601349
B2050394748120N11957014WA0130701351
B2050404748121N11957018WA0130801351
B2050414748120N11957022WA0130901351
B2050424748118N11957025WA0131001351
B2050434748116N11957026WA0131001351
B2050444748113N11957026WA0131101351
B2050454748109N11957023WA0131101351
B2050464748105N11957019WA0131201350
B2050464748105N11957019WA0131201350
B2050474748101N11957014WA0131201349
B2050484748097N11957006WA0131201348
B2050494748095N11956998WA0131201347
B2050504748093N11956988WA0131101345
B2050514748092N11956977WA0131101344
B2050524748093N11956967WA0131001343
B2050534748094N11956956WA0131001343
B2050544748096N11956945WA0130901343
B2050554748098N11956934WA0130901343
B2050564748100N11956923WA0130901344
B2050574748102N11956914WA0130901346
B2050584748104N11956905WA0130901348
B2050594748106N11956895WA0131001348
B2051004748108N11956885WA0131001349
B2051014748111N11956875WA0131001349
B2051024748114N11956866WA0131001349
B2051034748118N11956858WA0131001348
B2051044748123N11956851WA0131101348
B2051054748129N11956845WA0131101348
B2051064748134N11956840WA0131101348
B2051074748138N11956835WA0131101350
B2051084748142N11956831WA0131101350
B2051094748147N11956828WA0131101348
B2051104748152N11956827WA0131101345
B2051114748158N11956826WA0131001344
B2051124748162N11956826WA0131001344
B2051134748167N11956825WA0131001344
B2051144748171N11956825WA0130901344
B2051154748175N11956825WA0130901344
B2051164748180N11956826WA0130901343
B2051174748184N11956828WA0130801342
B2051184748189N11956829WA0130801341
B2051194748193N11956830WA0130701340
B2051204748198N11956832WA0130701340
B2051214748202N11956833WA0130601340
B2051224748206N11956834WA0130601340
B2051234748209N11956837WA0130601340
B2051244748213N11956839WA0130501340
B2051254748216N11956840WA0130501340
B2051264748220N11956841WA0130501341
B2051274748223N11956843WA0130501341
B2051284748225N11956844WA0130501342
B2051294748227N11956847WA0130501342
B2051304748229N11956850WA0130501341
B2051314748230N11956853WA0130501342
B2051324748232N11956856WA0130501342
B2051334748233N11956860WA0130501342
B2051344748234N11956864WA0130501344
B2051354748234N11956867WA0130501345
B2051364748234N11956870WA0130601347
B2051374748234N11956874WA0130601348
B2051384748235N11956877WA0130701349
B2051394748236N11956881WA0130801349
B2051404748237N11956885WA0130901351
B2051414748237N11956888WA0131001354
B2051424748238N11956892WA0131101357
B2051434748238N11956896WA0131201359
B2051444748237N11956900WA0131401362
B2051454748234N11956904WA0131501364
B2051464748231N11956906WA0131701366
B2051474748227N11956906WA0131901369
B2051484748223N11956905WA0132101372
B2051484748223N11956905WA0132101372
B2051494748220N11956903WA0132301374
B2051504748216N11956899WA0132501376
B2051514748213N11956895WA0132601376
B2051524748210N11956889WA0132801377
B2051534748208N11956882WA0132901377
B2051544748207N11956874WA0133101377
B2051554748207N11956866WA0133201377
B2051564748207N11956858WA0133301377
B2051574748207N11956848WA0133301376
B2051584748207N11956838WA0133401375
B2051594748207N11956827WA0133401374
B2052004748208N11956816WA0133501374
B2052014748209N11956806WA0133501375
B2052024748212N11956796WA0133501377
B2052034748214N11956787WA0133601379
B2052044748218N11956779WA0133701381
B2052054748223N11956772WA0133801383
B2052064748228N11956766WA0134001385
B2052074748232N11956761WA0134101388
B2052084748236N11956758WA0134301391
B2052094748240N11956756WA0134401392
B2052104748244N11956756WA0134501392
B2052114748249N11956756WA0134601392
B2052124748253N11956758WA0134701393
B2052134748256N11956760WA0134801395
B2052144748259N11956762WA0135001398
B2052154748262N11956764WA0135101400
B2052164748266N11956765WA0135301402
B2052174748269N11956768WA0135401404
B2052184748273N11956770WA0135601405
B2052194748277N11956773WA0135701407
B2052204748281N11956776WA0135901409
B2052214748284N11956780WA0136001411
B2052224748286N11956785WA0136201414
B2052234748287N11956791WA0136401416
B2052244748288N11956796WA0136601418
B2052254748288N11956802WA0136701419
B2052264748288N11956807WA0136901420
B2052274748287N11956811WA0137001422
B2052284748285N11956815WA0137201422
B2052294748282N11956818WA0137301421
B2052304748278N11956819WA0137401421
B2052314748275N11956818WA0137501421
B2052324748273N11956816WA0137601420
B2052334748270N11956812WA0137601419
B2052344748268N11956808WA0137601416
B2052354748265N11956803WA0137501412
B2052364748262N11956798WA0137401408
B2052374748260N11956790WA0137301405
B2052384748258N11956781WA0137201402
B2052394748257N11956771WA0137001398
B2052404748256N11956760WA0136801394
B2052414748255N11956748WA0136701390
B2052424748254N11956736WA0136401385
B2052434748255N11956724WA0136201382
B2052444748256N11956712WA0135901378
B2052454748258N11956701WA0135701375
B2052464748260N11956691WA0135401374
B2052474748262N11956683WA0135201374
B2052484748265N11956676WA0135001373
B2052494748267N11956669WA0134901373
B2052504748271N11956661WA0134701372
B2052514748274N11956653WA0134601372
B2052514748274N11956653WA0134601372
B2052524748278N11956646WA0134501372
B2052534748283N11956640WA0134401374
B2052544748287N11956636WA0134401377
B2052554748292N11956635WA0134401382
B2052564748297N11956634WA0134501384
B2052574748301N11956635WA0134501384
B2052584748306N11956637WA0134501383
B2052594748311N11956639WA0134501382
B2053004748316N11956640WA0134501381
B2053014748322N11956639WA0134501379
B2053024748328N11956636WA0134401378
B2053034748333N11956631WA0134401378
B2053044748337N11956626WA0134401378
B2053054748340N11956619WA0134401378
B2053064748343N11956612WA0134401378
B2053074748346N11956605WA0134401379
B2053084748350N11956598WA0134401380
B2053094748354N11956591WA0134401381
B2053104748358N11956584WA0134501383
B2053114748360N11956578WA0134601386
B2053124748361N11956573WA0134701388
B2053134748362N11956567WA0134701389
B2053144748363N11956561WA0134801388
B2053154748364N11956554WA0134901388
B2053164748365N11956545WA0134901387
B2053174748367N11956537WA0134901387
B2053184748369N11956529WA0135001388
B2053194748372N11956523WA0135001390
B2053204748375N11956517WA0135101391
B2053214748379N11956511WA0135201391
B2053224748383N11956504WA0135201391
B2053234748388N11956496WA0135201390
B2053244748391N11956485WA0135201390
B2053254748395N11956474WA0135301390
B2053264748398N11956463WA0135301392
B2053274748401N11956453WA0135401397
B2053284748403N11956444WA0135601402
B2053294748406N11956436WA0135701408
B2053304748410N11956428WA0136001412
B2053314748414N11956421WA0136201415
B2053324748417N11956414WA0136401419
B2053334748418N11956406WA0136601422
B2053344748419N11956398WA0136901425
B2053354748417N11956392WA0137201428
B2053364748416N11956386WA0137501432
B2053374748414N11956382WA0137701436
B2053384748411N11956379WA0138101440
B2053394748408N11956377WA0138301444
B2053404748405N11956377WA0138701447
B2053414748402N11956380WA0139001451
B2053424748401N11956383WA0139301454
B2053434748400N11956388WA0139601457
B2053444748401N11956394WA0139901459
B2053454748402N11956400WA0140201462
B2053464748406N11956403WA0140501466
B2053474748410N11956405WA0140801469
B2053484748415N11956404WA0141101472
B2053494748420N11956400WA0141401475
B2053504748425N11956394WA0141701477
B2053514748428N11956387WA0141901480
B2053524748432N11956379WA0142301482
B2053534748434N11956370WA0142501485
B2053544748435N11956363WA0142801488
B2053554748435N11956356WA0143101490
B2053554748435N11956356WA0143101490
B2053564748434N11956349WA0143401493
B2053574748432N11956343WA0143601497
B2053584748430N11956339WA0143901500
B2053594748428N11956336WA0144201503
B2054004748425N11956334WA0144501506
B2054014748423N11956334WA0144801510
B2054024748421N11956336WA0145101513
B2054034748419N11956338WA0145301515
B2054044748417N11956342WA0145701517
B2054054748415N11956346WA0145901519
B2054064748415N11956351WA0146101520
B2054074748415N11956355WA0146301522
B2054084748417N11956358WA0146601523
B2054094748419N11956361WA0146701522
B2054104748421N11956365WA0146901521
B2054114748423N11956370WA0147001519
B2054124748425N11956375WA0147101518
B2054134748426N11956379WA0147101516
B2054144748425N11956382WA0147101513
B2054154748423N11956384WA0147001508
B2054164748420N11956385WA0146901504
B2054174748416N11956383WA0146801500
B2054184748413N11956379WA0146601496
B2054194748411N11956372WA0146401492
B2054204748409N11956365WA0146201488
B2054214748408N11956357WA0146001485
B2054224748407N11956349WA0145701481
B2054234748407N11956340WA0145501477
B2054244748406N11956330WA0145101473
B2054254748407N11956320WA0144901469
B2054264748407N11956310WA0144501465
B2054274748408N11956301WA0144301463
B2054284748408N11956293WA0144001461
B2054294748409N11956287WA0143801459
B2054304748409N11956281WA0143401456
B2054314748408N11956274WA0143201453
B2054324748408N11956267WA0142901448
B2054334748408N11956259WA0142601445
B2054344748409N11956251WA0142301441
B2054354748410N11956243WA0142001438
B2054364748413N11956235WA0141701436
B2054374748416N11956228WA0141501434
B2054384748420N11956220WA0141201431
B2054394748424N11956212WA0141001430
B2054404748428N11956203WA0140701430
B2054414748432N11956195WA0140601431
B2054424748436N11956188WA0140401433
B2054434748441N11956181WA0140301436
B2054444748445N11956175WA0140301437
B2054454748450N11956169WA0140301439
B2054464748455N11956165WA0140301441
B2054474748460N11956162WA0140301443
B2054484748465N11956161WA0140301444
B2054494748470N11956161WA0140301445
B2054504748474N11956161WA0140401447
B2054514748478N11956161WA0140401450
B2054524748481N11956161WA0140501451
B2054534748484N11956163WA0140601450
B2054544748486N11956166WA0140601449
B2054554748487N11956171WA0140601447
B2054564748488N11956174WA0140601446
B2054574748486N11956176WA0140601445
B2054584748484N11956175WA0140601444
B2054594748481N11956173WA0140601443
B2054594748481N11956173WA0140601443
B2055004748479N11956170WA0140501443
B2055014748478N11956166WA0140501443
B2055024748477N11956162WA0140501444
B2055034748477N11956157WA0140501444
B2055044748476N11956150WA0140401443
B2055054748476N11956143WA0140401442
B2055064748476N11956136WA0140401442
B2055074748476N11956129WA0140301442
B2055084748476N11956122WA0140301441
B2055094748475N11956115WA0140301440
B2055104748474N11956107WA0140201438
B2055114748472N11956099WA0140101435
B2055124748471N11956091WA0140001434
B2055134748471N11956083WA0139901434
B2055144748473N11956075WA0139801435
B2055154748474N11956069WA0139801435
B2055164748474N11956062WA0139701434
B2055174748475N11956054WA0139601433
B2055184748475N11956045WA0139501432
B2055194748476N11956036WA0139501430
B2055204748476N11956027WA0139401429
B2055214748477N11956018WA0139301428
B2055224748479N11956008WA0139201427
B2055234748481N11955998WA0139101428
B2055244748484N11955988WA0139101429
B2055254748486N11955978WA0139101431
B2055264748488N11955969WA0139101434
B2055274748490N11955959WA0139101436
B2055284748493N11955949WA0139201439
B2055294748496N11955940WA0139301441
B2055304748501N11955933WA0139401444
B2055314748508N11955927WA0139501446
B2055324748514N11955923WA0139701447
B2055334748521N11955922WA0139801450
B2055344748526N11955922WA0140001453
B2055354748530N11955923WA0140101456
B2055364748533N11955926WA0140301459
B2055374748533N11955929WA0140501461
B2055384748532N11955933WA0140701463
B2055394748529N11955935WA0140801464
B2055404748526N11955935WA0141001466
B2055414748522N11955933WA0141201468
B2055424748518N11955929WA0141401470
B2055434748515N11955924WA0141501471
B2055444748512N11955918WA0141701473
B2055454748510N11955910WA0141901476
B2055464748509N11955902WA0142101478
B2055474748509N11955892WA0142301480
B2055484748510N11955884WA0142501482
B2055494748510N11955875WA0142601485
B2055504748511N11955867WA0142901487
B2055514748513N11955858WA0143001490
B2055524748514N11955849WA0143301493
B2055534748516N11955839WA0143501495
B2055544748518N11955828WA0143701497
B2055554748522N11955819WA0143901500
B2055564748526N11955812WA0144201503
B2055574748531N11955806WA0144401507
B2055584748536N11955802WA0144701509
B2055594748541N11955799WA0144901511
B2056004748547N11955796WA0145201513
B2056014748553N11955794WA0145301514
B2056024748558N11955793WA0145601516
B2056034748562N11955795WA0145801518
B2056034748562N11955795WA0145801518
B2056044748566N11955798WA0146001519
B2056054748569N11955802WA0146201520
B2056064748570N11955805WA0146401522
B2056074748571N11955808WA0146501524
B2056084748570N11955810WA0146801526
B2056094748568N11955812WA0146901527
B2056104748565N11955813WA0147101528
B2056114748563N11955812WA0147301530
B2056124748560N11955809WA0147501532
B2056134748558N11955804WA0147601534
B2056144748555N11955798WA0147901536
B2056154748553N11955791WA0148001537
B2056164748552N11955783WA0148201538
B2056174748551N11955775WA0148301540
B2056184748550N11955767WA0148501542
B2056194748550N11955759WA0148701545
B2056204748551N11955750WA0148901548
B2056214748552N11955742WA0149101550
B2056224748555N11955733WA0149301552
B2056234748558N11955725WA0149401554
B2056244748561N11955716WA0149601555
B2056254748566N11955709WA0149801557
B2056264748571N11955704WA0150001559
B2056274748576N11955702WA0150201561
B2056284748581N11955701WA0150401563
B2056294748587N11955701WA0150501565
B2056304748591N11955703WA0150801567
B2056314748595N11955705WA0150901569
B2056324748599N11955707WA0151101571
B2056334748601N11955710WA0151301573
B2056344748602N11955714WA0151501575
B2056354748602N11955717WA0151701576
B2056364748601N11955720WA0151901577
B2056374748600N11955721WA0152001577
B2056384748598N11955723WA0152201578
B2056394748595N11955723WA0152301579
B2056404748593N11955722WA0152401580
B2056414748591N11955719WA0152601581
B2056424748588N11955715WA0152701582
B2056434748586N11955710WA0152801583
B2056444748583N11955704WA0152901583
B2056454748581N11955697WA0153001585
B2056464748579N11955689WA0153201586
B2056474748578N11955680WA0153301587
B2056484748577N11955671WA0153401588
B2056494748578N11955663WA0153501590
B2056504748578N11955654WA0153601591
B2056514748580N11955645WA0153701591
B2056524748581N11955636WA0153801592
B2056534748583N11955626WA0153901593
B2056544748584N11955616WA0154101595
B2056554748586N11955607WA0154201597
B2056564748587N11955599WA0154301599
B2056574748588N11955590WA0154501601
B2056584748589N11955580WA0154601602
B2056594748591N11955571WA0154701602
B2057004748594N11955561WA0154801602
B2057014748598N11955552WA0154901602
B2057024748603N11955544WA0155001604
B2057034748607N11955538WA0155101606
B2057044748612N11955534WA0155301608
B2057054748617N11955531WA0155401609
B2057064748622N11955530WA0155501609
B2057074748627N11955529WA0155601610
B2057074748627N11955529WA0155601610
B2057084748632N11955529WA0155701611
B2057094748636N11955529WA0155801612
B2057104748641N11955531WA0155801612
B2057114748644N11955535WA0155901611
B2057124748647N11955539WA0156001612
B2057134748648N11955543WA0156001614
B2057144748648N11955547WA0156101615
B2057154748646N11955550WA0156201616
B2057164748644N11955553WA0156301617
B2057174748642N11955556WA0156401618
B2057184748639N11955557WA0156501619
B2057194748635N11955556WA0156601621
B2057204748632N11955554WA0156701622
B2057214748628N11955551WA0156801625
B2057224748625N11955548WA0157001626
B2057234748622N11955544WA0157101628
B2057244748619N11955538WA0157301630
B2057254748616N11955531WA0157401633
B2057264748616N11955523WA0157601636
B2057274748616N11955513WA0157701638
B2057284748618N11955504WA0158001640
B2057294748620N11955494WA0158101642
B2057304748623N11955486WA0158301644
B2057314748627N11955477WA0158401645
B2057324748632N11955469WA0158601646
B2057334748638N11955463WA0158701646
B2057344748645N11955458WA0158901646
B2057354748651N11955456WA0159001648
B2057364748656N11955456WA0159101650
B2057374748661N11955456WA0159201652
B2057384748665N11955458WA0159401653
B2057394748669N11955461WA0159501653
B2057404748671N11955465WA0159601654
B2057414748672N11955470WA0159701655
B2057424748672N11955474WA0159801656
B2057434748670N11955477WA0159901657
B2057444748668N11955478WA0160101659
B2057454748665N11955479WA0160201660
B2057464748662N11955478WA0160301661
B2057474748658N11955476WA0160401662
B2057484748655N11955472WA0160501664
B2057494748653N11955467WA0160701666
B2057504748650N11955461WA0160801668
B2057514748648N11955455WA0160901670
B2057524748647N11955447WA0161101671
B2057534748646N11955439WA0161201672
B2057544748645N11955430WA0161301673
B2057554748645N11955422WA0161401674
B2057564748646N11955414WA0161601676
B2057574748646N11955406WA0161701677
B2057584748648N11955398WA0161801678
B2057594748650N11955389WA0161901678
B2058004748654N11955380WA0162001677
B2058014748660N11955371WA0162101677
B2058024748665N11955365WA0162101677
B2058034748671N11955360WA0162201678
B2058044748676N11955357WA0162301678
B2058054748682N11955356WA0162301677
B2058064748688N11955356WA0162301676
B2058074748694N11955357WA0162301677
B2058084748698N11955358WA0162401680
B2058094748701N11955360WA0162501682
B2058104748704N11955363WA0162601684
B2058104748704N11955363WA0162601684
B2058114748706N11955366WA0162701685
B2058124748708N11955370WA0162801685
B2058134748709N11955374WA0162801686
B2058144748708N11955378WA0162901687
B2058154748707N11955381WA0163001688
B2058164748705N11955384WA0163101690
B2058174748703N11955386WA0163201691
B2058184748700N11955386WA0163301692
B2058194748697N11955385WA0163401693
B2058204748694N11955383WA0163501693
B2058214748691N11955380WA0163601694
B2058224748689N11955375WA0163701695
B2058234748688N11955369WA0163701695
B2058244748687N11955363WA0163801694
B2058254748686N11955356WA0163801692
B2058264748685N11955348WA0163801691
B2058274748685N11955340WA0163801689
B2058284748685N11955331WA0163801688
B2058294748686N11955323WA0163801688
B2058304748686N11955315WA0163701687
B2058314748686N11955306WA0163701687
B2058324748686N11955296WA0163701686
B2058334748685N11955287WA0163701686
B2058344748685N11955277WA0163601686
B2058354748684N11955268WA0163601687
B2058364748684N11955258WA0163601688
B2058374748683N11955249WA0163601688
B2058384748683N11955239WA0163601688
B2058394748682N11955228WA0163601688
B2058404748682N11955218WA0163601688
B2058414748681N11955207WA0163601687
B2058424748679N11955197WA0163601687
B2058434748678N11955186WA0163601686
B2058444748676N11955175WA0163601686
B2058454748675N11955163WA0163501686
B2058464748674N11955154WA0163501685
B2058474748673N11955145WA0163501684
B2058484748673N11955136WA0163401682
B2058494748672N11955126WA0163301679
B2058504748673N11955114WA0163201676
B2058514748674N11955102WA0163101673
B2058524748675N11955089WA0162901670
B2058534748676N11955078WA0162701668
B2058544748676N11955066WA0162501665
B2058554748676N11955053WA0162401662
B2058564748676N11955041WA0162101660
B2058574748676N11955030WA0162001658
B2058584748676N11955018WA0161801656
B2058594748675N11955007WA0161601653
B2059004748674N11954996WA0161401651
B2059014748673N11954985WA0161201648
B2059024748672N11954973WA0160901645
B2059034748671N11954962WA0160701643
B2059044748670N11954951WA0160501641
B2059054748669N11954940WA0160301638
B2059064748668N11954929WA0160101635
B2059074748666N11954917WA0159901632
B2059084748665N11954906WA0159601629
B2059094748664N11954894WA0159401627
B2059104748662N11954882WA0159101624
B2059114748661N11954870WA0158901622
B2059124748661N11954858WA0158601619
B2059134748661N11954845WA0158401618
B2059134748661N11954845WA0158401618
B2059144748661N11954834WA0158201616
B2059154748662N11954822WA0158001615
B2059164748663N11954810WA0157801612
B2059174748664N11954797WA0157601609
B2059184748664N11954784WA0157301606
B2059194748665N11954771WA0157101604
B2059204748665N11954758WA0156901601
B2059214748665N11954745WA0156701599
B2059224748666N11954733WA0156401597
B2059234748666N11954720WA0156201595
B2059244748666N11954707WA0156001593
B2059254748666N11954695WA0155801590
B2059264748667N11954682WA0155501588
B2059274748667N11954669WA0155301585
B2059284748667N11954656WA0155001582
B2059294748668N11954643WA0154901580
B2059304748669N11954630WA0154601578
B2059314748669N11954618WA0154401576
B2059324748670N11954605WA0154101573
B2059334748670N11954592WA0153901570
B2059344748671N11954579WA0153701568
B2059354748671N11954567WA0153501565
B2059364748672N11954555WA0153201563
B2059374748673N11954543WA0153001561
B2059384748674N11954532WA0152801559
B2059394748675N11954521WA0152601556
B2059404748676N11954509WA0152301553
B2059414748676N11954496WA0152101549
B2059424748677N11954484WA0151801546
B2059434748678N11954472WA0151601543
B2059444748678N11954460WA0151301540
B2059454748679N11954449WA0151101537
B2059464748679N11954437WA0150801534
B2059474748679N11954425WA0150501530
B2059484748678N11954413WA0150201527
B2059494748678N11954401WA0150001523
B2059504748677N11954390WA0149601520
B2059514748677N11954378WA0149401517
B2059524748676N11954366WA0149001514
B2059534748676N11954355WA0148801510
B2059544748675N11954342WA0148401507
B2059554748674N11954329WA0148201503
B2059564748673N11954317WA0147801500
B2059574748672N11954306WA0147601498
B2059584748670N11954295WA0147301496
B2059594748669N11954284WA0147001493
B2100004748668N11954272WA0146701491
B2100014748666N11954261WA0146501488
B2100024748665N11954250WA0146101485
B2100034748663N11954238WA0145901482
B2100044748662N11954227WA0145601480
B2100054748661N11954217WA0145401478
B2100064748660N11954206WA0145101476
B2100074748659N11954195WA0144901473
B2100084748658N11954184WA0144601470
B2100094748656N11954173WA0144401467
B2100104748655N11954162WA0144101464
B2100114748654N11954150WA0143901461
B2100124748652N11954139WA0143501459
B2100134748651N11954127WA0143301456
B2100144748649N11954115WA0143001453
B2100154748648N11954103WA0142801450
B2100154748648N11954103WA0142801450
B2100164748646N11954091WA0142501447
B2100174748646N11954079WA0142301445
B2100184748645N11954068WA0142001443
B2100194748644N11954056WA0141801441
B2100204748643N11954045WA0141501439
B2100214748643N11954033WA0141301436
B2100224748642N11954021WA0141001434
B2100234748642N11954009WA0140801431
B2100244748641N11953997WA0140501428
B2100254748641N11953985WA0140301426
B2100264748641N11953972WA0140001423
B2100274748640N11953959WA0139801420
B2100284748640N11953945WA0139501417
B2100294748640N11953932WA0139201414
B2100304748640N11953919WA0138901411
B2100314748640N11953907WA0138701410
B2100324748640N11953895WA0138401407
B2100334748640N11953883WA0138301405
B2100344748639N11953871WA0138001402
B2100354748639N11953859WA0137801399
B2100364748640N11953846WA0137501397
B2100374748640N11953834WA0137301394
B2100384748640N11953822WA0137001392
B2100394748640N11953811WA0136801390
B2100404748640N11953800WA0136501387
B2100414748640N11953788WA0136301383
B2100424748639N11953776WA0136001379
B2100434748639N11953763WA0135701376
B2100444748638N11953752WA0135401374
B2100454748638N11953741WA0135201372
B2100464748636N11953730WA0134901369
B2100474748635N11953720WA0134701367
B2100484748634N11953709WA0134401364
B2100494748632N11953698WA0134201361
B2100504748629N11953687WA0133901357
B2100514748627N11953677WA0133701355
B2100524748624N11953666WA0133401352
B2100534748623N11953655WA0133201350
B2100544748621N11953645WA0132901348
B2100554748620N11953634WA0132701346
B2100564748618N11953623WA0132401343
B2100574748615N11953612WA0132201340
B2100584748613N11953601WA0132001338
B2100594748611N11953591WA0131801336
B2101004748609N11953580WA0131501333
B2101014748607N11953570WA0131301330
B2101024748604N11953559WA0131001328
B2101034748601N11953549WA0130801325
B2101044748599N11953538WA0130501322
B2101054748597N11953527WA0130301320
B2101064748594N11953517WA0130001317
B2101074748592N11953506WA0129801314
B2101084748589N11953496WA0129501311
B2101094748587N11953485WA0129301308
B2101104748584N11953473WA0129001306
B2101114748582N11953462WA0128801304
B2101124748580N11953450WA0128501302
B2101134748578N11953439WA0128301301
B2101144748577N11953428WA0128101299
B2101154748575N11953417WA0127901297
B2101164748574N11953405WA0127601295
B2101174748572N11953392WA0127501293
B2101184748571N11953380WA0127201291
B2101194748569N11953368WA0127001289
B2101194748569N11953368WA0127001289
B2101204748567N11953357WA0126801288
B2101214748566N11953346WA0126601286
B2101224748564N11953335WA0126401285
B2101234748561N11953324WA0126301283
B2101244748559N11953312WA0126001280
B2101254748557N11953301WA0125901278
B2101264748555N11953289WA0125601276
B2101274748553N11953278WA0125501275
B2101284748551N11953267WA0125301273
B2101294748550N11953255WA0125101270
B2101304748548N11953243WA0124901268
B2101314748546N11953231WA0124701265
B2101324748544N11953219WA0124501263
B2101334748541N11953207WA0124301262
B2101344748539N11953196WA0124101261
B2101354748537N11953185WA0124001259
B2101364748535N11953174WA0123701257
B2101374748533N11953162WA0123601255
B2101384748531N11953151WA0123401254
B2101394748529N11953140WA0123201253
B2101404748527N11953130WA0123101252
B2101414748526N11953119WA0122901250
B2101424748524N11953108WA0122701248
B2101434748522N11953097WA0122601245
B2101444748520N11953085WA0122401243
B2101454748517N11953074WA0122201242
B2101464748516N11953063WA0122001241
B2101474748514N11953052WA0121901240
B2101484748512N11953042WA0121701239
B2101494748510N11953031WA0121601237
B2101504748508N11953019WA0121401234
B2101514748506N11953007WA0121301232
B2101524748504N11952995WA0121101230
B2101534748503N11952984WA0120901229
B2101544748501N11952973WA0120701228
B2101554748499N11952962WA0120601226
B2101564748497N11952951WA0120401224
B2101574748495N11952940WA0120301221
B2101584748493N11952928WA0120001219
B2101594748491N11952917WA0119901217
B2102004748490N11952905WA0119701216
B2102014748488N11952894WA0119501214
B2102024748487N11952883WA0119301212
B2102034748486N11952871WA0119201209
B2102044748484N11952859WA0118901206
B2102054748482N11952847WA0118701203
B2102064748481N11952834WA0118501200
B2102074748479N11952821WA0118301197
B2102084748478N11952809WA0118001196
B2102094748477N11952798WA0117901194
B2102104748476N11952786WA0117601191
B2102114748474N11952774WA0117401189
B2102124748472N11952761WA0117201185
B2102134748470N11952749WA0117001182
B2102144748468N11952736WA0116701180
B2102154748466N11952724WA0116501179
B2102164748465N11952713WA0116301178
B2102174748463N11952701WA0116101177
B2102184748462N11952690WA0115901175
B2102194748461N11952678WA0115701173
B2102204748459N11952666WA0115401170
B2102214748457N11952654WA0115301168
B2102224748455N11952642WA0115001166
B2102234748453N11952632WA0114901164
B2102234748453N11952632WA0114901164
B2102244748451N11952621WA0114601162
B2102254748449N11952611WA0114501161
B2102264748447N11952600WA0114201158
B2102274748444N11952590WA0114101156
B2102284748442N11952581WA0113901155
B2102294748439N11952573WA0113701153
B2102304748435N11952566WA0113501152
B2102314748432N11952559WA0113401150
B2102324748429N11952553WA0113101149
B2102334748426N11952547WA0113001147
B2102344748422N11952541WA0112801145
B2102354748419N11952535WA0112601143
B2102364748416N11952527WA0112401140
B2102374748414N11952518WA0112201138
B2102384748412N11952508WA0112001136
B2102394748412N11952497WA0111801133
B2102404748412N11952485WA0111601131
B2102414748412N11952473WA0111401128
B2102424748413N11952461WA0111101125
B2102434748415N11952448WA0110901123
B2102444748417N11952435WA0110701120
B2102454748421N11952422WA0110501118
B2102464748425N11952410WA0110201116
B2102474748430N11952398WA0110101114
B2102484748435N11952388WA0109801112
B2102494748441N11952378WA0109601111
B2102504748447N11952370WA0109401110
B2102514748453N11952363WA0109301109
B2102524748459N11952358WA0109001108
B2102534748465N11952353WA0108901106
B2102544748470N11952350WA0108701104
B2102554748474N11952349WA0108601102
B2102564748478N11952349WA0108301100
B2102574748481N11952350WA0108201099
B2102584748482N11952351WA0108001098
B2102594748482N11952352WA0107901096
B2103004748482N11952353WA0107701095
B2103014748482N11952354WA0107601093
B2103024748483N11952356WA0107401092
B2103034748483N11952358WA0107201090
B2103044748483N11952360WA0107101089
B2103054748482N11952361WA0106901087
B2103064748482N11952363WA0106701085
B2103074748482N11952364WA0106601083
B2103084748481N11952366WA0106401080
B2103094748480N11952368WA0106201077
B2103104748479N11952369WA0106001074
B2103114748478N11952371WA0105801072
B2103124748478N11952372WA0105601069
B2103134748478N11952373WA0105401067
B2103144748479N11952374WA0105201065
B2103154748480N11952376WA0105001062
B2103164748482N11952378WA0104701059
B2103174748485N11952380WA0104601057
B2103184748488N11952381WA0104301055
B2103194748491N11952382WA0104201053
B2103204748495N11952383WA0103901052
B2103214748499N11952384WA0103801050
B2103224748503N11952385WA0103501047
B2103234748506N11952387WA0103401045
B2103244748510N11952389WA0103101042
B2103254748514N11952392WA0102901039
B2103264748517N11952395WA0102701036
B2103264748517N11952395WA0102701036
B2103274748520N11952398WA0102501034
B2103284748523N11952400WA0102201031
B2103294748526N11952401WA0102001029
B2103304748529N11952403WA0101801027
B2103314748532N11952405WA0101601024
B2103324748535N11952407WA0101301022
B2103334748537N11952408WA0101101020
B2103344748539N11952410WA0100901017
B2103354748543N11952413WA0100701012
B2103364748546N11952417WA0100401009
B2103374748550N11952421WA0100201007
B2103384748553N11952423WA0099901007
B2103394748555N11952425WA0099701006
B2103404748558N11952428WA0099501004
B2103414748561N11952431WA0099301001
B2103424748564N11952435WA0099100999
B2103434748567N11952439WA0098900997
B2103444748570N11952441WA0098700996
B2103454748573N11952444WA0098500996
B2103464748575N11952446WA0098300994
B2103474748578N11952449WA0098200992
B2103484748580N11952453WA0097900989
B2103494748583N11952456WA0097800988
B2103504748586N11952459WA0097600987
B2103514748588N11952462WA0097400986
B2103524748590N11952464WA0097300985
B2103534748593N11952467WA0097100982
B2103544748595N11952471WA0096900979
B2103554748597N11952475WA0096700976
B2103564748599N11952479WA0096500974
B2103574748601N11952483WA0096300973
B2103584748603N11952486WA0096100971
B2103594748606N11952489WA0096000969
B2104004748608N11952492WA0095700966
B2104014748610N11952496WA0095600964
B2104024748612N11952500WA0095300962
B2104034748614N11952504WA0095100960
B2104044748614N11952508WA0094900958
B2104054748615N11952511WA0094800957
B2104064748615N11952514WA0094500955
B2104074748616N11952518WA0094400953
B2104084748617N11952522WA0094100950
B2104094748618N11952526WA0094000947
B2104104748618N11952531WA0093700945
B2104114748618N11952535WA0093600944
B2104124748618N11952538WA0093400943
B2104134748619N11952542WA0093200941
B2104144748619N11952546WA0093000939
B2104154748620N11952550WA0092900938
B2104164748620N11952553WA0092700936
B2104174748619N11952557WA0092500935
B2104184748619N11952561WA0092400934
B2104194748618N11952564WA0092300935
B2104204748616N11952565WA0092100935
B2104214748615N11952567WA0092100934
B2104224748613N11952569WA0091900932
B2104234748611N11952573WA0091800929
B2104244748609N11952578WA0091600926
B2104254748607N11952583WA0091500926
B2104264748606N11952584WA0091400928
B2104274748606N11952585WA0091400929
B2104284748605N11952585WA0091300930
B2104294748605N11952586WA0091300928
B2104304748604N11952589WA0091200926
B2104304748604N11952589WA0091200926
B2104314748604N11952593WA0091100923
B2104324748603N11952597WA0091000922
B2104334748603N11952600WA0090900921
B2104344748602N11952603WA0090800920
B2104354748601N11952606WA0090700919
B2104364748600N11952609WA0090600917
B2104374748599N11952613WA0090500916
B2104384748599N11952615WA0090400916
B2104394748598N11952617WA0090300916
B2104404748597N11952619WA0090200915
B2104414748597N11952621WA0090200913
B2104424748596N11952623WA0090000912
B2104434748595N11952625WA0090000910
B2104444748594N11952628WA0089800907
B2104454748593N11952630WA0089700905
B2104464748591N11952633WA0089600904
B2104474748590N11952635WA0089400902
B2104484748590N11952635WA0089300901
B2104494748589N11952636WA0089200901
B2104504748589N11952636WA0089100900
B2104514748588N11952635WA0089100900
B2104524748588N11952635WA0089000900
B2104534748588N11952634WA0088900900
B2104544748588N11952634WA0088900900
B2104554748588N11952634WA0088800900
B2104564748588N11952634WA0088800900
B2104574748588N11952634WA0088800900
B2104584748588N11952634WA0088700900
B2104594748588N11952634WA0088700900
B2105004748588N11952634WA0088700900
B2105014748588N11952634WA0088700900
B2105024748588N11952634WA0088700900
B2105034748588N11952634WA0088600900
B2105044748588N11952634WA0088600900
B2105054748588N11952634WA0088600900
B2105064748588N11952634WA0088600900
B2105074748588N11952634WA0088600900
B2105084748588N11952634WA0088600900
B2105094748588N11952634WA0088600900
B2105104748588N11952634WA0088600900
B2105114748588N11952634WA0088600900
B2105124748588N11952634WA0088600900
B2105134748588N11952634WA0088500900
B2105144748588N11952634WA0088500900
B2105154748588N11952633WA0088500900
B2105164748588N11952633WA0088500900
B2105174748588N11952633WA0088500900
B2105184748588N11952633WA0088500900
B2105194748587N11952633WA0088500901
B2105204748587N11952633WA0088500901
B2105214748587N11952633WA0088500901
B2105224748587N11952633WA0088500901
B2105234748587N11952633WA0088500901
B2105244748587N11952633WA0088500901
B2105254748587N11952633WA0088500901
B2105264748587N11952633WA0088500901
B2105274748587N11952632WA0088500901
B2105284748587N11952632WA0088500901
B2105294748587N11952633WA0088500901
B2105304748587N11952633WA0088500900
B2105314748587N11952633WA0088500900
B2105324748587N11952632WA0088500900
B2105334748587N11952632WA0088500900
B2105344748587N11952632WA0088500900
