AXFMSFP Flymaster Live, V1.0
HFFXA010
HFPLTPILOT:Brad Bass
HFGTYGLIDERTYPE:Air Design Sock / Ozone  Photon
HFGIDGLIDERID:
HFDTM100GPSDATUM:WGS-1984
HFCIDCOMPETITIONID:385
HFCCLCOMPETITIONCLASS:
HOSITSITE:LAUNCH
HFGPS:UBLOXNEO6
HFPRSPRESSALTSENSOR:NA
HFRFWFIRMWAREVERSION:202g
HFRHWHARDWAREVERSION:1.0R2
HFFTYFRTYPE:FLYMASTER,LIVE
HFDTE150625
B1905284748244N12002355WA0106901125
B1905294748244N12002356WA0106901126
B1905304748243N12002357WA0106901125
B1905314748243N12002358WA0106901125
B1905324748243N12002360WA0106901126
B1905334748242N12002362WA0106901125
B1905344748240N12002365WA0106901125
B1905354748238N12002367WA0106901125
B1905364748236N12002370WA0106901124
B1905374748234N12002373WA0106801123
B1905384748232N12002377WA0106801122
B1905394748230N12002381WA0106801121
B1905404748228N12002385WA0106701120
B1905414748225N12002390WA0106601118
B1905424748223N12002396WA0106601117
B1905434748221N12002402WA0106501115
B1905444748219N12002407WA0106401116
B1905454748218N12002411WA0106301118
B1905464748217N12002414WA0106301119
B1905474748216N12002418WA0106301119
B1905484748213N12002424WA0106301117
B1905494748211N12002431WA0106201113
B1905504748207N12002437WA0106201114
B1905514748204N12002441WA0106201117
B1905524748202N12002444WA0106201119
B1905534748199N12002446WA0106201119
B1905544748196N12002450WA0106201119
B1905554748193N12002455WA0106201117
B1905564748189N12002460WA0106201116
B1905574748185N12002464WA0106201115
B1905584748180N12002467WA0106101115
B1905594748175N12002470WA0106101113
B1906004748170N12002473WA0106101112
B1906014748165N12002477WA0106001111
B1906024748159N12002479WA0106001110
B1906034748154N12002480WA0105901109
B1906044748149N12002480WA0105901108
B1906054748144N12002480WA0105801105
B1906064748138N12002480WA0105701103
B1906074748132N12002482WA0105601101
B1906084748127N12002483WA0105601100
B1906094748121N12002484WA0105501099
B1906104748117N12002485WA0105401099
B1906114748113N12002486WA0105301099
B1906124748110N12002487WA0105201099
B1906134748105N12002489WA0105101097
B1906144748100N12002490WA0105001095
B1906154748095N12002492WA0104801093
B1906164748089N12002494WA0104701093
B1906174748085N12002497WA0104601093
B1906184748080N12002499WA0104501093
B1906194748075N12002501WA0104401091
B1906204748070N12002504WA0104301090
B1906214748064N12002507WA0104201088
B1906224748058N12002511WA0104101086
B1906234748052N12002514WA0104001086
B1906244748045N12002514WA0103901087
B1906254748039N12002512WA0103801089
B1906264748035N12002508WA0103801090
B1906274748030N12002503WA0103701090
B1906284748026N12002498WA0103701090
B1906294748021N12002493WA0103601089
B1906304748015N12002487WA0103601088
B1906304748015N12002487WA0103601088
B1906314748010N12002480WA0103601087
B1906324748005N12002473WA0103501087
B1906334748000N12002466WA0103501087
B1906344747997N12002458WA0103501087
B1906354747993N12002450WA0103401086
B1906364747989N12002441WA0103401085
B1906374747985N12002433WA0103401083
B1906384747981N12002426WA0103301082
B1906394747976N12002420WA0103301082
B1906404747972N12002415WA0103301082
B1906414747968N12002410WA0103201082
B1906424747964N12002404WA0103201081
B1906434747961N12002398WA0103101079
B1906444747958N12002391WA0103001077
B1906454747954N12002384WA0102901074
B1906464747951N12002376WA0102901072
B1906474747947N12002370WA0102701070
B1906484747943N12002364WA0102701068
B1906494747939N12002359WA0102501067
B1906504747934N12002353WA0102401064
B1906514747929N12002348WA0102301063
B1906524747923N12002343WA0102201062
B1906534747917N12002340WA0102001061
B1906544747912N12002337WA0102001060
B1906554747906N12002333WA0101801058
B1906564747901N12002329WA0101701057
B1906574747895N12002325WA0101601056
B1906584747890N12002322WA0101501055
B1906594747884N12002320WA0101401055
B1907004747878N12002318WA0101301054
B1907014747873N12002316WA0101201053
B1907024747868N12002313WA0101101051
B1907034747862N12002310WA0100901049
B1907044747857N12002307WA0100801047
B1907054747851N12002304WA0100701044
B1907064747844N12002302WA0100601042
B1907074747839N12002301WA0100401041
B1907084747833N12002299WA0100301040
B1907094747828N12002298WA0100101039
B1907104747823N12002296WA0100001037
B1907114747817N12002294WA0099801034
B1907124747812N12002293WA0099701032
B1907134747806N12002294WA0099501030
B1907144747800N12002295WA0099401029
B1907154747794N12002296WA0099201028
B1907164747788N12002296WA0099101027
B1907174747782N12002295WA0098901026
B1907184747777N12002294WA0098801025
B1907194747771N12002293WA0098601024
B1907204747765N12002294WA0098501021
B1907214747759N12002296WA0098301018
B1907224747753N12002297WA0098201016
B1907234747746N12002296WA0098001014
B1907244747740N12002295WA0097901014
B1907254747734N12002292WA0097701013
B1907264747728N12002290WA0097601012
B1907274747721N12002288WA0097401011
B1907284747715N12002286WA0097301009
B1907294747708N12002285WA0097101007
B1907304747701N12002283WA0097001005
B1907314747694N12002281WA0096801003
B1907324747687N12002280WA0096701002
B1907334747681N12002280WA0096601000
B1907334747681N12002280WA0096601000
B1907344747673N12002280WA0096400998
B1907354747666N12002279WA0096300996
B1907364747659N12002277WA0096100994
B1907374747653N12002274WA0096000993
B1907384747647N12002272WA0095900993
B1907394747642N12002269WA0095700992
B1907404747636N12002266WA0095600991
B1907414747630N12002263WA0095400988
B1907424747623N12002259WA0095300986
B1907434747617N12002255WA0095100984
B1907444747611N12002251WA0095000983
B1907454747604N12002247WA0094800981
B1907464747598N12002243WA0094700981
B1907474747592N12002241WA0094500980
B1907484747586N12002238WA0094400979
B1907494747580N12002235WA0094200978
B1907504747574N12002232WA0094100976
B1907514747567N12002229WA0094000974
B1907524747560N12002226WA0093900972
B1907534747553N12002225WA0093700970
B1907544747546N12002224WA0093600969
B1907554747540N12002224WA0093500968
B1907564747533N12002224WA0093400967
B1907574747527N12002223WA0093200966
B1907584747520N12002223WA0093100964
B1907594747513N12002222WA0092900962
B1908004747506N12002222WA0092800961
B1908014747500N12002221WA0092600959
B1908024747493N12002220WA0092500958
B1908034747486N12002219WA0092300957
B1908044747480N12002217WA0092200955
B1908054747473N12002215WA0092000954
B1908064747466N12002212WA0091900953
B1908074747460N12002209WA0091700952
B1908084747453N12002206WA0091600951
B1908094747447N12002204WA0091500950
B1908104747440N12002204WA0091400949
B1908114747433N12002204WA0091300947
B1908124747425N12002205WA0091200946
B1908134747418N12002206WA0091000944
B1908144747411N12002207WA0090900943
B1908154747404N12002208WA0090700943
B1908164747397N12002208WA0090600942
B1908174747391N12002208WA0090500941
B1908184747384N12002209WA0090400940
B1908194747377N12002210WA0090300938
B1908204747369N12002211WA0090200937
B1908214747362N12002211WA0090000936
B1908224747356N12002209WA0089900935
B1908234747349N12002206WA0089800934
B1908244747342N12002203WA0089700932
B1908254747336N12002199WA0089500931
B1908264747329N12002195WA0089400929
B1908274747323N12002190WA0089300928
B1908284747317N12002185WA0089200927
B1908294747311N12002178WA0089000926
B1908304747306N12002171WA0088900925
B1908314747301N12002164WA0088800924
B1908324747296N12002156WA0088700923
B1908334747292N12002149WA0088600922
B1908344747288N12002141WA0088500921
B1908354747284N12002133WA0088400920
B1908364747280N12002124WA0088300919
B1908364747280N12002124WA0088300919
B1908374747277N12002116WA0088200919
B1908384747274N12002107WA0088100918
B1908394747272N12002099WA0088000918
B1908404747269N12002090WA0087900917
B1908414747267N12002081WA0087800916
B1908424747265N12002072WA0087700916
B1908434747262N12002063WA0087600915
B1908444747260N12002054WA0087600914
B1908454747257N12002045WA0087500913
B1908464747254N12002036WA0087500913
B1908474747251N12002028WA0087400912
B1908484747249N12002019WA0087300911
B1908494747247N12002011WA0087200911
B1908504747245N12002002WA0087100910
B1908514747243N12001994WA0087100909
B1908524747240N12001986WA0087000907
B1908534747236N12001978WA0086900904
B1908544747231N12001969WA0086800902
B1908554747228N12001960WA0086600900
B1908564747225N12001951WA0086500898
B1908574747224N12001941WA0086400896
B1908584747222N12001931WA0086200894
B1908594747220N12001921WA0086100893
B1909004747219N12001910WA0086000891
B1909014747217N12001900WA0085800890
B1909024747215N12001890WA0085700889
B1909034747214N12001881WA0085500888
B1909044747213N12001871WA0085400887
B1909054747211N12001861WA0085300885
B1909064747209N12001851WA0085200884
B1909074747207N12001841WA0085000882
B1909084747205N12001831WA0084900881
B1909094747203N12001821WA0084700879
B1909104747203N12001812WA0084600877
B1909114747203N12001802WA0084400876
B1909124747203N12001794WA0084300875
B1909134747203N12001785WA0084100874
B1909144747203N12001776WA0084000873
B1909154747203N12001767WA0083800871
B1909164747204N12001759WA0083700870
B1909174747205N12001750WA0083600868
B1909184747207N12001743WA0083500867
B1909194747210N12001736WA0083400867
B1909204747213N12001729WA0083300865
B1909214747216N12001722WA0083200864
B1909224747219N12001714WA0083100863
B1909234747222N12001705WA0083000863
B1909244747224N12001697WA0082900862
B1909254747226N12001688WA0082800862
B1909264747228N12001681WA0082700862
B1909274747230N12001674WA0082600862
B1909284747234N12001667WA0082500861
B1909294747238N12001661WA0082400860
B1909304747242N12001655WA0082300859
B1909314747246N12001648WA0082200857
B1909324747249N12001641WA0082100857
B1909334747254N12001635WA0082000856
B1909344747258N12001630WA0081900855
B1909354747263N12001625WA0081800854
B1909364747267N12001621WA0081700854
B1909374747271N12001616WA0081600853
B1909384747276N12001611WA0081600851
B1909394747281N12001605WA0081400850
B1909394747281N12001605WA0081400850
B1909404747285N12001600WA0081400849
B1909414747289N12001595WA0081200848
B1909424747293N12001589WA0081200848
B1909434747298N12001584WA0081100847
B1909444747302N12001579WA0081000846
B1909454747308N12001575WA0080900844
B1909464747314N12001572WA0080900843
B1909474747320N12001569WA0080700843
B1909484747326N12001566WA0080700843
B1909494747332N12001562WA0080600842
B1909504747338N12001557WA0080500842
B1909514747343N12001553WA0080400841
B1909524747348N12001549WA0080400841
B1909534747353N12001545WA0080300840
B1909544747358N12001541WA0080200838
B1909554747363N12001535WA0080100836
B1909564747368N12001528WA0080000833
B1909574747373N12001520WA0079800831
B1909584747377N12001511WA0079700830
B1909594747380N12001502WA0079600829
B1910004747382N12001495WA0079500828
B1910014747385N12001487WA0079400827
B1910024747388N12001479WA0079300825
B1910034747392N12001471WA0079100822
B1910044747397N12001461WA0079000819
B1910054747403N12001450WA0078900817
B1910064747408N12001441WA0078800818
B1910074747412N12001432WA0078600819
B1910084747416N12001425WA0078600821
B1910094747420N12001420WA0078500822
B1910104747425N12001416WA0078400821
B1910114747431N12001412WA0078300820
B1910124747438N12001409WA0078200817
B1910134747446N12001406WA0078100816
B1910144747453N12001402WA0078100816
B1910154747459N12001398WA0078000816
B1910164747465N12001393WA0077900815
B1910174747470N12001389WA0077900815
B1910184747477N12001386WA0077800813
B1910194747484N12001384WA0077700811
B1910204747491N12001382WA0077600809
B1910214747497N12001379WA0077500808
B1910224747503N12001374WA0077400807
B1910234747508N12001369WA0077300805
B1910244747513N12001363WA0077200803
B1910254747518N12001356WA0077000801
B1910264747521N12001348WA0076900799
B1910274747525N12001340WA0076800797
B1910284747530N12001332WA0076600794
B1910294747534N12001325WA0076400791
B1910304747538N12001319WA0076300790
B1910314747542N12001313WA0076100790
B1910324747546N12001307WA0076000789
B1910334747550N12001300WA0075800787
B1910344747554N12001292WA0075700784
B1910354747558N12001283WA0075500782
B1910364747562N12001274WA0075400781
B1910374747565N12001265WA0075200780
B1910384747567N12001257WA0075100780
B1910394747568N12001249WA0075000780
B1910404747569N12001241WA0074900779
B1910414747570N12001232WA0074700778
B1910424747572N12001223WA0074600777
B1910424747572N12001223WA0074600777
B1910434747572N12001214WA0074500775
B1910444747573N12001204WA0074400774
B1910454747572N12001195WA0074200774
B1910464747570N12001186WA0074200773
B1910474747569N12001177WA0074000771
B1910484747568N12001167WA0073900769
B1910494747567N12001156WA0073800767
B1910504747568N12001146WA0073700766
B1910514747568N12001136WA0073500767
B1910524747569N12001128WA0073400768
B1910534747569N12001120WA0073300768
B1910544747569N12001112WA0073200769
B1910554747570N12001104WA0073200769
B1910564747571N12001096WA0073100769
B1910574747574N12001089WA0073000769
B1910584747578N12001085WA0073000768
B1910594747584N12001082WA0072900768
B1911004747591N12001082WA0072900768
B1911014747597N12001084WA0072800768
B1911024747603N12001087WA0072800770
B1911034747607N12001090WA0072800773
B1911044747612N12001094WA0072800775
B1911054747615N12001098WA0072800775
B1911064747619N12001104WA0072800774
B1911074747623N12001111WA0072900773
B1911084747627N12001120WA0072900769
B1911094747630N12001130WA0072800766
B1911104747632N12001141WA0072800765
B1911114747632N12001151WA0072700765
B1911124747631N12001159WA0072700765
B1911134747628N12001167WA0072600765
B1911144747625N12001173WA0072600764
B1911154747620N12001179WA0072500763
B1911164747615N12001184WA0072500761
B1911174747609N12001187WA0072400760
B1911184747602N12001188WA0072400759
B1911194747595N12001186WA0072300757
B1911204747590N12001182WA0072300757
B1911214747585N12001177WA0072200756
B1911224747582N12001172WA0072100754
B1911234747579N12001165WA0072100752
B1911244747576N12001157WA0072000748
B1911254747573N12001147WA0071800745
B1911264747571N12001136WA0071700743
B1911274747570N12001126WA0071600742
B1911284747569N12001116WA0071400743
B1911294747569N12001108WA0071300744
B1911304747568N12001100WA0071200745
B1911314747568N12001092WA0071100746
B1911324747568N12001084WA0071100745
B1911334747568N12001075WA0071000743
B1911344747570N12001066WA0070900742
B1911354747572N12001058WA0070800742
B1911364747575N12001053WA0070800743
B1911374747579N12001048WA0070700742
B1911384747585N12001045WA0070600741
B1911394747590N12001041WA0070600741
B1911404747596N12001036WA0070500741
B1911414747601N12001030WA0070500740
B1911424747604N12001023WA0070400741
B1911434747607N12001016WA0070400740
B1911444747609N12001008WA0070400740
B1911454747611N12001001WA0070400739
B1911454747611N12001001WA0070400739
B1911464747614N12000993WA0070400738
B1911474747616N12000984WA0070300737
B1911484747617N12000974WA0070300735
B1911494747618N12000964WA0070200735
B1911504747618N12000956WA0070100737
B1911514747618N12000949WA0070100738
B1911524747618N12000942WA0070100739
B1911534747620N12000935WA0070000738
B1911544747622N12000927WA0070000736
B1911554747624N12000918WA0069900733
B1911564747625N12000910WA0069900732
B1911574747626N12000902WA0069800733
B1911584747626N12000895WA0069800734
B1911594747627N12000890WA0069700734
B1912004747629N12000884WA0069700733
B1912014747632N12000878WA0069600732
B1912024747636N12000872WA0069600730
B1912034747639N12000865WA0069500728
B1912044747641N12000858WA0069500727
B1912054747644N12000851WA0069400727
B1912064747647N12000845WA0069400728
B1912074747652N12000840WA0069300728
B1912084747657N12000835WA0069300727
B1912094747662N12000830WA0069200728
B1912104747667N12000825WA0069200728
B1912114747672N12000819WA0069200728
B1912124747676N12000812WA0069100728
B1912134747680N12000805WA0069100728
B1912144747683N12000798WA0069100728
B1912154747687N12000791WA0069100729
B1912164747691N12000785WA0069100732
B1912174747696N12000781WA0069100734
B1912184747702N12000781WA0069100736
B1912194747708N12000782WA0069200738
B1912204747714N12000786WA0069200739
B1912214747718N12000793WA0069300737
B1912224747720N12000801WA0069300736
B1912234747720N12000808WA0069300735
B1912244747717N12000815WA0069300734
B1912254747712N12000819WA0069300733
B1912264747706N12000820WA0069300730
B1912274747700N12000819WA0069200729
B1912284747695N12000817WA0069200729
B1912294747691N12000813WA0069100730
B1912304747688N12000808WA0069100731
B1912314747684N12000803WA0069100731
B1912324747682N12000797WA0069100732
B1912334747680N12000790WA0069100732
B1912344747679N12000782WA0069100733
B1912354747681N12000774WA0069100734
B1912364747684N12000765WA0069200736
B1912374747688N12000759WA0069200736
B1912384747692N12000755WA0069300737
B1912394747697N12000752WA0069300737
B1912404747704N12000751WA0069300736
B1912414747711N12000752WA0069400735
B1912424747717N12000753WA0069400736
B1912434747723N12000755WA0069400740
B1912444747727N12000757WA0069500742
B1912454747731N12000760WA0069600743
B1912464747735N12000764WA0069600744
B1912474747739N12000768WA0069700742
B1912484747743N12000775WA0069700739
B1912484747743N12000775WA0069700739
B1912494747745N12000783WA0069700737
B1912504747747N12000792WA0069700737
B1912514747746N12000799WA0069700736
B1912524747745N12000806WA0069700736
B1912534747742N12000811WA0069700736
B1912544747738N12000814WA0069700735
B1912554747734N12000817WA0069600734
B1912564747729N12000818WA0069600733
B1912574747725N12000817WA0069600732
B1912584747720N12000814WA0069500730
B1912594747716N12000810WA0069500731
B1913004747712N12000804WA0069500732
B1913014747710N12000799WA0069500733
B1913024747709N12000793WA0069500734
B1913034747708N12000787WA0069500734
B1913044747707N12000781WA0069500734
B1913054747708N12000774WA0069500733
B1913064747709N12000767WA0069500733
B1913074747711N12000761WA0069400732
B1913084747713N12000754WA0069400732
B1913094747716N12000748WA0069400732
B1913104747720N12000743WA0069400732
B1913114747725N12000738WA0069400733
B1913124747730N12000735WA0069400734
B1913134747736N12000732WA0069400736
B1913144747742N12000731WA0069400737
B1913154747748N12000730WA0069500739
B1913164747755N12000729WA0069500742
B1913174747760N12000729WA0069600744
B1913184747765N12000729WA0069700745
B1913194747770N12000730WA0069800745
B1913204747775N12000731WA0069800744
B1913214747781N12000735WA0069900743
B1913224747787N12000742WA0069900741
B1913234747791N12000750WA0069900741
B1913244747793N12000759WA0070000742
B1913254747792N12000767WA0070000742
B1913264747789N12000773WA0070000743
B1913274747786N12000777WA0070000743
B1913284747781N12000780WA0070100743
B1913294747777N12000781WA0070100743
B1913304747773N12000783WA0070100743
B1913314747768N12000785WA0070200743
B1913324747763N12000788WA0070200744
B1913334747759N12000792WA0070200746
B1913344747754N12000795WA0070300748
B1913354747750N12000797WA0070400750
B1913364747745N12000797WA0070500752
B1913374747742N12000794WA0070600752
B1913384747740N12000789WA0070600752
B1913394747739N12000782WA0070700750
B1913404747741N12000774WA0070700751
B1913414747744N12000768WA0070800754
B1913424747749N12000764WA0070800757
B1913434747754N12000762WA0070900760
B1913444747759N12000761WA0071000762
B1913454747765N12000762WA0071200764
B1913464747773N12000764WA0071200764
B1913474747780N12000768WA0071400766
B1913484747785N12000774WA0071500769
B1913494747790N12000780WA0071600771
B1913504747794N12000786WA0071800774
B1913514747797N12000792WA0071900776
B1913514747797N12000792WA0071900776
B1913524747800N12000799WA0072100778
B1913534747802N12000805WA0072300779
B1913544747804N12000812WA0072400779
B1913554747805N12000820WA0072600779
B1913564747804N12000827WA0072700779
B1913574747803N12000835WA0072800779
B1913584747801N12000841WA0072900779
B1913594747799N12000846WA0073000779
B1914004747796N12000850WA0073100778
B1914014747792N12000853WA0073200776
B1914024747788N12000855WA0073200774
B1914034747782N12000856WA0073200771
B1914044747776N12000855WA0073200770
B1914054747771N12000852WA0073200768
B1914064747766N12000849WA0073200768
B1914074747761N12000845WA0073100768
B1914084747757N12000840WA0073100768
B1914094747754N12000836WA0073100769
B1914104747750N12000833WA0073100770
B1914114747747N12000828WA0073100771
B1914124747744N12000823WA0073100771
B1914134747742N12000817WA0073000771
B1914144747740N12000810WA0073000773
B1914154747740N12000803WA0073100774
B1914164747742N12000797WA0073100775
B1914174747745N12000790WA0073100775
B1914184747749N12000784WA0073100775
B1914194747754N12000778WA0073200777
B1914204747759N12000773WA0073200779
B1914214747764N12000771WA0073300782
B1914224747769N12000769WA0073400784
B1914234747776N12000770WA0073500786
B1914244747782N12000772WA0073600787
B1914254747788N12000776WA0073700788
B1914264747793N12000782WA0073800790
B1914274747798N12000789WA0073900793
B1914284747800N12000797WA0074000794
B1914294747802N12000806WA0074200796
B1914304747803N12000815WA0074300797
B1914314747803N12000824WA0074400798
B1914324747800N12000831WA0074500799
B1914334747796N12000836WA0074700800
B1914344747791N12000838WA0074800800
B1914354747786N12000837WA0074900800
B1914364747781N12000834WA0075000801
B1914374747777N12000829WA0075100802
B1914384747775N12000824WA0075200804
B1914394747774N12000818WA0075400806
B1914404747774N12000812WA0075400808
B1914414747775N12000806WA0075600810
B1914424747776N12000799WA0075700812
B1914434747778N12000791WA0075900814
B1914444747781N12000784WA0076000815
B1914454747786N12000779WA0076200817
B1914464747791N12000775WA0076300818
B1914474747798N12000773WA0076500819
B1914484747804N12000774WA0076600821
B1914494747809N12000778WA0076700822
B1914504747813N12000784WA0076900824
B1914514747816N12000792WA0077000824
B1914524747817N12000801WA0077100824
B1914534747817N12000810WA0077300825
B1914544747815N12000817WA0077400826
B1914544747815N12000817WA0077400826
B1914554747811N12000822WA0077500828
B1914564747807N12000824WA0077600829
B1914574747803N12000825WA0077800831
B1914584747799N12000824WA0077900831
B1914594747795N12000821WA0078000832
B1915004747791N12000818WA0078100833
B1915014747787N12000814WA0078200835
B1915024747784N12000808WA0078300838
B1915034747782N12000802WA0078500840
B1915044747781N12000796WA0078600842
B1915054747780N12000789WA0078800844
B1915064747781N12000782WA0078900845
B1915074747783N12000775WA0079100846
B1915084747787N12000769WA0079200845
B1915094747791N12000762WA0079300845
B1915104747797N12000757WA0079400845
B1915114747803N12000752WA0079500846
B1915124747809N12000748WA0079600846
B1915134747816N12000746WA0079700846
B1915144747822N12000746WA0079700847
B1915154747830N12000747WA0079800847
B1915164747837N12000749WA0079900847
B1915174747843N12000752WA0079900847
B1915184747849N12000755WA0080000847
B1915194747855N12000761WA0080000846
B1915204747861N12000768WA0080100845
B1915214747864N12000776WA0080100845
B1915224747866N12000785WA0080100845
B1915234747865N12000793WA0080100846
B1915244747863N12000800WA0080200847
B1915254747859N12000805WA0080200849
B1915264747856N12000809WA0080200850
B1915274747852N12000811WA0080300851
B1915284747849N12000812WA0080300851
B1915294747845N12000812WA0080400851
B1915304747840N12000810WA0080400851
B1915314747836N12000806WA0080500850
B1915324747831N12000803WA0080500850
B1915334747827N12000798WA0080500852
B1915344747823N12000794WA0080600854
B1915354747821N12000788WA0080700856
B1915364747820N12000782WA0080700858
B1915374747820N12000775WA0080800858
B1915384747820N12000768WA0080900858
B1915394747822N12000760WA0080900858
B1915404747824N12000753WA0081000858
B1915414747827N12000746WA0081000858
B1915424747831N12000740WA0081100858
B1915434747837N12000735WA0081100857
B1915444747843N12000733WA0081100856
B1915454747850N12000732WA0081100854
B1915464747858N12000734WA0081100852
B1915474747865N12000736WA0081100852
B1915484747871N12000741WA0081000853
B1915494747876N12000746WA0081000853
B1915504747881N12000752WA0081000853
B1915514747884N12000759WA0081000853
B1915524747886N12000767WA0081000853
B1915534747887N12000775WA0080900852
B1915544747887N12000782WA0080900851
B1915554747885N12000790WA0080900848
B1915564747882N12000797WA0080800845
B1915574747878N12000803WA0080700844
B1915584747873N12000808WA0080700844
B1915584747873N12000808WA0080700844
B1915594747868N12000810WA0080600845
B1916004747863N12000811WA0080500845
B1916014747858N12000810WA0080500846
B1916024747853N12000809WA0080500846
B1916034747848N12000808WA0080400847
B1916044747843N12000807WA0080400847
B1916054747839N12000806WA0080400847
B1916064747835N12000805WA0080400846
B1916074747830N12000804WA0080400846
B1916084747826N12000801WA0080400846
B1916094747822N12000798WA0080400846
B1916104747819N12000793WA0080400847
B1916114747817N12000788WA0080400848
B1916124747815N12000782WA0080400849
B1916134747816N12000775WA0080400850
B1916144747817N12000768WA0080400850
B1916154747820N12000760WA0080500851
B1916164747824N12000753WA0080500852
B1916174747828N12000747WA0080500853
B1916184747834N12000743WA0080600854
B1916194747840N12000741WA0080600853
B1916204747848N12000740WA0080700852
B1916214747855N12000740WA0080700850
B1916224747863N12000743WA0080700849
B1916234747869N12000747WA0080600847
B1916244747875N12000754WA0080600846
B1916254747879N12000762WA0080500844
B1916264747881N12000770WA0080500843
B1916274747881N12000779WA0080400841
B1916284747881N12000787WA0080300839
B1916294747879N12000794WA0080200838
B1916304747875N12000799WA0080100836
B1916314747871N12000803WA0080000834
B1916324747866N12000805WA0079900833
B1916334747862N12000805WA0079800832
B1916344747859N12000803WA0079700833
B1916354747856N12000801WA0079700833
B1916364747853N12000798WA0079600833
B1916374747850N12000795WA0079500833
B1916384747847N12000792WA0079500832
B1916394747843N12000789WA0079400831
B1916404747839N12000786WA0079400832
B1916414747836N12000784WA0079400833
B1916424747832N12000783WA0079300834
B1916434747829N12000781WA0079300834
B1916444747825N12000779WA0079300834
B1916454747821N12000777WA0079300834
B1916464747818N12000773WA0079300833
B1916474747815N12000768WA0079200833
B1916484747813N12000763WA0079200833
B1916494747813N12000757WA0079200833
B1916504747814N12000750WA0079100833
B1916514747816N12000743WA0079100833
B1916524747819N12000737WA0079100833
B1916534747824N12000731WA0079100833
B1916544747831N12000729WA0079100833
B1916554747837N12000730WA0079100833
B1916564747843N12000734WA0079100835
B1916574747847N12000741WA0079100835
B1916584747849N12000750WA0079100835
B1916594747849N12000759WA0079100835
B1917004747849N12000767WA0079100835
B1917014747847N12000774WA0079100835
B1917014747847N12000774WA0079100835
B1917024747844N12000781WA0079100834
B1917034747840N12000787WA0079100834
B1917044747836N12000791WA0079200834
B1917054747831N12000795WA0079200835
B1917064747826N12000797WA0079200836
B1917074747822N12000799WA0079200838
B1917084747817N12000800WA0079300839
B1917094747813N12000800WA0079400840
B1917104747809N12000798WA0079400841
B1917114747805N12000795WA0079500840
B1917124747801N12000791WA0079500840
B1917134747798N12000784WA0079500841
B1917144747796N12000777WA0079600842
B1917154747796N12000770WA0079600844
B1917164747797N12000762WA0079700844
B1917174747800N12000754WA0079800844
B1917184747803N12000747WA0079800844
B1917194747808N12000741WA0079800845
B1917204747814N12000736WA0079900846
B1917214747819N12000734WA0079900847
B1917224747825N12000733WA0080000848
B1917234747831N12000733WA0080100849
B1917244747838N12000734WA0080100849
B1917254747845N12000736WA0080200849
B1917264747850N12000740WA0080200850
B1917274747855N12000744WA0080300852
B1917284747860N12000751WA0080400852
B1917294747863N12000758WA0080400852
B1917304747864N12000767WA0080500851
B1917314747865N12000776WA0080500850
B1917324747863N12000783WA0080500850
B1917334747861N12000790WA0080500849
B1917344747858N12000796WA0080500850
B1917354747854N12000803WA0080600851
B1917364747850N12000809WA0080600852
B1917374747846N12000813WA0080700853
B1917384747842N12000815WA0080700856
B1917394747838N12000816WA0080800859
B1917404747834N12000814WA0080900859
B1917414747830N12000809WA0081000859
B1917424747827N12000804WA0081100859
B1917434747825N12000797WA0081200860
B1917444747826N12000789WA0081200861
B1917454747829N12000782WA0081300860
B1917464747833N12000776WA0081300860
B1917474747838N12000772WA0081400860
B1917484747844N12000769WA0081400861
B1917494747849N12000766WA0081500862
B1917504747854N12000764WA0081500863
B1917514747860N12000762WA0081600864
B1917524747865N12000761WA0081600864
B1917534747871N12000761WA0081700864
B1917544747877N12000763WA0081700863
B1917554747882N12000767WA0081800862
B1917564747887N12000773WA0081800862
B1917574747890N12000779WA0081800862
B1917584747893N12000785WA0081800861
B1917594747896N12000793WA0081800861
B1918004747897N12000801WA0081800860
B1918014747897N12000810WA0081800861
B1918024747895N12000818WA0081800861
B1918034747892N12000825WA0081800860
B1918044747888N12000831WA0081800861
B1918044747888N12000831WA0081800861
B1918054747884N12000835WA0081900862
B1918064747879N12000838WA0081900863
B1918074747874N12000841WA0081900863
B1918084747869N12000842WA0081900863
B1918094747863N12000843WA0082000864
B1918104747859N12000842WA0082000866
B1918114747855N12000840WA0082100867
B1918124747852N12000836WA0082200868
B1918134747848N12000833WA0082300869
B1918144747845N12000831WA0082300869
B1918154747841N12000828WA0082400869
B1918164747837N12000824WA0082500868
B1918174747834N12000819WA0082500868
B1918184747832N12000813WA0082500867
B1918194747831N12000805WA0082600866
B1918204747832N12000797WA0082600865
B1918214747834N12000790WA0082500864
B1918224747838N12000783WA0082500863
B1918234747843N12000778WA0082500862
B1918244747848N12000775WA0082400860
B1918254747854N12000773WA0082400859
B1918264747861N12000773WA0082300858
B1918274747867N12000775WA0082200857
B1918284747873N12000780WA0082100855
B1918294747879N12000785WA0082100854
B1918304747884N12000791WA0082000855
B1918314747888N12000797WA0081900854
B1918324747892N12000804WA0081900854
B1918334747897N12000811WA0081800853
B1918344747902N12000819WA0081800852
B1918354747907N12000825WA0081700853
B1918364747913N12000831WA0081600853
B1918374747919N12000836WA0081600853
B1918384747925N12000840WA0081500854
B1918394747931N12000845WA0081500853
B1918404747937N12000850WA0081500853
B1918414747942N12000855WA0081400853
B1918424747948N12000860WA0081400853
B1918434747953N12000865WA0081400853
B1918444747958N12000871WA0081300851
B1918454747963N12000877WA0081300850
B1918464747968N12000882WA0081200848
B1918474747974N12000886WA0081200847
B1918484747980N12000889WA0081100847
B1918494747986N12000891WA0081000847
B1918504747992N12000892WA0081000847
B1918514747998N12000893WA0080900846
B1918524748004N12000896WA0080900844
B1918534748011N12000899WA0080800842
B1918544748018N12000904WA0080700841
B1918554748023N12000909WA0080600842
B1918564748028N12000914WA0080500843
B1918574748032N12000919WA0080500845
B1918584748036N12000926WA0080500845
B1918594748039N12000934WA0080400844
B1919004748040N12000944WA0080400843
B1919014748039N12000952WA0080300842
B1919024748037N12000959WA0080300841
B1919034748032N12000963WA0080200840
B1919044748028N12000965WA0080100839
B1919054748024N12000964WA0080100837
B1919064748019N12000961WA0080000836
B1919074748015N12000957WA0079900833
B1919074748015N12000957WA0079900833
B1919084748012N12000951WA0079800830
B1919094748009N12000944WA0079700829
B1919104748006N12000938WA0079600828
B1919114748003N12000932WA0079500827
B1919124748000N12000926WA0079400826
B1919134747998N12000920WA0079300825
B1919144747995N12000913WA0079200823
B1919154747992N12000906WA0079100823
B1919164747989N12000901WA0079000823
B1919174747984N12000897WA0078900823
B1919184747980N12000892WA0078900821
B1919194747977N12000887WA0078800819
B1919204747973N12000881WA0078700816
B1919214747969N12000874WA0078500813
B1919224747964N12000867WA0078400810
B1919234747958N12000861WA0078200808
B1919244747952N12000856WA0078100807
B1919254747947N12000852WA0078000808
B1919264747943N12000849WA0077900810
B1919274747939N12000847WA0077700811
B1919284747936N12000844WA0077700811
B1919294747932N12000842WA0077600811
B1919304747929N12000838WA0077500811
B1919314747927N12000833WA0077400811
B1919324747925N12000827WA0077400812
B1919334747926N12000820WA0077300812
B1919344747928N12000813WA0077300813
B1919354747932N12000808WA0077200813
B1919364747937N12000804WA0077200812
B1919374747944N12000803WA0077100811
B1919384747951N12000805WA0077100810
B1919394747958N12000811WA0077000810
B1919404747963N12000818WA0077000810
B1919414747965N12000826WA0077000811
B1919424747966N12000834WA0076900811
B1919434747964N12000842WA0076900810
B1919444747961N12000847WA0076900809
B1919454747957N12000851WA0076800809
B1919464747952N12000851WA0076800807
B1919474747948N12000850WA0076700804
B1919484747943N12000849WA0076700801
B1919494747938N12000847WA0076600802
B1919504747933N12000845WA0076600803
B1919514747930N12000843WA0076500804
B1919524747926N12000841WA0076500804
B1919534747923N12000838WA0076400803
B1919544747920N12000834WA0076400801
B1919554747917N12000829WA0076300798
B1919564747914N12000822WA0076300795
B1919574747910N12000817WA0076200793
B1919584747906N12000812WA0076100793
B1919594747901N12000808WA0076000792
B1920004747897N12000805WA0075900792
B1920014747893N12000803WA0075900793
B1920024747888N12000801WA0075800793
B1920034747883N12000800WA0075800794
B1920044747878N12000799WA0075700796
B1920054747874N12000799WA0075700798
B1920064747870N12000799WA0075700800
B1920074747866N12000797WA0075700801
B1920084747862N12000795WA0075700800
B1920094747857N12000793WA0075700800
B1920104747852N12000792WA0075800802
B1920104747852N12000792WA0075800802
B1920114747848N12000792WA0075800803
B1920124747843N12000791WA0075800803
B1920134747839N12000790WA0075900802
B1920144747833N12000788WA0075900800
B1920154747828N12000784WA0075900797
B1920164747822N12000781WA0075900797
B1920174747817N12000777WA0075900798
B1920184747813N12000775WA0075900800
B1920194747809N12000773WA0075900801
B1920204747804N12000770WA0075900800
B1920214747800N12000768WA0075900799
B1920224747796N12000765WA0075900798
B1920234747791N12000763WA0075900796
B1920244747786N12000761WA0075900793
B1920254747781N12000758WA0075800791
B1920264747776N12000754WA0075700788
B1920274747772N12000750WA0075600785
B1920284747768N12000745WA0075500783
B1920294747765N12000738WA0075300781
B1920304747763N12000730WA0075200779
B1920314747763N12000721WA0075000777
B1920324747765N12000711WA0074900775
B1920334747769N12000703WA0074600772
B1920344747774N12000697WA0074500770
B1920354747779N12000693WA0074300767
B1920364747785N12000690WA0074100764
B1920374747791N12000689WA0073900761
B1920384747797N12000687WA0073700760
B1920394747804N12000687WA0073500758
B1920404747811N12000688WA0073300757
B1920414747818N12000689WA0073100756
B1920424747824N12000691WA0073000757
B1920434747830N12000693WA0072800758
B1920444747836N12000695WA0072700760
B1920454747842N12000696WA0072600760
B1920464747849N12000697WA0072600760
B1920474747856N12000698WA0072500760
B1920484747863N12000699WA0072400761
B1920494747869N12000700WA0072400762
B1920504747875N12000702WA0072400764
B1920514747880N12000704WA0072400765
B1920524747886N12000708WA0072400766
B1920534747890N12000713WA0072400767
B1920544747894N12000720WA0072400765
B1920554747896N12000728WA0072400765
B1920564747897N12000736WA0072400764
B1920574747896N12000745WA0072400764
B1920584747894N12000752WA0072400763
B1920594747892N12000760WA0072400763
B1921004747888N12000766WA0072400763
B1921014747885N12000772WA0072400764
B1921024747881N12000779WA0072400764
B1921034747877N12000785WA0072400765
B1921044747873N12000791WA0072400766
B1921054747868N12000794WA0072500767
B1921064747863N12000796WA0072500768
B1921074747859N12000797WA0072600769
B1921084747855N12000797WA0072700770
B1921094747850N12000797WA0072700770
B1921104747845N12000797WA0072800770
B1921114747840N12000797WA0072800769
B1921124747835N12000796WA0072900768
B1921134747830N12000794WA0072900768
B1921144747825N12000793WA0072900767
B1921144747825N12000793WA0072900767
B1921154747820N12000792WA0072900766
B1921164747815N12000791WA0072900764
B1921174747809N12000789WA0072900762
B1921184747804N12000787WA0072900761
B1921194747798N12000784WA0072900760
B1921204747793N12000781WA0072800759
B1921214747788N12000779WA0072800758
B1921224747782N12000778WA0072700756
B1921234747776N12000778WA0072600754
B1921244747770N12000778WA0072600753
B1921254747764N12000780WA0072500753
B1921264747758N12000781WA0072400752
B1921274747753N12000782WA0072300752
B1921284747747N12000782WA0072200751
B1921294747742N12000781WA0072100750
B1921304747737N12000780WA0072100751
B1921314747732N12000779WA0072000752
B1921324747727N12000778WA0072000752
B1921334747723N12000778WA0071900751
B1921344747717N12000778WA0071900749
B1921354747712N12000778WA0071800748
B1921364747707N12000777WA0071800747
B1921374747702N12000777WA0071700747
B1921384747697N12000776WA0071700746
B1921394747693N12000775WA0071600746
B1921404747689N12000773WA0071500744
B1921414747684N12000769WA0071400743
B1921424747680N12000762WA0071300740
B1921434747678N12000752WA0071200738
B1921444747677N12000742WA0071100736
B1921454747679N12000732WA0070900735
B1921464747682N12000723WA0070800734
B1921474747687N12000716WA0070600731
B1921484747693N12000710WA0070500729
B1921494747699N12000705WA0070300728
B1921504747706N12000700WA0070200727
B1921514747712N12000697WA0070000726
B1921524747719N12000693WA0069900725
B1921534747725N12000689WA0069800723
B1921544747731N12000686WA0069700721
B1921554747737N12000684WA0069500719
B1921564747743N12000682WA0069400716
B1921574747750N12000680WA0069200713
B1921584747757N12000678WA0069100711
B1921594747763N12000675WA0068800709
B1922004747769N12000673WA0068700708
B1922014747775N12000670WA0068500706
B1922024747781N12000667WA0068300705
B1922034747786N12000662WA0068200705
B1922044747791N12000657WA0068100706
B1922054747794N12000651WA0068000708
B1922064747797N12000646WA0067900710
B1922074747799N12000641WA0067800711
B1922084747801N12000637WA0067800711
B1922094747805N12000633WA0067700709
B1922104747811N12000630WA0067600704
B1922114747818N12000628WA0067500700
B1922124747825N12000626WA0067400701
B1922134747831N12000624WA0067200703
B1922144747835N12000621WA0067200704
B1922154747839N12000618WA0067100705
B1922164747843N12000616WA0067000705
B1922174747848N12000614WA0066900705
B1922184747855N12000611WA0066900704
B1922184747855N12000611WA0066900704
B1922194747862N12000607WA0066800703
B1922204747868N12000601WA0066800705
B1922214747872N12000595WA0066800708
B1922224747877N12000590WA0066800710
B1922234747882N12000585WA0066900712
B1922244747889N12000583WA0066900713
B1922254747895N12000583WA0066900715
B1922264747902N12000587WA0067000715
B1922274747907N12000594WA0067000714
B1922284747909N12000602WA0067000714
B1922294747910N12000610WA0067000714
B1922304747909N12000618WA0067000713
B1922314747906N12000624WA0066900712
B1922324747902N12000629WA0066900711
B1922334747897N12000632WA0066800708
B1922344747891N12000631WA0066700705
B1922354747885N12000628WA0066600705
B1922364747881N12000624WA0066600707
B1922374747877N12000620WA0066500708
B1922384747873N12000615WA0066500711
B1922394747870N12000611WA0066500711
B1922404747867N12000606WA0066500712
B1922414747864N12000601WA0066600712
B1922424747861N12000597WA0066600713
B1922434747859N12000593WA0066700715
B1922444747856N12000590WA0066700715
B1922454747853N12000587WA0066800713
B1922464747850N12000582WA0066800712
B1922474747847N12000576WA0066700710
B1922484747843N12000569WA0066700707
B1922494747839N12000562WA0066600706
B1922504747836N12000556WA0066600705
B1922514747833N12000550WA0066500705
B1922524747832N12000542WA0066500703
B1922534747830N12000534WA0066400703
B1922544747829N12000526WA0066300702
B1922554747828N12000518WA0066200702
B1922564747826N12000511WA0066200700
B1922574747823N12000504WA0066100699
B1922584747820N12000499WA0066100698
B1922594747818N12000493WA0066000698
B1923004747816N12000487WA0065900696
B1923014747815N12000479WA0065800694
B1923024747815N12000470WA0065700691
B1923034747814N12000461WA0065600688
B1923044747813N12000452WA0065500689
B1923054747812N12000444WA0065300690
B1923064747810N12000437WA0065300691
B1923074747808N12000430WA0065200690
B1923084747807N12000421WA0065100690
B1923094747806N12000411WA0065000689
B1923104747806N12000402WA0064900689
B1923114747806N12000394WA0064900689
B1923124747807N12000385WA0064800689
B1923134747807N12000378WA0064800689
B1923144747806N12000370WA0064800688
B1923154747804N12000362WA0064700686
B1923164747802N12000354WA0064700685
B1923174747799N12000347WA0064700685
B1923184747796N12000342WA0064600687
B1923194747792N12000338WA0064600687
B1923204747787N12000335WA0064600686
B1923214747781N12000333WA0064600685
B1923224747775N12000332WA0064600684
B1923224747775N12000332WA0064600684
B1923234747768N12000333WA0064600685
B1923244747763N12000337WA0064600686
B1923254747760N12000344WA0064600686
B1923264747759N12000351WA0064600685
B1923274747759N12000358WA0064600683
B1923284747760N12000365WA0064600682
B1923294747763N12000371WA0064600680
B1923304747766N12000376WA0064500678
B1923314747771N12000380WA0064500676
B1923324747776N12000382WA0064400674
B1923334747782N12000382WA0064300671
B1923344747788N12000379WA0064200669
B1923354747793N12000375WA0064100667
B1923364747798N12000370WA0064000665
B1923374747802N12000364WA0063900665
B1923384747805N12000359WA0063800666
B1923394747808N12000354WA0063700668
B1923404747811N12000350WA0063600670
B1923414747813N12000345WA0063600672
B1923424747816N12000339WA0063600672
B1923434747819N12000333WA0063500672
B1923444747823N12000328WA0063500672
B1923454747827N12000324WA0063500672
B1923464747832N12000322WA0063500671
B1923474747837N12000319WA0063400668
B1923484747842N12000315WA0063400666
B1923494747847N12000310WA0063300664
B1923504747852N12000303WA0063300663
B1923514747857N12000296WA0063200662
B1923524747861N12000288WA0063100661
B1923534747864N12000280WA0063000660
B1923544747867N12000271WA0063000660
B1923554747870N12000262WA0062900660
B1923564747872N12000254WA0062900660
B1923574747874N12000245WA0062800659
B1923584747877N12000237WA0062800659
B1923594747879N12000230WA0062700659
B1924004747882N12000222WA0062700660
B1924014747884N12000215WA0062600660
B1924024747887N12000207WA0062600659
B1924034747890N12000198WA0062500657
B1924044747892N12000189WA0062500655
B1924054747895N12000181WA0062400655
B1924064747899N12000173WA0062400654
B1924074747902N12000165WA0062300653
B1924084747905N12000157WA0062300653
B1924094747907N12000148WA0062200652
B1924104747908N12000139WA0062100650
B1924114747909N12000129WA0062000649
B1924124747909N12000120WA0062000648
B1924134747910N12000111WA0061900646
B1924144747910N12000102WA0061800643
B1924154747911N12000092WA0061600641
B1924164747912N12000083WA0061500639
B1924174747912N12000073WA0061400637
B1924184747913N12000064WA0061200636
B1924194747914N12000054WA0061100634
B1924204747916N12000045WA0060900632
B1924214747918N12000035WA0060700630
B1924224747921N12000027WA0060600630
B1924234747925N12000020WA0060400629
B1924244747929N12000013WA0060300629
B1924254747932N12000005WA0060200628
B1924254747932N12000005WA0060200628
B1924264747935N11959998WA0060100627
B1924274747938N11959990WA0060000626
B1924284747940N11959983WA0059900625
B1924294747943N11959976WA0059700623
B1924304747946N11959969WA0059600621
B1924314747950N11959962WA0059400617
B1924324747954N11959954WA0059300614
B1924334747958N11959945WA0059100611
B1924344747963N11959937WA0058900609
B1924354747967N11959928WA0058700607
B1924364747970N11959920WA0058500606
B1924374747973N11959912WA0058300606
B1924384747975N11959905WA0058200605
B1924394747976N11959897WA0058000604
B1924404747976N11959888WA0057900602
B1924414747975N11959878WA0057700600
B1924424747973N11959869WA0057600597
B1924434747971N11959860WA0057400595
B1924444747967N11959853WA0057300593
B1924454747963N11959846WA0057100591
B1924464747958N11959840WA0056900589
B1924474747952N11959835WA0056700586
B1924484747946N11959832WA0056600584
B1924494747940N11959829WA0056300583
B1924504747934N11959828WA0056200583
B1924514747928N11959827WA0056000583
B1924524747922N11959828WA0055900582
B1924534747916N11959829WA0055700581
B1924544747911N11959832WA0055600579
B1924554747905N11959836WA0055500579
B1924564747901N11959841WA0055400579
B1924574747897N11959845WA0055200578
B1924584747893N11959850WA0055200577
B1924594747889N11959856WA0055000575
B1925004747884N11959861WA0054900573
B1925014747878N11959866WA0054800571
B1925024747874N11959871WA0054700572
B1925034747869N11959875WA0054500572
B1925044747865N11959879WA0054400571
B1925054747861N11959884WA0054300570
B1925064747856N11959890WA0054300568
B1925074747852N11959896WA0054100566
B1925084747848N11959900WA0054100564
B1925094747843N11959904WA0053900563
B1925104747839N11959905WA0053800562
B1925114747834N11959904WA0053700560
B1925124747829N11959901WA0053600557
B1925134747825N11959895WA0053400554
B1925144747822N11959888WA0053300552
B1925154747820N11959880WA0053100550
B1925164747820N11959871WA0052900549
B1925174747822N11959863WA0052700547
B1925184747825N11959856WA0052600545
B1925194747828N11959849WA0052400543
B1925204747831N11959841WA0052300542
B1925214747834N11959834WA0052100540
B1925224747837N11959826WA0051900538
B1925234747839N11959818WA0051800536
B1925244747841N11959810WA0051600535
B1925254747843N11959802WA0051500535
B1925264747844N11959795WA0051300534
B1925274747845N11959788WA0051200533
B1925284747846N11959781WA0051100532
B1925284747846N11959781WA0051100532
B1925294747846N11959773WA0050900530
B1925304747846N11959765WA0050800528
B1925314747845N11959756WA0050600527
B1925324747845N11959748WA0050500527
B1925334747844N11959741WA0050300526
B1925344747844N11959733WA0050200526
B1925354747845N11959725WA0050100525
B1925364747845N11959717WA0050000523
B1925374747846N11959708WA0049800522
B1925384747845N11959699WA0049700521
B1925394747844N11959691WA0049600521
B1925404747844N11959683WA0049500520
B1925414747843N11959674WA0049400519
B1925424747844N11959664WA0049300518
B1925434747845N11959655WA0049100517
B1925444747846N11959646WA0049100517
B1925454747848N11959637WA0048900517
B1925464747850N11959629WA0048900517
B1925474747853N11959620WA0048800517
B1925484747855N11959612WA0048700515
B1925494747859N11959603WA0048600514
B1925504747863N11959596WA0048500512
B1925514747867N11959589WA0048400511
B1925524747871N11959583WA0048400510
B1925534747876N11959578WA0048200509
B1925544747881N11959573WA0048200507
B1925554747886N11959568WA0048000504
B1925564747892N11959562WA0048000502
B1925574747897N11959557WA0047800499
B1925584747903N11959550WA0047700497
B1925594747908N11959544WA0047500496
B1926004747912N11959538WA0047400495
B1926014747916N11959532WA0047300494
B1926024747921N11959526WA0047100493
B1926034747926N11959520WA0047000491
B1926044747931N11959513WA0046900489
B1926054747935N11959505WA0046700487
B1926064747939N11959497WA0046600487
B1926074747942N11959489WA0046400486
B1926084747945N11959481WA0046300485
B1926094747948N11959474WA0046200484
B1926104747950N11959467WA0046100483
B1926114747953N11959460WA0045900481
B1926124747956N11959453WA0045800479
B1926134747959N11959445WA0045600477
B1926144747963N11959439WA0045500475
B1926154747967N11959433WA0045300473
B1926164747971N11959427WA0045200471
B1926174747975N11959422WA0045000469
B1926184747979N11959415WA0044900466
B1926194747983N11959409WA0044700464
B1926204747987N11959402WA0044600462
B1926214747991N11959396WA0044400461
B1926224747995N11959390WA0044200459
B1926234747999N11959383WA0044000457
B1926244748003N11959376WA0043900454
B1926254748007N11959368WA0043700451
B1926264748010N11959360WA0043500448
B1926274748014N11959353WA0043300445
B1926284748018N11959345WA0043100443
B1926294748021N11959337WA0042900441
B1926304748024N11959329WA0042700439
B1926314748026N11959321WA0042400436
B1926314748026N11959321WA0042400436
B1926324748029N11959312WA0042300433
B1926334748031N11959303WA0042000430
B1926344748033N11959293WA0041800428
B1926354748034N11959284WA0041600427
B1926364748034N11959276WA0041400426
B1926374748034N11959268WA0041200426
B1926384748033N11959261WA0041100425
B1926394748032N11959254WA0040800423
B1926404748031N11959246WA0040700422
B1926414748029N11959237WA0040500420
B1926424748028N11959229WA0040400418
B1926434748026N11959221WA0040200418
B1926444748024N11959214WA0040000418
B1926454748022N11959207WA0039900418
B1926464748021N11959199WA0039800417
B1926474748019N11959192WA0039600415
B1926484748017N11959184WA0039500413
B1926494748015N11959175WA0039400410
B1926504748013N11959167WA0039300408
B1926514748010N11959159WA0039100408
B1926524748007N11959152WA0039000407
B1926534748003N11959146WA0038900407
B1926544748000N11959141WA0038800406
B1926554747997N11959135WA0038600405
B1926564747993N11959128WA0038500403
B1926574747989N11959122WA0038300401
B1926584747984N11959116WA0038200400
B1926594747980N11959111WA0038100399
B1927004747975N11959106WA0038000398
B1927014747971N11959102WA0037800397
B1927024747966N11959099WA0037700395
B1927034747960N11959097WA0037500393
B1927044747955N11959095WA0037400391
B1927054747949N11959091WA0037300389
B1927064747945N11959086WA0037100388
B1927074747942N11959080WA0037000386
B1927084747940N11959072WA0036900385
B1927094747939N11959063WA0036700383
B1927104747939N11959054WA0036600381
B1927114747941N11959046WA0036400379
B1927124747943N11959039WA0036300381
B1927134747945N11959033WA0036100382
B1927144747948N11959027WA0036000381
B1927154747953N11959021WA0035900379
B1927164747957N11959015WA0035800377
B1927174747962N11959009WA0035600375
B1927184747966N11959003WA0035500374
B1927194747969N11958995WA0035300374
B1927204747971N11958988WA0035200374
B1927214747973N11958980WA0035100374
B1927224747974N11958972WA0035000373
B1927234747976N11958965WA0034900372
B1927244747977N11958957WA0034800371
B1927254747977N11958949WA0034700369
B1927264747979N11958941WA0034600368
B1927274747980N11958933WA0034400366
B1927284747983N11958926WA0034300365
B1927294747987N11958919WA0034200364
B1927304747992N11958915WA0034100363
B1927314747997N11958911WA0034000361
B1927324748003N11958909WA0033900360
B1927334748008N11958908WA0033700359
B1927344748014N11958908WA0033600357
B1927354748020N11958910WA0033500356
B1927354748020N11958910WA0033500356
B1927364748025N11958912WA0033400354
B1927374748031N11958915WA0033200353
B1927384748036N11958919WA0033100352
B1927394748040N11958924WA0033000351
B1927404748044N11958930WA0032900349
B1927414748047N11958936WA0032700347
B1927424748051N11958943WA0032600346
B1927434748054N11958950WA0032400345
B1927444748058N11958956WA0032300343
B1927454748062N11958962WA0032200341
B1927464748067N11958968WA0032100340
B1927474748071N11958974WA0031900339
B1927484748075N11958979WA0031800337
B1927494748080N11958985WA0031600336
B1927504748083N11958992WA0031500335
B1927514748084N11959000WA0031300334
B1927524748084N11959008WA0031200334
B1927534748082N11959014WA0031100333
B1927544748077N11959017WA0030900333
B1927554748072N11959017WA0030800332
B1927564748066N11959016WA0030600331
B1927574748062N11959014WA0030500332
B1927584748060N11959011WA0030300331
B1927594748058N11959004WA0030200330
B1928004748057N11958999WA0030100329
B1928014748058N11958992WA0029900327
B1928024748061N11958988WA0029800326
B1928034748067N11958986WA0029600326
B1928044748072N11958990WA0029400324
B1928054748076N11958998WA0029200324
B1928064748079N11959005WA0029100322
B1928074748080N11959014WA0028900321
B1928084748077N11959020WA0028800320
B1928094748073N11959021WA0028500319
B1928104748068N11959018WA0028400319
B1928114748064N11959014WA0028200318
B1928124748061N11959009WA0028100316
B1928134748059N11959003WA0027900314
B1928144748057N11958997WA0027800312
B1928154748054N11958990WA0027600310
B1928164748052N11958983WA0027500308
B1928174748050N11958976WA0027400306
B1928184748049N11958970WA0027200306
B1928194748048N11958962WA0027100306
B1928204748047N11958954WA0027000305
B1928214748045N11958947WA0026800304
B1928224748042N11958941WA0026700303
B1928234748038N11958936WA0026600299
B1928244748033N11958932WA0026500297
B1928254748028N11958931WA0026300295
B1928264748023N11958931WA0026200293
B1928274748018N11958934WA0026000291
B1928284748014N11958939WA0025900288
B1928294748013N11958946WA0025800285
B1928304748012N11958955WA0025600282
B1928314748014N11958964WA0025500280
B1928324748017N11958971WA0025300278
B1928334748021N11958977WA0025200277
B1928344748027N11958982WA0025000275
B1928354748032N11958986WA0024800273
B1928364748037N11958991WA0024700270
B1928374748041N11958998WA0024500268
B1928384748045N11959006WA0024400266
B1928394748046N11959014WA0024200264
B1928394748046N11959014WA0024200264
B1928404748046N11959022WA0024100263
B1928414748042N11959027WA0024000262
B1928424748037N11959029WA0023800261
B1928434748032N11959026WA0023600259
B1928444748028N11959022WA0023500258
B1928454748026N11959017WA0023300256
B1928464748024N11959012WA0023100254
B1928474748021N11959009WA0023000253
B1928484748017N11959008WA0022900250
B1928494748012N11959009WA0022700247
B1928504748006N11959012WA0022600242
B1928514748001N11959016WA0022400240
B1928524747996N11959020WA0022300240
B1928534747993N11959022WA0022100242
B1928544747991N11959025WA0022000240
B1928554747987N11959029WA0021900238
B1928564747982N11959034WA0021800231
B1928574747976N11959039WA0021600227
B1928584747971N11959044WA0021500226
B1928594747967N11959050WA0021300226
B1929004747963N11959054WA0021200227
B1929014747960N11959059WA0021000226
B1929024747957N11959063WA0020900225
B1929034747954N11959066WA0020700224
B1929044747952N11959069WA0020600223
B1929054747950N11959070WA0020400221
B1929064747949N11959071WA0020300220
B1929074747949N11959071WA0020300219
B1929084747949N11959072WA0020200218
B1929094747949N11959072WA0020200217
B1929104747949N11959072WA0020100216
B1929114747949N11959072WA0020100216
B1929124747949N11959071WA0020000215
B1929134747949N11959071WA0020000215
B1929144747949N11959071WA0019900214
B1929154747948N11959071WA0019900214
B1929164747948N11959071WA0019900213
B1929174747948N11959071WA0019800213
B1929184747948N11959071WA0019800212
B1929194747948N11959071WA0019800212
B1929204747948N11959071WA0019800212
B1929214747948N11959070WA0019700211
B1929224747948N11959071WA0019700211
B1929234747948N11959071WA0019700211
B1929244747948N11959071WA0019700211
B1929254747947N11959072WA0019700210
B1929264747947N11959072WA0019700210
B1929274747947N11959073WA0019700210
B1929284747947N11959073WA0019700210
B1929294747947N11959072WA0019600210
B1929304747947N11959072WA0019600210
B1929314747947N11959072WA0019600209
B1929324747947N11959072WA0019600209
B1929334747947N11959072WA0019600209
B1929344747947N11959072WA0019600209
B1929354747947N11959072WA0019600209
B1929364747946N11959072WA0019600209
B1929374747946N11959072WA0019600209
B1929384747945N11959072WA0019600210
B1929394747945N11959072WA0019600210
B1929404747944N11959072WA0019600210
B1929414747943N11959071WA0019600209
B1929424747943N11959071WA0019600209
B1929434747942N11959071WA0019600209
