AXFMSFP Flymaster Live, V1.0
HFFXA010
HFPLTPILOT:Robert Parker
HFGTYGLIDERTYPE:Advance Impress 4 / Ozone Rush 6
HFGIDGLIDERID:
HFDTM100GPSDATUM:WGS-1984
HFCIDCOMPETITIONID:1986
HFCCLCOMPETITIONCLASS:
HOSITSITE:LAUNCH
HFGPS:UBLOXNEO6
HFPRSPRESSALTSENSOR:NA
HFRFWFIRMWAREVERSION:202g
HFRHWHARDWAREVERSION:1.0R2
HFFTYFRTYPE:FLYMASTER,LIVE
HFDTE150625
B1918064748233N12002324WA0107301120
B1918074748231N12002324WA0107201119
B1918084748228N12002325WA0107201118
B1918094748225N12002326WA0107201117
B1918104748222N12002328WA0107201116
B1918114748218N12002330WA0107101114
B1918124748214N12002333WA0107101114
B1918134748211N12002336WA0107001114
B1918144748208N12002337WA0107001116
B1918154748205N12002337WA0106901117
B1918164748202N12002338WA0106901116
B1918174748198N12002339WA0106901116
B1918184748194N12002340WA0106901115
B1918194748191N12002341WA0106801115
B1918204748188N12002341WA0106801115
B1918214748184N12002341WA0106801116
B1918224748180N12002340WA0106801117
B1918234748176N12002339WA0106801118
B1918244748172N12002337WA0106801118
B1918254748169N12002336WA0106801119
B1918264748165N12002336WA0106801120
B1918274748161N12002336WA0106801120
B1918284748158N12002338WA0106901119
B1918294748155N12002339WA0106901119
B1918304748152N12002340WA0106901119
B1918314748149N12002341WA0106901118
B1918324748145N12002343WA0106901116
B1918334748141N12002344WA0106801114
B1918344748137N12002346WA0106801113
B1918354748133N12002347WA0106801112
B1918364748129N12002348WA0106701111
B1918374748125N12002349WA0106601110
B1918384748122N12002350WA0106501108
B1918394748118N12002351WA0106501106
B1918404748114N12002353WA0106401106
B1918414748110N12002354WA0106301105
B1918424748107N12002353WA0106201105
B1918434748103N12002352WA0106101105
B1918444748099N12002350WA0106001105
B1918454748095N12002347WA0105901104
B1918464748091N12002344WA0105901104
B1918474748087N12002341WA0105801103
B1918484748083N12002338WA0105701103
B1918494748079N12002333WA0105601102
B1918504748075N12002329WA0105501100
B1918514748071N12002324WA0105501100
B1918524748068N12002318WA0105401099
B1918534748065N12002313WA0105301100
B1918544748062N12002307WA0105201099
B1918554748059N12002302WA0105101099
B1918564748055N12002296WA0105101098
B1918574748051N12002290WA0105001098
B1918584748048N12002284WA0105001099
B1918594748044N12002279WA0104901101
B1919004748041N12002274WA0104901103
B1919014748038N12002272WA0104901104
B1919024748034N12002270WA0104901104
B1919034748030N12002269WA0104901103
B1919044748025N12002268WA0104901103
B1919054748021N12002266WA0104901103
B1919064748018N12002263WA0104901101
B1919074748015N12002259WA0104901099
B1919074748015N12002259WA0104901099
B1919084748012N12002253WA0104901097
B1919094748011N12002247WA0104801096
B1919104748010N12002241WA0104801095
B1919114748011N12002235WA0104701094
B1919124748012N12002229WA0104601092
B1919134748013N12002222WA0104501090
B1919144748015N12002214WA0104401088
B1919154748017N12002207WA0104401087
B1919164748019N12002200WA0104201086
B1919174748020N12002194WA0104101085
B1919184748019N12002187WA0104001083
B1919194748018N12002180WA0103901081
B1919204748015N12002174WA0103701079
B1919214748011N12002170WA0103601077
B1919224748006N12002167WA0103401075
B1919234748001N12002168WA0103301073
B1919244747996N12002170WA0103201071
B1919254747993N12002174WA0103001069
B1919264747989N12002179WA0102801067
B1919274747984N12002185WA0102701064
B1919284747980N12002191WA0102501062
B1919294747976N12002196WA0102401062
B1919304747972N12002201WA0102201061
B1919314747968N12002206WA0102001061
B1919324747965N12002210WA0101901060
B1919334747961N12002215WA0101701058
B1919344747957N12002221WA0101601057
B1919354747952N12002226WA0101501056
B1919364747948N12002231WA0101301055
B1919374747944N12002236WA0101201055
B1919384747940N12002241WA0101101054
B1919394747936N12002245WA0101001054
B1919404747931N12002250WA0100901052
B1919414747926N12002254WA0100801051
B1919424747922N12002258WA0100701051
B1919434747917N12002261WA0100601050
B1919444747913N12002263WA0100501051
B1919454747909N12002265WA0100401051
B1919464747905N12002268WA0100301051
B1919474747900N12002270WA0100301050
B1919484747895N12002271WA0100201050
B1919494747890N12002270WA0100201049
B1919504747885N12002270WA0100101050
B1919514747881N12002269WA0100101050
B1919524747877N12002269WA0100101050
B1919534747873N12002268WA0100001050
B1919544747869N12002266WA0100001049
B1919554747865N12002262WA0100001047
B1919564747861N12002258WA0099901046
B1919574747858N12002253WA0099901045
B1919584747853N12002251WA0099801044
B1919594747849N12002250WA0099701043
B1920004747845N12002250WA0099701042
B1920014747841N12002251WA0099601042
B1920024747837N12002252WA0099501041
B1920034747832N12002252WA0099501039
B1920044747827N12002252WA0099401038
B1920054747823N12002252WA0099301037
B1920064747819N12002252WA0099201037
B1920074747815N12002252WA0099101038
B1920084747811N12002251WA0099101038
B1920094747807N12002250WA0099001037
B1920104747802N12002250WA0098901036
B1920104747802N12002250WA0098901036
B1920114747798N12002250WA0098901035
B1920124747794N12002251WA0098801035
B1920134747790N12002251WA0098801034
B1920144747785N12002250WA0098701032
B1920154747781N12002249WA0098601031
B1920164747777N12002247WA0098501029
B1920174747772N12002246WA0098401028
B1920184747768N12002246WA0098301026
B1920194747763N12002246WA0098201024
B1920204747759N12002246WA0098101022
B1920214747755N12002245WA0098001022
B1920224747751N12002244WA0097901021
B1920234747746N12002243WA0097801020
B1920244747741N12002241WA0097601018
B1920254747736N12002240WA0097601017
B1920264747731N12002239WA0097401017
B1920274747726N12002238WA0097401018
B1920284747721N12002236WA0097301019
B1920294747717N12002235WA0097201020
B1920304747712N12002233WA0097101020
B1920314747708N12002230WA0097101018
B1920324747703N12002227WA0097001016
B1920334747699N12002221WA0097001013
B1920344747696N12002215WA0096801010
B1920354747693N12002207WA0096801006
B1920364747691N12002200WA0096601004
B1920374747690N12002193WA0096501003
B1920384747689N12002187WA0096301002
B1920394747690N12002179WA0096201000
B1920404747691N12002172WA0096000998
B1920414747692N12002164WA0095900995
B1920424747694N12002157WA0095700993
B1920434747696N12002150WA0095600992
B1920444747698N12002143WA0095400990
B1920454747700N12002136WA0095200988
B1920464747701N12002128WA0095000985
B1920474747703N12002120WA0094900982
B1920484747705N12002112WA0094700980
B1920494747707N12002104WA0094500978
B1920504747709N12002097WA0094300977
B1920514747710N12002090WA0094100976
B1920524747711N12002082WA0093900974
B1920534747711N12002075WA0093800971
B1920544747711N12002066WA0093500968
B1920554747712N12002058WA0093400964
B1920564747713N12002049WA0093100962
B1920574747714N12002040WA0092900960
B1920584747714N12002032WA0092700958
B1920594747714N12002024WA0092500956
B1921004747715N12002016WA0092300954
B1921014747716N12002008WA0092100952
B1921024747717N12001999WA0091900951
B1921034747718N12001991WA0091700950
B1921044747719N12001984WA0091500948
B1921054747719N12001976WA0091400947
B1921064747720N12001969WA0091200947
B1921074747721N12001962WA0091000946
B1921084747721N12001955WA0090900945
B1921094747721N12001948WA0090700944
B1921104747720N12001940WA0090600942
B1921114747719N12001933WA0090500940
B1921124747719N12001925WA0090300937
B1921134747719N12001917WA0090100935
B1921144747719N12001909WA0090000934
B1921144747719N12001909WA0090000934
B1921154747720N12001902WA0089800932
B1921164747720N12001895WA0089600931
B1921174747720N12001887WA0089500929
B1921184747720N12001879WA0089300927
B1921194747720N12001871WA0089200925
B1921204747720N12001863WA0089000924
B1921214747720N12001855WA0088900922
B1921224747720N12001848WA0088700921
B1921234747720N12001840WA0088600920
B1921244747719N12001832WA0088400918
B1921254747718N12001823WA0088300915
B1921264747718N12001814WA0088100914
B1921274747717N12001806WA0088000912
B1921284747717N12001798WA0087800912
B1921294747717N12001790WA0087700911
B1921304747717N12001783WA0087500909
B1921314747718N12001775WA0087400907
B1921324747719N12001768WA0087200906
B1921334747720N12001760WA0087100904
B1921344747720N12001753WA0086900903
B1921354747720N12001746WA0086800902
B1921364747721N12001739WA0086600900
B1921374747722N12001731WA0086500898
B1921384747722N12001724WA0086300896
B1921394747723N12001716WA0086200894
B1921404747724N12001708WA0086000893
B1921414747724N12001700WA0085900892
B1921424747725N12001693WA0085700890
B1921434747726N12001685WA0085600889
B1921444747726N12001677WA0085400887
B1921454747727N12001669WA0085300885
B1921464747727N12001662WA0085100883
B1921474747728N12001654WA0085000882
B1921484747729N12001646WA0084800880
B1921494747729N12001638WA0084700878
B1921504747729N12001631WA0084500875
B1921514747730N12001622WA0084400873
B1921524747730N12001614WA0084200870
B1921534747731N12001605WA0084000867
B1921544747731N12001597WA0083800865
B1921554747732N12001590WA0083600863
B1921564747732N12001582WA0083400861
B1921574747733N12001574WA0083200859
B1921584747734N12001566WA0083000857
B1921594747736N12001558WA0082800855
B1922004747738N12001550WA0082600854
B1922014747740N12001543WA0082500852
B1922024747743N12001537WA0082200850
B1922034747746N12001531WA0082100849
B1922044747749N12001524WA0081900847
B1922054747753N12001518WA0081700845
B1922064747756N12001513WA0081500843
B1922074747760N12001509WA0081400842
B1922084747764N12001504WA0081100840
B1922094747768N12001500WA0081000837
B1922104747771N12001495WA0080800835
B1922114747775N12001489WA0080600833
B1922124747779N12001483WA0080400831
B1922134747782N12001479WA0080300830
B1922144747785N12001474WA0080100828
B1922154747789N12001469WA0079900825
B1922164747792N12001463WA0079700822
B1922174747795N12001457WA0079500819
B1922184747798N12001449WA0079300817
B1922184747798N12001449WA0079300817
B1922194747800N12001443WA0079100816
B1922204747800N12001436WA0078900815
B1922214747801N12001429WA0078800814
B1922224747800N12001422WA0078500813
B1922234747799N12001415WA0078400811
B1922244747797N12001408WA0078200810
B1922254747795N12001402WA0078100809
B1922264747792N12001395WA0077900808
B1922274747790N12001388WA0077800808
B1922284747786N12001381WA0077600808
B1922294747783N12001375WA0077600808
B1922304747780N12001369WA0077400809
B1922314747778N12001364WA0077400810
B1922324747775N12001358WA0077300810
B1922334747773N12001351WA0077200810
B1922344747773N12001344WA0077200809
B1922354747774N12001336WA0077100809
B1922364747776N12001330WA0077100809
B1922374747779N12001324WA0077000808
B1922384747783N12001320WA0077000808
B1922394747786N12001315WA0077000808
B1922404747789N12001309WA0076900808
B1922414747791N12001302WA0076900807
B1922424747792N12001294WA0076900806
B1922434747791N12001286WA0076800805
B1922444747790N12001279WA0076800805
B1922454747786N12001273WA0076800804
B1922464747782N12001268WA0076700803
B1922474747777N12001264WA0076700801
B1922484747772N12001261WA0076600800
B1922494747767N12001260WA0076500800
B1922504747762N12001259WA0076400800
B1922514747757N12001260WA0076400799
B1922524747751N12001261WA0076300797
B1922534747745N12001260WA0076200796
B1922544747740N12001259WA0076100795
B1922554747735N12001256WA0076100795
B1922564747731N12001252WA0076000794
B1922574747727N12001247WA0075900794
B1922584747724N12001241WA0075800794
B1922594747721N12001235WA0075800794
B1923004747718N12001229WA0075700794
B1923014747714N12001224WA0075700795
B1923024747711N12001220WA0075600796
B1923034747707N12001216WA0075600796
B1923044747703N12001213WA0075600795
B1923054747699N12001209WA0075500795
B1923064747695N12001206WA0075500795
B1923074747690N12001205WA0075500794
B1923084747685N12001205WA0075400793
B1923094747680N12001205WA0075400792
B1923104747676N12001203WA0075300792
B1923114747672N12001198WA0075300792
B1923124747669N12001191WA0075200791
B1923134747668N12001184WA0075200791
B1923144747668N12001176WA0075200792
B1923154747671N12001171WA0075100792
B1923164747675N12001166WA0075100792
B1923174747681N12001162WA0075100793
B1923184747686N12001158WA0075100795
B1923194747690N12001154WA0075100797
B1923204747694N12001151WA0075100799
B1923214747699N12001149WA0075200799
B1923224747704N12001147WA0075200799
B1923224747704N12001147WA0075200799
B1923234747710N12001146WA0075300798
B1923244747715N12001146WA0075300798
B1923254747719N12001147WA0075300799
B1923264747723N12001151WA0075400799
B1923274747727N12001156WA0075400797
B1923284747730N12001163WA0075400796
B1923294747732N12001171WA0075400795
B1923304747733N12001179WA0075400794
B1923314747734N12001188WA0075400795
B1923324747734N12001195WA0075400797
B1923334747733N12001202WA0075400799
B1923344747732N12001207WA0075500799
B1923354747730N12001213WA0075500799
B1923364747727N12001218WA0075500797
B1923374747723N12001224WA0075500796
B1923384747720N12001228WA0075500795
B1923394747715N12001231WA0075500795
B1923404747711N12001233WA0075400794
B1923414747706N12001233WA0075400793
B1923424747702N12001233WA0075400793
B1923434747697N12001231WA0075400792
B1923444747693N12001227WA0075300791
B1923454747690N12001223WA0075300791
B1923464747686N12001219WA0075200790
B1923474747683N12001214WA0075200789
B1923484747679N12001209WA0075100789
B1923494747675N12001203WA0075100789
B1923504747672N12001197WA0075100790
B1923514747669N12001190WA0075000790
B1923524747667N12001183WA0075000792
B1923534747666N12001176WA0075000793
B1923544747667N12001169WA0075000794
B1923554747669N12001163WA0075000795
B1923564747672N12001157WA0075100796
B1923574747676N12001152WA0075100796
B1923584747682N12001150WA0075200795
B1923594747688N12001151WA0075200796
B1924004747692N12001156WA0075200796
B1924014747696N12001163WA0075200797
B1924024747698N12001171WA0075300799
B1924034747698N12001179WA0075300801
B1924044747696N12001185WA0075400802
B1924054747693N12001191WA0075500802
B1924064747689N12001195WA0075500802
B1924074747684N12001198WA0075600803
B1924084747679N12001199WA0075700804
B1924094747675N12001198WA0075700804
B1924104747671N12001195WA0075800806
B1924114747667N12001190WA0075800807
B1924124747665N12001184WA0075900808
B1924134747664N12001177WA0076000808
B1924144747664N12001169WA0076100808
B1924154747665N12001162WA0076100808
B1924164747668N12001155WA0076200808
B1924174747672N12001150WA0076200808
B1924184747678N12001146WA0076300808
B1924194747684N12001146WA0076300809
B1924204747690N12001149WA0076400810
B1924214747694N12001154WA0076400811
B1924224747698N12001159WA0076500814
B1924234747699N12001165WA0076500816
B1924244747699N12001171WA0076700818
B1924254747698N12001177WA0076700818
B1924254747698N12001177WA0076700818
B1924264747696N12001184WA0076800818
B1924274747692N12001189WA0076900817
B1924284747688N12001193WA0077000817
B1924294747683N12001195WA0077000817
B1924304747677N12001196WA0077100818
B1924314747673N12001195WA0077100820
B1924324747668N12001192WA0077200822
B1924334747665N12001187WA0077300823
B1924344747662N12001181WA0077300823
B1924354747660N12001174WA0077400823
B1924364747660N12001166WA0077400822
B1924374747661N12001159WA0077500822
B1924384747664N12001154WA0077500822
B1924394747667N12001149WA0077500823
B1924404747672N12001147WA0077600823
B1924414747677N12001145WA0077600823
B1924424747682N12001145WA0077600822
B1924434747689N12001148WA0077700821
B1924444747695N12001152WA0077700822
B1924454747700N12001157WA0077700824
B1924464747704N12001165WA0077800826
B1924474747706N12001173WA0077800828
B1924484747707N12001182WA0077900829
B1924494747707N12001189WA0078000831
B1924504747706N12001195WA0078100833
B1924514747704N12001200WA0078200834
B1924524747701N12001204WA0078300834
B1924534747698N12001210WA0078400832
B1924544747693N12001215WA0078400831
B1924554747688N12001219WA0078500832
B1924564747682N12001221WA0078600833
B1924574747677N12001220WA0078600834
B1924584747672N12001218WA0078700835
B1924594747667N12001214WA0078700835
B1925004747662N12001210WA0078800836
B1925014747659N12001204WA0078800836
B1925024747656N12001198WA0078900836
B1925034747654N12001191WA0078900835
B1925044747653N12001184WA0079000834
B1925054747652N12001177WA0079000834
B1925064747653N12001170WA0079000833
B1925074747656N12001164WA0079000831
B1925084747659N12001159WA0079000830
B1925094747664N12001155WA0079000829
B1925104747671N12001153WA0079000828
B1925114747677N12001152WA0078900827
B1925124747684N12001152WA0078900828
B1925134747690N12001153WA0078900829
B1925144747695N12001154WA0078900831
B1925154747701N12001155WA0078900831
B1925164747707N12001157WA0078900832
B1925174747713N12001160WA0078900832
B1925184747719N12001163WA0078900832
B1925194747724N12001167WA0079000833
B1925204747730N12001171WA0079000834
B1925214747734N12001176WA0079000836
B1925224747738N12001182WA0079100837
B1925234747741N12001189WA0079200838
B1925244747743N12001197WA0079200838
B1925254747745N12001204WA0079300838
B1925264747746N12001212WA0079300839
B1925274747745N12001219WA0079400839
B1925284747744N12001225WA0079500838
B1925284747744N12001225WA0079500838
B1925294747741N12001231WA0079500838
B1925304747737N12001236WA0079500837
B1925314747733N12001239WA0079500836
B1925324747728N12001240WA0079500835
B1925334747723N12001239WA0079500834
B1925344747719N12001236WA0079500834
B1925354747715N12001232WA0079500836
B1925364747712N12001227WA0079500838
B1925374747711N12001222WA0079500839
B1925384747711N12001216WA0079500839
B1925394747712N12001210WA0079600839
B1925404747713N12001204WA0079600839
B1925414747715N12001198WA0079600838
B1925424747718N12001191WA0079600838
B1925434747720N12001184WA0079600838
B1925444747723N12001178WA0079600838
B1925454747726N12001171WA0079600839
B1925464747729N12001164WA0079600839
B1925474747733N12001158WA0079600839
B1925484747737N12001151WA0079600839
B1925494747740N12001146WA0079600840
B1925504747744N12001141WA0079600840
B1925514747748N12001137WA0079600840
B1925524747751N12001133WA0079600839
B1925534747755N12001128WA0079600837
B1925544747759N12001123WA0079600836
B1925554747764N12001119WA0079600834
B1925564747769N12001118WA0079500834
B1925574747773N12001120WA0079500833
B1925584747777N12001125WA0079400832
B1925594747780N12001132WA0079400831
B1926004747781N12001139WA0079300831
B1926014747781N12001146WA0079300831
B1926024747779N12001152WA0079200831
B1926034747777N12001158WA0079200830
B1926044747773N12001162WA0079100828
B1926054747769N12001165WA0079100826
B1926064747765N12001165WA0079000825
B1926074747760N12001164WA0078900824
B1926084747756N12001163WA0078800824
B1926094747752N12001162WA0078800824
B1926104747749N12001161WA0078700824
B1926114747745N12001161WA0078700824
B1926124747741N12001161WA0078600822
B1926134747736N12001162WA0078500822
B1926144747732N12001163WA0078500821
B1926154747728N12001166WA0078400820
B1926164747724N12001169WA0078300819
B1926174747719N12001172WA0078300818
B1926184747715N12001175WA0078200818
B1926194747710N12001177WA0078100819
B1926204747705N12001180WA0078100820
B1926214747702N12001183WA0078100822
B1926224747698N12001186WA0078000823
B1926234747695N12001190WA0078000824
B1926244747690N12001194WA0078000824
B1926254747685N12001195WA0078100826
B1926264747681N12001193WA0078100827
B1926274747678N12001187WA0078100828
B1926284747678N12001179WA0078200829
B1926294747679N12001171WA0078200830
B1926304747682N12001165WA0078300833
B1926314747686N12001160WA0078400836
B1926314747686N12001160WA0078400836
B1926324747690N12001155WA0078500838
B1926334747696N12001153WA0078600840
B1926344747701N12001153WA0078700843
B1926354747706N12001154WA0078900846
B1926364747710N12001158WA0079000847
B1926374747714N12001164WA0079200848
B1926384747717N12001172WA0079300848
B1926394747719N12001180WA0079500849
B1926404747719N12001189WA0079600849
B1926414747718N12001197WA0079700851
B1926424747718N12001204WA0079900852
B1926434747718N12001211WA0080000854
B1926444747717N12001218WA0080100855
B1926454747716N12001225WA0080200855
B1926464747714N12001231WA0080300854
B1926474747711N12001238WA0080400853
B1926484747708N12001243WA0080500851
B1926494747703N12001247WA0080500850
B1926504747699N12001249WA0080600851
B1926514747694N12001249WA0080600852
B1926524747690N12001249WA0080600853
B1926534747686N12001248WA0080700855
B1926544747682N12001245WA0080700856
B1926554747678N12001242WA0080800857
B1926564747674N12001238WA0080900858
B1926574747672N12001233WA0080900859
B1926584747670N12001228WA0081000860
B1926594747670N12001222WA0081000861
B1927004747670N12001215WA0081100861
B1927014747670N12001208WA0081200862
B1927024747671N12001201WA0081200863
B1927034747673N12001196WA0081300864
B1927044747676N12001191WA0081400865
B1927054747679N12001186WA0081400864
B1927064747683N12001180WA0081500863
B1927074747688N12001175WA0081500862
B1927084747692N12001170WA0081600862
B1927094747698N12001167WA0081600862
B1927104747703N12001163WA0081600862
B1927114747708N12001158WA0081700863
B1927124747711N12001152WA0081700865
B1927134747713N12001147WA0081700868
B1927144747715N12001142WA0081800869
B1927154747717N12001138WA0081900870
B1927164747719N12001133WA0081900869
B1927174747721N12001127WA0082000868
B1927184747723N12001121WA0082000866
B1927194747725N12001115WA0082000865
B1927204747726N12001109WA0082000864
B1927214747728N12001102WA0082000863
B1927224747729N12001095WA0082000863
B1927234747730N12001088WA0082000862
B1927244747731N12001081WA0082000862
B1927254747732N12001074WA0082000862
B1927264747733N12001067WA0081900862
B1927274747735N12001060WA0081900862
B1927284747735N12001052WA0081900861
B1927294747736N12001044WA0081800861
B1927304747737N12001036WA0081800861
B1927314747739N12001030WA0081800862
B1927324747740N12001023WA0081800861
B1927334747742N12001017WA0081800860
B1927344747742N12001010WA0081700858
B1927354747742N12001003WA0081700855
B1927354747742N12001003WA0081700855
B1927364747743N12000994WA0081600853
B1927374747743N12000985WA0081500850
B1927384747744N12000977WA0081400849
B1927394747744N12000969WA0081300849
B1927404747745N12000961WA0081200849
B1927414747746N12000954WA0081200849
B1927424747747N12000946WA0081100848
B1927434747749N12000938WA0081000847
B1927444747751N12000931WA0080900846
B1927454747752N12000923WA0080800846
B1927464747754N12000916WA0080800845
B1927474747756N12000909WA0080700845
B1927484747757N12000902WA0080600844
B1927494747759N12000895WA0080500843
B1927504747761N12000888WA0080500843
B1927514747762N12000881WA0080400842
B1927524747764N12000874WA0080300841
B1927534747766N12000867WA0080300841
B1927544747767N12000860WA0080200840
B1927554747769N12000854WA0080100840
B1927564747769N12000846WA0080000840
B1927574747770N12000839WA0080000839
B1927584747771N12000832WA0079900838
B1927594747772N12000825WA0079900838
B1928004747774N12000818WA0079800840
B1928014747775N12000811WA0079800840
B1928024747777N12000804WA0079800842
B1928034747777N12000797WA0079800843
B1928044747778N12000790WA0079800844
B1928054747778N12000783WA0079800846
B1928064747778N12000777WA0079900849
B1928074747779N12000772WA0079900851
B1928084747779N12000766WA0080000852
B1928094747779N12000759WA0080100852
B1928104747779N12000752WA0080200853
B1928114747780N12000746WA0080200855
B1928124747783N12000741WA0080300856
B1928134747786N12000737WA0080400855
B1928144747790N12000734WA0080500854
B1928154747795N12000733WA0080500854
B1928164747800N12000733WA0080600854
B1928174747806N12000736WA0080600854
B1928184747810N12000740WA0080700854
B1928194747813N12000747WA0080700854
B1928204747815N12000755WA0080700853
B1928214747815N12000762WA0080800853
B1928224747814N12000770WA0080800852
B1928234747812N12000776WA0080800852
B1928244747809N12000782WA0080800852
B1928254747806N12000786WA0080800852
B1928264747802N12000791WA0080800852
B1928274747798N12000796WA0080800852
B1928284747794N12000800WA0080800853
B1928294747790N12000804WA0080900854
B1928304747786N12000807WA0080900856
B1928314747781N12000808WA0080900857
B1928324747777N12000810WA0081000858
B1928334747772N12000811WA0081000858
B1928344747766N12000811WA0081100858
B1928354747761N12000811WA0081100859
B1928364747756N12000810WA0081200862
B1928374747752N12000809WA0081200866
B1928384747749N12000807WA0081300869
B1928394747746N12000804WA0081400871
B1928394747746N12000804WA0081400871
B1928404747742N12000801WA0081600872
B1928414747738N12000797WA0081700872
B1928424747733N12000794WA0081800874
B1928434747730N12000790WA0081900875
B1928444747726N12000787WA0082100878
B1928454747724N12000784WA0082200880
B1928464747721N12000780WA0082400881
B1928474747719N12000776WA0082500882
B1928484747717N12000770WA0082600883
B1928494747717N12000763WA0082700883
B1928504747719N12000756WA0082900883
B1928514747723N12000750WA0082900883
B1928524747728N12000748WA0083000883
B1928534747734N12000748WA0083100884
B1928544747738N12000751WA0083200886
B1928554747743N12000755WA0083300886
B1928564747746N12000761WA0083400887
B1928574747748N12000769WA0083500887
B1928584747747N12000778WA0083600889
B1928594747745N12000785WA0083700890
B1929004747741N12000790WA0083800892
B1929014747736N12000791WA0083900895
B1929024747732N12000790WA0084000896
B1929034747728N12000787WA0084100898
B1929044747724N12000783WA0084200899
B1929054747721N12000777WA0084300900
B1929064747718N12000771WA0084500901
B1929074747716N12000764WA0084600902
B1929084747715N12000756WA0084700903
B1929094747715N12000747WA0084800903
B1929104747717N12000738WA0084900903
B1929114747720N12000730WA0085000903
B1929124747723N12000724WA0085100904
B1929134747726N12000719WA0085100907
B1929144747730N12000715WA0085300908
B1929154747734N12000712WA0085300908
B1929164747738N12000709WA0085400907
B1929174747743N12000707WA0085500907
B1929184747748N12000706WA0085600906
B1929194747753N12000706WA0085600906
B1929204747757N12000709WA0085700906
B1929214747761N12000713WA0085700905
B1929224747764N12000720WA0085700903
B1929234747767N12000728WA0085700902
B1929244747768N12000736WA0085700901
B1929254747767N12000744WA0085700901
B1929264747765N12000751WA0085700900
B1929274747763N12000758WA0085700900
B1929284747760N12000763WA0085600900
B1929294747756N12000768WA0085600899
B1929304747752N12000772WA0085600898
B1929314747746N12000776WA0085600896
B1929324747739N12000779WA0085500895
B1929334747733N12000782WA0085500896
B1929344747727N12000785WA0085400899
B1929354747723N12000787WA0085400903
B1929364747719N12000790WA0085500907
B1929374747716N12000794WA0085600910
B1929384747713N12000798WA0085700913
B1929394747710N12000802WA0085800915
B1929404747707N12000806WA0085900918
B1929414747704N12000809WA0086000919
B1929424747701N12000811WA0086200920
B1929434747697N12000813WA0086300921
B1929434747697N12000813WA0086300921
B1929444747693N12000813WA0086400920
B1929454747688N12000812WA0086500919
B1929464747684N12000809WA0086600917
B1929474747681N12000803WA0086700916
B1929484747679N12000795WA0086700914
B1929494747679N12000787WA0086700913
B1929504747680N12000779WA0086800913
B1929514747683N12000772WA0086800914
B1929524747686N12000766WA0086800914
B1929534747689N12000760WA0086800913
B1929544747694N12000754WA0086800911
B1929554747699N12000750WA0086700910
B1929564747705N12000748WA0086700909
B1929574747711N12000751WA0086700908
B1929584747716N12000756WA0086600908
B1929594747719N12000762WA0086600909
B1930004747723N12000769WA0086600911
B1930014747725N12000775WA0086600914
B1930024747726N12000781WA0086600916
B1930034747726N12000789WA0086700916
B1930044747726N12000799WA0086700915
B1930054747725N12000808WA0086700915
B1930064747725N12000816WA0086800917
B1930074747725N12000824WA0086800919
B1930084747725N12000831WA0086900921
B1930094747724N12000838WA0087000922
B1930104747722N12000844WA0087100923
B1930114747719N12000849WA0087100922
B1930124747715N12000853WA0087200921
B1930134747711N12000856WA0087200920
B1930144747706N12000858WA0087200919
B1930154747700N12000858WA0087200917
B1930164747695N12000856WA0087200916
B1930174747689N12000853WA0087200915
B1930184747684N12000847WA0087100914
B1930194747680N12000840WA0087100914
B1930204747677N12000832WA0087100913
B1930214747676N12000824WA0087000913
B1930224747676N12000816WA0087000913
B1930234747677N12000809WA0086900913
B1930244747678N12000803WA0086900912
B1930254747680N12000797WA0086900911
B1930264747683N12000789WA0086800908
B1930274747686N12000782WA0086700905
B1930284747691N12000775WA0086600905
B1930294747695N12000770WA0086600906
B1930304747699N12000767WA0086500908
B1930314747704N12000764WA0086500910
B1930324747709N12000762WA0086400910
B1930334747714N12000758WA0086400910
B1930344747718N12000753WA0086400910
B1930354747722N12000749WA0086400910
B1930364747727N12000745WA0086400910
B1930374747732N12000740WA0086400910
B1930384747737N12000735WA0086400909
B1930394747742N12000731WA0086400909
B1930404747747N12000728WA0086400910
B1930414747751N12000725WA0086400911
B1930424747756N12000724WA0086400910
B1930434747762N12000723WA0086400909
B1930444747768N12000723WA0086400907
B1930454747774N12000724WA0086400906
B1930464747779N12000726WA0086300906
B1930464747779N12000726WA0086300906
B1930474747783N12000729WA0086300906
B1930484747787N12000733WA0086300906
B1930494747791N12000737WA0086300906
B1930504747795N12000741WA0086200906
B1930514747798N12000746WA0086200906
B1930524747802N12000751WA0086200906
B1930534747805N12000757WA0086200904
B1930544747809N12000764WA0086100902
B1930554747812N12000770WA0086100902
B1930564747814N12000776WA0086100902
B1930574747815N12000782WA0086000901
B1930584747816N12000789WA0086000900
B1930594747816N12000797WA0085900897
B1931004747814N12000806WA0085800895
B1931014747812N12000813WA0085800893
B1931024747808N12000818WA0085600893
B1931034747804N12000822WA0085600893
B1931044747799N12000823WA0085500893
B1931054747794N12000824WA0085400893
B1931064747790N12000823WA0085300895
B1931074747786N12000822WA0085300896
B1931084747783N12000821WA0085300897
B1931094747779N12000819WA0085300897
B1931104747775N12000817WA0085200896
B1931114747770N12000813WA0085200895
B1931124747766N12000808WA0085200896
B1931134747762N12000803WA0085200897
B1931144747759N12000798WA0085200899
B1931154747756N12000793WA0085200901
B1931164747753N12000788WA0085200901
B1931174747749N12000784WA0085200901
B1931184747744N12000781WA0085300901
B1931194747740N12000779WA0085300902
B1931204747736N12000777WA0085300902
B1931214747733N12000775WA0085300903
B1931224747729N12000772WA0085400903
B1931234747725N12000767WA0085400902
B1931244747723N12000761WA0085400902
B1931254747721N12000752WA0085400901
B1931264747721N12000745WA0085400901
B1931274747722N12000737WA0085400902
B1931284747724N12000731WA0085500903
B1931294747727N12000725WA0085500903
B1931304747730N12000718WA0085500902
B1931314747734N12000712WA0085500901
B1931324747739N12000706WA0085500900
B1931334747744N12000701WA0085500899
B1931344747750N12000697WA0085500898
B1931354747755N12000694WA0085400897
B1931364747760N12000692WA0085400896
B1931374747765N12000690WA0085400895
B1931384747770N12000689WA0085300894
B1931394747776N12000689WA0085200892
B1931404747782N12000691WA0085100890
B1931414747787N12000694WA0085100888
B1931424747792N12000697WA0085000887
B1931434747796N12000700WA0084900886
B1931444747799N12000704WA0084800886
B1931454747803N12000708WA0084700884
B1931464747808N12000712WA0084600883
B1931474747814N12000715WA0084500881
B1931484747820N12000718WA0084400879
B1931494747825N12000721WA0084300878
B1931494747825N12000721WA0084300878
B1931504747830N12000724WA0084200878
B1931514747835N12000727WA0084100877
B1931524747840N12000728WA0084000875
B1931534747845N12000730WA0083900873
B1931544747850N12000730WA0083700871
B1931554747855N12000730WA0083600869
B1931564747860N12000729WA0083500868
B1931574747864N12000727WA0083400867
B1931584747868N12000724WA0083200864
B1931594747873N12000720WA0083100862
B1932004747877N12000716WA0082900860
B1932014747880N12000711WA0082800858
B1932024747884N12000707WA0082600857
B1932034747887N12000703WA0082500856
B1932044747890N12000698WA0082300854
B1932054747893N12000693WA0082200852
B1932064747896N12000688WA0082000850
B1932074747900N12000682WA0081900848
B1932084747903N12000677WA0081700847
B1932094747907N12000673WA0081600845
B1932104747912N12000670WA0081400844
B1932114747916N12000666WA0081300844
B1932124747919N12000663WA0081100844
B1932134747922N12000659WA0081000844
B1932144747925N12000654WA0080900842
B1932154747927N12000648WA0080800839
B1932164747930N12000641WA0080600836
B1932174747934N12000635WA0080500834
B1932184747937N12000630WA0080300832
B1932194747940N12000625WA0080200831
B1932204747943N12000620WA0080000830
B1932214747945N12000614WA0079900829
B1932224747948N12000608WA0079700828
B1932234747951N12000602WA0079600827
B1932244747954N12000597WA0079400827
B1932254747957N12000593WA0079300826
B1932264747960N12000590WA0079200826
B1932274747962N12000585WA0079100824
B1932284747965N12000579WA0079000822
B1932294747968N12000573WA0078900819
B1932304747972N12000567WA0078700816
B1932314747976N12000561WA0078600814
B1932324747981N12000556WA0078400814
B1932334747985N12000551WA0078300813
B1932344747989N12000545WA0078100812
B1932354747994N12000540WA0078000811
B1932364747998N12000533WA0077900809
B1932374748002N12000527WA0077700808
B1932384748006N12000521WA0077600806
B1932394748011N12000516WA0077500805
B1932404748016N12000511WA0077300804
B1932414748021N12000505WA0077200804
B1932424748026N12000501WA0077100804
B1932434748030N12000496WA0077000804
B1932444748034N12000491WA0076900803
B1932454748039N12000486WA0076800802
B1932464748043N12000481WA0076700800
B1932474748048N12000476WA0076600798
B1932484748053N12000471WA0076500797
B1932494748058N12000467WA0076400795
B1932504748063N12000464WA0076300794
B1932514748069N12000461WA0076200793
B1932524748074N12000458WA0076000793
B1932524748074N12000458WA0076000793
B1932534748080N12000455WA0075900792
B1932544748085N12000451WA0075800791
B1932554748089N12000446WA0075800792
B1932564748093N12000440WA0075700793
B1932574748096N12000435WA0075600793
B1932584748099N12000430WA0075500793
B1932594748103N12000425WA0075500792
B1933004748107N12000419WA0075400789
B1933014748111N12000414WA0075400787
B1933024748117N12000410WA0075300786
B1933034748122N12000407WA0075200785
B1933044748127N12000405WA0075100784
B1933054748132N12000402WA0075000783
B1933064748137N12000399WA0074900782
B1933074748141N12000396WA0074800782
B1933084748145N12000393WA0074700782
B1933094748148N12000390WA0074700782
B1933104748152N12000388WA0074600782
B1933114748157N12000386WA0074500781
B1933124748161N12000384WA0074400780
B1933134748166N12000384WA0074400779
B1933144748171N12000384WA0074300778
B1933154748176N12000384WA0074200777
B1933164748181N12000384WA0074100776
B1933174748186N12000384WA0074100775
B1933184748191N12000384WA0074000774
B1933194748196N12000384WA0073900773
B1933204748201N12000383WA0073800771
B1933214748206N12000382WA0073700768
B1933224748211N12000379WA0073600766
B1933234748215N12000377WA0073500764
B1933244748220N12000374WA0073400762
B1933254748224N12000371WA0073200761
B1933264748228N12000369WA0073100760
B1933274748233N12000366WA0073000758
B1933284748238N12000364WA0072800757
B1933294748242N12000361WA0072700756
B1933304748248N12000358WA0072600755
B1933314748252N12000355WA0072500754
B1933324748257N12000351WA0072300755
B1933334748261N12000347WA0072300756
B1933344748266N12000343WA0072200758
B1933354748270N12000338WA0072200760
B1933364748273N12000334WA0072100761
B1933374748277N12000330WA0072100762
B1933384748281N12000326WA0072100762
B1933394748285N12000321WA0072100762
B1933404748289N12000316WA0072100763
B1933414748293N12000311WA0072100765
B1933424748298N12000308WA0072100768
B1933434748302N12000305WA0072200769
B1933444748307N12000302WA0072300770
B1933454748312N12000299WA0072300771
B1933464748317N12000296WA0072400771
B1933474748322N12000293WA0072500771
B1933484748327N12000291WA0072500771
B1933494748332N12000288WA0072600770
B1933504748338N12000286WA0072600768
B1933514748344N12000283WA0072600766
B1933524748350N12000281WA0072600766
B1933534748356N12000281WA0072600766
B1933544748361N12000281WA0072600766
B1933554748366N12000278WA0072600765
B1933564748370N12000273WA0072600765
B1933564748370N12000273WA0072600765
B1933574748372N12000266WA0072500762
B1933584748372N12000259WA0072500760
B1933594748368N12000254WA0072400758
B1934004748364N12000251WA0072300756
B1934014748359N12000252WA0072200753
B1934024748354N12000255WA0072100751
B1934034748350N12000259WA0072000750
B1934044748346N12000263WA0071900749
B1934054748343N12000266WA0071800748
B1934064748339N12000269WA0071700746
B1934074748335N12000271WA0071500743
B1934084748331N12000274WA0071400741
B1934094748327N12000276WA0071200739
B1934104748323N12000278WA0071100738
B1934114748318N12000280WA0070900737
B1934124748314N12000283WA0070800737
B1934134748310N12000286WA0070700737
B1934144748306N12000290WA0070600737
B1934154748302N12000294WA0070400738
B1934164748298N12000298WA0070400738
B1934174748293N12000301WA0070300737
B1934184748287N12000304WA0070200738
B1934194748282N12000307WA0070100739
B1934204748278N12000309WA0070100741
B1934214748273N12000311WA0070100744
B1934224748269N12000311WA0070100745
B1934234748265N12000312WA0070100747
B1934244748261N12000313WA0070200748
B1934254748257N12000314WA0070200748
B1934264748252N12000315WA0070300748
B1934274748248N12000317WA0070300748
B1934284748243N12000319WA0070400748
B1934294748239N12000322WA0070400750
B1934304748236N12000324WA0070500752
B1934314748233N12000325WA0070500754
B1934324748230N12000326WA0070600755
B1934334748227N12000328WA0070700755
B1934344748223N12000330WA0070700754
B1934354748219N12000332WA0070800752
B1934364748215N12000333WA0070800751
B1934374748211N12000331WA0070800751
B1934384748207N12000327WA0070800750
B1934394748205N12000320WA0070800747
B1934404748204N12000311WA0070800746
B1934414748206N12000303WA0070700743
B1934424748209N12000296WA0070700742
B1934434748213N12000290WA0070600741
B1934444748218N12000286WA0070600740
B1934454748223N12000285WA0070500739
B1934464748229N12000286WA0070400738
B1934474748234N12000287WA0070300738
B1934484748239N12000289WA0070300737
B1934494748244N12000291WA0070200737
B1934504748249N12000294WA0070200736
B1934514748254N12000298WA0070100735
B1934524748260N12000301WA0070000734
B1934534748265N12000304WA0069900734
B1934544748271N12000306WA0069900734
B1934554748276N12000308WA0069800734
B1934564748282N12000309WA0069800734
B1934574748288N12000309WA0069700733
B1934584748294N12000308WA0069700733
B1934594748300N12000306WA0069600734
B1935004748305N12000304WA0069600736
B1935004748305N12000304WA0069600736
B1935014748310N12000303WA0069600738
B1935024748315N12000302WA0069600740
B1935034748319N12000300WA0069700742
B1935044748324N12000297WA0069700743
B1935054748328N12000292WA0069800743
B1935064748331N12000288WA0069800744
B1935074748335N12000284WA0069900746
B1935084748339N12000282WA0069900748
B1935094748344N12000280WA0070000749
B1935104748348N12000277WA0070100750
B1935114748353N12000275WA0070200751
B1935124748356N12000273WA0070300752
B1935134748360N12000270WA0070400752
B1935144748363N12000268WA0070500751
B1935154748367N12000266WA0070500750
B1935164748370N12000262WA0070600748
B1935174748372N12000257WA0070600746
B1935184748373N12000249WA0070600743
B1935194748371N12000242WA0070500741
B1935204748367N12000236WA0070500739
B1935214748361N12000235WA0070400738
B1935224748355N12000238WA0070300736
B1935234748350N12000243WA0070200735
B1935244748346N12000249WA0070200735
B1935254748342N12000254WA0070100734
B1935264748338N12000258WA0070000734
B1935274748334N12000263WA0069900733
B1935284748329N12000266WA0069800734
B1935294748324N12000270WA0069800736
B1935304748319N12000274WA0069800739
B1935314748315N12000278WA0069800742
B1935324748312N12000281WA0069800746
B1935334748309N12000284WA0069900749
B1935344748306N12000287WA0069900751
B1935354748302N12000291WA0070000752
B1935364748299N12000295WA0070100753
B1935374748297N12000300WA0070300753
B1935384748294N12000306WA0070300753
B1935394748292N12000312WA0070400752
B1935404748289N12000318WA0070500751
B1935414748286N12000324WA0070600750
B1935424748283N12000328WA0070600749
B1935434748278N12000329WA0070600747
B1935444748274N12000326WA0070600745
B1935454748272N12000320WA0070600743
B1935464748273N12000312WA0070600741
B1935474748277N12000305WA0070500739
B1935484748282N12000302WA0070500738
B1935494748287N12000301WA0070400738
B1935504748292N12000301WA0070300739
B1935514748297N12000301WA0070300740
B1935524748302N12000300WA0070200740
B1935534748308N12000299WA0070200739
B1935544748314N12000297WA0070100738
B1935554748321N12000296WA0070100738
B1935564748327N12000295WA0070100739
B1935574748332N12000294WA0070000740
B1935584748338N12000294WA0070000742
B1935594748343N12000293WA0070000745
B1936004748349N12000292WA0070100746
B1936014748354N12000292WA0070100748
B1936024748359N12000292WA0070200751
B1936034748362N12000293WA0070300753
B1936044748366N12000295WA0070400754
B1936044748366N12000295WA0070400754
B1936054748370N12000295WA0070500754
B1936064748373N12000294WA0070500753
B1936074748377N12000289WA0070600751
B1936084748379N12000282WA0070600749
B1936094748379N12000275WA0070700748
B1936104748377N12000268WA0070700747
B1936114748373N12000263WA0070600745
B1936124748368N12000260WA0070600743
B1936134748362N12000259WA0070600741
B1936144748357N12000260WA0070500741
B1936154748352N12000262WA0070500741
B1936164748347N12000266WA0070400742
B1936174748344N12000270WA0070400743
B1936184748340N12000274WA0070400744
B1936194748337N12000277WA0070400746
B1936204748333N12000279WA0070400747
B1936214748329N12000281WA0070400748
B1936224748325N12000282WA0070400748
B1936234748321N12000284WA0070400747
B1936244748316N12000287WA0070400747
B1936254748312N12000290WA0070500748
B1936264748308N12000292WA0070500748
B1936274748304N12000295WA0070500749
B1936284748300N12000298WA0070500748
B1936294748295N12000301WA0070600748
B1936304748291N12000303WA0070600747
B1936314748287N12000306WA0070600747
B1936324748283N12000309WA0070600747
B1936334748279N12000312WA0070600748
B1936344748275N12000315WA0070600747
B1936354748272N12000318WA0070600747
B1936364748268N12000321WA0070600747
B1936374748264N12000325WA0070600746
B1936384748260N12000329WA0070600745
B1936394748257N12000333WA0070600745
B1936404748253N12000337WA0070600744
B1936414748249N12000340WA0070500742
B1936424748245N12000343WA0070500741
B1936434748240N12000345WA0070500740
B1936444748236N12000347WA0070400739
B1936454748232N12000349WA0070300740
B1936464748228N12000352WA0070300741
B1936474748225N12000355WA0070300742
B1936484748221N12000358WA0070300741
B1936494748218N12000361WA0070200740
B1936504748214N12000364WA0070200739
B1936514748210N12000367WA0070200737
B1936524748206N12000370WA0070100736
B1936534748203N12000375WA0070000735
B1936544748200N12000380WA0070000733
B1936554748197N12000385WA0069900732
B1936564748194N12000391WA0069800730
B1936574748191N12000396WA0069700728
B1936584748188N12000401WA0069700727
B1936594748185N12000405WA0069500725
B1937004748181N12000408WA0069400723
B1937014748177N12000409WA0069300721
B1937024748172N12000408WA0069200718
B1937034748167N12000404WA0069000714
B1937044748164N12000396WA0068800711
B1937054748164N12000388WA0068600708
B1937064748165N12000379WA0068500705
B1937074748167N12000372WA0068200702
B1937084748169N12000365WA0068100702
B1937084748169N12000365WA0068100702
B1937094748169N12000358WA0067800701
B1937104748169N12000351WA0067700699
B1937114748169N12000344WA0067400696
B1937124748170N12000336WA0067300694
B1937134748171N12000327WA0067100692
B1937144748173N12000319WA0066900693
B1937154748176N12000312WA0066700695
B1937164748178N12000306WA0066600697
B1937174748180N12000301WA0066500698
B1937184748182N12000296WA0066400698
B1937194748185N12000290WA0066300696
B1937204748188N12000282WA0066200694
B1937214748189N12000274WA0066100693
B1937224748189N12000266WA0066000694
B1937234748186N12000260WA0066000695
B1937244748182N12000258WA0065900695
B1937254748177N12000258WA0065800694
B1937264748173N12000260WA0065800693
B1937274748169N12000265WA0065700694
B1937284748166N12000271WA0065700695
B1937294748165N12000278WA0065600695
B1937304748164N12000285WA0065600694
B1937314748162N12000292WA0065600694
B1937324748160N12000299WA0065500693
B1937334748158N12000306WA0065500692
B1937344748155N12000314WA0065500691
B1937354748153N12000322WA0065500691
B1937364748149N12000328WA0065400692
B1937374748146N12000332WA0065400692
B1937384748143N12000335WA0065400692
B1937394748139N12000337WA0065400690
B1937404748135N12000338WA0065300687
B1937414748130N12000337WA0065300684
B1937424748125N12000334WA0065200681
B1937434748121N12000328WA0065100679
B1937444748119N12000320WA0065000678
B1937454748120N12000312WA0064800677
B1937464748121N12000304WA0064700676
B1937474748123N12000297WA0064600675
B1937484748123N12000290WA0064500674
B1937494748124N12000282WA0064400673
B1937504748124N12000274WA0064300670
B1937514748124N12000265WA0064100668
B1937524748125N12000257WA0064000667
B1937534748125N12000249WA0063900666
B1937544748124N12000242WA0063800665
B1937554748122N12000234WA0063600662
B1937564748120N12000226WA0063500659
B1937574748117N12000218WA0063300656
B1937584748114N12000211WA0063200655
B1937594748112N12000204WA0063000655
B1938004748110N12000197WA0062900654
B1938014748108N12000190WA0062700654
B1938024748106N12000184WA0062600654
B1938034748104N12000179WA0062500654
B1938044748102N12000173WA0062400654
B1938054748101N12000167WA0062300653
B1938064748100N12000161WA0062200652
B1938074748098N12000154WA0062100650
B1938084748097N12000146WA0062000647
B1938094748095N12000138WA0061900646
B1938104748094N12000130WA0061800644
B1938114748093N12000123WA0061700645
B1938124748091N12000117WA0061600644
B1938124748091N12000117WA0061600644
B1938134748089N12000110WA0061500644
B1938144748087N12000104WA0061400643
B1938154748084N12000097WA0061300643
B1938164748082N12000090WA0061200642
B1938174748080N12000083WA0061100642
B1938184748078N12000076WA0061100642
B1938194748076N12000070WA0061000641
B1938204748073N12000063WA0060900640
B1938214748071N12000057WA0060800639
B1938224748068N12000051WA0060800637
B1938234748066N12000045WA0060700636
B1938244748063N12000040WA0060600634
B1938254748059N12000034WA0060500631
B1938264748056N12000029WA0060400629
B1938274748053N12000023WA0060200627
B1938284748050N12000016WA0060100624
B1938294748047N12000009WA0059900621
B1938304748044N12000002WA0059800618
B1938314748041N11959994WA0059600616
B1938324748038N11959987WA0059400614
B1938334748035N11959980WA0059200613
B1938344748032N11959973WA0059100612
B1938354748030N11959965WA0058900612
B1938364748029N11959957WA0058800613
B1938374748028N11959950WA0058600614
B1938384748026N11959944WA0058600615
B1938394748024N11959938WA0058500616
B1938404748021N11959933WA0058400615
B1938414748017N11959928WA0058300613
B1938424748012N11959925WA0058300612
B1938434748008N11959926WA0058200612
B1938444748004N11959930WA0058100612
B1938454748002N11959936WA0058000612
B1938464748001N11959943WA0058000612
B1938474748001N11959949WA0057900613
B1938484748001N11959955WA0057900613
B1938494748000N11959961WA0057900613
B1938504747998N11959966WA0057800612
B1938514747995N11959971WA0057800610
B1938524747991N11959973WA0057700610
B1938534747987N11959972WA0057700609
B1938544747983N11959969WA0057700610
B1938554747981N11959963WA0057600609
B1938564747980N11959956WA0057600608
B1938574747981N11959948WA0057500607
B1938584747981N11959941WA0057500606
B1938594747982N11959934WA0057400606
B1939004747983N11959927WA0057300605
B1939014747985N11959920WA0057300605
B1939024747987N11959914WA0057200603
B1939034747989N11959906WA0057100600
B1939044747991N11959899WA0057100597
B1939054747993N11959892WA0056900595
B1939064747997N11959886WA0056800593
B1939074748002N11959881WA0056700590
B1939084748009N11959879WA0056600587
B1939094748015N11959878WA0056400584
B1939104748021N11959879WA0056300582
B1939114748028N11959881WA0056100580
B1939124748035N11959883WA0055900578
B1939134748042N11959883WA0055700578
B1939144748047N11959879WA0055600578
B1939154748052N11959873WA0055400577
B1939154748052N11959873WA0055400577
B1939164748055N11959866WA0055300577
B1939174748057N11959859WA0055100577
B1939184748059N11959852WA0055100577
B1939194748060N11959846WA0054900577
B1939204748061N11959839WA0054900576
B1939214748061N11959832WA0054700574
B1939224748060N11959825WA0054700571
B1939234748058N11959818WA0054500569
B1939244748056N11959811WA0054400567
B1939254748055N11959805WA0054300566
B1939264748053N11959799WA0054200565
B1939274748052N11959794WA0054000563
B1939284748050N11959788WA0053900560
B1939294748048N11959780WA0053800557
B1939304748046N11959773WA0053600554
B1939314748043N11959766WA0053400552
B1939324748040N11959760WA0053300551
B1939334748038N11959755WA0053100551
B1939344748035N11959751WA0053000550
B1939354748031N11959747WA0052800548
B1939364748026N11959743WA0052600546
B1939374748021N11959739WA0052400543
B1939384748016N11959735WA0052300541
B1939394748012N11959731WA0052100541
B1939404748009N11959726WA0052000540
B1939414748006N11959721WA0051800539
B1939424748004N11959715WA0051700537
B1939434748001N11959709WA0051500535
B1939444747998N11959703WA0051400533
B1939454747994N11959699WA0051200531
B1939464747990N11959695WA0051100531
B1939474747987N11959691WA0050900531
B1939484747984N11959688WA0050800530
B1939494747980N11959684WA0050600529
B1939504747975N11959680WA0050500528
B1939514747971N11959678WA0050400527
B1939524747967N11959676WA0050300527
B1939534747962N11959676WA0050200526
B1939544747957N11959676WA0050100525
B1939554747953N11959675WA0049900524
B1939564747948N11959673WA0049800522
B1939574747942N11959670WA0049700521
B1939584747937N11959668WA0049600519
B1939594747933N11959666WA0049500519
B1940004747928N11959665WA0049400518
B1940014747923N11959663WA0049300517
B1940024747918N11959663WA0049200516
B1940034747913N11959663WA0049000514
B1940044747908N11959663WA0049000513
B1940054747903N11959663WA0048800513
B1940064747899N11959661WA0048700512
B1940074747894N11959660WA0048600512
B1940084747890N11959659WA0048500512
B1940094747886N11959659WA0048400511
B1940104747882N11959660WA0048400509
B1940114747877N11959660WA0048300507
B1940124747873N11959659WA0048200505
B1940134747868N11959656WA0048000503
B1940144747864N11959651WA0047900501
B1940154747860N11959646WA0047800500
B1940164747857N11959640WA0047700498
B1940174747854N11959633WA0047500496
B1940184747851N11959626WA0047400495
B1940184747851N11959626WA0047400495
B1940194747849N11959618WA0047300494
B1940204747847N11959610WA0047200493
B1940214747845N11959603WA0047000492
B1940224747844N11959596WA0046900492
B1940234747843N11959590WA0046800492
B1940244747842N11959583WA0046700491
B1940254747841N11959577WA0046600489
B1940264747840N11959569WA0046500487
B1940274747838N11959562WA0046400485
B1940284747836N11959555WA0046300484
B1940294747833N11959548WA0046100483
B1940304747831N11959541WA0046000482
B1940314747828N11959533WA0045900482
B1940324747827N11959526WA0045800482
B1940334747825N11959518WA0045700482
B1940344747824N11959511WA0045600482
B1940354747822N11959503WA0045500482
B1940364747821N11959496WA0045500480
B1940374747820N11959488WA0045400479
B1940384747819N11959480WA0045300478
B1940394747818N11959473WA0045200476
B1940404747817N11959465WA0045100474
B1940414747817N11959457WA0045000472
B1940424747817N11959450WA0044900470
B1940434747817N11959442WA0044800468
B1940444747818N11959435WA0044700466
B1940454747819N11959426WA0044500464
B1940464747820N11959418WA0044400462
B1940474747821N11959410WA0044200460
B1940484747822N11959402WA0044100458
B1940494747822N11959395WA0043900456
B1940504747823N11959387WA0043800454
B1940514747823N11959379WA0043600453
B1940524747823N11959371WA0043500452
B1940534747823N11959364WA0043300450
B1940544747823N11959356WA0043100449
B1940554747823N11959349WA0043000447
B1940564747823N11959341WA0042800445
B1940574747824N11959335WA0042600443
B1940584747824N11959328WA0042500442
B1940594747825N11959320WA0042300440
B1941004747826N11959313WA0042200438
B1941014747828N11959306WA0042000436
B1941024747829N11959298WA0041900435
B1941034747830N11959290WA0041700434
B1941044747831N11959283WA0041600434
B1941054747830N11959276WA0041400433
B1941064747830N11959269WA0041300433
B1941074747830N11959263WA0041100432
B1941084747830N11959256WA0041000431
B1941094747830N11959249WA0040900430
B1941104747831N11959242WA0040800429
B1941114747831N11959235WA0040700428
B1941124747831N11959228WA0040600428
B1941134747832N11959221WA0040500427
B1941144747833N11959215WA0040400427
B1941154747835N11959210WA0040300426
B1941164747836N11959204WA0040200424
B1941174747838N11959198WA0040100422
B1941184747841N11959192WA0040000419
B1941194747845N11959187WA0039800417
B1941204747849N11959182WA0039700416
B1941214747853N11959179WA0039600415
B1941224747858N11959177WA0039500414
B1941224747858N11959177WA0039500414
B1941234747862N11959176WA0039300413
B1941244747867N11959174WA0039200410
B1941254747871N11959171WA0039000408
B1941264747876N11959168WA0038900405
B1941274747881N11959165WA0038700402
B1941284747886N11959164WA0038600400
B1941294747890N11959162WA0038400399
B1941304747895N11959162WA0038200397
B1941314747900N11959161WA0038000395
B1941324747905N11959160WA0037900393
B1941334747909N11959159WA0037700392
B1941344747914N11959159WA0037600391
B1941354747918N11959158WA0037400391
B1941364747922N11959157WA0037200390
B1941374747927N11959155WA0037100389
B1941384747931N11959152WA0037000387
B1941394747935N11959149WA0036800386
B1941404747940N11959148WA0036700385
B1941414747945N11959148WA0036500383
B1941424747950N11959149WA0036400382
B1941434747955N11959149WA0036300380
B1941444747959N11959149WA0036100379
B1941454747964N11959147WA0036000377
B1941464747969N11959145WA0035900376
B1941474747974N11959143WA0035700374
B1941484747978N11959140WA0035600373
B1941494747982N11959137WA0035400371
B1941504747987N11959132WA0035300369
B1941514747991N11959128WA0035200368
B1941524747996N11959124WA0035100367
B1941534748000N11959120WA0034900366
B1941544748004N11959116WA0034800365
B1941554748008N11959111WA0034600364
B1941564748012N11959107WA0034500363
B1941574748016N11959102WA0034400362
B1941584748021N11959097WA0034300360
B1941594748025N11959092WA0034100359
B1942004748028N11959087WA0034000358
B1942014748032N11959082WA0033900357
B1942024748035N11959077WA0033800356
B1942034748038N11959070WA0033600354
B1942044748041N11959064WA0033500353
B1942054748043N11959057WA0033400352
B1942064748045N11959050WA0033300351
B1942074748046N11959043WA0033200350
B1942084748047N11959036WA0033100349
B1942094748048N11959028WA0032900347
B1942104748047N11959021WA0032800346
B1942114748045N11959014WA0032700344
B1942124748042N11959008WA0032600344
B1942134748039N11959003WA0032400343
B1942144748035N11958998WA0032300342
B1942154748031N11958994WA0032200341
B1942164748027N11958991WA0032100339
B1942174748022N11958988WA0031900338
B1942184748018N11958984WA0031800336
B1942194748014N11958980WA0031700336
B1942204748009N11958977WA0031600335
B1942214748005N11958974WA0031500334
B1942224748000N11958971WA0031400333
B1942234747996N11958970WA0031200332
B1942244747991N11958970WA0031100331
B1942254747987N11958973WA0031000329
B1942264747983N11958978WA0030900328
B1942264747983N11958978WA0030900328
B1942274747981N11958985WA0030800325
B1942284747981N11958993WA0030700324
B1942294747983N11959000WA0030500322
B1942304747986N11959006WA0030400321
B1942314747990N11959011WA0030300320
B1942324747993N11959016WA0030200320
B1942334747995N11959021WA0030100320
B1942344747996N11959028WA0030000318
B1942354747998N11959035WA0029800317
B1942364748001N11959040WA0029800316
B1942374748004N11959046WA0029600315
B1942384748007N11959052WA0029500314
B1942394748008N11959058WA0029400312
B1942404748008N11959066WA0029300310
B1942414748006N11959073WA0029200308
B1942424748003N11959079WA0029100307
B1942434747999N11959080WA0028900306
B1942444747994N11959080WA0028800305
B1942454747990N11959077WA0028700303
B1942464747987N11959071WA0028600301
B1942474747985N11959064WA0028400300
B1942484747986N11959056WA0028300299
B1942494747987N11959049WA0028200298
B1942504747989N11959041WA0028100297
B1942514747991N11959034WA0027900297
B1942524747992N11959027WA0027800296
B1942534747992N11959020WA0027700294
B1942544747992N11959012WA0027600293
B1942554747991N11959005WA0027400292
B1942564747990N11958998WA0027400291
B1942574747987N11958992WA0027200290
B1942584747984N11958987WA0027100290
B1942594747979N11958986WA0027000288
B1943004747974N11958988WA0026900285
B1943014747970N11958992WA0026700284
B1943024747969N11958999WA0026600283
B1943034747969N11959006WA0026500283
B1943044747972N11959012WA0026400282
B1943054747976N11959017WA0026300281
B1943064747980N11959021WA0026200281
B1943074747984N11959025WA0026100281
B1943084747987N11959030WA0026000280
B1943094747991N11959035WA0025900278
B1943104747995N11959040WA0025800276
B1943114747998N11959045WA0025700274
B1943124748000N11959051WA0025600273
B1943134748001N11959057WA0025500272
B1943144748000N11959063WA0025400269
B1943154747998N11959069WA0025200267
B1943164747995N11959072WA0025100266
B1943174747991N11959073WA0025000265
B1943184747987N11959070WA0024900264
B1943194747984N11959064WA0024700262
B1943204747982N11959056WA0024600260
B1943214747982N11959048WA0024400259
B1943224747981N11959041WA0024300259
B1943234747978N11959037WA0024200258
B1943244747974N11959035WA0024100256
B1943254747969N11959037WA0023900252
B1943264747965N11959042WA0023800249
B1943274747964N11959050WA0023600248
B1943284747966N11959058WA0023500246
B1943294747967N11959063WA0023300247
B1943304747966N11959069WA0023200246
B1943304747966N11959069WA0023200246
B1943314747964N11959074WA0023000244
B1943324747960N11959077WA0022900241
B1943334747955N11959077WA0022800238
B1943344747951N11959074WA0022600237
B1943354747948N11959072WA0022500237
B1943364747945N11959073WA0022400237
B1943374747942N11959077WA0022200234
B1943384747940N11959083WA0022100230
B1943394747937N11959089WA0021900228
B1943404747934N11959094WA0021800228
B1943414747931N11959096WA0021600228
B1943424747928N11959097WA0021500227
B1943434747925N11959100WA0021400224
B1943444747922N11959103WA0021300223
B1943454747921N11959104WA0021100222
B1943464747921N11959104WA0021000222
B1943474747920N11959105WA0020800222
B1943484747919N11959105WA0020700222
B1943494747919N11959104WA0020600222
B1943504747919N11959105WA0020500221
B1943514747919N11959104WA0020400221
B1943524747919N11959105WA0020400221
B1943534747919N11959105WA0020300221
B1943544747919N11959105WA0020300221
B1943554747919N11959105WA0020200220
B1943564747919N11959104WA0020200220
B1943574747919N11959104WA0020200220
B1943584747919N11959104WA0020100219
B1943594747919N11959104WA0020100219
B1944004747919N11959104WA0020100219
B1944014747918N11959104WA0020100218
B1944024747919N11959104WA0020100218
B1944034747919N11959104WA0020000218
B1944044747919N11959105WA0020000218
B1944054747919N11959105WA0020000219
B1944064747919N11959105WA0020000219
B1944074747919N11959105WA0020000219
B1944084747919N11959105WA0020000219
B1944094747919N11959105WA0020000219
B1944104747919N11959105WA0020000219
B1944114747919N11959105WA0019900219
B1944124747919N11959106WA0019900219
B1944134747920N11959106WA0019900219
B1944144747920N11959106WA0019900219
B1944154747920N11959106WA0019900219
B1944164747920N11959106WA0019900219
B1944174747920N11959106WA0019900219
B1944184747920N11959106WA0019900219
B1944194747920N11959106WA0019900219
B1944204747920N11959106WA0019900220
B1944214747920N11959106WA0019900220
B1944224747920N11959107WA0019900220
B1944234747920N11959107WA0019900220
B1944244747920N11959106WA0019900220
B1944254747920N11959106WA0019900221
B1944264747920N11959106WA0019900221
B1944274747921N11959107WA0019900221
B1944284747921N11959107WA0019900221
B1944294747921N11959107WA0019900221
B1944304747921N11959106WA0019900221
B1944314747920N11959106WA0019900221
B1944324747920N11959106WA0019900221
B1944334747920N11959105WA0019900221
B1944344747920N11959104WA0019900221
B1944354747920N11959103WA0019900220
