AXFMFLYMASTER LIVETRACK
HFDTE200926
HFFXA010
HFPLTPILOT:Andria Lea Monteleone
HFGTYGLIDERTYPE:Ozone Photon / Supair Delight
HFCIDCOMPETITIONID:777
HFDTM100GPSDATUM:WGS-1984
HFRFWFIRMWAREVERSION:lt.flymaster.net bsGetPilotTrack
B1858323832454N11204415WA0340703407
B1858333832455N11204416WA0340703407
B1858343832455N11204419WA0340703407
B1858353832456N11204421WA0340603406
B1858363832458N11204425WA0340503405
B1858373832461N11204429WA0340303403
B1858383832464N11204434WA0340103401
B1858393832466N11204440WA0340003400
B1858403832469N11204445WA0340003400
B1858413832471N11204448WA0340303403
B1858423832474N11204450WA0340503405
B1858433832477N11204453WA0340603406
B1858443832479N11204457WA0340603406
B1858453832482N11204461WA0340603406
B1858463832484N11204466WA0340503405
B1858473832486N11204472WA0340403404
B1858483832488N11204477WA0340303403
B1858493832490N11204482WA0340303403
B1858503832493N11204486WA0340303403
B1858513832495N11204489WA0340303403
B1858523832498N11204492WA0340203402
B1858533832501N11204497WA0340003400
B1858543832505N11204502WA0339703397
B1858553832509N11204507WA0339503395
B1858563832513N11204511WA0339403394
B1858573832517N11204516WA0339203392
B1858583832521N11204521WA0339103391
B1858593832525N11204526WA0338903389
B1859003832529N11204531WA0338703387
B1859013832533N11204537WA0338503385
B1859023832536N11204542WA0338403384
B1859033832540N11204547WA0338203382
B1859043832544N11204552WA0338003380
B1859053832549N11204557WA0337903379
B1859063832553N11204562WA0337703377
B1859073832558N11204567WA0337603376
B1859083832562N11204571WA0337603376
B1859093832567N11204575WA0337603376
B1859103832571N11204579WA0337603376
B1859113832574N11204583WA0337703377
B1859123832577N11204586WA0337603376
B1859133832581N11204590WA0337303373
B1859143832586N11204595WA0337103371
B1859153832590N11204600WA0337003370
B1859163832594N11204605WA0336903369
B1859173832598N11204610WA0336803368
B1859183832603N11204614WA0336903369
B1859193832607N11204617WA0337103371
B1859203832610N11204621WA0337203372
B1859213832613N11204625WA0337303373
B1859223832615N11204630WA0337403374
B1859233832619N11204635WA0337403374
B1859243832622N11204641WA0337503375
B1859253832625N11204646WA0337603376
B1859263832628N11204651WA0337603376
B1859273832632N11204656WA0337803378
B1859283832635N11204662WA0337903379
B1859293832638N11204667WA0338003380
B1859303832642N11204672WA0338103381
B1859313832645N11204677WA0338203382
B1859323832648N11204681WA0338203382
B1859333832652N11204685WA0338103381
B1859343832656N11204689WA0337903379
B1859353832661N11204693WA0337703377
B1859363832665N11204697WA0337503375
B1859373832670N11204702WA0337403374
B1859383832674N11204706WA0337603376
B1859393832678N11204709WA0338003380
B1859403832682N11204712WA0338403384
B1859413832685N11204714WA0338803388
B1859423832688N11204717WA0339003390
B1859433832692N11204720WA0339103391
B1859443832697N11204724WA0339303393
B1859453832701N11204728WA0339503395
B1859463832706N11204732WA0339703397
B1859473832710N11204736WA0339803398
B1859483832715N11204739WA0339903399
B1859493832720N11204743WA0339903399
B1859503832724N11204747WA0339803398
B1859513832728N11204751WA0339603396
B1859523832733N11204755WA0339603396
B1859533832737N11204759WA0339503395
B1859543832740N11204764WA0339403394
B1859553832743N11204768WA0339403394
B1859563832746N11204771WA0339403394
B1859573832748N11204774WA0339303393
B1859583832751N11204777WA0339103391
B1859593832754N11204781WA0338803388
B1900003832758N11204786WA0338503385
B1900013832762N11204791WA0338303383
B1900023832765N11204795WA0338303383
B1900033832768N11204798WA0338303383
B1900043832770N11204800WA0338303383
B1900053832773N11204803WA0338203382
B1900063832776N11204807WA0338003380
B1900073832779N11204812WA0337903379
B1900083832783N11204816WA0337903379
B1900093832785N11204821WA0338003380
B1900103832787N11204824WA0338103381
B1900113832790N11204827WA0338203382
B1900123832793N11204831WA0338203382
B1900133832796N11204835WA0338103381
B1900143832799N11204839WA0337903379
B1900153832802N11204845WA0337803378
B1900163832805N11204849WA0337803378
B1900173832808N11204854WA0337803378
B1900183832812N11204857WA0338003380
B1900193832815N11204860WA0338103381
B1900203832818N11204864WA0338203382
B1900213832822N11204868WA0338103381
B1900223832826N11204873WA0338003380
B1900233832830N11204878WA0337903379
B1900243832833N11204883WA0337903379
B1900253832837N11204889WA0338103381
B1900263832840N11204894WA0338403384
B1900273832843N11204900WA0338803388
B1900283832845N11204904WA0339203392
B1900293832846N11204908WA0339503395
B1900303832848N11204912WA0339803398
B1900313832851N11204916WA0339903399
B1900323832853N11204921WA0339803398
B1900333832856N11204927WA0339803398
B1900343832860N11204933WA0339903399
B1900353832863N11204938WA0340003400
B1900363832866N11204941WA0340203402
B1900373832868N11204943WA0340303403
B1900383832871N11204946WA0340503405
B1900393832873N11204950WA0340503405
B1900403832876N11204954WA0340503405
B1900413832879N11204958WA0340603406
B1900423832883N11204962WA0340603406
B1900433832885N11204966WA0340703407
B1900443832887N11204971WA0340803408
B1900453832890N11204975WA0341003410
B1900463832892N11204978WA0341103411
B1900473832895N11204982WA0341103411
B1900483832899N11204986WA0341103411
B1900493832902N11204990WA0341203412
B1900503832906N11204994WA0341403414
B1900513832910N11204998WA0341603416
B1900523832914N11205001WA0342003420
B1900533832917N11205004WA0342503425
B1900543832919N11205007WA0343003430
B1900553832921N11205011WA0343403434
B1900563832924N11205015WA0343703437
B1900573832927N11205019WA0343903439
B1900583832930N11205024WA0344003440
B1900593832933N11205029WA0344203442
B1901003832936N11205033WA0344403444
B1901013832937N11205038WA0344703447
B1901023832939N11205043WA0345003450
B1901033832940N11205049WA0345103451
B1901043832942N11205055WA0345203452
B1901053832944N11205060WA0345403454
B1901063832947N11205066WA0345503455
B1901073832949N11205072WA0345703457
B1901083832951N11205077WA0346003460
B1901093832953N11205082WA0346203462
B1901103832956N11205087WA0346403464
B1901113832958N11205092WA0346603466
B1901123832961N11205098WA0346803468
B1901133832964N11205103WA0347003470
B1901143832966N11205109WA0347203472
B1901153832969N11205114WA0347403474
B1901163832971N11205120WA0347603476
B1901173832973N11205127WA0347703477
B1901183832977N11205133WA0347803478
B1901193832980N11205139WA0347903479
B1901203832984N11205144WA0348003480
B1901213832987N11205149WA0348303483
B1901223832991N11205154WA0348503485
B1901233832993N11205159WA0348603486
B1901243832997N11205165WA0348603486
B1901253833000N11205170WA0348603486
B1901263833004N11205176WA0348603486
B1901273833008N11205181WA0348703487
B1901283833011N11205187WA0348803488
B1901293833014N11205192WA0349003490
B1901303833017N11205197WA0349103491
B1901313833020N11205202WA0349203492
B1901323833022N11205208WA0349203492
B1901333833025N11205213WA0349203492
B1901343833029N11205219WA0349203492
B1901353833032N11205224WA0349103491
B1901363833035N11205231WA0349003490
B1901373833038N11205237WA0348803488
B1901383833042N11205243WA0348603486
B1901393833046N11205250WA0348503485
B1901403833050N11205256WA0348403484
B1901413833054N11205262WA0348503485
B1901423833058N11205267WA0348503485
B1901433833061N11205271WA0348503485
B1901443833064N11205276WA0348303483
B1901453833067N11205282WA0348103481
B1901463833070N11205288WA0347803478
B1901473833074N11205294WA0347503475
B1901483833077N11205300WA0347203472
B1901493833081N11205306WA0346903469
B1901503833085N11205312WA0346803468
B1901513833089N11205319WA0346503465
B1901523833092N11205325WA0346303463
B1901533833095N11205332WA0346103461
B1901543833099N11205338WA0345903459
B1901553833102N11205345WA0345603456
B1901563833106N11205352WA0345403454
B1901573833110N11205358WA0345103451
B1901583833114N11205365WA0344903449
B1901593833118N11205372WA0344703447
B1902003833121N11205378WA0344503445
B1902013833125N11205384WA0344203442
B1902023833129N11205390WA0343903439
B1902033833134N11205397WA0343403434
B1902043833139N11205403WA0343003430
B1902053833145N11205410WA0342703427
B1902063833150N11205416WA0342503425
B1902073833155N11205422WA0342403424
B1902083833160N11205427WA0342203422
B1902093833165N11205433WA0341903419
B1902103833170N11205440WA0341703417
B1902113833174N11205447WA0341403414
B1902123833179N11205454WA0341203412
B1902133833183N11205461WA0341103411
B1902143833187N11205468WA0340903409
B1902153833191N11205475WA0340803408
B1902163833195N11205481WA0340603406
B1902173833200N11205488WA0340303403
B1902183833205N11205495WA0340003400
B1902193833210N11205502WA0339703397
B1902203833214N11205509WA0339503395
B1902213833219N11205515WA0339303393
B1902223833223N11205521WA0339203392
B1902233833228N11205528WA0339003390
B1902243833232N11205534WA0338803388
B1902253833237N11205541WA0338503385
B1902263833242N11205547WA0338203382
B1902273833247N11205554WA0338003380
B1902283833252N11205560WA0337903379
B1902293833256N11205567WA0337703377
B1902303833261N11205573WA0337603376
B1902313833265N11205579WA0337503375
B1902323833269N11205585WA0337203372
B1902333833274N11205592WA0337003370
B1902343833278N11205598WA0336803368
B1902353833283N11205604WA0336603366
B1902363833287N11205610WA0336403364
B1902373833292N11205615WA0336103361
B1902383833297N11205621WA0335903359
B1902393833302N11205626WA0335703357
B1902403833307N11205631WA0335403354
B1902413833311N11205636WA0335203352
B1902423833316N11205642WA0334903349
B1902433833321N11205647WA0334703347
B1902443833326N11205652WA0334503345
B1902453833330N11205656WA0334403344
B1902463833334N11205661WA0334303343
B1902473833338N11205666WA0334203342
B1902483833342N11205670WA0334003340
B1902493833346N11205674WA0334003340
B1902503833349N11205677WA0334003340
B1902513833353N11205680WA0334203342
B1902523833357N11205682WA0334303343
B1902533833361N11205684WA0334403344
B1902543833365N11205687WA0334303343
B1902553833369N11205691WA0334403344
B1902563833373N11205696WA0334603346
B1902573833376N11205700WA0334803348
B1902583833379N11205704WA0335103351
B1902593833382N11205708WA0335303353
B1903003833386N11205712WA0335503355
B1903013833390N11205716WA0335503355
B1903023833394N11205721WA0335503355
B1903033833399N11205727WA0335703357
B1903043833403N11205732WA0335903359
B1903053833407N11205736WA0336103361
B1903063833410N11205740WA0336503365
B1903073833413N11205744WA0336603366
B1903083833415N11205748WA0336603366
B1903093833418N11205753WA0336403364
B1903103833423N11205759WA0336103361
B1903113833428N11205765WA0335803358
B1903123833433N11205771WA0335603356
B1903133833437N11205776WA0335503355
B1903143833440N11205780WA0335503355
B1903153833444N11205784WA0335303353
B1903163833448N11205788WA0335003350
B1903173833453N11205793WA0334503345
B1903183833459N11205799WA0334003340
B1903193833464N11205805WA0333603336
B1903203833469N11205812WA0333403334
B1903213833474N11205816WA0333303333
B1903223833478N11205820WA0333203332
B1903233833482N11205824WA0333103331
B1903243833487N11205829WA0332903329
B1903253833491N11205834WA0332503325
B1903263833496N11205840WA0332103321
B1903273833501N11205846WA0331803318
B1903283833506N11205851WA0331603316
B1903293833510N11205856WA0331503315
B1903303833515N11205861WA0331303313
B1903313833520N11205866WA0331003310
B1903323833525N11205871WA0330703307
B1903333833529N11205877WA0330403304
B1903343833534N11205882WA0330203302
B1903353833539N11205887WA0330003300
B1903363833544N11205892WA0329703297
B1903373833549N11205897WA0329503295
B1903383833553N11205902WA0329203292
B1903393833558N11205908WA0328803288
B1903403833563N11205914WA0328503285
B1903413833567N11205919WA0328403284
B1903423833571N11205925WA0328303283
B1903433833575N11205930WA0328203282
B1903443833579N11205935WA0328003280
B1903453833583N11205940WA0327803278
B1903463833588N11205945WA0327503275
B1903473833592N11205951WA0327303273
B1903483833597N11205956WA0327103271
B1903493833601N11205961WA0326903269
B1903503833606N11205966WA0326703267
B1903513833610N11205971WA0326503265
B1903523833615N11205976WA0326303263
B1903533833619N11205981WA0326003260
B1903543833624N11205986WA0325803258
B1903553833628N11205992WA0325603256
B1903563833632N11205997WA0325403254
B1903573833637N11206002WA0325203252
B1903583833641N11206007WA0324903249
B1903593833646N11206013WA0324703247
B1904003833650N11206019WA0324403244
B1904013833655N11206025WA0324103241
B1904023833660N11206032WA0323703237
B1904033833666N11206038WA0323403234
B1904043833672N11206043WA0323103231
B1904053833678N11206049WA0323003230
B1904063833684N11206053WA0322903229
B1904073833690N11206058WA0322703227
B1904083833696N11206062WA0322603226
B1904093833702N11206066WA0322503225
B1904103833708N11206071WA0322303223
B1904113833715N11206076WA0322103221
B1904123833721N11206081WA0321903219
B1904133833727N11206087WA0321703217
B1904143833733N11206091WA0321503215
B1904153833739N11206097WA0321403214
B1904163833745N11206102WA0321203212
B1904173833750N11206107WA0321003210
B1904183833756N11206113WA0320703207
B1904193833761N11206119WA0320503205
B1904203833767N11206125WA0320303203
B1904213833773N11206130WA0320103201
B1904223833779N11206135WA0319903199
B1904233833785N11206141WA0319703197
B1904243833791N11206146WA0319403194
B1904253833798N11206150WA0319203192
B1904263833804N11206155WA0319103191
B1904273833810N11206159WA0319003190
B1904283833814N11206163WA0319003190
B1904293833818N11206168WA0318903189
B1904303833822N11206173WA0318803188
B1904313833826N11206177WA0318603186
B1904323833831N11206182WA0318303183
B1904333833836N11206188WA0318003180
B1904343833841N11206193WA0317903179
B1904353833845N11206198WA0317803178
B1904363833849N11206203WA0317803178
B1904373833853N11206208WA0317703177
B1904383833856N11206213WA0317503175
B1904393833860N11206218WA0317303173
B1904403833864N11206224WA0317103171
B1904413833868N11206231WA0316903169
B1904423833871N11206237WA0316803168
B1904433833874N11206243WA0316703167
B1904443833877N11206249WA0316603166
B1904453833880N11206254WA0316503165
B1904463833884N11206260WA0316403164
B1904473833887N11206266WA0316303163
B1904483833890N11206272WA0316203162
B1904493833894N11206278WA0316103161
B1904503833897N11206283WA0316103161
B1904513833901N11206289WA0316003160
B1904523833904N11206294WA0316003160
B1904533833908N11206300WA0315903159
B1904543833911N11206305WA0315803158
B1904553833915N11206311WA0315703157
B1904563833918N11206317WA0315603156
B1904573833922N11206322WA0315503155
B1904583833925N11206328WA0315403154
B1904593833928N11206334WA0315303153
B1905003833932N11206340WA0315203152
B1905013833935N11206345WA0315203152
B1905023833939N11206351WA0315103151
B1905033833942N11206357WA0315003150
B1905043833946N11206362WA0315003150
B1905053833950N11206367WA0314903149
B1905063833954N11206373WA0314803148
B1905073833958N11206378WA0314803148
B1905083833962N11206383WA0314703147
B1905093833965N11206388WA0314703147
B1905103833970N11206393WA0314603146
B1905113833974N11206399WA0314503145
B1905123833978N11206404WA0314403144
B1905133833983N11206409WA0314403144
B1905143833987N11206414WA0314303143
B1905153833991N11206419WA0314303143
B1905163833995N11206424WA0314203142
B1905173833999N11206429WA0314203142
B1905183834003N11206434WA0314103141
B1905193834007N11206439WA0314103141
B1905203834011N11206444WA0314003140
B1905213834015N11206449WA0314003140
B1905223834019N11206454WA0313903139
B1905233834022N11206458WA0313903139
B1905243834026N11206463WA0313803138
B1905253834030N11206468WA0313703137
B1905263834034N11206473WA0313703137
B1905273834037N11206479WA0313603136
B1905283834041N11206484WA0313603136
B1905293834045N11206489WA0313503135
B1905303834048N11206494WA0313503135
B1905313834051N11206499WA0313503135
B1905323834055N11206504WA0313403134
B1905333834058N11206509WA0313403134
B1905343834061N11206514WA0313403134
B1905353834065N11206518WA0313303133
B1905363834069N11206523WA0313303133
B1905373834073N11206527WA0313303133
B1905383834076N11206532WA0313303133
B1905393834080N11206536WA0313303133
B1905403834084N11206540WA0313303133
B1905413834088N11206545WA0313203132
B1905423834092N11206549WA0313203132
B1905433834096N11206553WA0313103131
B1905443834099N11206557WA0313103131
B1905453834103N11206561WA0313103131
B1905463834107N11206564WA0313103131
B1905473834111N11206568WA0313003130
B1905483834115N11206571WA0313003130
B1905493834118N11206575WA0312903129
B1905503834122N11206578WA0312803128
B1905513834126N11206582WA0312703127
B1905523834131N11206586WA0312603126
B1905533834135N11206589WA0312503125
B1905543834139N11206592WA0312403124
B1905553834143N11206595WA0312303123
B1905563834147N11206599WA0312303123
B1905573834150N11206602WA0312103121
B1905583834154N11206606WA0312003120
B1905593834158N11206609WA0311903119
B1906003834163N11206612WA0311803118
B1906013834167N11206615WA0311603116
B1906023834171N11206619WA0311503115
B1906033834175N11206622WA0311403114
B1906043834179N11206625WA0311303113
B1906053834183N11206629WA0311103111
B1906063834188N11206632WA0311003110
B1906073834192N11206635WA0310903109
B1906083834197N11206638WA0310703107
B1906093834201N11206642WA0310603106
B1906103834205N11206645WA0310503105
B1906113834209N11206648WA0310403104
B1906123834214N11206651WA0310203102
B1906133834218N11206655WA0310003100
B1906143834222N11206659WA0309903099
B1906153834226N11206663WA0309703097
B1906163834229N11206667WA0309503095
B1906173834233N11206671WA0309403094
B1906183834236N11206676WA0309203092
B1906193834240N11206680WA0309003090
B1906203834243N11206686WA0308703087
B1906213834247N11206691WA0308303083
B1906223834252N11206697WA0308003080
B1906233834256N11206702WA0307803078
B1906243834261N11206707WA0307603076
B1906253834266N11206711WA0307503075
B1906263834270N11206715WA0307303073
B1906273834275N11206719WA0307103071
B1906283834279N11206724WA0306803068
B1906293834284N11206728WA0306503065
B1906303834289N11206732WA0306303063
B1906313834295N11206736WA0306003060
B1906323834300N11206740WA0305803058
B1906333834306N11206743WA0305603056
B1906343834312N11206745WA0305403054
B1906353834318N11206747WA0305203052
B1906363834324N11206749WA0304903049
B1906373834331N11206750WA0304703047
B1906383834337N11206751WA0304403044
B1906393834344N11206751WA0304203042
B1906403834351N11206752WA0304003040
B1906413834357N11206752WA0303803038
B1906423834364N11206753WA0303603036
B1906433834370N11206753WA0303403034
B1906443834377N11206754WA0303103031
B1906453834384N11206755WA0302903029
B1906463834390N11206756WA0302703027
B1906473834397N11206756WA0302503025
B1906483834404N11206757WA0302203022
B1906493834410N11206758WA0302003020
B1906503834416N11206759WA0301803018
B1906513834423N11206761WA0301703017
B1906523834428N11206762WA0301603016
B1906533834433N11206764WA0301503015
B1906543834437N11206767WA0301403014
B1906553834441N11206770WA0301303013
B1906563834445N11206773WA0301103011
B1906573834449N11206776WA0300903009
B1906583834454N11206779WA0300703007
B1906593834458N11206782WA0300503005
B1907003834463N11206785WA0300403004
B1907013834467N11206788WA0300203002
B1907023834471N11206792WA0300003000
B1907033834474N11206795WA0299902999
B1907043834478N11206799WA0299702997
B1907053834482N11206803WA0299502995
B1907063834486N11206806WA0299302993
B1907073834490N11206809WA0299202992
B1907083834495N11206812WA0299102991
B1907093834500N11206814WA0298902989
B1907103834504N11206817WA0298702987
B1907113834509N11206819WA0298602986
B1907123834514N11206821WA0298402984
B1907133834519N11206824WA0298202982
B1907143834523N11206826WA0298102981
B1907153834528N11206828WA0297902979
B1907163834533N11206831WA0297702977
B1907173834537N11206834WA0297602976
B1907183834541N11206836WA0297502975
B1907193834545N11206839WA0297402974
B1907203834550N11206841WA0297202972
B1907213834554N11206843WA0297002970
B1907223834558N11206846WA0296902969
B1907233834563N11206849WA0296702967
B1907243834567N11206851WA0296502965
B1907253834572N11206854WA0296302963
B1907263834576N11206856WA0296202962
B1907273834580N11206858WA0296102961
B1907283834585N11206861WA0295902959
B1907293834589N11206864WA0295702957
B1907303834593N11206866WA0295502955
B1907313834598N11206869WA0295402954
B1907323834602N11206872WA0295202952
B1907333834607N11206874WA0295102951
B1907343834611N11206877WA0295002950
B1907353834615N11206879WA0294802948
B1907363834619N11206882WA0294602946
B1907373834624N11206884WA0294402944
B1907383834628N11206887WA0294202942
B1907393834633N11206889WA0294102941
B1907403834637N11206892WA0293902939
B1907413834641N11206894WA0293802938
B1907423834646N11206896WA0293602936
B1907433834650N11206898WA0293402934
B1907443834655N11206900WA0293202932
B1907453834660N11206902WA0293102931
B1907463834665N11206904WA0292902929
B1907473834669N11206905WA0292802928
B1907483834674N11206907WA0292702927
B1907493834679N11206908WA0292502925
B1907503834684N11206909WA0292402924
B1907513834689N11206911WA0292202922
B1907523834694N11206912WA0292102921
B1907533834699N11206913WA0291902919
B1907543834704N11206915WA0291802918
B1907553834709N11206916WA0291702917
B1907563834713N11206918WA0291602916
B1907573834718N11206919WA0291402914
B1907583834723N11206921WA0291302913
B1907593834728N11206923WA0291102911
B1908003834733N11206926WA0290902909
B1908013834738N11206929WA0290602906
B1908023834744N11206932WA0290402904
B1908033834750N11206934WA0290202902
B1908043834756N11206936WA0290102901
B1908053834762N11206937WA0290002900
B1908063834768N11206938WA0289902899
B1908073834774N11206940WA0289802898
B1908083834779N11206941WA0289602896
B1908093834785N11206943WA0289502895
B1908103834791N11206945WA0289302893
B1908113834797N11206946WA0289102891
B1908123834803N11206948WA0289002890
B1908133834809N11206950WA0288902889
B1908143834815N11206952WA0288702887
B1908153834820N11206953WA0288602886
B1908163834826N11206955WA0288502885
B1908173834833N11206955WA0288402884
B1908183834839N11206956WA0288202882
B1908193834845N11206956WA0288102881
B1908203834852N11206956WA0287902879
B1908213834858N11206956WA0287802878
B1908223834865N11206955WA0287702877
B1908233834871N11206955WA0287502875
B1908243834878N11206954WA0287402874
B1908253834885N11206954WA0287202872
B1908263834891N11206954WA0287102871
B1908273834898N11206953WA0287002870
B1908283834905N11206953WA0286902869
B1908293834911N11206953WA0286802868
B1908303834918N11206952WA0286702867
B1908313834924N11206951WA0286602866
B1908323834931N11206950WA0286402864
B1908333834938N11206949WA0286302863
B1908343834944N11206948WA0286102861
B1908353834951N11206947WA0285902859
B1908363834958N11206946WA0285702857
B1908373834964N11206946WA0285502855
B1908383834971N11206946WA0285402854
B1908393834977N11206945WA0285202852
B1908403834983N11206946WA0285002850
B1908413834990N11206946WA0284802848
B1908423834996N11206946WA0284602846
B1908433835002N11206947WA0284402844
B1908443835009N11206948WA0284202842
B1908453835015N11206949WA0284102841
B1908463835020N11206950WA0283902839
B1908473835026N11206951WA0283802838
B1908483835032N11206952WA0283602836
B1908493835038N11206953WA0283402834
B1908503835044N11206955WA0283202832
B1908513835050N11206957WA0283002830
B1908523835055N11206959WA0282802828
B1908533835061N11206961WA0282602826
B1908543835065N11206964WA0282502825
B1908553835070N11206967WA0282302823
B1908563835074N11206971WA0282002820
B1908573835079N11206975WA0281702817
B1908583835084N11206979WA0281402814
B1908593835089N11206984WA0281102811
B1909003835094N11206989WA0280802808
B1909013835099N11206994WA0280602806
B1909023835103N11206999WA0280402804
B1909033835108N11207004WA0280202802
B1909043835112N11207008WA0280002800
B1909053835115N11207012WA0279902799
B1909063835118N11207016WA0279902799
B1909073835120N11207019WA0279802798
B1909083835123N11207023WA0279602796
B1909093835126N11207027WA0279402794
B1909103835130N11207030WA0279102791
B1909113835134N11207034WA0278902789
B1909123835139N11207036WA0278702787
B1909133835143N11207039WA0278502785
B1909143835148N11207042WA0278402784
B1909153835152N11207045WA0278202782
B1909163835157N11207047WA0278002780
B1909173835161N11207049WA0277902779
B1909183835166N11207052WA0277702777
B1909193835171N11207054WA0277402774
B1909203835175N11207057WA0277202772
B1909213835180N11207059WA0277002770
B1909223835186N11207061WA0276902769
B1909233835191N11207063WA0276702767
B1909243835196N11207065WA0276502765
B1909253835201N11207067WA0276302763
B1909263835206N11207069WA0276102761
B1909273835211N11207071WA0275902759
B1909283835216N11207074WA0275702757
B1909293835220N11207076WA0275502755
B1909303835225N11207078WA0275302753
B1909313835230N11207081WA0275102751
B1909323835235N11207083WA0274902749
B1909333835240N11207086WA0274702747
B1909343835245N11207088WA0274502745
B1909353835250N11207091WA0274402744
B1909363835255N11207094WA0274202742
B1909373835260N11207096WA0274002740
B1909383835264N11207099WA0273802738
B1909393835269N11207102WA0273602736
B1909403835274N11207105WA0273402734
B1909413835279N11207107WA0273302733
B1909423835285N11207109WA0273102731
B1909433835291N11207110WA0272902729
B1909443835297N11207111WA0272702727
B1909453835303N11207113WA0272502725
B1909463835309N11207114WA0272402724
B1909473835315N11207115WA0272302723
B1909483835320N11207115WA0272102721
B1909493835326N11207116WA0272002720
B1909503835332N11207116WA0271802718
B1909513835339N11207115WA0271602716
B1909523835345N11207114WA0271402714
B1909533835352N11207112WA0271202712
B1909543835359N11207110WA0271002710
B1909553835366N11207109WA0270802708
B1909563835372N11207108WA0270702707
B1909573835380N11207106WA0270502705
B1909583835387N11207105WA0270202702
B1909593835394N11207102WA0270102701
B1910003835401N11207100WA0269902699
B1910013835409N11207097WA0269702697
B1910023835416N11207094WA0269502695
B1910033835423N11207091WA0269302693
B1910043835431N11207088WA0269102691
B1910053835438N11207085WA0269002690
B1910063835446N11207082WA0268802688
B1910073835453N11207079WA0268702687
B1910083835460N11207076WA0268602686
B1910093835467N11207073WA0268402684
B1910103835474N11207071WA0268302683
B1910113835480N11207070WA0268302683
B1910123835486N11207069WA0268202682
B1910133835493N11207068WA0268102681
B1910143835499N11207068WA0267802678
B1910153835506N11207068WA0267602676
B1910163835514N11207069WA0267402674
B1910173835520N11207070WA0267302673
B1910183835527N11207072WA0267202672
B1910193835533N11207074WA0267002670
B1910203835539N11207075WA0266902669
B1910213835546N11207077WA0266602666
B1910223835553N11207079WA0266402664
B1910233835561N11207081WA0266102661
B1910243835569N11207082WA0265902659
B1910253835577N11207084WA0265702657
B1910263835585N11207085WA0265702657
B1910273835592N11207085WA0265602656
B1910283835599N11207086WA0265402654
B1910293835607N11207086WA0265202652
B1910303835614N11207086WA0265002650
B1910313835622N11207086WA0264802648
B1910323835630N11207086WA0264602646
B1910333835638N11207086WA0264402644
B1910343835646N11207085WA0264302643
B1910353835653N11207085WA0264102641
B1910363835661N11207085WA0263902639
B1910373835669N11207085WA0263702637
B1910383835677N11207085WA0263502635
B1910393835685N11207085WA0263402634
B1910403835692N11207085WA0263202632
B1910413835700N11207085WA0263102631
B1910423835707N11207085WA0262902629
B1910433835714N11207086WA0262802628
B1910443835721N11207086WA0262602626
B1910453835729N11207086WA0262302623
B1910463835736N11207086WA0262002620
B1910473835744N11207086WA0261802618
B1910483835752N11207086WA0261602616
B1910493835759N11207086WA0261402614
B1910503835765N11207086WA0261402614
B1910513835771N11207087WA0261302613
B1910523835777N11207088WA0261202612
B1910533835783N11207089WA0261002610
B1910543835789N11207089WA0260702607
B1910553835796N11207090WA0260502605
B1910563835803N11207090WA0260302603
B1910573835810N11207090WA0260202602
B1910583835816N11207091WA0260102601
B1910593835822N11207092WA0260002600
B1911003835828N11207092WA0260002600
B1911013835835N11207093WA0259802598
B1911023835841N11207094WA0259702597
B1911033835848N11207095WA0259502595
B1911043835854N11207096WA0259402594
B1911053835860N11207098WA0259302593
B1911063835866N11207099WA0259202592
B1911073835872N11207101WA0259202592
B1911083835878N11207103WA0259002590
B1911093835884N11207105WA0258902589
B1911103835890N11207107WA0258702587
B1911113835897N11207108WA0258602586
B1911123835903N11207109WA0258502585
B1911133835909N11207110WA0258402584
B1911143835915N11207110WA0258402584
B1911153835920N11207110WA0258302583
B1911163835926N11207110WA0258102581
B1911173835932N11207110WA0258002580
B1911183835939N11207111WA0257802578
B1911193835945N11207111WA0257602576
B1911203835951N11207111WA0257502575
B1911213835957N11207111WA0257402574
B1911223835963N11207111WA0257202572
B1911233835970N11207110WA0257102571
B1911243835976N11207110WA0256902569
B1911253835983N11207109WA0256802568
B1911263835989N11207109WA0256602566
B1911273835995N11207110WA0256502565
B1911283836002N11207110WA0256402564
B1911293836008N11207109WA0256202562
B1911303836014N11207109WA0256002560
B1911313836021N11207108WA0255802558
B1911323836027N11207107WA0255702557
B1911333836033N11207106WA0255602556
B1911343836039N11207104WA0255402554
B1911353836045N11207102WA0255302553
B1911363836052N11207101WA0255102551
B1911373836058N11207100WA0254902549
B1911383836065N11207100WA0254802548
B1911393836071N11207100WA0254702547
B1911403836077N11207099WA0254602546
B1911413836083N11207099WA0254502545
B1911423836089N11207098WA0254302543
B1911433836095N11207097WA0254202542
B1911443836102N11207096WA0254002540
B1911453836108N11207095WA0253902539
B1911463836115N11207095WA0253702537
B1911473836121N11207094WA0253602536
B1911483836127N11207094WA0253602536
B1911493836133N11207094WA0253402534
B1911503836139N11207094WA0253202532
B1911513836146N11207094WA0253002530
B1911523836152N11207095WA0252902529
B1911533836159N11207095WA0252802528
B1911543836165N11207096WA0252702527
B1911553836171N11207096WA0252602526
B1911563836178N11207097WA0252502525
B1911573836184N11207098WA0252402524
B1911583836191N11207099WA0252302523
B1911593836197N11207100WA0252302523
B1912003836203N11207101WA0252202522
B1912013836209N11207102WA0252202522
B1912023836216N11207104WA0252102521
B1912033836222N11207105WA0252002520
B1912043836228N11207106WA0251902519
B1912053836235N11207107WA0251802518
B1912063836241N11207108WA0251802518
B1912073836248N11207108WA0251702517
B1912083836254N11207109WA0251602516
B1912093836260N11207109WA0251502515
B1912103836267N11207110WA0251402514
B1912113836273N11207110WA0251302513
B1912123836280N11207110WA0251202512
B1912133836286N11207110WA0251102511
B1912143836292N11207110WA0250902509
B1912153836299N11207110WA0250702507
B1912163836305N11207110WA0250602506
B1912173836312N11207110WA0250402504
B1912183836319N11207110WA0250302503
B1912193836325N11207110WA0250202502
B1912203836331N11207110WA0250102501
B1912213836337N11207111WA0249902499
B1912223836344N11207111WA0249702497
B1912233836350N11207111WA0249602496
B1912243836357N11207111WA0249402494
B1912253836363N11207110WA0249302493
B1912263836369N11207109WA0249202492
B1912273836374N11207107WA0249002490
B1912283836380N11207104WA0248902489
B1912293836386N11207102WA0248702487
B1912303836392N11207099WA0248402484
B1912313836399N11207096WA0248302483
B1912323836404N11207094WA0248102481
B1912333836410N11207092WA0248002480
B1912343836416N11207089WA0247902479
B1912353836421N11207087WA0247702477
B1912363836427N11207085WA0247502475
B1912373836434N11207082WA0247302473
B1912383836440N11207080WA0247102471
B1912393836446N11207078WA0246902469
B1912403836452N11207076WA0246702467
B1912413836458N11207074WA0246602466
B1912423836464N11207073WA0246402464
B1912433836470N11207071WA0246202462
B1912443836476N11207069WA0246002460
B1912453836482N11207067WA0245802458
B1912463836489N11207065WA0245602456
B1912473836495N11207062WA0245502455
B1912483836500N11207060WA0245502455
B1912493836506N11207058WA0245402454
B1912503836512N11207056WA0245302453
B1912513836518N11207054WA0245102451
B1912523836524N11207052WA0245002450
B1912533836530N11207050WA0244802448
B1912543836537N11207049WA0244702447
B1912553836543N11207048WA0244502445
B1912563836550N11207047WA0244402444
B1912573836556N11207047WA0244302443
B1912583836562N11207047WA0244102441
B1912593836569N11207048WA0244002440
B1913003836575N11207048WA0243902439
B1913013836580N11207048WA0243802438
B1913023836586N11207049WA0243602436
B1913033836592N11207049WA0243402434
B1913043836598N11207048WA0243202432
B1913053836604N11207047WA0243002430
B1913063836611N11207046WA0242802428
B1913073836617N11207045WA0242702427
B1913083836623N11207045WA0242502425
B1913093836629N11207044WA0242302423
B1913103836635N11207042WA0242202422
B1913113836641N11207041WA0242102421
B1913123836647N11207039WA0242002420
B1913133836653N11207038WA0241702417
B1913143836659N11207038WA0241502415
B1913153836666N11207038WA0241302413
B1913163836672N11207038WA0241202412
B1913173836678N11207037WA0241102411
B1913183836684N11207036WA0241002410
B1913193836690N11207036WA0240902409
B1913203836696N11207035WA0240702407
B1913213836703N11207035WA0240502405
B1913223836709N11207035WA0240402404
B1913233836715N11207035WA0240202402
B1913243836721N11207035WA0240202402
B1913253836727N11207035WA0240102401
B1913263836732N11207035WA0240002400
B1913273836738N11207035WA0239802398
B1913283836744N11207034WA0239602396
B1913293836749N11207033WA0239502395
B1913303836755N11207031WA0239302393
B1913313836760N11207028WA0239202392
B1913323836765N11207026WA0239102391
B1913333836770N11207023WA0239002390
B1913343836775N11207019WA0238902389
B1913353836780N11207016WA0238802388
B1913363836786N11207013WA0238602386
B1913373836791N11207011WA0238502385
B1913383836797N11207009WA0238402384
B1913393836803N11207008WA0238202382
B1913403836809N11207007WA0238202382
B1913413836815N11207007WA0238102381
B1913423836821N11207007WA0238102381
B1913433836827N11207007WA0238002380
B1913443836833N11207008WA0237902379
B1913453836840N11207010WA0237802378
B1913463836846N11207011WA0237802378
B1913473836852N11207012WA0237802378
B1913483836858N11207013WA0237902379
B1913493836863N11207014WA0237902379
B1913503836869N11207015WA0237902379
B1913513836876N11207015WA0237802378
B1913523836882N11207016WA0237902379
B1913533836888N11207019WA0238002380
B1913543836893N11207022WA0237902379
B1913553836898N11207026WA0237902379
B1913563836902N11207030WA0237802378
B1913573836907N11207034WA0237502375
B1913583836914N11207038WA0237302373
B1913593836920N11207041WA0237102371
B1914003836926N11207043WA0237002370
B1914013836933N11207043WA0237002370
B1914023836939N11207043WA0237002370
B1914033836944N11207041WA0236902369
B1914043836949N11207039WA0236702367
B1914053836955N11207035WA0236602366
B1914063836960N11207032WA0236402364
B1914073836966N11207028WA0236202362
B1914083836971N11207025WA0236102361
B1914093836976N11207022WA0236002360
B1914103836981N11207019WA0236002360
B1914113836986N11207016WA0235802358
B1914123836992N11207014WA0235702357
B1914133836998N11207013WA0235402354
B1914143837005N11207012WA0235302353
B1914153837011N11207013WA0235202352
B1914163837016N11207016WA0235102351
B1914173837022N11207020WA0234902349
B1914183837027N11207025WA0234702347
B1914193837032N11207030WA0234502345
B1914203837036N11207036WA0234302343
B1914213837040N11207043WA0234102341
B1914223837043N11207050WA0233902339
B1914233837045N11207057WA0233702337
B1914243837047N11207065WA0233502335
B1914253837048N11207073WA0233302333
B1914263837050N11207081WA0233002330
B1914273837051N11207089WA0232802328
B1914283837053N11207097WA0232602326
B1914293837054N11207105WA0232502325
B1914303837056N11207112WA0232302323
B1914313837058N11207120WA0232002320
B1914323837060N11207128WA0231802318
B1914333837061N11207136WA0231502315
B1914343837063N11207144WA0231202312
B1914353837064N11207152WA0231002310
B1914363837064N11207161WA0230802308
B1914373837065N11207168WA0230602306
B1914383837066N11207176WA0230402304
B1914393837066N11207184WA0230202302
B1914403837066N11207191WA0230002300
B1914413837066N11207199WA0229702297
B1914423837065N11207208WA0229602296
B1914433837064N11207215WA0229402294
B1914443837062N11207223WA0229302293
B1914453837060N11207231WA0229202292
B1914463837059N11207238WA0229002290
B1914473837057N11207246WA0228902289
B1914483837054N11207253WA0228802288
B1914493837052N11207260WA0228602286
B1914503837050N11207266WA0228402284
B1914513837047N11207274WA0228202282
B1914523837044N11207281WA0228002280
B1914533837040N11207287WA0227802278
B1914543837035N11207291WA0227702277
B1914553837030N11207294WA0227502275
B1914563837025N11207296WA0227502275
B1914573837020N11207296WA0227402274
B1914583837014N11207296WA0227202272
B1914593837009N11207295WA0227002270
B1915003837004N11207295WA0226802268
B1915013836999N11207296WA0226602266
B1915023836994N11207297WA0226402264
B1915033836989N11207301WA0226302263
B1915043836985N11207306WA0226002260
B1915053836982N11207313WA0225602256
B1915063836979N11207321WA0225302253
B1915073836979N11207329WA0225102251
B1915083836980N11207337WA0224802248
B1915093836983N11207344WA0224602246
B1915103836987N11207349WA0224402244
B1915113836992N11207353WA0224102241
B1915123836998N11207355WA0223902239
B1915133837004N11207355WA0223602236
B1915143837009N11207353WA0223302233
B1915153837014N11207349WA0223002230
B1915163837019N11207345WA0222702227
B1915173837022N11207340WA0222502225
B1915183837026N11207334WA0222402224
B1915193837029N11207329WA0222202222
B1915203837031N11207323WA0222002220
B1915213837033N11207317WA0221902219
B1915223837033N11207311WA0221702217
B1915233837033N11207305WA0221602216
B1915243837032N11207300WA0221502215
B1915253837031N11207294WA0221402214
B1915263837029N11207289WA0221202212
B1915273837027N11207282WA0221002210
B1915283837024N11207276WA0220802208
B1915293837020N11207271WA0220702207
B1915303837016N11207267WA0220502205
B1915313837011N11207264WA0220402204
B1915323837007N11207260WA0220402204
B1915333837003N11207256WA0220302203
B1915343837000N11207251WA0220202202
B1915353836996N11207246WA0220102201
B1915363836992N11207242WA0220002200
B1915373836988N11207237WA0219802198
B1915383836984N11207232WA0219702197
B1915393836980N11207227WA0219502195
B1915403836976N11207222WA0219302193
B1915413836972N11207216WA0219202192
B1915423836969N11207209WA0219102191
B1915433836967N11207203WA0218902189
B1915443836964N11207197WA0218802188
B1915453836961N11207191WA0218702187
B1915463836958N11207185WA0218602186
B1915473836955N11207179WA0218502185
B1915483836951N11207172WA0218402184
B1915493836948N11207166WA0218202182
B1915503836944N11207161WA0218102181
B1915513836941N11207155WA0218102181
B1915523836939N11207150WA0218002180
B1915533836937N11207144WA0218002180
B1915543836936N11207137WA0217902179
B1915553836934N11207131WA0218002180
B1915563836932N11207125WA0218002180
B1915573836929N11207119WA0218102181
B1915583836927N11207114WA0218102181
B1915593836926N11207108WA0218102181
B1916003836924N11207101WA0217902179
B1916013836922N11207093WA0217802178
B1916023836921N11207085WA0217602176
B1916033836920N11207077WA0217602176
B1916043836918N11207069WA0217602176
B1916053836917N11207061WA0217702177
B1916063836915N11207054WA0217702177
B1916073836914N11207047WA0217802178
B1916083836913N11207039WA0217802178
B1916093836910N11207033WA0217802178
B1916103836907N11207027WA0217802178
B1916113836902N11207022WA0217802178
B1916123836897N11207017WA0217802178
B1916133836891N11207014WA0217802178
B1916143836885N11207012WA0217802178
B1916153836879N11207011WA0217802178
B1916163836873N11207011WA0217802178
B1916173836867N11207012WA0217902179
B1916183836861N11207012WA0217902179
B1916193836855N11207012WA0218102181
B1916203836850N11207012WA0218102181
B1916213836844N11207012WA0218202182
B1916223836838N11207013WA0218102181
B1916233836832N11207016WA0218102181
B1916243836827N11207020WA0218202182
B1916253836822N11207025WA0218302183
B1916263836818N11207030WA0218402184
B1916273836814N11207037WA0218502185
B1916283836811N11207043WA0218502185
B1916293836808N11207050WA0218502185
B1916303836805N11207056WA0218502185
B1916313836802N11207063WA0218502185
B1916323836799N11207070WA0218502185
B1916333836795N11207076WA0218602186
B1916343836792N11207083WA0218602186
B1916353836789N11207089WA0218602186
B1916363836787N11207095WA0218602186
B1916373836785N11207101WA0218502185
B1916383836784N11207108WA0218402184
B1916393836783N11207116WA0218102181
B1916403836782N11207124WA0217902179
B1916413836779N11207132WA0217702177
B1916423836777N11207140WA0217602176
B1916433836775N11207147WA0217502175
B1916443836774N11207154WA0217402174
B1916453836773N11207160WA0217302173
B1916463836771N11207167WA0216902169
B1916473836768N11207174WA0216502165
B1916483836764N11207181WA0216202162
B1916493836760N11207186WA0215902159
B1916503836754N11207190WA0215702157
B1916513836748N11207191WA0215502155
B1916523836743N11207190WA0215202152
B1916533836738N11207187WA0214902149
B1916543836734N11207182WA0214602146
B1916553836731N11207176WA0214302143
B1916563836730N11207169WA0214102141
B1916573836731N11207163WA0214002140
B1916583836732N11207158WA0213902139
B1916593836736N11207153WA0213702137
B1917003836740N11207149WA0213502135
B1917013836745N11207147WA0213202132
B1917023836751N11207146WA0213002130
B1917033836757N11207147WA0212802128
B1917043836762N11207150WA0212602126
B1917053836766N11207153WA0212402124
B1917063836771N11207156WA0212202122
B1917073836775N11207159WA0211902119
B1917083836780N11207162WA0211602116
B1917093836785N11207163WA0211302113
B1917103836790N11207163WA0211002110
B1917113836796N11207163WA0210802108
B1917123836802N11207164WA0210602106
B1917133836807N11207165WA0210502105
B1917143836812N11207166WA0210502105
B1917153836817N11207167WA0210502105
B1917163836822N11207169WA0210402104
B1917173836827N11207171WA0210302103
B1917183836833N11207172WA0210202102
B1917193836839N11207173WA0210102101
B1917203836845N11207174WA0210002100
B1917213836850N11207173WA0210002100
B1917223836855N11207172WA0210102101
B1917233836860N11207171WA0210302103
B1917243836864N11207172WA0210502105
B1917253836868N11207174WA0210602106
B1917263836873N11207177WA0210602106
B1917273836878N11207180WA0210602106
B1917283836883N11207183WA0210602106
B1917293836888N11207186WA0210602106
B1917303836892N11207189WA0210702107
B1917313836895N11207193WA0210802108
B1917323836897N11207199WA0210902109
B1917333836898N11207205WA0211002110
B1917343836898N11207212WA0210902109
B1917353836897N11207220WA0210802108
B1917363836894N11207228WA0210702107
B1917373836889N11207235WA0210602106
B1917383836884N11207239WA0210602106
B1917393836878N11207242WA0210502105
B1917403836872N11207244WA0210402104
B1917413836866N11207244WA0210302103
B1917423836860N11207242WA0210102101
B1917433836855N11207238WA0209802098
B1917443836851N11207233WA0209602096
B1917453836847N11207227WA0209502095
B1917463836845N11207221WA0209602096
B1917473836843N11207216WA0209602096
B1917483836843N11207210WA0209602096
B1917493836843N11207203WA0209402094
B1917503836844N11207196WA0209202092
B1917513836846N11207188WA0208902089
B1917523836849N11207181WA0208902089
B1917533836853N11207175WA0209002090
B1917543836858N11207172WA0209102091
B1917553836861N11207169WA0209402094
B1917563836864N11207166WA0209602096
B1917573836867N11207162WA0209602096
B1917583836870N11207158WA0209602096
B1917593836873N11207153WA0209602096
B1918003836877N11207150WA0209702097
B1918013836881N11207149WA0209802098
B1918023836885N11207149WA0209902099
B1918033836889N11207150WA0209802098
B1918043836894N11207152WA0209702097
B1918053836899N11207154WA0209802098
B1918063836903N11207157WA0209802098
B1918073836906N11207161WA0209802098
B1918083836909N11207166WA0209802098
B1918093836911N11207171WA0209802098
B1918103836913N11207177WA0209702097
B1918113836914N11207184WA0209602096
B1918123836914N11207191WA0209502095
B1918133836915N11207198WA0209502095
B1918143836914N11207205WA0209402094
B1918153836914N11207212WA0209402094
B1918163836912N11207219WA0209302093
B1918173836910N11207226WA0209302093
B1918183836907N11207233WA0209202092
B1918193836902N11207239WA0209002090
B1918203836898N11207245WA0208802088
B1918213836893N11207251WA0208602086
B1918223836888N11207258WA0208402084
B1918233836883N11207263WA0208402084
B1918243836878N11207267WA0208302083
B1918253836873N11207270WA0208202082
B1918263836867N11207272WA0208002080
B1918273836861N11207273WA0207802078
B1918283836854N11207273WA0207502075
B1918293836848N11207272WA0207302073
B1918303836841N11207270WA0207202072
B1918313836836N11207266WA0207102071
B1918323836831N11207261WA0207002070
B1918333836826N11207257WA0206902069
B1918343836821N11207252WA0206802068
B1918353836816N11207247WA0206702067
B1918363836811N11207241WA0206602066
B1918373836807N11207236WA0206502065
B1918383836803N11207230WA0206502065
B1918393836800N11207224WA0206402064
B1918403836797N11207218WA0206302063
B1918413836795N11207211WA0206102061
B1918423836793N11207203WA0205902059
B1918433836793N11207195WA0205702057
B1918443836793N11207188WA0205602056
B1918453836793N11207182WA0205502055
B1918463836794N11207177WA0205502055
B1918473836795N11207171WA0205402054
B1918483836796N11207166WA0205302053
B1918493836796N11207159WA0205002050
B1918503836797N11207153WA0204802048
B1918513836797N11207146WA0204702047
B1918523836799N11207140WA0204702047
B1918533836801N11207135WA0204702047
B1918543836804N11207132WA0204602046
B1918553836808N11207130WA0204402044
B1918563836812N11207128WA0204202042
B1918573836815N11207126WA0204102041
B1918583836818N11207122WA0204002040
B1918593836819N11207117WA0203802038
B1919003836820N11207111WA0203602036
B1919013836820N11207105WA0203302033
B1919023836820N11207098WA0203102031
B1919033836820N11207091WA0203002030
B1919043836821N11207084WA0202902029
B1919053836821N11207078WA0202802028
B1919063836822N11207072WA0202702027
B1919073836823N11207067WA0202602026
B1919083836825N11207061WA0202402024
B1919093836827N11207055WA0202102021
B1919103836830N11207049WA0202002020
B1919113836834N11207044WA0202002020
B1919123836837N11207041WA0202002020
B1919133836841N11207040WA0201902019
B1919143836845N11207039WA0201802018
B1919153836850N11207039WA0201602016
B1919163836854N11207039WA0201502015
B1919173836858N11207039WA0201302013
B1919183836862N11207039WA0201202012
B1919193836867N11207038WA0201002010
B1919203836871N11207038WA0200902009
B1919213836875N11207037WA0200802008
B1919223836879N11207037WA0200602006
B1919233836883N11207037WA0200402004
B1919243836887N11207036WA0200202002
B1919253836891N11207035WA0200002000
B1919263836895N11207034WA0199901999
B1919273836900N11207034WA0199801998
B1919283836905N11207036WA0199901999
B1919293836908N11207038WA0200102001
B1919303836910N11207039WA0200402004
B1919313836912N11207041WA0200602006
B1919323836915N11207043WA0200602006
B1919333836919N11207046WA0200402004
B1919343836924N11207048WA0200302003
B1919353836929N11207050WA0200402004
B1919363836933N11207051WA0200602006
B1919373836937N11207053WA0200902009
B1919383836940N11207055WA0201202012
B1919393836944N11207057WA0201402014
B1919403836948N11207060WA0201502015
B1919413836953N11207063WA0201602016
B1919423836958N11207066WA0201802018
B1919433836962N11207070WA0202102021
B1919443836966N11207073WA0202402024
B1919453836969N11207077WA0202702027
B1919463836972N11207080WA0202902029
B1919473836975N11207084WA0203002030
B1919483836978N11207089WA0203102031
B1919493836981N11207095WA0203102031
B1919503836983N11207101WA0203102031
B1919513836984N11207108WA0203202032
B1919523836985N11207115WA0203302033
B1919533836984N11207120WA0203602036
B1919543836983N11207125WA0203702037
B1919553836981N11207131WA0203802038
B1919563836979N11207137WA0203702037
B1919573836977N11207144WA0203702037
B1919583836973N11207150WA0203702037
B1919593836969N11207155WA0203802038
B1920003836965N11207159WA0204002040
B1920013836961N11207163WA0204102041
B1920023836957N11207166WA0204302043
B1920033836953N11207170WA0204302043
B1920043836948N11207174WA0204302043
B1920053836943N11207178WA0204302043
B1920063836938N11207182WA0204402044
B1920073836933N11207186WA0204402044
B1920083836928N11207189WA0204402044
B1920093836923N11207192WA0204302043
B1920103836917N11207194WA0204302043
B1920113836911N11207196WA0204302043
B1920123836904N11207196WA0204202042
B1920133836898N11207195WA0204202042
B1920143836892N11207194WA0204202042
B1920153836886N11207192WA0204202042
B1920163836881N11207188WA0204202042
B1920173836876N11207183WA0204102041
B1920183836871N11207177WA0204002040
B1920193836866N11207172WA0204002040
B1920203836861N11207166WA0203902039
B1920213836857N11207161WA0203802038
B1920223836852N11207155WA0203802038
B1920233836847N11207150WA0203702037
B1920243836842N11207144WA0203602036
B1920253836837N11207139WA0203502035
B1920263836832N11207134WA0203502035
B1920273836827N11207128WA0203402034
B1920283836823N11207123WA0203402034
B1920293836819N11207116WA0203302033
B1920303836815N11207110WA0203302033
B1920313836812N11207103WA0203402034
B1920323836809N11207097WA0203502035
B1920333836807N11207091WA0203602036
B1920343836806N11207085WA0203602036
B1920353836804N11207078WA0203602036
B1920363836803N11207071WA0203502035
B1920373836802N11207064WA0203402034
B1920383836801N11207057WA0203402034
B1920393836800N11207050WA0203402034
B1920403836800N11207042WA0203302033
B1920413836800N11207035WA0203302033
B1920423836799N11207028WA0203302033
B1920433836798N11207021WA0203402034
B1920443836798N11207016WA0203502035
B1920453836797N11207011WA0203402034
B1920463836797N11207005WA0203202032
B1920473836797N11206998WA0202802028
B1920483836799N11206991WA0202402024
B1920493836802N11206985WA0202202022
B1920503836804N11206980WA0202102021
B1920513836807N11206977WA0202102021
B1920523836811N11206975WA0202002020
B1920533836816N11206975WA0201802018
B1920543836821N11206976WA0201602016
B1920553836825N11206979WA0201402014
B1920563836829N11206984WA0201302013
B1920573836832N11206991WA0201202012
B1920583836833N11206998WA0201102011
B1920593836833N11207006WA0200902009
B1921003836834N11207014WA0200702007
B1921013836836N11207020WA0200502005
B1921023836839N11207025WA0200302003
B1921033836844N11207027WA0200002000
B1921043836848N11207025WA0199701997
B1921053836852N11207021WA0199401994
B1921063836855N11207014WA0199201992
B1921073836855N11207007WA0198901989
B1921083836854N11207000WA0198701987
B1921093836854N11206993WA0198501985
B1921103836855N11206987WA0198501985
B1921113836859N11206982WA0198301983
B1921123836862N11206978WA0198201982
B1921133836866N11206975WA0198101981
B1921143836871N11206972WA0197801978
B1921153836875N11206970WA0197601976
B1921163836880N11206969WA0197301973
B1921173836885N11206969WA0197101971
B1921183836890N11206971WA0196901969
B1921193836894N11206973WA0196701967
B1921203836898N11206977WA0196501965
B1921213836902N11206980WA0196301963
B1921223836906N11206983WA0196301963
B1921233836910N11206986WA0196201962
B1921243836914N11206987WA0196201962
B1921253836918N11206989WA0196201962
B1921263836922N11206991WA0196101961
B1921273836926N11206993WA0196101961
B1921283836931N11206995WA0196101961
B1921293836935N11206998WA0196201962
B1921303836939N11207001WA0196301963
B1921313836942N11207006WA0196401964
B1921323836944N11207012WA0196401964
B1921333836945N11207019WA0196401964
B1921343836945N11207026WA0196501965
B1921353836946N11207034WA0196501965
B1921363836946N11207040WA0196701967
B1921373836946N11207047WA0196901969
B1921383836946N11207053WA0197001970
B1921393836946N11207060WA0197201972
B1921403836944N11207067WA0197301973
B1921413836942N11207075WA0197401974
B1921423836938N11207081WA0197501975
B1921433836933N11207086WA0197801978
B1921443836927N11207089WA0198101981
B1921453836922N11207091WA0198301983
B1921463836916N11207093WA0198401984
B1921473836910N11207094WA0198401984
B1921483836904N11207096WA0198401984
B1921493836897N11207097WA0198401984
B1921503836890N11207098WA0198501985
B1921513836884N11207099WA0198701987
B1921523836877N11207099WA0198801988
B1921533836872N11207099WA0199001990
B1921543836866N11207101WA0199101991
B1921553836861N11207103WA0199101991
B1921563836857N11207106WA0199101991
B1921573836853N11207110WA0198901989
B1921583836848N11207114WA0198701987
B1921593836843N11207119WA0198601986
B1922003836838N11207123WA0198501985
B1922013836834N11207127WA0198501985
B1922023836829N11207130WA0198401984
B1922033836824N11207133WA0198301983
B1922043836819N11207135WA0198201982
B1922053836814N11207136WA0198101981
B1922063836810N11207138WA0198101981
B1922073836806N11207140WA0198001980
B1922083836802N11207143WA0197901979
B1922093836797N11207144WA0197701977
B1922103836792N11207145WA0197501975
B1922113836787N11207145WA0197301973
B1922123836782N11207146WA0197101971
B1922133836778N11207146WA0196901969
B1922143836773N11207145WA0196901969
B1922153836768N11207144WA0196901969
B1922163836763N11207141WA0196901969
B1922173836758N11207139WA0196901969
B1922183836753N11207135WA0197001970
B1922193836749N11207130WA0197001970
B1922203836746N11207124WA0197001970
B1922213836744N11207116WA0197001970
B1922223836743N11207108WA0197001970
B1922233836745N11207099WA0197101971
B1922243836748N11207092WA0197201972
B1922253836753N11207088WA0197201972
B1922263836759N11207085WA0197101971
B1922273836764N11207083WA0197201972
B1922283836769N11207083WA0197201972
B1922293836773N11207082WA0197201972
B1922303836777N11207081WA0197001970
B1922313836782N11207081WA0196601966
B1922323836788N11207081WA0196301963
B1922333836794N11207081WA0196101961
B1922343836800N11207082WA0195901959
B1922353836805N11207083WA0195701957
B1922363836810N11207085WA0195501955
B1922373836815N11207086WA0195301953
B1922383836821N11207087WA0195001950
B1922393836826N11207088WA0194801948
B1922403836831N11207088WA0194701947
B1922413836836N11207086WA0194501945
B1922423836842N11207083WA0194301943
B1922433836847N11207080WA0194101941
B1922443836852N11207075WA0193901939
B1922453836857N11207071WA0193801938
B1922463836861N11207066WA0193901939
B1922473836865N11207062WA0193901939
B1922483836868N11207058WA0193801938
B1922493836871N11207052WA0193701937
B1922503836873N11207046WA0193601936
B1922513836875N11207039WA0193601936
B1922523836877N11207033WA0193701937
B1922533836880N11207029WA0193801938
B1922543836882N11207024WA0193701937
B1922553836885N11207020WA0193601936
B1922563836889N11207015WA0193401934
B1922573836892N11207009WA0193301933
B1922583836894N11207003WA0193201932
B1922593836896N11206997WA0193201932
B1923003836897N11206991WA0193201932
B1923013836898N11206984WA0193101931
B1923023836899N11206978WA0192901929
B1923033836900N11206971WA0192801928
B1923043836902N11206966WA0192901929
B1923053836905N11206962WA0192901929
B1923063836908N11206959WA0192801928
B1923073836912N11206957WA0192601926
B1923083836916N11206955WA0192301923
B1923093836921N11206953WA0192001920
B1923103836927N11206953WA0191901919
B1923113836932N11206954WA0191801918
B1923123836936N11206956WA0191601916
B1923133836940N11206959WA0191501915
B1923143836944N11206963WA0191301913
B1923153836948N11206967WA0191101911
B1923163836950N11206973WA0190801908
B1923173836952N11206979WA0190501905
B1923183836953N11206986WA0190301903
B1923193836955N11206993WA0190101901
B1923203836956N11206999WA0189801898
B1923213836959N11207004WA0189601896
B1923223836963N11207008WA0189401894
B1923233836968N11207012WA0189301893
B1923243836972N11207013WA0189101891
B1923253836977N11207013WA0189001890
B1923263836980N11207009WA0188901889
B1923273836983N11207004WA0188901889
B1923283836985N11206998WA0188801888
B1923293836986N11206991WA0188801888
B1923303836986N11206984WA0188701887
B1923313836985N11206976WA0188601886
B1923323836984N11206969WA0188701887
B1923333836982N11206962WA0188601886
B1923343836982N11206954WA0188601886
B1923353836982N11206947WA0188501885
B1923363836983N11206940WA0188301883
B1923373836984N11206934WA0188001880
B1923383836985N11206927WA0187701877
B1923393836987N11206920WA0187501875
B1923403836990N11206915WA0187401874
B1923413836994N11206911WA0187301873
B1923423836999N11206909WA0187101871
B1923433837004N11206910WA0186901869
B1923443837009N11206913WA0186601866
B1923453837013N11206919WA0186201862
B1923463837014N11206927WA0185901859
B1923473837014N11206936WA0185601856
B1923483837011N11206942WA0185501855
B1923493837006N11206947WA0185401854
B1923503837001N11206950WA0185101851
B1923513836995N11206949WA0184701847
B1923523836990N11206944WA0184401844
B1923533836987N11206938WA0184001840
B1923543836987N11206931WA0183701837
B1923553836988N11206924WA0183501835
B1923563836991N11206919WA0183301833
B1923573836995N11206915WA0183101831
B1923583837000N11206913WA0182901829
B1923593837005N11206914WA0182601826
B1924003837010N11206918WA0182201822
B1924013837014N11206923WA0181901819
B1924023837017N11206931WA0181701817
B1924033837018N11206937WA0181501815
B1924043837018N11206944WA0181301813
B1924053837018N11206950WA0181201812
B1924063837016N11206957WA0180801808
B1924073837013N11206964WA0180501805
B1924083837010N11206972WA0180201802
B1924093837008N11206980WA0179901799
B1924103837006N11206987WA0179701797
B1924113837004N11206993WA0179601796
B1924123837002N11206999WA0179501795
B1924133837000N11207005WA0179401794
B1924143836998N11207011WA0179301793
B1924153836997N11207017WA0179201792
B1924163836996N11207024WA0179101791
B1924173836996N11207031WA0179001790
B1924183836995N11207037WA0179101791
B1924193836995N11207043WA0179301793
B1924203836996N11207049WA0179401794
B1924213836996N11207055WA0179501795
B1924223836998N11207061WA0179501795
B1924233837001N11207067WA0179401794
B1924243837005N11207073WA0179301793
B1924253837009N11207078WA0179301793
B1924263837014N11207082WA0179201792
B1924273837018N11207084WA0179201792
B1924283837023N11207086WA0179201792
B1924293837027N11207088WA0179101791
B1924303837032N11207089WA0179001790
B1924313837037N11207087WA0178901789
B1924323837041N11207084WA0179001790
B1924333837044N11207078WA0179101791
B1924343837045N11207070WA0179101791
B1924353837044N11207062WA0179101791
B1924363837040N11207055WA0179001790
B1924373837034N11207051WA0179001790
B1924383837028N11207048WA0179201792
B1924393837022N11207044WA0179301793
B1924403837017N11207040WA0179701797
B1924413837013N11207035WA0179801798
B1924423837010N11207029WA0180001800
B1924433837008N11207023WA0180201802
B1924443837007N11207018WA0180301803
B1924453837007N11207012WA0180501805
B1924463837006N11207006WA0180501805
B1924473837005N11207000WA0180501805
B1924483837004N11206994WA0180501805
B1924493837002N11206988WA0180501805
B1924503837000N11206982WA0180501805
B1924513836998N11206976WA0180501805
B1924523836996N11206970WA0180501805
B1924533836995N11206965WA0180501805
B1924543836996N11206959WA0180401804
B1924553836998N11206953WA0180001800
B1924563837001N11206947WA0179801798
B1924573837005N11206942WA0179601796
B1924583837009N11206939WA0179501795
B1924593837013N11206938WA0179401794
B1925003837018N11206939WA0179301793
B1925013837023N11206944WA0178901789
B1925023837027N11206952WA0178601786
B1925033837028N11206961WA0178501785
B1925043837028N11206969WA0178401784
B1925053837026N11206977WA0178301783
B1925063837024N11206984WA0178301783
B1925073837022N11206991WA0178201782
B1925083837020N11206998WA0178001780
B1925093837017N11207006WA0177901779
B1925103837017N11207015WA0177901779
B1925113837018N11207023WA0177801778
B1925123837020N11207031WA0177901779
B1925133837023N11207036WA0177801778
B1925143837028N11207039WA0177801778
B1925153837033N11207038WA0177701777
B1925163837036N11207033WA0177601776
B1925173837035N11207025WA0177401774
B1925183837030N11207019WA0177401774
B1925193837025N11207015WA0177301773
B1925203837020N11207012WA0177601776
B1925213837016N11207010WA0177901779
B1925223837014N11207007WA0177901779
B1925233837011N11207003WA0177701777
B1925243837007N11206999WA0177601776
B1925253837003N11206994WA0177401774
B1925263836999N11206989WA0177401774
B1925273836997N11206984WA0177401774
B1925283836996N11206978WA0177401774
B1925293836996N11206973WA0177201772
B1925303836998N11206967WA0177001770
B1925313837001N11206963WA0176901769
B1925323837006N11206961WA0176801768
B1925333837012N11206961WA0176601766
B1925343837017N11206965WA0176401764
B1925353837021N11206971WA0176201762
B1925363837023N11206979WA0176201762
B1925373837024N11206987WA0176101761
B1925383837026N11206994WA0176101761
B1925393837028N11207001WA0176101761
B1925403837030N11207008WA0176001760
B1925413837032N11207015WA0175901759
B1925423837034N11207022WA0175901759
B1925433837035N11207029WA0175801758
B1925443837037N11207035WA0175801758
B1925453837040N11207040WA0175801758
B1925463837044N11207041WA0175801758
B1925473837049N11207041WA0175701757
B1925483837054N11207036WA0175601756
B1925493837057N11207030WA0175501755
B1925503837057N11207022WA0175401754
B1925513837055N11207014WA0175301753
B1925523837051N11207007WA0175301753
B1925533837048N11207002WA0175401754
B1925543837046N11206998WA0175601756
B1925553837044N11206993WA0175601756
B1925563837042N11206988WA0175501755
B1925573837039N11206981WA0175401754
B1925583837037N11206975WA0175401754
B1925593837036N11206969WA0175401754
B1926003837035N11206964WA0175501755
B1926013837035N11206959WA0175401754
B1926023837036N11206953WA0175301753
B1926033837039N11206947WA0175001750
B1926043837044N11206944WA0174801748
B1926053837050N11206944WA0174601746
B1926063837055N11206947WA0174501745
B1926073837059N11206953WA0174301743
B1926083837061N11206960WA0174101741
B1926093837062N11206968WA0173801738
B1926103837061N11206976WA0173601736
B1926113837063N11206984WA0173501735
B1926123837066N11206990WA0173401734
B1926133837071N11206993WA0173301733
B1926143837076N11206993WA0173201732
B1926153837081N11206989WA0173101731
B1926163837085N11206983WA0173001730
B1926173837087N11206976WA0173001730
B1926183837087N11206970WA0172901729
B1926193837088N11206964WA0172901729
B1926203837088N11206958WA0172901729
B1926213837089N11206953WA0172901729
B1926223837091N11206947WA0172801728
B1926233837093N11206941WA0172901729
B1926243837094N11206935WA0172901729
B1926253837095N11206929WA0172901729
B1926263837096N11206923WA0172801728
B1926273837097N11206917WA0172801728
B1926283837099N11206911WA0172701727
B1926293837101N11206905WA0172701727
B1926303837103N11206899WA0172601726
B1926313837106N11206894WA0172501725
B1926323837110N11206889WA0172401724
B1926333837114N11206885WA0172201722
B1926343837119N11206882WA0172201722
B1926353837124N11206879WA0172201722
B1926363837129N11206877WA0172201722
B1926373837135N11206876WA0172101721
B1926383837140N11206877WA0172001720
B1926393837145N11206879WA0172001720
B1926403837149N11206884WA0172001720
B1926413837151N11206891WA0172001720
B1926423837149N11206898WA0172001720
B1926433837146N11206904WA0172001720
B1926443837141N11206907WA0172101721
B1926453837136N11206909WA0172201722
B1926463837131N11206909WA0172301723
B1926473837126N11206909WA0172201722
B1926483837121N11206909WA0172201722
B1926493837116N11206910WA0172201722
B1926503837111N11206912WA0172201722
B1926513837107N11206916WA0172101721
B1926523837104N11206921WA0172101721
B1926533837102N11206927WA0172001720
B1926543837100N11206933WA0172001720
B1926553837099N11206939WA0172001720
B1926563837100N11206945WA0172001720
B1926573837103N11206949WA0171901719
B1926583837107N11206952WA0171901719
B1926593837112N11206951WA0171801718
B1927003837117N11206948WA0171701717
B1927013837120N11206942WA0171601716
B1927023837122N11206936WA0171601716
B1927033837125N11206930WA0171701717
B1927043837127N11206925WA0171701717
B1927053837129N11206919WA0171701717
B1927063837133N11206914WA0171701717
B1927073837137N11206909WA0171701717
B1927083837142N11206906WA0171601716
B1927093837147N11206903WA0171501715
B1927103837152N11206902WA0171501715
B1927113837157N11206902WA0171501715
B1927123837161N11206902WA0171401714
B1927133837166N11206903WA0171401714
B1927143837171N11206903WA0171301713
B1927153837175N11206905WA0171301713
B1927163837178N11206909WA0171201712
B1927173837179N11206915WA0171101711
B1927183837176N11206921WA0170801708
B1927193837170N11206926WA0170501705
B1927203837163N11206927WA0170401704
B1927213837156N11206924WA0170501705
B1927223837151N11206920WA0170501705
B1927233837147N11206917WA0170501705
B1927243837141N11206915WA0170501705
B1927253837135N11206913WA0170301703
B1927263837129N11206914WA0170301703
B1927273837124N11206915WA0170301703
B1927283837119N11206918WA0170201702
B1927293837116N11206922WA0170201702
B1927303837115N11206928WA0170201702
B1927313837116N11206936WA0170101701
B1927323837119N11206941WA0170101701
B1927333837124N11206944WA0170001700
B1927343837129N11206944WA0170001700
B1927353837133N11206942WA0169901699
B1927363837137N11206939WA0169801698
B1927373837141N11206936WA0169701697
B1927383837145N11206932WA0169601696
B1927393837149N11206928WA0169501695
B1927403837153N11206925WA0169301693
B1927413837157N11206923WA0169201692
B1927423837161N11206924WA0168901689
B1927433837165N11206926WA0168701687
B1927443837169N11206930WA0168501685
B1927453837171N11206935WA0168301683
B1927463837171N11206941WA0168201682
B1927473837170N11206947WA0168101681
B1927483837168N11206951WA0168001680
B1927493837165N11206956WA0167901679
B1927503837163N11206960WA0167801678
B1927513837162N11206965WA0167701677
B1927523837161N11206970WA0167601676
B1927533837160N11206974WA0167501675
B1927543837160N11206977WA0167501675
B1927553837160N11206977WA0167401674
B1927563837159N11206977WA0167401674
B1927573837159N11206977WA0167301673
B1927583837158N11206977WA0167301673
B1927593837158N11206977WA0167201672
B1928003837158N11206978WA0167201672
B1928013837158N11206978WA0167201672
B1928023837158N11206978WA0167201672
B1928033837158N11206978WA0167101671
B1928043837159N11206978WA0167201672
B1928053837159N11206978WA0167201672
B1928063837159N11206978WA0167201672
B1928073837159N11206978WA0167201672
B1928083837159N11206978WA0167201672
B1928093837159N11206978WA0167201672
B1928103837159N11206978WA0167201672
