AXFMFLYMASTER LIVETRACK
HFDTE200926
HFFXA010
HFPLTPILOT:Mike Steed
HFGTYGLIDERTYPE:Flow Mystic+ / Woody Valley GTO-LIGHT
HFCIDCOMPETITIONID:117
HFDTM100GPSDATUM:WGS-1984
HFRFWFIRMWAREVERSION:lt.flymaster.net bsGetPilotTrack
B1518313832834N11205023WA0300703007
B1518323832832N11205018WA0300803008
B1518333832829N11205013WA0300803008
B1518343832826N11205008WA0300903009
B1518353832823N11205004WA0301003010
B1518363832820N11205000WA0301103011
B1518373832818N11204997WA0301203012
B1518383832816N11204994WA0301303013
B1518393832814N11204992WA0301303013
B1518403832812N11204990WA0301303013
B1518413832811N11204989WA0301403014
B1518423832810N11204987WA0301403014
B1518433832808N11204986WA0301503015
B1518443832806N11204984WA0301503015
B1518453832804N11204982WA0301603016
B1518463832801N11204980WA0301503015
B1518473832799N11204977WA0301503015
B1518483832796N11204974WA0301603016
B1518493832793N11204971WA0301703017
B1518503832790N11204969WA0301803018
B1518513832787N11204966WA0301903019
B1518523832785N11204963WA0302003020
B1518533832784N11204961WA0302103021
B1518543832783N11204958WA0302203022
B1518553832784N11204955WA0302303023
B1518563832786N11204954WA0302303023
B1518573832788N11204954WA0302503025
B1518583832791N11204955WA0302703027
B1518593832793N11204957WA0302803028
B1519003832796N11204960WA0302803028
B1519013832799N11204963WA0302903029
B1519023832803N11204966WA0302903029
B1519033832807N11204969WA0302903029
B1519043832811N11204971WA0302903029
B1519053832815N11204974WA0302903029
B1519063832819N11204976WA0302803028
B1519073832823N11204979WA0302703027
B1519083832828N11204982WA0302703027
B1519093832832N11204986WA0302603026
B1519103832837N11204990WA0302503025
B1519113832841N11204994WA0302403024
B1519123832845N11204999WA0302303023
B1519133832849N11205004WA0302203022
B1519143832852N11205009WA0302203022
B1519153832856N11205014WA0302203022
B1519163832860N11205018WA0302203022
B1519173832863N11205022WA0302203022
B1519183832866N11205025WA0302203022
B1519193832869N11205027WA0302303023
B1519203832873N11205028WA0302303023
B1519213832877N11205029WA0302303023
B1519223832881N11205028WA0302303023
B1519233832884N11205026WA0302303023
B1519243832887N11205022WA0302303023
B1519253832889N11205018WA0302303023
B1519263832890N11205013WA0302303023
B1519273832891N11205008WA0302303023
B1519283832890N11205003WA0302403024
B1519293832889N11204998WA0302503025
B1519303832887N11204994WA0302503025
B1519313832885N11204991WA0302603026
B1519323832882N11204988WA0302703027
B1519333832880N11204986WA0302803028
B1519343832878N11204983WA0302803028
B1519353832876N11204982WA0302903029
B1519363832873N11204980WA0302903029
B1519373832870N11204978WA0303003030
B1519383832867N11204976WA0303003030
B1519393832863N11204974WA0303103031
B1519403832859N11204972WA0303203032
B1519413832855N11204970WA0303203032
B1519423832851N11204967WA0303303033
B1519433832846N11204965WA0303303033
B1519443832841N11204962WA0303403034
B1519453832836N11204959WA0303503035
B1519463832831N11204957WA0303503035
B1519473832826N11204954WA0303603036
B1519483832821N11204951WA0303703037
B1519493832816N11204949WA0303803038
B1519503832812N11204946WA0303803038
B1519513832808N11204943WA0303903039
B1519523832804N11204940WA0303903039
B1519533832801N11204936WA0304003040
B1519543832797N11204933WA0304003040
B1519553832794N11204930WA0304103041
B1519563832790N11204927WA0304103041
B1519573832786N11204924WA0304203042
B1519583832782N11204922WA0304203042
B1519593832778N11204919WA0304303043
B1520003832773N11204917WA0304303043
B1520013832769N11204915WA0304403044
B1520023832764N11204915WA0304503045
B1520033832760N11204915WA0304603046
B1520043832756N11204915WA0304703047
B1520053832751N11204915WA0304903049
B1520063832747N11204916WA0304903049
B1520073832743N11204916WA0305003050
B1520083832738N11204916WA0305003050
B1520093832734N11204918WA0305003050
B1520103832730N11204921WA0305003050
B1520113832728N11204926WA0305103051
B1520123832724N11204930WA0305303053
B1520133832722N11204935WA0305403054
B1520143832719N11204939WA0305403054
B1520153832715N11204943WA0305503055
B1520163832712N11204946WA0305603056
B1520173832709N11204950WA0305603056
B1520183832707N11204953WA0305703057
B1520193832704N11204956WA0305803058
B1520203832702N11204959WA0305903059
B1520213832699N11204961WA0305903059
B1520223832696N11204961WA0305903059
B1520233832694N11204961WA0305903059
B1520243832691N11204960WA0305903059
B1520253832688N11204958WA0305903059
B1520263832686N11204955WA0306003060
B1520273832683N11204951WA0306103061
B1520283832681N11204947WA0306203062
B1520293832678N11204943WA0306303063
B1520303832676N11204938WA0306503065
B1520313832673N11204933WA0306603066
B1520323832671N11204928WA0306703067
B1520333832670N11204924WA0306803068
B1520343832669N11204920WA0306903069
B1520353832668N11204917WA0306903069
B1520363832667N11204913WA0307003070
B1520373832666N11204908WA0307103071
B1520383832666N11204903WA0307103071
B1520393832666N11204898WA0307103071
B1520403832665N11204893WA0307103071
B1520413832664N11204887WA0307103071
B1520423832663N11204882WA0307203072
B1520433832660N11204877WA0307103071
B1520443832658N11204871WA0307103071
B1520453832655N11204866WA0307003070
B1520463832652N11204861WA0307003070
B1520473832648N11204856WA0307003070
B1520483832645N11204850WA0306903069
B1520493832641N11204845WA0306903069
B1520503832638N11204839WA0306903069
B1520513832635N11204833WA0306803068
B1520523832632N11204827WA0306803068
B1520533832629N11204821WA0306803068
B1520543832625N11204816WA0306803068
B1520553832622N11204811WA0306803068
B1520563832619N11204806WA0306803068
B1520573832615N11204802WA0306803068
B1520583832611N11204799WA0306903069
B1520593832608N11204797WA0307003070
B1521003832604N11204796WA0307103071
B1521013832600N11204796WA0307103071
B1521023832595N11204795WA0307203072
B1521033832591N11204796WA0307203072
B1521043832587N11204796WA0307203072
B1521053832582N11204795WA0307203072
B1521063832576N11204795WA0307203072
B1521073832571N11204794WA0307203072
B1521083832568N11204795WA0307103071
B1521093832564N11204796WA0307103071
B1521103832560N11204798WA0307103071
B1521113832558N11204800WA0307003070
B1521123832556N11204804WA0307503075
B1521133832555N11204807WA0307603076
B1521143832554N11204810WA0307803078
B1521153832555N11204814WA0308103081
B1521163832555N11204817WA0308203082
B1521173832554N11204820WA0308403084
B1521183832555N11204823WA0308203082
B1521193832557N11204826WA0308403084
B1521203832559N11204829WA0308303083
B1521213832562N11204832WA0308503085
B1521223832564N11204835WA0308703087
B1521233832565N11204838WA0308803088
B1521243832565N11204842WA0308703087
B1521253832565N11204845WA0308703087
B1521263832563N11204848WA0308903089
B1521273832561N11204850WA0308903089
B1521283832558N11204850WA0308803088
B1521293832556N11204849WA0308703087
B1521303832554N11204847WA0308603086
B1521313832553N11204845WA0308603086
B1521323832550N11204841WA0308603086
B1521333832548N11204838WA0308703087
B1521343832545N11204834WA0308903089
B1521353832542N11204831WA0308903089
B1521363832539N11204828WA0308903089
B1521373832536N11204826WA0308903089
B1521383832532N11204825WA0308903089
B1521393832528N11204824WA0309003090
B1521403832524N11204824WA0309003090
B1521413832521N11204823WA0309003090
B1521423832517N11204822WA0309103091
B1521433832513N11204820WA0309103091
B1521443832509N11204819WA0309203092
B1521453832505N11204817WA0309203092
B1521463832501N11204815WA0309303093
B1521473832497N11204813WA0309403094
B1521483832493N11204811WA0309403094
B1521493832488N11204810WA0309303093
B1521503832484N11204809WA0309503095
B1521513832480N11204809WA0309603096
B1521523832476N11204808WA0309703097
B1521533832472N11204808WA0309803098
B1521543832469N11204808WA0309903099
B1521553832465N11204807WA0310003100
B1521563832461N11204805WA0310003100
B1521573832457N11204802WA0309903099
B1521583832453N11204800WA0309903099
B1521593832448N11204797WA0309903099
B1522003832444N11204795WA0310003100
B1522013832439N11204793WA0310003100
B1522023832435N11204790WA0310003100
B1522033832431N11204787WA0310003100
B1522043832427N11204784WA0310103101
B1522053832424N11204780WA0310103101
B1522063832422N11204777WA0310203102
B1522073832420N11204773WA0310103101
B1522083832417N11204769WA0310203102
B1522093832415N11204766WA0310203102
B1522103832412N11204763WA0310303103
B1522113832409N11204762WA0310303103
B1522123832405N11204763WA0310403104
B1522133832402N11204765WA0310503105
B1522143832400N11204768WA0310503105
B1522153832400N11204772WA0310603106
B1522163832400N11204777WA0310703107
B1522173832402N11204782WA0310903109
B1522183832403N11204787WA0311003110
B1522193832405N11204792WA0311103111
B1522203832406N11204797WA0311403114
B1522213832408N11204803WA0311403114
B1522223832409N11204810WA0311503115
B1522233832409N11204815WA0311603116
B1522243832409N11204821WA0311603116
B1522253832408N11204827WA0311803118
B1522263832406N11204833WA0311803118
B1522273832405N11204839WA0311803118
B1522283832404N11204846WA0312003120
B1522293832403N11204852WA0311903119
B1522303832402N11204859WA0311903119
B1522313832401N11204865WA0312003120
B1522323832400N11204872WA0312003120
B1522333832400N11204878WA0312103121
B1522343832399N11204883WA0312103121
B1522353832398N11204889WA0312203122
B1522363832397N11204894WA0312303123
B1522373832396N11204899WA0312403124
B1522383832394N11204904WA0312503125
B1522393832391N11204908WA0312503125
B1522403832389N11204911WA0312503125
B1522413832386N11204913WA0312603126
B1522423832382N11204915WA0312603126
B1522433832379N11204915WA0312703127
B1522443832375N11204915WA0312703127
B1522453832371N11204915WA0312703127
B1522463832367N11204913WA0312703127
B1522473832363N11204911WA0312703127
B1522483832360N11204907WA0312703127
B1522493832357N11204903WA0312903129
B1522503832355N11204898WA0313003130
B1522513832353N11204893WA0313003130
B1522523832351N11204887WA0313103131
B1522533832349N11204882WA0313003130
B1522543832348N11204876WA0313003130
B1522553832346N11204869WA0312903129
B1522563832344N11204863WA0312903129
B1522573832341N11204857WA0312803128
B1522583832339N11204851WA0312803128
B1522593832336N11204846WA0312703127
B1523003832333N11204842WA0312703127
B1523013832329N11204838WA0312703127
B1523023832324N11204835WA0312603126
B1523033832320N11204833WA0312603126
B1523043832315N11204832WA0312603126
B1523053832309N11204831WA0312603126
B1523063832303N11204831WA0312603126
B1523073832297N11204832WA0312703127
B1523083832292N11204833WA0312803128
B1523093832287N11204835WA0313103131
B1523103832282N11204837WA0313303133
B1523113832277N11204840WA0313603136
B1523123832272N11204843WA0313703137
B1523133832268N11204846WA0313703137
B1523143832263N11204850WA0313803138
B1523153832258N11204853WA0313803138
B1523163832254N11204856WA0313703137
B1523173832248N11204859WA0313703137
B1523183832243N11204862WA0313803138
B1523193832238N11204865WA0313803138
B1523203832233N11204868WA0313803138
B1523213832227N11204870WA0313903139
B1523223832222N11204872WA0314003140
B1523233832216N11204874WA0314003140
B1523243832211N11204875WA0314103141
B1523253832207N11204876WA0314103141
B1523263832202N11204877WA0314103141
B1523273832198N11204878WA0314203142
B1523283832194N11204880WA0314203142
B1523293832190N11204882WA0314203142
B1523303832186N11204885WA0314303143
B1523313832182N11204888WA0314303143
B1523323832178N11204891WA0314303143
B1523333832174N11204894WA0314403144
B1523343832170N11204897WA0314403144
B1523353832165N11204900WA0314403144
B1523363832160N11204904WA0314503145
B1523373832155N11204907WA0314503145
B1523383832150N11204911WA0314603146
B1523393832145N11204914WA0314603146
B1523403832141N11204917WA0314603146
B1523413832136N11204920WA0314603146
B1523423832131N11204923WA0314703147
B1523433832126N11204925WA0314603146
B1523443832121N11204928WA0314603146
B1523453832116N11204930WA0314603146
B1523463832111N11204932WA0314703147
B1523473832106N11204934WA0314703147
B1523483832102N11204934WA0314703147
B1523493832097N11204934WA0314703147
B1523503832093N11204933WA0314703147
B1523513832089N11204932WA0314603146
B1523523832084N11204932WA0314603146
B1523533832080N11204932WA0314603146
B1523543832076N11204933WA0314603146
B1523553832072N11204934WA0314603146
B1523563832069N11204937WA0314603146
B1523573832066N11204940WA0314703147
B1523583832063N11204943WA0314703147
B1523593832059N11204946WA0314703147
B1524003832055N11204948WA0314703147
B1524013832051N11204950WA0314703147
B1524023832047N11204951WA0314703147
B1524033832043N11204952WA0314703147
B1524043832039N11204952WA0314703147
B1524053832034N11204952WA0314703147
B1524063832030N11204952WA0314703147
B1524073832025N11204951WA0314703147
B1524083832020N11204950WA0314603146
B1524093832014N11204949WA0314503145
B1524103832009N11204947WA0314503145
B1524113832003N11204946WA0314503145
B1524123831997N11204945WA0314503145
B1524133831992N11204943WA0314503145
B1524143831986N11204941WA0314403144
B1524153831981N11204940WA0314403144
B1524163831975N11204939WA0314403144
B1524173831969N11204939WA0314403144
B1524183831964N11204940WA0314403144
B1524193831958N11204940WA0314503145
B1524203831952N11204940WA0314503145
B1524213831947N11204941WA0314603146
B1524223831941N11204941WA0314603146
B1524233831935N11204941WA0314703147
B1524243831930N11204941WA0314803148
B1524253831924N11204940WA0314803148
B1524263831918N11204940WA0314903149
B1524273831913N11204940WA0314903149
B1524283831908N11204939WA0314903149
B1524293831902N11204938WA0315003150
B1524303831897N11204937WA0315003150
B1524313831892N11204936WA0314903149
B1524323831887N11204935WA0315003150
B1524333831882N11204933WA0315103151
B1524343831878N11204931WA0315203152
B1524353831873N11204928WA0315303153
B1524363831870N11204924WA0315303153
B1524373831867N11204919WA0315403154
B1524383831865N11204913WA0315503155
B1524393831863N11204906WA0315503155
B1524403831861N11204900WA0315503155
B1524413831860N11204893WA0315403154
B1524423831860N11204887WA0315403154
B1524433831859N11204880WA0315403154
B1524443831859N11204874WA0315303153
B1524453831859N11204867WA0315303153
B1524463831859N11204861WA0315203152
B1524473831859N11204855WA0315103151
B1524483831859N11204849WA0315103151
B1524493831858N11204843WA0315003150
B1524503831857N11204837WA0315003150
B1524513831857N11204830WA0315003150
B1524523831855N11204823WA0315003150
B1524533831854N11204817WA0314903149
B1524543831853N11204810WA0314903149
B1524553831852N11204803WA0314903149
B1524563831851N11204797WA0314803148
B1524573831851N11204790WA0314903149
B1524583831851N11204784WA0314903149
B1524593831851N11204778WA0314903149
B1525003831852N11204772WA0314903149
B1525013831854N11204766WA0315003150
B1525023831855N11204761WA0315003150
B1525033831856N11204757WA0315003150
B1525043831858N11204752WA0315003150
B1525053831860N11204748WA0315003150
B1525063831862N11204744WA0315003150
B1525073831863N11204740WA0315003150
B1525083831864N11204736WA0315003150
B1525093831865N11204731WA0315003150
B1525103831865N11204724WA0315003150
B1525113831866N11204718WA0315003150
B1525123831866N11204712WA0314903149
B1525133831866N11204705WA0315003150
B1525143831866N11204698WA0315103151
B1525153831867N11204692WA0315103151
B1525163831866N11204686WA0315103151
B1525173831865N11204681WA0315003150
B1525183831864N11204676WA0315003150
B1525193831861N11204671WA0315103151
B1525203831859N11204666WA0315003150
B1525213831857N11204661WA0314903149
B1525223831856N11204656WA0314803148
B1525233831856N11204651WA0314703147
B1525243831856N11204646WA0314603146
B1525253831857N11204641WA0314603146
B1525263831859N11204636WA0314503145
B1525273831861N11204633WA0314503145
B1525283831864N11204629WA0314503145
B1525293831867N11204627WA0314403144
B1525303831870N11204624WA0314403144
B1525313831873N11204620WA0314403144
B1525323831876N11204616WA0314303143
B1525333831878N11204612WA0314303143
B1525343831880N11204608WA0314203142
B1525353831882N11204603WA0314103141
B1525363831883N11204599WA0314103141
B1525373831884N11204594WA0314103141
B1525383831885N11204589WA0313903139
B1525393831886N11204583WA0313803138
B1525403831886N11204578WA0313703137
B1525413831886N11204572WA0313603136
B1525423831886N11204567WA0313603136
B1525433831886N11204561WA0313603136
B1525443831886N11204556WA0313603136
B1525453831886N11204551WA0313503135
B1525463831886N11204545WA0313503135
B1525473831886N11204540WA0313503135
B1525483831885N11204534WA0313503135
B1525493831885N11204528WA0313503135
B1525503831886N11204523WA0313503135
B1525513831886N11204517WA0313503135
B1525523831886N11204511WA0313403134
B1525533831886N11204505WA0313303133
B1525543831886N11204499WA0313303133
B1525553831885N11204493WA0313403134
B1525563831885N11204487WA0313403134
B1525573831884N11204480WA0313403134
B1525583831884N11204474WA0313203132
B1525593831882N11204467WA0313203132
B1526003831881N11204461WA0313303133
B1526013831880N11204456WA0313303133
B1526023831878N11204450WA0313403134
B1526033831877N11204445WA0313403134
B1526043831876N11204440WA0313403134
B1526053831874N11204435WA0313403134
B1526063831873N11204431WA0313403134
B1526073831871N11204426WA0313403134
B1526083831869N11204422WA0313403134
B1526093831867N11204417WA0313303133
B1526103831865N11204413WA0313303133
B1526113831862N11204409WA0313303133
B1526123831860N11204406WA0313303133
B1526133831857N11204402WA0313303133
B1526143831853N11204400WA0313403134
B1526153831850N11204397WA0313403134
B1526163831846N11204395WA0313303133
B1526173831842N11204393WA0313303133
B1526183831838N11204392WA0313303133
B1526193831833N11204391WA0313303133
B1526203831829N11204389WA0313303133
B1526213831826N11204388WA0313303133
B1526223831822N11204386WA0313303133
B1526233831818N11204384WA0313403134
B1526243831814N11204382WA0313403134
B1526253831810N11204380WA0313403134
B1526263831807N11204377WA0313403134
B1526273831803N11204375WA0313403134
B1526283831800N11204372WA0313403134
B1526293831797N11204368WA0313403134
B1526303831795N11204364WA0313503135
B1526313831793N11204360WA0313503135
B1526323831792N11204356WA0313603136
B1526333831791N11204352WA0313703137
B1526343831790N11204348WA0313803138
B1526353831790N11204344WA0313903139
B1526363831791N11204340WA0313903139
B1526373831791N11204336WA0313903139
B1526383831792N11204331WA0313903139
B1526393831793N11204326WA0313903139
B1526403831794N11204322WA0313903139
B1526413831794N11204317WA0314003140
B1526423831794N11204313WA0314003140
B1526433831794N11204308WA0314103141
B1526443831794N11204304WA0314203142
B1526453831793N11204299WA0314303143
B1526463831792N11204295WA0314303143
B1526473831790N11204290WA0314403144
B1526483831789N11204285WA0314403144
B1526493831787N11204280WA0314403144
B1526503831785N11204275WA0314503145
B1526513831784N11204270WA0314603146
B1526523831782N11204265WA0314603146
B1526533831781N11204259WA0314603146
B1526543831780N11204253WA0314703147
B1526553831779N11204247WA0314703147
B1526563831778N11204241WA0314703147
B1526573831777N11204235WA0314703147
B1526583831777N11204229WA0314803148
B1526593831776N11204222WA0314803148
B1527003831776N11204216WA0314803148
B1527013831777N11204210WA0314803148
B1527023831777N11204203WA0314803148
B1527033831778N11204196WA0314803148
B1527043831779N11204190WA0314803148
B1527053831780N11204183WA0314803148
B1527063831780N11204176WA0314903149
B1527073831781N11204170WA0314903149
B1527083831782N11204163WA0314903149
B1527093831783N11204157WA0315003150
B1527103831784N11204150WA0315003150
B1527113831785N11204144WA0315003150
B1527123831786N11204138WA0315103151
B1527133831786N11204132WA0315103151
B1527143831787N11204126WA0315103151
B1527153831788N11204120WA0315203152
B1527163831789N11204113WA0315203152
B1527173831790N11204106WA0315203152
B1527183831792N11204099WA0315203152
B1527193831792N11204092WA0315203152
B1527203831794N11204085WA0315103151
B1527213831795N11204078WA0315103151
B1527223831796N11204071WA0315003150
B1527233831798N11204064WA0315003150
B1527243831799N11204057WA0315003150
B1527253831800N11204051WA0315003150
B1527263831801N11204044WA0315003150
B1527273831802N11204038WA0315003150
B1527283831803N11204032WA0315003150
B1527293831804N11204026WA0315103151
B1527303831805N11204020WA0315103151
B1527313831805N11204015WA0315003150
B1527323831807N11204009WA0315003150
B1527333831808N11204003WA0314903149
B1527343831809N11203998WA0314803148
B1527353831810N11203992WA0314803148
B1527363831812N11203987WA0314703147
B1527373831813N11203981WA0314703147
B1527383831815N11203975WA0314603146
B1527393831816N11203970WA0314603146
B1527403831818N11203965WA0314603146
B1527413831821N11203961WA0314703147
B1527423831823N11203958WA0314603146
B1527433831826N11203955WA0314603146
B1527443831828N11203953WA0314603146
B1527453831831N11203951WA0314703147
B1527463831834N11203950WA0314703147
B1527473831837N11203949WA0314603146
B1527483831840N11203948WA0314603146
B1527493831843N11203948WA0314703147
B1527503831846N11203949WA0314703147
B1527513831849N11203949WA0314803148
B1527523831852N11203949WA0314803148
B1527533831855N11203949WA0314903149
B1527543831858N11203949WA0315003150
B1527553831861N11203948WA0315003150
B1527563831863N11203947WA0315203152
B1527573831866N11203945WA0315203152
B1527583831868N11203942WA0315403154
B1527593831872N11203939WA0315303153
B1528003831875N11203936WA0315203152
B1528013831877N11203932WA0315203152
B1528023831879N11203928WA0315203152
B1528033831880N11203923WA0315103151
B1528043831881N11203918WA0315103151
B1528053831881N11203914WA0315103151
B1528063831881N11203909WA0315003150
B1528073831882N11203903WA0315103151
B1528083831882N11203897WA0315403154
B1528093831881N11203891WA0315503155
B1528103831881N11203885WA0315603156
B1528113831881N11203879WA0315703157
B1528123831880N11203874WA0315903159
B1528133831880N11203869WA0316003160
B1528143831880N11203865WA0316203162
B1528153831880N11203861WA0316203162
B1528163831880N11203857WA0316303163
B1528173831880N11203853WA0316403164
B1528183831880N11203850WA0316403164
B1528193831881N11203847WA0316503165
B1528203831882N11203843WA0316503165
B1528213831882N11203840WA0316503165
B1528223831883N11203837WA0316503165
B1528233831883N11203834WA0316603166
B1528243831884N11203832WA0316603166
B1528253831885N11203829WA0316603166
B1528263831885N11203826WA0316603166
B1528273831886N11203823WA0316603166
B1528283831887N11203820WA0316703167
B1528293831888N11203817WA0316803168
B1528303831889N11203815WA0317003170
B1528313831890N11203812WA0317003170
B1528323831891N11203809WA0317103171
B1528333831893N11203806WA0317103171
B1528343831895N11203803WA0317003170
B1528353831897N11203801WA0316903169
B1528363831899N11203799WA0316803168
B1528373831900N11203796WA0316703167
B1528383831902N11203794WA0316703167
B1528393831903N11203792WA0316803168
B1528403831904N11203789WA0316803168
B1528413831906N11203787WA0316803168
B1528423831907N11203786WA0316903169
B1528433831909N11203784WA0316903169
B1528443831911N11203782WA0316803168
B1528453831912N11203780WA0316803168
B1528463831914N11203778WA0316803168
B1528473831916N11203776WA0316703167
B1528483831918N11203773WA0316703167
B1528493831920N11203771WA0316703167
B1528503831922N11203769WA0316703167
B1528513831924N11203767WA0316703167
B1528523831927N11203765WA0316603166
B1528533831929N11203763WA0316603166
B1528543831932N11203761WA0316603166
B1528553831935N11203760WA0316703167
B1528563831939N11203758WA0316703167
B1528573831942N11203756WA0316703167
B1528583831946N11203754WA0316803168
B1528593831950N11203753WA0316803168
B1529003831954N11203751WA0316903169
B1529013831958N11203749WA0316903169
B1529023831962N11203747WA0317003170
B1529033831966N11203744WA0317003170
B1529043831970N11203742WA0317103171
B1529053831974N11203741WA0317203172
B1529063831977N11203739WA0317303173
B1529073831980N11203738WA0317403174
B1529083831982N11203737WA0317403174
B1529093831985N11203735WA0317403174
B1529103831987N11203734WA0317503175
B1529113831990N11203733WA0317603176
B1529123831993N11203731WA0317703177
B1529133831997N11203730WA0317803178
B1529143832000N11203728WA0317903179
B1529153832004N11203726WA0318003180
B1529163832007N11203724WA0318103181
B1529173832011N11203721WA0318203182
B1529183832015N11203718WA0318203182
B1529193832018N11203714WA0318203182
B1529203832022N11203710WA0318203182
B1529213832025N11203706WA0318303183
B1529223832028N11203701WA0318303183
B1529233832031N11203696WA0318403184
B1529243832034N11203693WA0318503185
B1529253832037N11203689WA0318603186
B1529263832039N11203687WA0318703187
B1529273832042N11203685WA0318803188
B1529283832045N11203683WA0318803188
B1529293832047N11203682WA0318903189
B1529303832050N11203682WA0318803188
B1529313832052N11203682WA0318803188
B1529323832055N11203681WA0318903189
B1529333832058N11203682WA0319103191
B1529343832061N11203683WA0319203192
B1529353832063N11203685WA0319403194
B1529363832065N11203687WA0319503195
B1529373832066N11203690WA0319603196
B1529383832067N11203693WA0319703197
B1529393832067N11203696WA0319803198
B1529403832067N11203700WA0319903199
B1529413832067N11203703WA0320003200
B1529423832067N11203706WA0320103201
B1529433832066N11203709WA0320103201
B1529443832066N11203712WA0320103201
B1529453832065N11203715WA0320203202
B1529463832064N11203718WA0320303203
B1529473832062N11203722WA0320303203
B1529483832061N11203725WA0320403204
B1529493832060N11203728WA0320503205
B1529503832058N11203732WA0320503205
B1529513832057N11203736WA0320603206
B1529523832056N11203740WA0320603206
B1529533832055N11203744WA0320603206
B1529543832053N11203748WA0320703207
B1529553832052N11203752WA0320803208
B1529563832052N11203756WA0320903209
B1529573832051N11203760WA0321003210
B1529583832050N11203764WA0321103211
B1529593832050N11203768WA0321203212
B1530003832049N11203772WA0321303213
B1530013832049N11203775WA0321503215
B1530023832048N11203779WA0321603216
B1530033832047N11203783WA0321803218
B1530043832046N11203788WA0321903219
B1530053832044N11203792WA0321803218
B1530063832041N11203796WA0321803218
B1530073832038N11203799WA0321903219
B1530083832035N11203802WA0321903219
B1530093832032N11203805WA0321903219
B1530103832028N11203808WA0321903219
B1530113832024N11203811WA0322003220
B1530123832020N11203815WA0322103221
B1530133832016N11203818WA0322103221
B1530143832012N11203821WA0322103221
B1530153832009N11203825WA0322103221
B1530163832005N11203828WA0322203222
B1530173832002N11203831WA0322303223
B1530183831998N11203835WA0322403224
B1530193831994N11203838WA0322403224
B1530203831991N11203842WA0322303223
B1530213831987N11203846WA0322303223
B1530223831984N11203850WA0322303223
B1530233831981N11203854WA0322503225
B1530243831977N11203858WA0322703227
B1530253831974N11203862WA0322803228
B1530263831971N11203865WA0322803228
B1530273831968N11203868WA0322803228
B1530283831965N11203871WA0322803228
B1530293831963N11203873WA0322803228
B1530303831962N11203877WA0322803228
B1530313831961N11203880WA0322803228
B1530323831961N11203883WA0322903229
B1530333831962N11203886WA0322903229
B1530343831963N11203889WA0322903229
B1530353831964N11203892WA0322903229
B1530363831966N11203893WA0322903229
B1530373831967N11203894WA0323003230
B1530383831969N11203894WA0323103231
B1530393831971N11203893WA0323103231
B1530403831973N11203892WA0323203232
B1530413831975N11203891WA0323203232
B1530423831977N11203889WA0323203232
B1530433831980N11203886WA0323303233
B1530443831982N11203884WA0323303233
B1530453831984N11203881WA0323303233
B1530463831986N11203878WA0323303233
B1530473831988N11203876WA0323303233
B1530483831990N11203873WA0323303233
B1530493831992N11203871WA0323403234
B1530503831995N11203869WA0323403234
B1530513831997N11203867WA0323503235
B1530523832000N11203865WA0323503235
B1530533832003N11203863WA0323503235
B1530543832006N11203861WA0323503235
B1530553832008N11203860WA0323503235
B1530563832011N11203859WA0323503235
B1530573832014N11203858WA0323503235
B1530583832017N11203857WA0323503235
B1530593832019N11203856WA0323603236
B1531003832022N11203855WA0323603236
B1531013832025N11203854WA0323603236
B1531023832029N11203854WA0323603236
B1531033832032N11203853WA0323703237
B1531043832035N11203853WA0323703237
B1531053832038N11203853WA0323903239
B1531063832041N11203853WA0324003240
B1531073832044N11203854WA0324003240
B1531083832047N11203854WA0324103241
B1531093832050N11203854WA0324103241
B1531103832054N11203854WA0324203242
B1531113832057N11203854WA0324203242
B1531123832061N11203854WA0324303243
B1531133832064N11203854WA0324403244
B1531143832068N11203854WA0324403244
B1531153832071N11203853WA0324503245
B1531163832075N11203852WA0324503245
B1531173832079N11203850WA0324603246
B1531183832082N11203849WA0324703247
B1531193832085N11203848WA0324803248
B1531203832089N11203846WA0324903249
B1531213832092N11203845WA0325003250
B1531223832095N11203845WA0325103251
B1531233832097N11203844WA0325203252
B1531243832100N11203843WA0325303253
B1531253832102N11203842WA0325403254
B1531263832104N11203842WA0325403254
B1531273832106N11203841WA0325503255
B1531283832109N11203840WA0325603256
B1531293832111N11203839WA0325703257
B1531303832113N11203839WA0325703257
B1531313832116N11203838WA0325803258
B1531323832119N11203837WA0325803258
B1531333832121N11203835WA0325903259
B1531343832124N11203834WA0325903259
B1531353832126N11203832WA0325903259
B1531363832129N11203830WA0326003260
B1531373832131N11203828WA0326003260
B1531383832134N11203826WA0325903259
B1531393832137N11203823WA0325903259
B1531403832139N11203820WA0325803258
B1531413832142N11203817WA0325803258
B1531423832144N11203813WA0325803258
B1531433832147N11203809WA0325903259
B1531443832149N11203804WA0326003260
B1531453832151N11203799WA0326003260
B1531463832153N11203793WA0326103261
B1531473832156N11203789WA0326203262
B1531483832160N11203785WA0326203262
B1531493832164N11203781WA0326203262
B1531503832168N11203778WA0326203262
B1531513832173N11203776WA0326203262
B1531523832177N11203774WA0326303263
B1531533832182N11203773WA0326403264
B1531543832187N11203772WA0326503265
B1531553832192N11203771WA0326603266
B1531563832197N11203770WA0326703267
B1531573832202N11203768WA0326803268
B1531583832208N11203766WA0326803268
B1531593832214N11203764WA0327003270
B1532003832220N11203761WA0327003270
B1532013832226N11203759WA0327103271
B1532023832232N11203756WA0327203272
B1532033832238N11203753WA0327203272
B1532043832244N11203750WA0327303273
B1532053832250N11203747WA0327303273
B1532063832255N11203743WA0327303273
B1532073832261N11203739WA0327403274
B1532083832266N11203735WA0327503275
B1532093832272N11203731WA0327503275
B1532103832277N11203727WA0327403274
B1532113832282N11203722WA0327403274
B1532123832287N11203718WA0327403274
B1532133832292N11203713WA0327403274
B1532143832297N11203709WA0327403274
B1532153832301N11203704WA0327403274
B1532163832306N11203700WA0327403274
B1532173832310N11203695WA0327403274
B1532183832314N11203690WA0327403274
B1532193832318N11203686WA0327503275
B1532203832322N11203682WA0327503275
B1532213832326N11203677WA0327603276
B1532223832330N11203673WA0327603276
B1532233832333N11203668WA0327603276
B1532243832336N11203664WA0327703277
B1532253832340N11203660WA0327703277
B1532263832343N11203656WA0327803278
B1532273832346N11203653WA0327803278
B1532283832349N11203649WA0327803278
B1532293832352N11203645WA0327903279
B1532303832355N11203641WA0327903279
B1532313832357N11203636WA0328003280
B1532323832360N11203632WA0328003280
B1532333832362N11203627WA0328303283
B1532343832365N11203622WA0328403284
B1532353832367N11203617WA0328503285
B1532363832368N11203613WA0328603286
B1532373832370N11203608WA0328703287
B1532383832371N11203604WA0328803288
B1532393832373N11203599WA0328803288
B1532403832374N11203595WA0328903289
B1532413832374N11203590WA0329003290
B1532423832375N11203585WA0329003290
B1532433832375N11203581WA0329003290
B1532443832375N11203577WA0329103291
B1532453832375N11203573WA0329203292
B1532463832377N11203569WA0329403294
B1532473832378N11203565WA0329503295
B1532483832380N11203563WA0329503295
B1532493832382N11203560WA0329603296
B1532503832384N11203557WA0329603296
B1532513832386N11203555WA0329603296
B1532523832389N11203552WA0329703297
B1532533832392N11203550WA0329803298
B1532543832395N11203548WA0329703297
B1532553832399N11203547WA0329803298
B1532563832403N11203545WA0329903299
B1532573832407N11203545WA0329903299
B1532583832410N11203544WA0330003300
B1532593832414N11203545WA0330103301
B1533003832418N11203545WA0330103301
B1533013832422N11203546WA0330203302
B1533023832426N11203547WA0330303303
B1533033832430N11203549WA0330403304
B1533043832434N11203550WA0330403304
B1533053832438N11203551WA0330503305
B1533063832442N11203552WA0330603306
B1533073832446N11203554WA0330703307
B1533083832450N11203555WA0330703307
B1533093832453N11203556WA0330803308
B1533103832457N11203557WA0330903309
B1533113832460N11203558WA0331003310
B1533123832463N11203559WA0331103311
B1533133832466N11203561WA0331203312
B1533143832469N11203563WA0331303313
B1533153832472N11203565WA0331303313
B1533163832475N11203567WA0331403314
B1533173832478N11203569WA0331503315
B1533183832480N11203571WA0331603316
B1533193832483N11203573WA0331703317
B1533203832486N11203574WA0331803318
B1533213832489N11203576WA0331803318
B1533223832492N11203578WA0331903319
B1533233832495N11203580WA0331903319
B1533243832497N11203582WA0332003320
B1533253832500N11203585WA0332003320
B1533263832502N11203588WA0332103321
B1533273832503N11203592WA0332103321
B1533283832505N11203596WA0332203322
B1533293832506N11203601WA0332203322
B1533303832506N11203605WA0332203322
B1533313832507N11203609WA0332303323
B1533323832506N11203613WA0332303323
B1533333832506N11203616WA0332303323
B1533343832504N11203619WA0332303323
B1533353832502N11203622WA0332303323
B1533363832500N11203624WA0332303323
B1533373832497N11203626WA0332303323
B1533383832495N11203629WA0332203322
B1533393832494N11203632WA0332203322
B1533403832493N11203636WA0332203322
B1533413832492N11203641WA0332203322
B1533423832492N11203646WA0332203322
B1533433832492N11203651WA0332203322
B1533443832492N11203657WA0332203322
B1533453832492N11203663WA0332303323
B1533463832492N11203669WA0332303323
B1533473832492N11203675WA0332303323
B1533483832491N11203681WA0332303323
B1533493832490N11203687WA0332403324
B1533503832489N11203693WA0332403324
B1533513832487N11203698WA0332403324
B1533523832486N11203704WA0332503325
B1533533832484N11203710WA0332603326
B1533543832483N11203716WA0332603326
B1533553832481N11203722WA0332603326
B1533563832479N11203728WA0332703327
B1533573832477N11203733WA0332703327
B1533583832474N11203737WA0332703327
B1533593832472N11203741WA0332803328
B1534003832469N11203745WA0332803328
B1534013832465N11203748WA0332903329
B1534023832462N11203751WA0332903329
B1534033832458N11203754WA0332903329
B1534043832455N11203757WA0332903329
B1534053832451N11203759WA0332903329
B1534063832447N11203762WA0332903329
B1534073832443N11203764WA0332903329
B1534083832439N11203767WA0332903329
B1534093832434N11203769WA0332803328
B1534103832430N11203771WA0332803328
B1534113832426N11203773WA0332803328
B1534123832423N11203775WA0332803328
B1534133832419N11203778WA0332803328
B1534143832415N11203781WA0332803328
B1534153832412N11203784WA0332803328
B1534163832408N11203788WA0332803328
B1534173832405N11203791WA0332803328
B1534183832401N11203794WA0332803328
B1534193832397N11203797WA0332803328
B1534203832393N11203800WA0332803328
B1534213832389N11203802WA0332803328
B1534223832385N11203804WA0332903329
B1534233832381N11203805WA0332903329
B1534243832376N11203807WA0332903329
B1534253832372N11203808WA0333003330
B1534263832368N11203809WA0333003330
B1534273832363N11203810WA0333103331
B1534283832359N11203810WA0333103331
B1534293832355N11203811WA0333203332
B1534303832351N11203811WA0333203332
B1534313832346N11203812WA0333303333
B1534323832342N11203813WA0333403334
B1534333832338N11203815WA0333403334
B1534343832335N11203817WA0333503335
B1534353832332N11203819WA0333603336
B1534363832329N11203821WA0333703337
B1534373832325N11203823WA0333703337
B1534383832322N11203825WA0333703337
B1534393832318N11203827WA0333703337
B1534403832314N11203828WA0333703337
B1534413832310N11203830WA0333803338
B1534423832307N11203833WA0333803338
B1534433832305N11203836WA0333803338
B1534443832304N11203839WA0333803338
B1534453832304N11203843WA0333803338
B1534463832305N11203846WA0333803338
B1534473832307N11203850WA0333803338
B1534483832309N11203853WA0333903339
B1534493832312N11203857WA0333903339
B1534503832316N11203861WA0334003340
B1534513832319N11203864WA0334103341
B1534523832322N11203868WA0334203342
B1534533832325N11203872WA0334303343
B1534543832328N11203876WA0334503345
B1534553832330N11203880WA0334503345
B1534563832331N11203884WA0334503345
B1534573832332N11203889WA0334603346
B1534583832332N11203893WA0334503345
B1534593832331N11203898WA0334703347
B1535003832330N11203903WA0334703347
B1535013832329N11203908WA0334703347
B1535023832328N11203912WA0334703347
B1535033832327N11203917WA0334803348
B1535043832325N11203922WA0334903349
B1535053832323N11203926WA0335003350
B1535063832321N11203930WA0335003350
B1535073832319N11203933WA0335003350
B1535083832316N11203936WA0335103351
B1535093832313N11203938WA0335203352
B1535103832310N11203941WA0335303353
B1535113832307N11203944WA0335303353
B1535123832303N11203946WA0335403354
B1535133832299N11203949WA0335403354
B1535143832295N11203952WA0335403354
B1535153832291N11203955WA0335503355
B1535163832287N11203957WA0335503355
B1535173832283N11203959WA0335603356
B1535183832279N11203961WA0335503355
B1535193832275N11203962WA0335603356
B1535203832272N11203962WA0335703357
B1535213832268N11203963WA0335703357
B1535223832264N11203964WA0335803358
B1535233832259N11203965WA0335803358
B1535243832255N11203967WA0335803358
B1535253832251N11203970WA0335903359
B1535263832247N11203973WA0336003360
B1535273832243N11203976WA0336003360
B1535283832239N11203980WA0336103361
B1535293832236N11203984WA0336103361
B1535303832233N11203988WA0336103361
B1535313832230N11203992WA0336203362
B1535323832227N11203996WA0336203362
B1535333832223N11203999WA0336303363
B1535343832220N11204002WA0336303363
B1535353832217N11204005WA0336403364
B1535363832214N11204008WA0336403364
B1535373832212N11204012WA0336403364
B1535383832210N11204016WA0336403364
B1535393832210N11204020WA0336503365
B1535403832209N11204025WA0336503365
B1535413832208N11204031WA0336603366
B1535423832207N11204036WA0336603366
B1535433832207N11204042WA0336703367
B1535443832206N11204047WA0336703367
B1535453832204N11204053WA0336803368
B1535463832202N11204057WA0336803368
B1535473832199N11204059WA0336803368
B1535483832196N11204062WA0336903369
B1535493832193N11204063WA0336903369
B1535503832190N11204064WA0337003370
B1535513832187N11204066WA0337003370
B1535523832184N11204068WA0337103371
B1535533832182N11204071WA0337103371
B1535543832181N11204075WA0337103371
B1535553832180N11204080WA0337103371
B1535563832180N11204085WA0337203372
B1535573832181N11204089WA0337303373
B1535583832182N11204093WA0337403374
B1535593832183N11204097WA0337403374
B1536003832183N11204100WA0337603376
B1536013832185N11204103WA0337703377
B1536023832186N11204106WA0337703377
B1536033832187N11204109WA0337803378
B1536043832188N11204113WA0337803378
B1536053832190N11204117WA0337803378
B1536063832191N11204122WA0337903379
B1536073832193N11204127WA0337903379
B1536083832194N11204132WA0338003380
B1536093832194N11204137WA0338003380
B1536103832193N11204142WA0338203382
B1536113832192N11204147WA0338203382
B1536123832192N11204152WA0338303383
B1536133832191N11204157WA0338403384
B1536143832191N11204161WA0338503385
B1536153832191N11204165WA0338603386
B1536163832191N11204170WA0338703387
B1536173832192N11204174WA0338703387
B1536183832192N11204178WA0338803388
B1536193832193N11204182WA0338903389
B1536203832193N11204187WA0339003390
B1536213832194N11204191WA0339103391
B1536223832194N11204196WA0339103391
B1536233832195N11204200WA0339203392
B1536243832196N11204205WA0339303393
B1536253832197N11204210WA0339403394
B1536263832199N11204214WA0339503395
B1536273832200N11204218WA0339603396
B1536283832202N11204222WA0339603396
B1536293832204N11204225WA0339703397
B1536303832206N11204227WA0339803398
B1536313832210N11204229WA0339803398
B1536323832213N11204231WA0339903399
B1536333832217N11204233WA0340003400
B1536343832221N11204236WA0340003400
B1536353832224N11204240WA0340003400
B1536363832227N11204244WA0340003400
B1536373832230N11204249WA0340103401
B1536383832233N11204254WA0340203402
B1536393832235N11204259WA0340303403
B1536403832238N11204263WA0340303403
B1536413832242N11204267WA0340403404
B1536423832245N11204270WA0340503405
B1536433832249N11204273WA0340603406
B1536443832253N11204275WA0340703407
B1536453832256N11204276WA0340703407
B1536463832260N11204276WA0340703407
B1536473832264N11204276WA0340703407
B1536483832268N11204276WA0340703407
B1536493832273N11204276WA0340703407
B1536503832277N11204276WA0340703407
B1536513832282N11204276WA0340703407
B1536523832288N11204276WA0340703407
B1536533832292N11204276WA0340703407
B1536543832297N11204277WA0340803408
B1536553832301N11204278WA0340903409
B1536563832304N11204280WA0340903409
B1536573832307N11204283WA0341003410
B1536583832311N11204285WA0341003410
B1536593832314N11204288WA0341003410
B1537003832318N11204291WA0341003410
B1537013832323N11204293WA0341103411
B1537023832327N11204295WA0341203412
B1537033832332N11204297WA0341203412
B1537043832337N11204300WA0341203412
B1537053832341N11204302WA0341203412
B1537063832346N11204305WA0341203412
B1537073832351N11204308WA0341103411
B1537083832356N11204311WA0341003410
B1537093832360N11204314WA0341003410
B1537103832365N11204317WA0341003410
B1537113832369N11204320WA0340903409
B1537123832373N11204324WA0340903409
B1537133832377N11204329WA0340803408
B1537143832380N11204333WA0340803408
B1537153832384N11204338WA0340803408
B1537163832387N11204342WA0340803408
B1537173832390N11204346WA0340703407
B1537183832393N11204349WA0340703407
B1537193832396N11204352WA0340703407
B1537203832398N11204355WA0340703407
B1537213832400N11204357WA0340703407
B1537223832401N11204358WA0340603406
B1537233832402N11204359WA0340603406
B1537243832403N11204360WA0340603406
B1537253832403N11204360WA0340603406
B1537263832403N11204360WA0340603406
