AXFMFLYMASTER LIVETRACK
HFDTE200926
HFFXA010
HFPLTPILOT:Steven Young
HFGTYGLIDERTYPE:Ozone Photon / Supair Delight 4
HFCIDCOMPETITIONID:171
HFDTM100GPSDATUM:WGS-1984
HFRFWFIRMWAREVERSION:lt.flymaster.net bsGetPilotTrack
B1836483832445N11204412WA0340503405
B1836493832445N11204414WA0340503405
B1836503832445N11204417WA0340403404
B1836513832445N11204419WA0340303403
B1836523832445N11204421WA0340203402
B1836533832445N11204423WA0340103401
B1836543832444N11204427WA0340003400
B1836553832444N11204431WA0339803398
B1836563832443N11204436WA0339603396
B1836573832442N11204442WA0339503395
B1836583832441N11204449WA0339303393
B1836593832441N11204456WA0339203392
B1837003832441N11204463WA0339003390
B1837013832442N11204470WA0338803388
B1837023832444N11204476WA0338503385
B1837033832447N11204483WA0338303383
B1837043832451N11204489WA0338103381
B1837053832454N11204495WA0338103381
B1837063832457N11204501WA0338103381
B1837073832459N11204507WA0338203382
B1837083832460N11204512WA0338303383
B1837093832461N11204516WA0338303383
B1837103832463N11204521WA0338203382
B1837113832466N11204526WA0337903379
B1837123832469N11204530WA0337603376
B1837133832473N11204534WA0337303373
B1837143832476N11204538WA0337003370
B1837153832479N11204543WA0336803368
B1837163832481N11204547WA0336703367
B1837173832483N11204552WA0336503365
B1837183832486N11204557WA0336303363
B1837193832488N11204564WA0336103361
B1837203832491N11204571WA0335903359
B1837213832494N11204577WA0335903359
B1837223832499N11204583WA0336103361
B1837233832503N11204588WA0336003360
B1837243832509N11204591WA0335903359
B1837253832514N11204595WA0335603356
B1837263832519N11204598WA0335403354
B1837273832524N11204602WA0335103351
B1837283832529N11204606WA0334703347
B1837293832535N11204610WA0334403344
B1837303832540N11204614WA0334003340
B1837313832546N11204618WA0333803338
B1837323832552N11204620WA0333503335
B1837333832558N11204622WA0333303333
B1837343832563N11204623WA0333003330
B1837353832568N11204625WA0332603326
B1837363832574N11204628WA0332203322
B1837373832579N11204631WA0331803318
B1837383832584N11204634WA0331403314
B1837393832590N11204638WA0331103311
B1837403832595N11204641WA0330803308
B1837413832600N11204645WA0330603306
B1837423832604N11204649WA0330403304
B1837433832608N11204652WA0330203302
B1837443832613N11204657WA0329803298
B1837453832618N11204661WA0329503295
B1837463832623N11204666WA0329203292
B1837473832627N11204672WA0328903289
B1837483832631N11204678WA0328703287
B1837493832635N11204684WA0328403284
B1837503832641N11204690WA0328203282
B1837513832646N11204695WA0328003280
B1837523832653N11204699WA0327803278
B1837533832659N11204704WA0327703277
B1837543832664N11204707WA0327603276
B1837553832670N11204711WA0327503275
B1837563832676N11204714WA0327503275
B1837573832681N11204718WA0327603276
B1837583832684N11204724WA0327603276
B1837593832686N11204730WA0327703277
B1838003832688N11204736WA0327703277
B1838013832690N11204742WA0327903279
B1838023832694N11204746WA0328103281
B1838033832698N11204750WA0328203282
B1838043832703N11204754WA0328303283
B1838053832707N11204758WA0328503285
B1838063832711N11204762WA0328703287
B1838073832715N11204767WA0328803288
B1838083832719N11204772WA0329003290
B1838093832722N11204777WA0329203292
B1838103832725N11204781WA0329403294
B1838113832727N11204784WA0329603296
B1838123832730N11204786WA0329603296
B1838133832734N11204787WA0329303293
B1838143832739N11204787WA0328903289
B1838153832745N11204787WA0328503285
B1838163832751N11204787WA0328103281
B1838173832756N11204788WA0327903279
B1838183832762N11204789WA0327803278
B1838193832766N11204789WA0327603276
B1838203832771N11204789WA0327503275
B1838213832776N11204789WA0327303273
B1838223832781N11204790WA0327103271
B1838233832786N11204791WA0326903269
B1838243832791N11204793WA0326603266
B1838253832797N11204795WA0326303263
B1838263832803N11204798WA0326103261
B1838273832809N11204800WA0326103261
B1838283832814N11204802WA0326203262
B1838293832819N11204803WA0326303263
B1838303832823N11204803WA0326303263
B1838313832828N11204803WA0326103261
B1838323832833N11204803WA0325903259
B1838333832838N11204804WA0325803258
B1838343832844N11204805WA0325603256
B1838353832850N11204805WA0325403254
B1838363832856N11204805WA0325403254
B1838373832861N11204805WA0325403254
B1838383832867N11204804WA0325303253
B1838393832873N11204803WA0325103251
B1838403832879N11204802WA0324903249
B1838413832885N11204802WA0324703247
B1838423832891N11204802WA0324503245
B1838433832898N11204802WA0324403244
B1838443832904N11204800WA0324203242
B1838453832910N11204798WA0323903239
B1838463832916N11204796WA0323703237
B1838473832923N11204793WA0323403234
B1838483832929N11204789WA0323203232
B1838493832936N11204786WA0322903229
B1838503832943N11204783WA0322603226
B1838513832949N11204781WA0322403224
B1838523832956N11204780WA0322203222
B1838533832962N11204778WA0322003220
B1838543832968N11204775WA0322003220
B1838553832975N11204771WA0321903219
B1838563832981N11204767WA0321903219
B1838573832987N11204764WA0321903219
B1838583832994N11204760WA0321903219
B1838593833000N11204757WA0322003220
B1839003833007N11204755WA0322003220
B1839013833014N11204752WA0322003220
B1839023833021N11204750WA0322003220
B1839033833028N11204746WA0322003220
B1839043833035N11204743WA0322003220
B1839053833041N11204739WA0322103221
B1839063833047N11204736WA0322203222
B1839073833053N11204732WA0322203222
B1839083833058N11204729WA0322003220
B1839093833063N11204726WA0321703217
B1839103833070N11204723WA0321403214
B1839113833077N11204721WA0321203212
B1839123833083N11204719WA0321003210
B1839133833090N11204717WA0321003210
B1839143833095N11204714WA0321003210
B1839153833101N11204711WA0321003210
B1839163833107N11204710WA0321003210
B1839173833112N11204710WA0321003210
B1839183833117N11204711WA0321003210
B1839193833121N11204713WA0321003210
B1839203833126N11204715WA0321003210
B1839213833131N11204717WA0321003210
B1839223833135N11204720WA0321003210
B1839233833139N11204723WA0321003210
B1839243833141N11204726WA0321003210
B1839253833144N11204730WA0321003210
B1839263833146N11204735WA0321003210
B1839273833148N11204739WA0320903209
B1839283833150N11204744WA0320903209
B1839293833151N11204748WA0320903209
B1839303833153N11204752WA0320903209
B1839313833156N11204755WA0320903209
B1839323833160N11204757WA0320903209
B1839333833165N11204758WA0320703207
B1839343833170N11204758WA0320603206
B1839353833176N11204758WA0320603206
B1839363833181N11204759WA0320503205
B1839373833186N11204760WA0320503205
B1839383833190N11204761WA0320503205
B1839393833194N11204762WA0320503205
B1839403833198N11204764WA0320403204
B1839413833203N11204765WA0320303203
B1839423833207N11204767WA0320203202
B1839433833212N11204770WA0320003200
B1839443833216N11204772WA0319803198
B1839453833221N11204775WA0319603196
B1839463833226N11204777WA0319503195
B1839473833230N11204778WA0319403194
B1839483833235N11204780WA0319203192
B1839493833240N11204781WA0319103191
B1839503833245N11204782WA0318903189
B1839513833250N11204782WA0318703187
B1839523833256N11204781WA0318603186
B1839533833262N11204778WA0318403184
B1839543833269N11204775WA0318103181
B1839553833276N11204771WA0317903179
B1839563833283N11204770WA0317803178
B1839573833288N11204770WA0317903179
B1839583833293N11204771WA0317903179
B1839593833296N11204774WA0317903179
B1840003833299N11204778WA0317903179
B1840013833301N11204783WA0317903179
B1840023833303N11204788WA0317903179
B1840033833304N11204793WA0317903179
B1840043833303N11204798WA0317803178
B1840053833303N11204803WA0317803178
B1840063833303N11204807WA0317903179
B1840073833304N11204812WA0317803178
B1840083833306N11204818WA0317703177
B1840093833307N11204824WA0317703177
B1840103833307N11204831WA0317703177
B1840113833307N11204837WA0317803178
B1840123833307N11204843WA0317903179
B1840133833308N11204848WA0317903179
B1840143833310N11204854WA0317803178
B1840153833313N11204862WA0317803178
B1840163833314N11204871WA0317803178
B1840173833315N11204878WA0318003180
B1840183833315N11204885WA0318303183
B1840193833315N11204890WA0318603186
B1840203833314N11204895WA0318903189
B1840213833314N11204899WA0318803188
B1840223833314N11204904WA0318803188
B1840233833314N11204909WA0318703187
B1840243833314N11204916WA0318603186
B1840253833314N11204924WA0318503185
B1840263833315N11204931WA0318503185
B1840273833316N11204937WA0318603186
B1840283833317N11204943WA0318603186
B1840293833319N11204950WA0318403184
B1840303833320N11204957WA0318503185
B1840313833322N11204965WA0318503185
B1840323833323N11204972WA0318603186
B1840333833324N11204977WA0318903189
B1840343833324N11204982WA0319003190
B1840353833325N11204987WA0319003190
B1840363833326N11204993WA0318903189
B1840373833328N11205001WA0318903189
B1840383833330N11205007WA0318903189
B1840393833334N11205012WA0319103191
B1840403833338N11205015WA0319203192
B1840413833342N11205019WA0319203192
B1840423833347N11205021WA0319103191
B1840433833353N11205023WA0319103191
B1840443833360N11205023WA0319203192
B1840453833366N11205020WA0319203192
B1840463833371N11205016WA0319203192
B1840473833376N11205010WA0319303193
B1840483833380N11205004WA0319403194
B1840493833384N11204999WA0319503195
B1840503833388N11204994WA0319503195
B1840513833393N11204990WA0319403194
B1840523833398N11204986WA0319303193
B1840533833402N11204980WA0319203192
B1840543833407N11204973WA0319003190
B1840553833411N11204965WA0318903189
B1840563833415N11204955WA0318903189
B1840573833417N11204945WA0318903189
B1840583833418N11204934WA0318903189
B1840593833418N11204924WA0318803188
B1841003833417N11204913WA0318903189
B1841013833416N11204903WA0318903189
B1841023833414N11204894WA0319003190
B1841033833412N11204885WA0319003190
B1841043833408N11204877WA0318903189
B1841053833404N11204870WA0318903189
B1841063833400N11204863WA0318903189
B1841073833396N11204857WA0319003190
B1841083833391N11204853WA0318903189
B1841093833386N11204849WA0318803188
B1841103833380N11204845WA0318703187
B1841113833373N11204843WA0318503185
B1841123833367N11204840WA0318403184
B1841133833360N11204838WA0318403184
B1841143833353N11204835WA0318403184
B1841153833347N11204833WA0318603186
B1841163833342N11204831WA0318703187
B1841173833337N11204829WA0318803188
B1841183833331N11204828WA0318803188
B1841193833325N11204827WA0318703187
B1841203833319N11204828WA0318603186
B1841213833314N11204830WA0318603186
B1841223833308N11204834WA0318603186
B1841233833304N11204840WA0318603186
B1841243833301N11204847WA0318603186
B1841253833298N11204855WA0318603186
B1841263833297N11204862WA0318703187
B1841273833298N11204870WA0318803188
B1841283833300N11204877WA0318803188
B1841293833303N11204884WA0318803188
B1841303833308N11204890WA0318803188
B1841313833313N11204893WA0318803188
B1841323833319N11204894WA0319003190
B1841333833324N11204893WA0319103191
B1841343833329N11204891WA0319203192
B1841353833333N11204887WA0319303193
B1841363833337N11204883WA0319303193
B1841373833340N11204877WA0319203192
B1841383833341N11204870WA0319203192
B1841393833340N11204862WA0319103191
B1841403833337N11204855WA0318903189
B1841413833331N11204849WA0318803188
B1841423833325N11204846WA0318803188
B1841433833318N11204845WA0318803188
B1841443833312N11204846WA0318703187
B1841453833306N11204848WA0318703187
B1841463833301N11204852WA0318703187
B1841473833296N11204858WA0318703187
B1841483833293N11204866WA0318703187
B1841493833291N11204873WA0318803188
B1841503833290N11204881WA0319003190
B1841513833290N11204889WA0319303193
B1841523833293N11204895WA0319503195
B1841533833297N11204901WA0319503195
B1841543833301N11204907WA0319403194
B1841553833307N11204911WA0319403194
B1841563833314N11204913WA0319503195
B1841573833319N11204913WA0319803198
B1841583833324N11204911WA0320103201
B1841593833329N11204907WA0320303203
B1842003833333N11204901WA0320503205
B1842013833336N11204895WA0320603206
B1842023833337N11204887WA0320703207
B1842033833336N11204879WA0320703207
B1842043833334N11204870WA0320703207
B1842053833330N11204864WA0320703207
B1842063833325N11204861WA0320703207
B1842073833319N11204859WA0320803208
B1842083833313N11204860WA0320703207
B1842093833307N11204863WA0320603206
B1842103833300N11204866WA0320403204
B1842113833294N11204870WA0320303203
B1842123833289N11204876WA0320403204
B1842133833286N11204882WA0320503205
B1842143833284N11204889WA0320603206
B1842153833283N11204895WA0320703207
B1842163833282N11204901WA0320803208
B1842173833283N11204908WA0320803208
B1842183833284N11204915WA0320703207
B1842193833287N11204922WA0320703207
B1842203833291N11204928WA0320803208
B1842213833296N11204932WA0321003210
B1842223833302N11204934WA0321103211
B1842233833308N11204935WA0321103211
B1842243833314N11204936WA0321303213
B1842253833319N11204935WA0321403214
B1842263833325N11204933WA0321503215
B1842273833331N11204929WA0321503215
B1842283833336N11204924WA0321603216
B1842293833341N11204917WA0321603216
B1842303833345N11204909WA0321603216
B1842313833346N11204900WA0321703217
B1842323833346N11204891WA0321803218
B1842333833345N11204883WA0321903219
B1842343833343N11204875WA0322103221
B1842353833341N11204869WA0322303223
B1842363833338N11204864WA0322403224
B1842373833335N11204860WA0322403224
B1842383833330N11204857WA0322203222
B1842393833325N11204853WA0322103221
B1842403833320N11204850WA0322003220
B1842413833315N11204848WA0322003220
B1842423833309N11204847WA0322003220
B1842433833303N11204845WA0322103221
B1842443833298N11204844WA0322003220
B1842453833293N11204843WA0322003220
B1842463833288N11204842WA0321903219
B1842473833283N11204842WA0321803218
B1842483833278N11204844WA0321603216
B1842493833272N11204847WA0321403214
B1842503833267N11204850WA0321303213
B1842513833262N11204853WA0321503215
B1842523833257N11204854WA0321603216
B1842533833253N11204852WA0321703217
B1842543833248N11204849WA0321703217
B1842553833244N11204849WA0321703217
B1842563833239N11204849WA0321703217
B1842573833235N11204851WA0321503215
B1842583833231N11204854WA0321403214
B1842593833227N11204857WA0321203212
B1843003833224N11204862WA0321003210
B1843013833223N11204868WA0320803208
B1843023833222N11204875WA0320503205
B1843033833224N11204884WA0320203202
B1843043833227N11204891WA0320003200
B1843053833231N11204897WA0319903199
B1843063833235N11204901WA0319803198
B1843073833241N11204904WA0319703197
B1843083833246N11204906WA0319703197
B1843093833251N11204907WA0319803198
B1843103833257N11204909WA0319803198
B1843113833262N11204912WA0319803198
B1843123833267N11204916WA0319803198
B1843133833271N11204921WA0319803198
B1843143833275N11204926WA0319803198
B1843153833280N11204929WA0319903199
B1843163833285N11204931WA0320003200
B1843173833290N11204932WA0320203202
B1843183833295N11204933WA0320403204
B1843193833300N11204931WA0320503205
B1843203833305N11204928WA0320603206
B1843213833310N11204922WA0320403204
B1843223833315N11204915WA0320303203
B1843233833318N11204907WA0320203202
B1843243833321N11204899WA0320403204
B1843253833323N11204891WA0320503205
B1843263833324N11204884WA0320603206
B1843273833325N11204876WA0320603206
B1843283833324N11204868WA0320603206
B1843293833323N11204860WA0320503205
B1843303833320N11204852WA0320403204
B1843313833316N11204845WA0320203202
B1843323833312N11204839WA0320203202
B1843333833307N11204834WA0320103201
B1843343833302N11204829WA0320003200
B1843353833297N11204825WA0319803198
B1843363833291N11204820WA0319703197
B1843373833286N11204817WA0319703197
B1843383833281N11204813WA0319703197
B1843393833277N11204809WA0319703197
B1843403833273N11204804WA0319603196
B1843413833270N11204797WA0319503195
B1843423833269N11204789WA0319503195
B1843433833269N11204781WA0319503195
B1843443833270N11204773WA0319603196
B1843453833272N11204766WA0319603196
B1843463833273N11204759WA0319503195
B1843473833276N11204751WA0319403194
B1843483833278N11204744WA0319303193
B1843493833282N11204737WA0319203192
B1843503833286N11204730WA0319203192
B1843513833290N11204724WA0319103191
B1843523833294N11204718WA0319003190
B1843533833298N11204712WA0318903189
B1843543833301N11204706WA0318703187
B1843553833302N11204699WA0318703187
B1843563833302N11204692WA0318503185
B1843573833300N11204685WA0318403184
B1843583833297N11204678WA0318403184
B1843593833293N11204673WA0318303183
B1844003833289N11204669WA0318203182
B1844013833284N11204666WA0318003180
B1844023833279N11204664WA0317903179
B1844033833273N11204663WA0317703177
B1844043833267N11204663WA0317603176
B1844053833261N11204663WA0317503175
B1844063833255N11204663WA0317503175
B1844073833250N11204665WA0317403174
B1844083833245N11204669WA0317203172
B1844093833240N11204673WA0317003170
B1844103833236N11204677WA0316903169
B1844113833232N11204681WA0316903169
B1844123833230N11204686WA0316803168
B1844133833227N11204691WA0316803168
B1844143833225N11204696WA0316703167
B1844153833222N11204699WA0316603166
B1844163833219N11204703WA0316503165
B1844173833215N11204707WA0316303163
B1844183833211N11204711WA0316003160
B1844193833207N11204715WA0315903159
B1844203833203N11204719WA0315803158
B1844213833198N11204721WA0315603156
B1844223833193N11204723WA0315403154
B1844233833188N11204724WA0315103151
B1844243833183N11204725WA0314803148
B1844253833177N11204726WA0314503145
B1844263833172N11204729WA0314203142
B1844273833169N11204733WA0313903139
B1844283833166N11204740WA0313703137
B1844293833164N11204746WA0313403134
B1844303833163N11204753WA0313203132
B1844313833163N11204759WA0313003130
B1844323833162N11204765WA0312803128
B1844333833161N11204772WA0312603126
B1844343833160N11204780WA0312403124
B1844353833158N11204788WA0312303123
B1844363833157N11204796WA0312503125
B1844373833155N11204803WA0312903129
B1844383833154N11204809WA0313103131
B1844393833152N11204816WA0313203132
B1844403833149N11204823WA0313303133
B1844413833146N11204830WA0313303133
B1844423833144N11204837WA0313603136
B1844433833143N11204845WA0313803138
B1844443833145N11204851WA0313903139
B1844453833147N11204857WA0313903139
B1844463833151N11204862WA0313803138
B1844473833156N11204867WA0313803138
B1844483833161N11204868WA0313703137
B1844493833166N11204868WA0313703137
B1844503833170N11204863WA0313703137
B1844513833173N11204857WA0313803138
B1844523833174N11204850WA0313903139
B1844533833174N11204844WA0314003140
B1844543833172N11204837WA0314103141
B1844553833169N11204831WA0314003140
B1844563833166N11204824WA0313803138
B1844573833161N11204818WA0313603136
B1844583833155N11204812WA0313403134
B1844593833149N11204807WA0313303133
B1845003833143N11204803WA0313603136
B1845013833137N11204801WA0314003140
B1845023833132N11204799WA0314403144
B1845033833127N11204798WA0314703147
B1845043833121N11204798WA0314903149
B1845053833114N11204800WA0314903149
B1845063833108N11204804WA0315003150
B1845073833103N11204809WA0315203152
B1845083833100N11204815WA0315303153
B1845093833098N11204821WA0315503155
B1845103833097N11204827WA0315603156
B1845113833096N11204833WA0315703157
B1845123833097N11204840WA0315703157
B1845133833099N11204846WA0315803158
B1845143833101N11204850WA0315903159
B1845153833104N11204853WA0316103161
B1845163833107N11204854WA0316303163
B1845173833109N11204856WA0316403164
B1845183833113N11204857WA0316403164
B1845193833116N11204857WA0316403164
B1845203833121N11204855WA0316403164
B1845213833126N11204852WA0316503165
B1845223833130N11204846WA0316603166
B1845233833133N11204839WA0316903169
B1845243833134N11204832WA0317003170
B1845253833134N11204824WA0317403174
B1845263833132N11204818WA0317603176
B1845273833128N11204812WA0317703177
B1845283833124N11204806WA0317703177
B1845293833119N11204800WA0317603176
B1845303833112N11204796WA0317503175
B1845313833105N11204792WA0317603176
B1845323833098N11204790WA0317803178
B1845333833092N11204789WA0318103181
B1845343833085N11204787WA0318303183
B1845353833079N11204786WA0318403184
B1845363833072N11204785WA0318503185
B1845373833066N11204786WA0318503185
B1845383833059N11204789WA0318603186
B1845393833053N11204794WA0318603186
B1845403833048N11204800WA0318603186
B1845413833044N11204805WA0318803188
B1845423833040N11204810WA0319003190
B1845433833038N11204816WA0319103191
B1845443833035N11204821WA0319203192
B1845453833033N11204827WA0319203192
B1845463833032N11204834WA0319203192
B1845473833032N11204841WA0319103191
B1845483833033N11204849WA0319003190
B1845493833033N11204856WA0319203192
B1845503833034N11204863WA0319303193
B1845513833034N11204871WA0319503195
B1845523833034N11204878WA0319603196
B1845533833032N11204884WA0319803198
B1845543833030N11204890WA0320003200
B1845553833027N11204896WA0320103201
B1845563833024N11204902WA0320103201
B1845573833021N11204907WA0320203202
B1845583833017N11204911WA0320303203
B1845593833014N11204917WA0320503205
B1846003833011N11204922WA0320703207
B1846013833010N11204927WA0320803208
B1846023833008N11204932WA0320903209
B1846033833007N11204937WA0320903209
B1846043833006N11204943WA0320903209
B1846053833005N11204949WA0320603206
B1846063833006N11204956WA0320403204
B1846073833009N11204961WA0320203202
B1846083833013N11204966WA0320103201
B1846093833018N11204968WA0319703197
B1846103833024N11204970WA0319603196
B1846113833029N11204971WA0319503195
B1846123833034N11204973WA0319403194
B1846133833037N11204975WA0319403194
B1846143833040N11204977WA0319303193
B1846153833043N11204979WA0319103191
B1846163833047N11204981WA0318803188
B1846173833051N11204983WA0318303183
B1846183833056N11204986WA0317903179
B1846193833062N11204989WA0317603176
B1846203833067N11204992WA0317403174
B1846213833070N11204997WA0317203172
B1846223833073N11205002WA0317103171
B1846233833074N11205008WA0317003170
B1846243833076N11205012WA0316903169
B1846253833078N11205016WA0316603166
B1846263833081N11205021WA0316303163
B1846273833083N11205027WA0316003160
B1846283833086N11205033WA0315703157
B1846293833089N11205038WA0315503155
B1846303833093N11205043WA0315303153
B1846313833095N11205049WA0315003150
B1846323833096N11205057WA0314803148
B1846333833095N11205066WA0314703147
B1846343833092N11205074WA0314503145
B1846353833089N11205082WA0314303143
B1846363833087N11205089WA0314403144
B1846373833086N11205096WA0314403144
B1846383833085N11205103WA0314303143
B1846393833085N11205109WA0314103141
B1846403833085N11205114WA0314003140
B1846413833086N11205120WA0313803138
B1846423833087N11205126WA0313603136
B1846433833088N11205132WA0313403134
B1846443833089N11205138WA0313203132
B1846453833091N11205144WA0313003130
B1846463833093N11205150WA0312703127
B1846473833096N11205156WA0312403124
B1846483833099N11205162WA0312003120
B1846493833103N11205169WA0311703117
B1846503833106N11205175WA0311403114
B1846513833110N11205181WA0311203112
B1846523833113N11205187WA0311003110
B1846533833116N11205191WA0310903109
B1846543833119N11205195WA0310603106
B1846553833122N11205199WA0310303103
B1846563833125N11205203WA0310003100
B1846573833128N11205208WA0309603096
B1846583833132N11205214WA0309303093
B1846593833136N11205220WA0309103091
B1847003833140N11205225WA0308903089
B1847013833144N11205230WA0308803088
B1847023833147N11205236WA0308603086
B1847033833150N11205241WA0308703087
B1847043833153N11205247WA0308503085
B1847053833155N11205252WA0308503085
B1847063833158N11205258WA0308303083
B1847073833162N11205263WA0308103081
B1847083833167N11205268WA0307803078
B1847093833171N11205273WA0307703077
B1847103833175N11205279WA0307703077
B1847113833178N11205284WA0307703077
B1847123833182N11205289WA0307603076
B1847133833186N11205294WA0307603076
B1847143833190N11205299WA0307503075
B1847153833194N11205304WA0307403074
B1847163833198N11205308WA0307403074
B1847173833202N11205311WA0307403074
B1847183833206N11205316WA0307203072
B1847193833208N11205321WA0307103071
B1847203833211N11205327WA0306903069
B1847213833213N11205333WA0306803068
B1847223833215N11205339WA0306703067
B1847233833218N11205344WA0306503065
B1847243833222N11205350WA0306403064
B1847253833225N11205355WA0306203062
B1847263833228N11205361WA0306003060
B1847273833230N11205367WA0305803058
B1847283833232N11205374WA0305603056
B1847293833235N11205380WA0305503055
B1847303833238N11205386WA0305303053
B1847313833241N11205392WA0305103051
B1847323833244N11205399WA0304803048
B1847333833247N11205405WA0304603046
B1847343833250N11205412WA0304403044
B1847353833253N11205418WA0304203042
B1847363833257N11205424WA0304003040
B1847373833260N11205430WA0303703037
B1847383833263N11205436WA0303503035
B1847393833266N11205443WA0303303033
B1847403833269N11205449WA0303003030
B1847413833272N11205455WA0302803028
B1847423833275N11205461WA0302603026
B1847433833278N11205467WA0302403024
B1847443833281N11205473WA0302103021
B1847453833284N11205479WA0301903019
B1847463833287N11205486WA0301603016
B1847473833290N11205492WA0301303013
B1847483833294N11205498WA0301003010
B1847493833298N11205503WA0300803008
B1847503833301N11205509WA0300503005
B1847513833305N11205515WA0300303003
B1847523833308N11205520WA0300003000
B1847533833312N11205526WA0299802998
B1847543833316N11205532WA0299602996
B1847553833319N11205537WA0299302993
B1847563833323N11205543WA0299102991
B1847573833327N11205549WA0298902989
B1847583833331N11205555WA0298602986
B1847593833335N11205561WA0298402984
B1848003833339N11205568WA0298202982
B1848013833343N11205574WA0298002980
B1848023833347N11205579WA0297702977
B1848033833351N11205585WA0297502975
B1848043833355N11205591WA0297302973
B1848053833359N11205597WA0297002970
B1848063833363N11205603WA0296802968
B1848073833367N11205610WA0296502965
B1848083833371N11205616WA0296302963
B1848093833375N11205622WA0296102961
B1848103833378N11205629WA0296102961
B1848113833380N11205635WA0296002960
B1848123833383N11205641WA0295902959
B1848133833386N11205647WA0295702957
B1848143833390N11205653WA0295502955
B1848153833393N11205659WA0295302953
B1848163833396N11205665WA0295202952
B1848173833400N11205670WA0295202952
B1848183833403N11205675WA0295102951
B1848193833407N11205680WA0295102951
B1848203833411N11205685WA0295002950
B1848213833415N11205690WA0294802948
B1848223833418N11205695WA0294702947
B1848233833422N11205701WA0294602946
B1848243833425N11205706WA0294502945
B1848253833430N11205712WA0294502945
B1848263833434N11205717WA0294402944
B1848273833438N11205723WA0294402944
B1848283833441N11205728WA0294302943
B1848293833445N11205734WA0294302943
B1848303833448N11205739WA0294302943
B1848313833452N11205744WA0294402944
B1848323833455N11205750WA0294402944
B1848333833459N11205755WA0294502945
B1848343833463N11205760WA0294602946
B1848353833466N11205766WA0294702947
B1848363833465N11205772WA0294702947
B1848373833465N11205778WA0295202952
B1848383833466N11205783WA0295502955
B1848393833468N11205788WA0295902959
B1848403833470N11205792WA0296002960
B1848413833473N11205797WA0296002960
B1848423833476N11205803WA0296002960
B1848433833480N11205808WA0296002960
B1848443833484N11205811WA0296002960
B1848453833489N11205814WA0296102961
B1848463833493N11205816WA0296202962
B1848473833496N11205818WA0296302963
B1848483833499N11205819WA0296302963
B1848493833502N11205821WA0296402964
B1848503833505N11205823WA0296402964
B1848513833507N11205826WA0296502965
B1848523833510N11205830WA0296502965
B1848533833512N11205836WA0296402964
B1848543833514N11205841WA0296402964
B1848553833516N11205847WA0296402964
B1848563833518N11205852WA0296302963
B1848573833521N11205857WA0296302963
B1848583833524N11205862WA0296302963
B1848593833527N11205866WA0296402964
B1849003833529N11205871WA0296402964
B1849013833530N11205876WA0296402964
B1849023833531N11205881WA0296402964
B1849033833533N11205885WA0296402964
B1849043833535N11205890WA0296202962
B1849053833538N11205894WA0296102961
B1849063833540N11205899WA0296002960
B1849073833543N11205904WA0295802958
B1849083833544N11205910WA0295702957
B1849093833546N11205916WA0295602956
B1849103833547N11205921WA0295602956
B1849113833549N11205927WA0295502955
B1849123833550N11205933WA0295502955
B1849133833552N11205939WA0295402954
B1849143833554N11205946WA0295302953
B1849153833557N11205953WA0295302953
B1849163833558N11205960WA0295302953
B1849173833559N11205966WA0295302953
B1849183833560N11205973WA0295302953
B1849193833560N11205980WA0295402954
B1849203833561N11205986WA0295402954
B1849213833562N11205993WA0295402954
B1849223833563N11205999WA0295402954
B1849233833565N11206005WA0295502955
B1849243833567N11206010WA0295802958
B1849253833570N11206014WA0296002960
B1849263833574N11206017WA0296102961
B1849273833578N11206019WA0296102961
B1849283833582N11206020WA0296102961
B1849293833586N11206021WA0296102961
B1849303833591N11206021WA0296102961
B1849313833596N11206022WA0296002960
B1849323833600N11206024WA0295902959
B1849333833603N11206028WA0295902959
B1849343833606N11206034WA0295902959
B1849353833609N11206040WA0295902959
B1849363833611N11206047WA0296002960
B1849373833614N11206053WA0296202962
B1849383833615N11206059WA0296402964
B1849393833615N11206064WA0296702967
B1849403833616N11206068WA0296902969
B1849413833616N11206071WA0297002970
B1849423833617N11206075WA0296902969
B1849433833618N11206080WA0296802968
B1849443833621N11206085WA0296802968
B1849453833624N11206091WA0296702967
B1849463833628N11206095WA0296702967
B1849473833632N11206100WA0296602966
B1849483833636N11206104WA0296502965
B1849493833639N11206110WA0296402964
B1849503833643N11206115WA0296402964
B1849513833646N11206120WA0296302963
B1849523833650N11206125WA0296202962
B1849533833655N11206130WA0296102961
B1849543833660N11206134WA0296002960
B1849553833664N11206139WA0295802958
B1849563833668N11206145WA0295702957
B1849573833672N11206151WA0295702957
B1849583833676N11206156WA0295502955
B1849593833679N11206162WA0295402954
B1850003833682N11206167WA0295302953
B1850013833685N11206173WA0295202952
B1850023833688N11206178WA0295002950
B1850033833691N11206184WA0294902949
B1850043833695N11206189WA0294802948
B1850053833698N11206194WA0294602946
B1850063833701N11206199WA0294502945
B1850073833704N11206205WA0294302943
B1850083833707N11206210WA0294202942
B1850093833711N11206215WA0294102941
B1850103833714N11206222WA0293902939
B1850113833716N11206228WA0293802938
B1850123833717N11206235WA0293602936
B1850133833719N11206241WA0293602936
B1850143833720N11206247WA0293502935
B1850153833722N11206253WA0293302933
B1850163833724N11206259WA0293202932
B1850173833726N11206265WA0293002930
B1850183833729N11206272WA0292802928
B1850193833731N11206279WA0292602926
B1850203833733N11206285WA0292502925
B1850213833735N11206291WA0292402924
B1850223833737N11206296WA0292302923
B1850233833739N11206302WA0292202922
B1850243833741N11206308WA0292002920
B1850253833743N11206315WA0291802918
B1850263833745N11206322WA0291702917
B1850273833746N11206328WA0291602916
B1850283833747N11206335WA0291502915
B1850293833747N11206341WA0291302913
B1850303833746N11206348WA0291102911
B1850313833745N11206355WA0290802908
B1850323833744N11206363WA0290602906
B1850333833743N11206370WA0290502905
B1850343833744N11206377WA0290402904
B1850353833746N11206383WA0290302903
B1850363833749N11206388WA0290102901
B1850373833752N11206393WA0289902899
B1850383833757N11206398WA0289702897
B1850393833762N11206402WA0289502895
B1850403833766N11206406WA0289302893
B1850413833771N11206411WA0289102891
B1850423833775N11206416WA0288902889
B1850433833779N11206420WA0288802888
B1850443833784N11206425WA0288602886
B1850453833789N11206429WA0288402884
B1850463833793N11206433WA0288202882
B1850473833797N11206438WA0288002880
B1850483833801N11206443WA0287902879
B1850493833805N11206449WA0287702877
B1850503833809N11206455WA0287502875
B1850513833812N11206461WA0287302873
B1850523833816N11206467WA0287102871
B1850533833820N11206473WA0286902869
B1850543833823N11206479WA0286802868
B1850553833827N11206484WA0286602866
B1850563833830N11206491WA0286502865
B1850573833833N11206497WA0286302863
B1850583833836N11206503WA0286102861
B1850593833838N11206510WA0286002860
B1851003833840N11206517WA0285802858
B1851013833842N11206524WA0285702857
B1851023833844N11206531WA0285502855
B1851033833846N11206538WA0285302853
B1851043833848N11206545WA0285202852
B1851053833850N11206553WA0285002850
B1851063833851N11206560WA0284802848
B1851073833852N11206568WA0284602846
B1851083833853N11206575WA0284402844
B1851093833853N11206583WA0284202842
B1851103833854N11206590WA0284002840
B1851113833854N11206597WA0283802838
B1851123833853N11206604WA0283602836
B1851133833852N11206612WA0283402834
B1851143833851N11206619WA0283202832
B1851153833850N11206627WA0282902829
B1851163833849N11206635WA0282702827
B1851173833849N11206643WA0282502825
B1851183833848N11206650WA0282302823
B1851193833848N11206657WA0282102821
B1851203833848N11206665WA0281902819
B1851213833848N11206672WA0281602816
B1851223833848N11206680WA0281402814
B1851233833849N11206687WA0281102811
B1851243833850N11206695WA0280902809
B1851253833851N11206702WA0280702807
B1851263833853N11206710WA0280502805
B1851273833853N11206717WA0280302803
B1851283833853N11206725WA0280102801
B1851293833853N11206732WA0279902799
B1851303833851N11206740WA0279602796
B1851313833850N11206747WA0279402794
B1851323833849N11206755WA0279202792
B1851333833849N11206762WA0278902789
B1851343833849N11206770WA0278702787
B1851353833847N11206777WA0278402784
B1851363833845N11206785WA0278202782
B1851373833843N11206792WA0277902779
B1851383833840N11206799WA0277602776
B1851393833838N11206806WA0277402774
B1851403833835N11206813WA0277202772
B1851413833833N11206819WA0277002770
B1851423833832N11206825WA0276802768
B1851433833832N11206832WA0276502765
B1851443833833N11206839WA0276202762
B1851453833834N11206845WA0275902759
B1851463833836N11206851WA0275602756
B1851473833840N11206857WA0275402754
B1851483833843N11206862WA0275202752
B1851493833847N11206866WA0275002750
B1851503833850N11206871WA0274802748
B1851513833854N11206875WA0274502745
B1851523833858N11206880WA0274202742
B1851533833862N11206885WA0274002740
B1851543833866N11206892WA0273702737
B1851553833870N11206898WA0273402734
B1851563833873N11206904WA0273202732
B1851573833876N11206909WA0273002730
B1851583833879N11206915WA0272802728
B1851593833883N11206921WA0272502725
B1852003833887N11206928WA0272202722
B1852013833891N11206934WA0271902719
B1852023833895N11206940WA0271802718
B1852033833899N11206946WA0271602716
B1852043833903N11206953WA0271502715
B1852053833906N11206959WA0271402714
B1852063833909N11206966WA0271202712
B1852073833913N11206973WA0271002710
B1852083833916N11206980WA0270802708
B1852093833919N11206988WA0270702707
B1852103833922N11206995WA0270502705
B1852113833924N11207003WA0270402704
B1852123833926N11207010WA0270202702
B1852133833929N11207018WA0270002700
B1852143833931N11207026WA0269802698
B1852153833934N11207034WA0269602696
B1852163833936N11207041WA0269502695
B1852173833939N11207048WA0269402694
B1852183833942N11207054WA0269502695
B1852193833946N11207060WA0269502695
B1852203833950N11207066WA0269402694
B1852213833954N11207073WA0269202692
B1852223833957N11207079WA0269102691
B1852233833961N11207084WA0269202692
B1852243833964N11207088WA0269202692
B1852253833968N11207091WA0269102691
B1852263833973N11207094WA0269002690
B1852273833978N11207097WA0268702687
B1852283833984N11207099WA0268402684
B1852293833991N11207102WA0268202682
B1852303833997N11207105WA0267902679
B1852313834003N11207108WA0267802678
B1852323834010N11207110WA0267602676
B1852333834015N11207112WA0267502675
B1852343834021N11207114WA0267302673
B1852353834027N11207116WA0267202672
B1852363834033N11207117WA0266902669
B1852373834039N11207117WA0266702667
B1852383834045N11207117WA0266402664
B1852393834052N11207116WA0266202662
B1852403834057N11207116WA0266002660
B1852413834063N11207116WA0265802658
B1852423834069N11207115WA0265402654
B1852433834076N11207114WA0265102651
B1852443834082N11207114WA0264802648
B1852453834088N11207113WA0264502645
B1852463834093N11207113WA0264302643
B1852473834098N11207113WA0264002640
B1852483834105N11207114WA0263802638
B1852493834111N11207114WA0263502635
B1852503834118N11207115WA0263302633
B1852513834125N11207116WA0263102631
B1852523834132N11207117WA0262902629
B1852533834138N11207119WA0262702627
B1852543834146N11207121WA0262502625
B1852553834152N11207122WA0262302623
B1852563834159N11207123WA0262102621
B1852573834166N11207124WA0261902619
B1852583834173N11207127WA0261602616
B1852593834180N11207130WA0261402614
B1853003834186N11207135WA0261202612
B1853013834192N11207140WA0261002610
B1853023834198N11207144WA0260802608
B1853033834205N11207148WA0260702607
B1853043834211N11207151WA0260502605
B1853053834217N11207154WA0260402604
B1853063834223N11207156WA0260302603
B1853073834229N11207157WA0260302603
B1853083834235N11207157WA0260302603
B1853093834241N11207157WA0260202602
B1853103834248N11207157WA0260002600
B1853113834254N11207158WA0259802598
B1853123834261N11207158WA0259702597
B1853133834268N11207159WA0259602596
B1853143834275N11207160WA0259502595
B1853153834282N11207161WA0259402594
B1853163834288N11207162WA0259402594
B1853173834295N11207163WA0259302593
B1853183834301N11207165WA0259102591
B1853193834308N11207167WA0259002590
B1853203834315N11207168WA0258902589
B1853213834321N11207168WA0258902589
B1853223834328N11207166WA0258702587
B1853233834334N11207164WA0258602586
B1853243834340N11207162WA0258502585
B1853253834346N11207159WA0258402584
B1853263834352N11207156WA0258302583
B1853273834359N11207154WA0258202582
B1853283834366N11207154WA0258202582
B1853293834372N11207156WA0258202582
B1853303834378N11207157WA0258202582
B1853313834383N11207159WA0258202582
B1853323834388N11207159WA0258202582
B1853333834393N11207158WA0258202582
B1853343834399N11207159WA0258002580
B1853353834404N11207160WA0257902579
B1853363834410N11207161WA0257802578
B1853373834416N11207162WA0257802578
B1853383834421N11207163WA0257702577
B1853393834426N11207164WA0257702577
B1853403834431N11207164WA0257602576
B1853413834437N11207166WA0257302573
B1853423834443N11207168WA0257002570
B1853433834450N11207171WA0256802568
B1853443834456N11207173WA0256602566
B1853453834463N11207175WA0256502565
B1853463834470N11207176WA0256402564
B1853473834476N11207177WA0256302563
B1853483834481N11207177WA0256202562
B1853493834488N11207177WA0256002560
B1853503834494N11207175WA0255802558
B1853513834501N11207174WA0255602556
B1853523834508N11207173WA0255402554
B1853533834515N11207172WA0255302553
B1853543834522N11207172WA0255202552
B1853553834528N11207171WA0255202552
B1853563834534N11207170WA0255202552
B1853573834539N11207169WA0255102551
B1853583834545N11207167WA0255002550
B1853593834551N11207166WA0254702547
B1854003834558N11207165WA0254402544
B1854013834565N11207165WA0254202542
B1854023834571N11207165WA0254102541
B1854033834578N11207165WA0254002540
B1854043834584N11207165WA0253802538
B1854053834590N11207165WA0253602536
B1854063834596N11207166WA0253402534
B1854073834603N11207166WA0253202532
B1854083834609N11207167WA0253002530
B1854093834615N11207168WA0252902529
B1854103834622N11207169WA0252702527
B1854113834628N11207170WA0252502525
B1854123834634N11207171WA0252302523
B1854133834641N11207173WA0252202522
B1854143834647N11207176WA0251902519
B1854153834654N11207179WA0251802518
B1854163834660N11207181WA0251702517
B1854173834666N11207182WA0251602516
B1854183834672N11207182WA0251402514
B1854193834678N11207181WA0251202512
B1854203834685N11207180WA0251002510
B1854213834692N11207180WA0250802508
B1854223834699N11207181WA0250602506
B1854233834706N11207182WA0250602506
B1854243834712N11207183WA0250702507
B1854253834718N11207183WA0250702507
B1854263834724N11207183WA0250702507
B1854273834730N11207183WA0250502505
B1854283834736N11207182WA0250302503
B1854293834743N11207182WA0250102501
B1854303834750N11207183WA0249902499
B1854313834757N11207183WA0249702497
B1854323834764N11207184WA0249602496
B1854333834771N11207185WA0249402494
B1854343834777N11207186WA0249302493
B1854353834784N11207188WA0249102491
B1854363834791N11207189WA0249002490
B1854373834797N11207191WA0248902489
B1854383834804N11207192WA0248802488
B1854393834810N11207193WA0248702487
B1854403834816N11207194WA0248602486
B1854413834822N11207195WA0248402484
B1854423834829N11207195WA0248302483
B1854433834835N11207196WA0248102481
B1854443834841N11207196WA0247902479
B1854453834847N11207198WA0247802478
B1854463834854N11207199WA0247602476
B1854473834860N11207201WA0247502475
B1854483834866N11207202WA0247402474
B1854493834872N11207203WA0247302473
B1854503834878N11207203WA0247102471
B1854513834885N11207204WA0246902469
B1854523834893N11207205WA0246702467
B1854533834900N11207206WA0246502465
B1854543834907N11207206WA0246402464
B1854553834913N11207207WA0246402464
B1854563834920N11207207WA0246202462
B1854573834926N11207208WA0246002460
B1854583834933N11207209WA0245802458
B1854593834941N11207210WA0245602456
B1855003834948N11207211WA0245302453
B1855013834955N11207211WA0245202452
B1855023834961N11207212WA0245102451
B1855033834968N11207211WA0245002450
B1855043834974N11207210WA0244902449
B1855053834979N11207207WA0244702447
B1855063834985N11207203WA0244502445
B1855073834992N11207200WA0244202442
B1855083834999N11207199WA0243902439
B1855093835007N11207200WA0243702437
B1855103835014N11207201WA0243602436
B1855113835020N11207203WA0243602436
B1855123835027N11207204WA0243502435
B1855133835033N11207205WA0243302433
B1855143835040N11207207WA0243102431
B1855153835046N11207210WA0242902429
B1855163835053N11207214WA0242602426
B1855173835060N11207218WA0242402424
B1855183835066N11207222WA0242202422
B1855193835072N11207226WA0242002420
B1855203835078N11207231WA0241902419
B1855213835084N11207236WA0241602416
B1855223835090N11207242WA0241402414
B1855233835096N11207247WA0241202412
B1855243835102N11207252WA0241102411
B1855253835109N11207255WA0241002410
B1855263835115N11207256WA0240902409
B1855273835122N11207257WA0240702407
B1855283835128N11207257WA0240602406
B1855293835135N11207257WA0240402404
B1855303835141N11207258WA0240202402
B1855313835148N11207259WA0240102401
B1855323835155N11207260WA0239802398
B1855333835162N11207262WA0239702397
B1855343835169N11207263WA0239602396
B1855353835175N11207265WA0239502395
B1855363835182N11207266WA0239402394
B1855373835189N11207268WA0239202392
B1855383835196N11207269WA0239002390
B1855393835204N11207271WA0238902389
B1855403835211N11207272WA0238702387
B1855413835217N11207274WA0238702387
B1855423835224N11207275WA0238602386
B1855433835230N11207276WA0238402384
B1855443835237N11207276WA0238302383
B1855453835244N11207276WA0238102381
B1855463835251N11207276WA0237902379
B1855473835258N11207277WA0237702377
B1855483835265N11207278WA0237502375
B1855493835272N11207279WA0237402374
B1855503835278N11207280WA0237302373
B1855513835285N11207281WA0237102371
B1855523835291N11207282WA0236902369
B1855533835298N11207283WA0236702367
B1855543835305N11207285WA0236502365
B1855553835312N11207286WA0236302363
B1855563835319N11207287WA0236102361
B1855573835326N11207288WA0236002360
B1855583835332N11207289WA0235802358
B1855593835339N11207289WA0235602356
B1856003835345N11207289WA0235502355
B1856013835352N11207289WA0235302353
B1856023835358N11207289WA0235102351
B1856033835365N11207289WA0234902349
B1856043835372N11207289WA0234602346
B1856053835379N11207289WA0234402344
B1856063835385N11207289WA0234302343
B1856073835392N11207290WA0234102341
B1856083835398N11207290WA0233902339
B1856093835404N11207291WA0233702337
B1856103835411N11207291WA0233502335
B1856113835417N11207291WA0233302333
B1856123835424N11207292WA0233102331
B1856133835430N11207292WA0232902329
B1856143835437N11207293WA0232702327
B1856153835443N11207294WA0232502325
B1856163835449N11207294WA0232302323
B1856173835455N11207295WA0232102321
B1856183835462N11207296WA0231902319
B1856193835468N11207296WA0231702317
B1856203835474N11207296WA0231602316
B1856213835481N11207296WA0231402314
B1856223835487N11207296WA0231202312
B1856233835493N11207296WA0231002310
B1856243835499N11207296WA0230802308
B1856253835506N11207297WA0230702307
B1856263835512N11207297WA0230502305
B1856273835518N11207297WA0230302303
B1856283835525N11207297WA0230202302
B1856293835531N11207297WA0230002300
B1856303835537N11207297WA0229902299
B1856313835543N11207297WA0229702297
B1856323835549N11207296WA0229502295
B1856333835555N11207295WA0229302293
B1856343835561N11207294WA0229102291
B1856353835567N11207293WA0229002290
B1856363835574N11207292WA0228802288
B1856373835580N11207291WA0228602286
B1856383835586N11207291WA0228502285
B1856393835592N11207290WA0228302283
B1856403835598N11207289WA0228202282
B1856413835605N11207288WA0228002280
B1856423835611N11207288WA0227902279
B1856433835617N11207287WA0227802278
B1856443835623N11207286WA0227602276
B1856453835630N11207285WA0227502275
B1856463835636N11207284WA0227302273
B1856473835642N11207282WA0227202272
B1856483835648N11207281WA0227002270
B1856493835654N11207279WA0226802268
B1856503835660N11207277WA0226702267
B1856513835667N11207275WA0226602266
B1856523835673N11207273WA0226502265
B1856533835679N11207271WA0226302263
B1856543835685N11207269WA0226202262
B1856553835691N11207267WA0226102261
B1856563835697N11207265WA0225902259
B1856573835703N11207263WA0225802258
B1856583835709N11207261WA0225702257
B1856593835715N11207260WA0225502255
B1857003835721N11207258WA0225402254
B1857013835727N11207256WA0225202252
B1857023835734N11207254WA0225102251
B1857033835740N11207253WA0224902249
B1857043835746N11207251WA0224702247
B1857053835752N11207250WA0224602246
B1857063835759N11207248WA0224502245
B1857073835765N11207247WA0224302243
B1857083835771N11207246WA0224202242
B1857093835777N11207245WA0224002240
B1857103835783N11207243WA0223902239
B1857113835789N11207241WA0223702237
B1857123835795N11207239WA0223602236
B1857133835801N11207237WA0223402234
B1857143835807N11207236WA0223202232
B1857153835813N11207234WA0223002230
B1857163835820N11207232WA0222902229
B1857173835826N11207230WA0222702227
B1857183835832N11207228WA0222502225
B1857193835838N11207226WA0222302223
B1857203835843N11207223WA0222202222
B1857213835849N11207221WA0222002220
B1857223835855N11207218WA0221902219
B1857233835861N11207216WA0221702217
B1857243835867N11207213WA0221502215
B1857253835872N11207210WA0221302213
B1857263835878N11207206WA0221102211
B1857273835884N11207203WA0220902209
B1857283835890N11207199WA0220702207
B1857293835896N11207197WA0220502205
B1857303835901N11207194WA0220302203
B1857313835907N11207192WA0220202202
B1857323835913N11207189WA0220002200
B1857333835919N11207186WA0219802198
B1857343835925N11207184WA0219602196
B1857353835931N11207181WA0219402194
B1857363835937N11207179WA0219202192
B1857373835943N11207178WA0219102191
B1857383835949N11207176WA0218902189
B1857393835955N11207174WA0218802188
B1857403835961N11207173WA0218602186
B1857413835967N11207171WA0218502185
B1857423835973N11207169WA0218402184
B1857433835979N11207167WA0218202182
B1857443835985N11207166WA0218102181
B1857453835991N11207164WA0218002180
B1857463835997N11207163WA0217802178
B1857473836003N11207162WA0217702177
B1857483836009N11207160WA0217602176
B1857493836015N11207159WA0217602176
B1857503836021N11207158WA0217502175
B1857513836027N11207156WA0217302173
B1857523836033N11207155WA0217202172
B1857533836039N11207153WA0217102171
B1857543836046N11207151WA0216902169
B1857553836052N11207149WA0216702167
B1857563836057N11207147WA0216602166
B1857573836062N11207145WA0216602166
B1857583836066N11207143WA0216502165
B1857593836070N11207142WA0216302163
B1858003836075N11207141WA0216002160
B1858013836080N11207141WA0215802158
B1858023836086N11207140WA0215502155
B1858033836092N11207140WA0215202152
B1858043836098N11207140WA0215002150
B1858053836104N11207140WA0214902149
B1858063836110N11207139WA0214702147
B1858073836115N11207139WA0214502145
B1858083836121N11207139WA0214302143
B1858093836127N11207138WA0214002140
B1858103836133N11207136WA0213802138
B1858113836139N11207134WA0213602136
B1858123836145N11207132WA0213302133
B1858133836150N11207131WA0213202132
B1858143836155N11207128WA0213002130
B1858153836160N11207126WA0212802128
B1858163836165N11207124WA0212602126
B1858173836170N11207122WA0212402124
B1858183836174N11207122WA0212302123
B1858193836179N11207121WA0212302123
B1858203836183N11207120WA0212202122
B1858213836189N11207118WA0212002120
B1858223836194N11207116WA0211802118
B1858233836200N11207114WA0211702117
B1858243836206N11207113WA0211702117
B1858253836211N11207112WA0211502115
B1858263836215N11207110WA0211502115
B1858273836220N11207108WA0211402114
B1858283836224N11207105WA0211102111
B1858293836229N11207103WA0210902109
B1858303836234N11207100WA0210702107
B1858313836240N11207097WA0210502105
B1858323836245N11207094WA0210502105
B1858333836251N11207091WA0210402104
B1858343836256N11207089WA0210302103
B1858353836262N11207087WA0210202102
B1858363836268N11207085WA0210102101
B1858373836273N11207082WA0210102101
B1858383836279N11207079WA0210102101
B1858393836284N11207076WA0210102101
B1858403836290N11207074WA0210202102
B1858413836295N11207071WA0210302103
B1858423836300N11207068WA0210402104
B1858433836305N11207065WA0210302103
B1858443836310N11207063WA0210302103
B1858453836315N11207060WA0210202102
B1858463836320N11207058WA0210102101
B1858473836326N11207055WA0210002100
B1858483836332N11207052WA0209902099
B1858493836337N11207049WA0209702097
B1858503836343N11207046WA0209702097
B1858513836348N11207043WA0209602096
B1858523836353N11207040WA0209602096
B1858533836358N11207038WA0209602096
B1858543836364N11207037WA0209502095
B1858553836369N11207036WA0209302093
B1858563836375N11207034WA0209102091
B1858573836382N11207031WA0208902089
B1858583836389N11207028WA0208702087
B1858593836395N11207026WA0208602086
B1859003836401N11207025WA0208602086
B1859013836407N11207025WA0208602086
B1859023836413N11207024WA0208502085
B1859033836419N11207024WA0208302083
B1859043836425N11207023WA0208202082
B1859053836432N11207023WA0208102081
B1859063836438N11207023WA0208002080
B1859073836444N11207024WA0207902079
B1859083836449N11207025WA0207802078
B1859093836455N11207026WA0207702077
B1859103836461N11207026WA0207502075
B1859113836467N11207026WA0207302073
B1859123836474N11207025WA0207002070
B1859133836481N11207025WA0206802068
B1859143836487N11207024WA0206702067
B1859153836493N11207025WA0206602066
B1859163836499N11207025WA0206502065
B1859173836506N11207025WA0206402064
B1859183836512N11207026WA0206102061
B1859193836519N11207026WA0205902059
B1859203836526N11207026WA0205702057
B1859213836533N11207026WA0205502055
B1859223836540N11207025WA0205402054
B1859233836546N11207023WA0205302053
B1859243836552N11207022WA0205202052
B1859253836558N11207021WA0205102051
B1859263836564N11207019WA0205002050
B1859273836571N11207017WA0204702047
B1859283836577N11207015WA0204502045
B1859293836583N11207012WA0204402044
B1859303836589N11207010WA0204202042
B1859313836595N11207008WA0204002040
B1859323836601N11207006WA0203802038
B1859333836607N11207005WA0203702037
B1859343836614N11207004WA0203402034
B1859353836620N11207003WA0203202032
B1859363836627N11207002WA0203002030
B1859373836633N11207002WA0202802028
B1859383836640N11207002WA0202602026
B1859393836646N11207003WA0202402024
B1859403836652N11207003WA0202202022
B1859413836658N11207003WA0202102021
B1859423836664N11207004WA0202002020
B1859433836670N11207004WA0201802018
B1859443836676N11207005WA0201602016
B1859453836681N11207005WA0201502015
B1859463836687N11207005WA0201402014
B1859473836692N11207005WA0201302013
B1859483836698N11207006WA0201102011
B1859493836703N11207006WA0201002010
B1859503836709N11207007WA0200802008
B1859513836716N11207007WA0200702007
B1859523836722N11207008WA0200502005
B1859533836728N11207009WA0200302003
B1859543836733N11207009WA0200202002
B1859553836739N11207009WA0200002000
B1859563836744N11207009WA0199801998
B1859573836750N11207009WA0199601996
B1859583836756N11207009WA0199501995
B1859593836761N11207010WA0199301993
B1900003836766N11207010WA0199201992
B1900013836771N11207010WA0199101991
B1900023836776N11207011WA0198801988
B1900033836781N11207011WA0198601986
B1900043836787N11207012WA0198301983
B1900053836794N11207014WA0198101981
B1900063836800N11207015WA0197901979
B1900073836806N11207016WA0197801978
B1900083836811N11207017WA0197701977
B1900093836817N11207018WA0197701977
B1900103836822N11207019WA0197601976
B1900113836828N11207020WA0197401974
B1900123836833N11207022WA0197301973
B1900133836839N11207022WA0197101971
B1900143836844N11207023WA0196901969
B1900153836850N11207022WA0196701967
B1900163836856N11207022WA0196501965
B1900173836861N11207021WA0196401964
B1900183836866N11207020WA0196201962
B1900193836871N11207019WA0196101961
B1900203836876N11207017WA0195801958
B1900213836882N11207015WA0195501955
B1900223836888N11207013WA0195201952
B1900233836894N11207011WA0195101951
B1900243836899N11207009WA0195001950
B1900253836904N11207007WA0195001950
B1900263836909N11207005WA0194801948
B1900273836914N11207004WA0194701947
B1900283836920N11207003WA0194501945
B1900293836926N11207002WA0194301943
B1900303836932N11206999WA0194201942
B1900313836938N11206996WA0194201942
B1900323836943N11206993WA0194301943
B1900333836946N11206990WA0194401944
B1900343836950N11206987WA0194501945
B1900353836955N11206986WA0194501945
B1900363836960N11206984WA0194401944
B1900373836967N11206982WA0194301943
B1900383836974N11206979WA0194401944
B1900393836979N11206977WA0194501945
B1900403836984N11206975WA0194701947
B1900413836988N11206973WA0194801948
B1900423836992N11206971WA0195001950
B1900433836996N11206970WA0195001950
B1900443837001N11206968WA0195101951
B1900453837007N11206966WA0195101951
B1900463837013N11206964WA0195201952
B1900473837018N11206962WA0195301953
B1900483837024N11206959WA0195501955
B1900493837029N11206956WA0195701957
B1900503837033N11206954WA0195801958
B1900513837039N11206952WA0195901959
B1900523837044N11206950WA0195901959
B1900533837049N11206948WA0196001960
B1900543837054N11206947WA0196001960
B1900553837059N11206946WA0196101961
B1900563837064N11206944WA0196101961
B1900573837069N11206943WA0196101961
B1900583837074N11206942WA0196201962
B1900593837079N11206940WA0196201962
B1901003837084N11206939WA0196301963
B1901013837090N11206938WA0196301963
B1901023837095N11206937WA0196401964
B1901033837101N11206937WA0196401964
B1901043837106N11206936WA0196401964
B1901053837112N11206936WA0196401964
B1901063837118N11206936WA0196401964
B1901073837125N11206936WA0196301963
B1901083837131N11206936WA0196201962
B1901093837137N11206937WA0196101961
B1901103837142N11206937WA0196101961
B1901113837147N11206937WA0196001960
B1901123837151N11206936WA0195701957
B1901133837156N11206935WA0195501955
B1901143837162N11206934WA0195201952
B1901153837168N11206934WA0195101951
B1901163837174N11206932WA0195001950
B1901173837179N11206931WA0194901949
B1901183837184N11206929WA0194901949
B1901193837189N11206927WA0194701947
B1901203837194N11206924WA0194601946
B1901213837198N11206921WA0194401944
B1901223837203N11206917WA0194201942
B1901233837207N11206913WA0194101941
B1901243837212N11206909WA0193901939
B1901253837216N11206904WA0193701937
B1901263837221N11206900WA0193501935
B1901273837225N11206896WA0193201932
B1901283837230N11206892WA0193001930
B1901293837235N11206889WA0192701927
B1901303837239N11206885WA0192501925
B1901313837244N11206882WA0192301923
B1901323837248N11206878WA0192001920
B1901333837251N11206874WA0191801918
B1901343837254N11206870WA0191401914
B1901353837258N11206866WA0191201912
B1901363837262N11206863WA0191001910
B1901373837268N11206862WA0190801908
B1901383837274N11206862WA0190501905
B1901393837279N11206865WA0190401904
B1901403837283N11206871WA0190201902
B1901413837286N11206878WA0190001900
B1901423837286N11206885WA0189801898
B1901433837286N11206892WA0189701897
B1901443837285N11206899WA0189501895
B1901453837285N11206906WA0189301893
B1901463837286N11206912WA0189101891
B1901473837288N11206919WA0188901889
B1901483837291N11206925WA0188601886
B1901493837294N11206931WA0188501885
B1901503837297N11206938WA0188301883
B1901513837301N11206944WA0188101881
B1901523837304N11206950WA0187901879
B1901533837306N11206957WA0187701877
B1901543837308N11206964WA0187601876
B1901553837309N11206972WA0187401874
B1901563837309N11206978WA0187201872
B1901573837306N11206984WA0187001870
B1901583837302N11206989WA0186901869
B1901593837297N11206991WA0186701867
B1902003837291N11206990WA0186501865
B1902013837286N11206987WA0186301863
B1902023837282N11206983WA0186201862
B1902033837279N11206977WA0185901859
B1902043837277N11206971WA0185601856
B1902053837275N11206964WA0185401854
B1902063837274N11206958WA0185101851
B1902073837272N11206951WA0184901849
B1902083837270N11206944WA0184701847
B1902093837269N11206937WA0184401844
B1902103837267N11206932WA0184201842
B1902113837265N11206926WA0184001840
B1902123837263N11206921WA0183801838
B1902133837261N11206914WA0183501835
B1902143837259N11206908WA0183301833
B1902153837257N11206901WA0183101831
B1902163837255N11206895WA0182901829
B1902173837253N11206889WA0182701827
B1902183837251N11206884WA0182501825
B1902193837249N11206879WA0182301823
B1902203837245N11206873WA0182101821
B1902213837241N11206867WA0181901819
B1902223837237N11206862WA0181601816
B1902233837233N11206857WA0181401814
B1902243837229N11206853WA0181101811
B1902253837225N11206849WA0180901809
B1902263837220N11206844WA0180401804
B1902273837216N11206840WA0179801798
B1902283837212N11206835WA0179501795
B1902293837207N11206831WA0179101791
B1902303837203N11206828WA0178901789
B1902313837198N11206825WA0178601786
B1902323837194N11206823WA0178401784
B1902333837189N11206821WA0178101781
B1902343837183N11206820WA0178101781
B1902353837178N11206819WA0177901779
B1902363837172N11206818WA0177701777
B1902373837167N11206817WA0177501775
B1902383837162N11206816WA0177301773
B1902393837157N11206815WA0177101771
B1902403837151N11206815WA0176901769
B1902413837145N11206815WA0176801768
B1902423837140N11206815WA0176601766
B1902433837134N11206815WA0176301763
B1902443837129N11206816WA0175901759
B1902453837123N11206817WA0175601756
B1902463837118N11206819WA0175201752
B1902473837113N11206821WA0174801748
B1902483837107N11206824WA0174501745
B1902493837102N11206828WA0174201742
B1902503837097N11206833WA0173901739
B1902513837093N11206838WA0173501735
B1902523837088N11206844WA0173201732
B1902533837084N11206849WA0172801728
B1902543837080N11206855WA0172601726
B1902553837077N11206862WA0172201722
B1902563837075N11206869WA0171801718
B1902573837072N11206877WA0171601716
B1902583837070N11206883WA0171401714
B1902593837068N11206890WA0171101711
B1903003837066N11206897WA0170701707
B1903013837063N11206903WA0170401704
B1903023837061N11206909WA0170201702
B1903033837059N11206916WA0169801698
B1903043837058N11206922WA0169401694
B1903053837057N11206928WA0169101691
B1903063837056N11206934WA0168701687
B1903073837054N11206941WA0168401684
B1903083837053N11206948WA0168201682
B1903093837052N11206955WA0168001680
B1903103837053N11206962WA0167701677
B1903113837054N11206969WA0167601676
B1903123837057N11206975WA0167501675
B1903133837063N11206979WA0167301673
B1903143837067N11206979WA0167401674
B1903153837071N11206974WA0167401674
B1903163837073N11206969WA0167401674
B1903173837074N11206961WA0167301673
B1903183837075N11206955WA0167301673
B1903193837076N11206950WA0167101671
B1903203837077N11206945WA0166901669
B1903213837078N11206939WA0166801668
B1903223837080N11206934WA0166701667
B1903233837082N11206930WA0166601666
B1903243837084N11206927WA0166501665
B1903253837088N11206926WA0166301663
B1903263837092N11206927WA0166201662
B1903273837097N11206931WA0166301663
B1903283837099N11206938WA0166101661
B1903293837100N11206946WA0166001660
B1903303837101N11206952WA0165601656
B1903313837103N11206957WA0165501655
B1903323837106N11206960WA0165401654
B1903333837111N11206959WA0165501655
B1903343837115N11206957WA0165501655
B1903353837119N11206952WA0165501655
B1903363837121N11206946WA0165401654
B1903373837123N11206940WA0165401654
B1903383837125N11206935WA0165401654
B1903393837128N11206931WA0165401654
B1903403837133N11206931WA0165401654
B1903413837137N11206933WA0165401654
B1903423837140N11206936WA0165301653
B1903433837142N11206941WA0165501655
B1903443837145N11206945WA0165601656
B1903453837148N11206948WA0165601656
B1903463837153N11206948WA0165401654
B1903473837157N11206946WA0165401654
B1903483837161N11206945WA0165401654
B1903493837165N11206943WA0165401654
B1903503837168N11206942WA0165401654
B1903513837171N11206941WA0165301653
B1903523837172N11206941WA0165301653
B1903533837172N11206941WA0165201652
B1903543837172N11206941WA0165301653
B1903553837172N11206942WA0165301653
B1903563837172N11206942WA0165401654
B1903573837173N11206942WA0165401654
B1903583837173N11206942WA0165501655
B1903593837173N11206942WA0165501655
B1904003837173N11206942WA0165501655
B1904013837173N11206942WA0165501655
B1904023837173N11206943WA0165601656
B1904033837173N11206943WA0165601656
B1904043837173N11206943WA0165701657
B1904053837173N11206943WA0165701657
B1904063837173N11206943WA0165701657
B1904073837173N11206943WA0165701657
B1904083837173N11206943WA0165801658
B1904093837173N11206943WA0165801658
B1904103837173N11206943WA0165801658
B1904113837173N11206943WA0165901659
B1904123837173N11206943WA0165901659
B1904133837173N11206943WA0165901659
B1904143837173N11206943WA0165901659
B1904153837174N11206943WA0165901659
B1904163837174N11206943WA0166001660
B1904173837174N11206943WA0166001660
B1904183837174N11206943WA0166001660
B1904193837174N11206943WA0166001660
B1904203837174N11206944WA0166001660
