AXFMFLYMASTER LIVETRACK
HFDTE210926
HFFXA010
HFPLTPILOT:Annemiek Van Bemmel
HFGTYGLIDERTYPE:Ozone Swift 6 / Woody Valley GTO-LIGHT
HFCIDCOMPETITIONID:82
HFDTM100GPSDATUM:WGS-1984
HFRFWFIRMWAREVERSION:lt.flymaster.net bsGetPilotTrack
B1957593837922N11203644WA0267802678
B1958003837921N11203645WA0267802678
B1958013837919N11203646WA0267702677
B1958023837916N11203647WA0267602676
B1958033837913N11203648WA0267402674
B1958043837909N11203649WA0267302673
B1958053837905N11203651WA0267302673
B1958063837902N11203652WA0267502675
B1958073837898N11203652WA0267602676
B1958083837894N11203652WA0267702677
B1958093837890N11203650WA0267702677
B1958103837885N11203647WA0267702677
B1958113837881N11203645WA0267702677
B1958123837876N11203643WA0267602676
B1958133837872N11203641WA0267702677
B1958143837868N11203639WA0267702677
B1958153837864N11203637WA0267802678
B1958163837860N11203634WA0267802678
B1958173837855N11203630WA0267902679
B1958183837851N11203628WA0268002680
B1958193837846N11203627WA0268202682
B1958203837842N11203626WA0268402684
B1958213837838N11203624WA0268602686
B1958223837834N11203622WA0268702687
B1958233837829N11203619WA0268802688
B1958243837826N11203616WA0269002690
B1958253837823N11203614WA0269202692
B1958263837820N11203612WA0269402694
B1958273837817N11203611WA0269502695
B1958283837813N11203612WA0269502695
B1958293837808N11203615WA0269502695
B1958303837805N11203619WA0269502695
B1958313837802N11203625WA0269602696
B1958323837800N11203630WA0269602696
B1958333837798N11203636WA0269802698
B1958343837797N11203642WA0270002700
B1958353837797N11203648WA0270302703
B1958363837798N11203654WA0270602706
B1958373837798N11203659WA0270902709
B1958383837797N11203663WA0271102711
B1958393837795N11203667WA0271302713
B1958403837791N11203670WA0271302713
B1958413837786N11203670WA0271302713
B1958423837781N11203667WA0271402714
B1958433837777N11203663WA0271402714
B1958443837775N11203656WA0271502715
B1958453837774N11203649WA0271602716
B1958463837774N11203641WA0271602716
B1958473837776N11203633WA0271802718
B1958483837779N11203625WA0272102721
B1958493837782N11203619WA0272302723
B1958503837787N11203615WA0272602726
B1958513837792N11203611WA0272802728
B1958523837798N11203608WA0273002730
B1958533837804N11203608WA0273202732
B1958543837810N11203609WA0273302733
B1958553837816N11203612WA0273502735
B1958563837822N11203613WA0273702737
B1958573837828N11203614WA0274002740
B1958583837834N11203614WA0274302743
B1958593837840N11203617WA0274502745
B1959003837846N11203621WA0274602746
B1959013837851N11203625WA0274802748
B1959023837856N11203630WA0275102751
B1959033837860N11203635WA0275402754
B1959043837862N11203639WA0275602756
B1959053837864N11203645WA0275602756
B1959063837864N11203651WA0275602756
B1959073837864N11203657WA0275502755
B1959083837862N11203662WA0275502755
B1959093837859N11203665WA0275402754
B1959103837856N11203668WA0275302753
B1959113837852N11203670WA0275102751
B1959123837847N11203670WA0275002750
B1959133837843N11203670WA0274902749
B1959143837838N11203668WA0274802748
B1959153837833N11203666WA0274702747
B1959163837829N11203663WA0274602746
B1959173837825N11203661WA0274502745
B1959183837820N11203658WA0274502745
B1959193837816N11203655WA0274402744
B1959203837813N11203651WA0274302743
B1959213837809N11203647WA0274302743
B1959223837806N11203642WA0274102741
B1959233837803N11203636WA0274002740
B1959243837800N11203630WA0274002740
B1959253837798N11203624WA0274102741
B1959263837798N11203618WA0274102741
B1959273837798N11203612WA0274102741
B1959283837798N11203604WA0274002740
B1959293837796N11203596WA0274002740
B1959303837796N11203587WA0274102741
B1959313837798N11203579WA0274402744
B1959323837803N11203573WA0274702747
B1959333837808N11203568WA0274902749
B1959343837813N11203564WA0275102751
B1959353837818N11203560WA0275302753
B1959363837823N11203555WA0275502755
B1959373837829N11203552WA0275702757
B1959383837835N11203550WA0275702757
B1959393837843N11203550WA0275702757
B1959403837850N11203552WA0275602756
B1959413837856N11203555WA0275702757
B1959423837862N11203559WA0275802758
B1959433837866N11203564WA0276002760
B1959443837870N11203569WA0276302763
B1959453837873N11203575WA0276502765
B1959463837876N11203580WA0276602766
B1959473837879N11203585WA0276702767
B1959483837881N11203591WA0276802768
B1959493837882N11203597WA0276802768
B1959503837883N11203602WA0276802768
B1959513837884N11203607WA0276802768
B1959523837885N11203612WA0276802768
B1959533837885N11203617WA0276702767
B1959543837886N11203623WA0276502765
B1959553837886N11203629WA0276402764
B1959563837887N11203635WA0276202762
B1959573837887N11203641WA0276102761
B1959583837887N11203646WA0276102761
B1959593837886N11203652WA0276002760
B2000003837886N11203657WA0276002760
B2000013837886N11203663WA0275902759
B2000023837886N11203669WA0275902759
B2000033837885N11203675WA0275802758
B2000043837884N11203681WA0275702757
B2000053837884N11203687WA0275702757
B2000063837883N11203693WA0275602756
B2000073837882N11203699WA0275502755
B2000083837881N11203705WA0275402754
B2000093837880N11203711WA0275302753
B2000103837879N11203716WA0275302753
B2000113837878N11203721WA0275302753
B2000123837877N11203727WA0275202752
B2000133837876N11203734WA0275002750
B2000143837875N11203741WA0274802748
B2000153837873N11203747WA0274802748
B2000163837871N11203752WA0274902749
B2000173837869N11203756WA0275002750
B2000183837866N11203759WA0275102751
B2000193837863N11203760WA0275102751
B2000203837860N11203761WA0275202752
B2000213837857N11203759WA0275102751
B2000223837853N11203756WA0275102751
B2000233837851N11203751WA0275002750
B2000243837849N11203745WA0275002750
B2000253837848N11203738WA0275002750
B2000263837850N11203729WA0274902749
B2000273837853N11203721WA0274702747
B2000283837859N11203714WA0274502745
B2000293837866N11203708WA0274402744
B2000303837873N11203704WA0274402744
B2000313837880N11203702WA0274502745
B2000323837887N11203702WA0274502745
B2000333837893N11203703WA0274502745
B2000343837899N11203705WA0274502745
B2000353837904N11203709WA0274502745
B2000363837909N11203715WA0274402744
B2000373837912N11203721WA0274402744
B2000383837914N11203727WA0274402744
B2000393837915N11203732WA0274402744
B2000403837914N11203737WA0274302743
B2000413837912N11203742WA0274102741
B2000423837908N11203746WA0273902739
B2000433837904N11203748WA0273902739
B2000443837900N11203749WA0273902739
B2000453837896N11203749WA0274002740
B2000463837893N11203748WA0274002740
B2000473837889N11203746WA0274002740
B2000483837886N11203743WA0273902739
B2000493837882N11203740WA0273802738
B2000503837879N11203735WA0273702737
B2000513837877N11203730WA0273702737
B2000523837875N11203725WA0273702737
B2000533837872N11203720WA0273602736
B2000543837869N11203714WA0273402734
B2000553837866N11203709WA0273302733
B2000563837863N11203704WA0273102731
B2000573837859N11203699WA0273102731
B2000583837855N11203694WA0273102731
B2000593837852N11203689WA0273102731
B2001003837849N11203684WA0273202732
B2001013837846N11203679WA0273102731
B2001023837842N11203673WA0273102731
B2001033837839N11203668WA0273202732
B2001043837837N11203662WA0273202732
B2001053837835N11203655WA0273202732
B2001063837836N11203647WA0273102731
B2001073837838N11203638WA0273002730
B2001083837841N11203630WA0272902729
B2001093837846N11203623WA0272802728
B2001103837852N11203617WA0272802728
B2001113837859N11203614WA0272802728
B2001123837865N11203615WA0272602726
B2001133837871N11203618WA0272402724
B2001143837876N11203622WA0272402724
B2001153837880N11203627WA0272502725
B2001163837883N11203632WA0272702727
B2001173837884N11203636WA0272902729
B2001183837883N11203640WA0272902729
B2001193837881N11203644WA0273002730
B2001203837877N11203646WA0272902729
B2001213837873N11203645WA0273002730
B2001223837869N11203642WA0273002730
B2001233837865N11203637WA0273002730
B2001243837863N11203632WA0273102731
B2001253837862N11203626WA0273102731
B2001263837860N11203621WA0272902729
B2001273837857N11203616WA0272702727
B2001283837853N11203613WA0272402724
B2001293837848N11203612WA0272102721
B2001303837844N11203614WA0271902719
B2001313837840N11203617WA0271802718
B2001323837837N11203619WA0271802718
B2001333837835N11203622WA0271802718
B2001343837834N11203625WA0271802718
B2001353837833N11203629WA0271602716
B2001363837831N11203634WA0271402714
B2001373837830N11203639WA0271202712
B2001383837830N11203645WA0271202712
B2001393837830N11203650WA0271202712
B2001403837831N11203656WA0271202712
B2001413837831N11203661WA0271102711
B2001423837832N11203667WA0271102711
B2001433837832N11203673WA0270902709
B2001443837832N11203680WA0270702707
B2001453837833N11203687WA0270502705
B2001463837833N11203694WA0270402704
B2001473837833N11203700WA0270402704
B2001483837833N11203706WA0270302703
B2001493837833N11203712WA0270202702
B2001503837832N11203719WA0270102701
B2001513837832N11203725WA0270002700
B2001523837831N11203732WA0270002700
B2001533837831N11203738WA0270002700
B2001543837830N11203744WA0270002700
B2001553837830N11203749WA0270002700
B2001563837829N11203754WA0269802698
B2001573837828N11203760WA0269602696
B2001583837827N11203767WA0269502695
B2001593837827N11203773WA0269502695
B2002003837826N11203779WA0269502695
B2002013837826N11203785WA0269402694
B2002023837826N11203791WA0269202692
B2002033837825N11203798WA0269002690
B2002043837825N11203805WA0268802688
B2002053837825N11203812WA0268702687
B2002063837824N11203818WA0268602686
B2002073837824N11203823WA0268602686
B2002083837823N11203829WA0268502685
B2002093837822N11203835WA0268402684
B2002103837821N11203841WA0268202682
B2002113837819N11203846WA0268002680
B2002123837816N11203851WA0267902679
B2002133837814N11203854WA0267802678
B2002143837812N11203858WA0267702677
B2002153837809N11203861WA0267602676
B2002163837807N11203865WA0267302673
B2002173837804N11203869WA0267002670
B2002183837801N11203874WA0266802668
B2002193837800N11203879WA0266702667
B2002203837799N11203883WA0266602666
B2002213837798N11203888WA0266502665
B2002223837798N11203893WA0266302663
B2002233837798N11203899WA0266002660
B2002243837798N11203905WA0265702657
B2002253837797N11203912WA0265502655
B2002263837798N11203918WA0265302653
B2002273837798N11203924WA0265202652
B2002283837799N11203929WA0265102651
B2002293837800N11203934WA0264902649
B2002303837801N11203940WA0264702647
B2002313837802N11203947WA0264402644
B2002323837803N11203953WA0264102641
B2002333837802N11203960WA0264002640
B2002343837802N11203967WA0263802638
B2002353837802N11203973WA0263702637
B2002363837802N11203980WA0263602636
B2002373837801N11203987WA0263402634
B2002383837800N11203994WA0263302633
B2002393837798N11204001WA0263202632
B2002403837797N11204008WA0263202632
B2002413837797N11204014WA0263202632
B2002423837795N11204020WA0263202632
B2002433837794N11204025WA0263202632
B2002443837792N11204030WA0263102631
B2002453837790N11204035WA0263002630
B2002463837789N11204041WA0262902629
B2002473837787N11204047WA0262902629
B2002483837785N11204052WA0262902629
B2002493837783N11204056WA0262902629
B2002503837781N11204061WA0262902629
B2002513837778N11204065WA0262702627
B2002523837776N11204071WA0262602626
B2002533837773N11204078WA0262402624
B2002543837770N11204085WA0262302623
B2002553837768N11204091WA0262402624
B2002563837766N11204095WA0262602626
B2002573837765N11204099WA0262802628
B2002583837764N11204103WA0262902629
B2002593837763N11204108WA0263002630
B2003003837762N11204113WA0262902629
B2003013837761N11204119WA0262902629
B2003023837760N11204124WA0263002630
B2003033837758N11204129WA0263102631
B2003043837757N11204133WA0263202632
B2003053837755N11204138WA0263302633
B2003063837753N11204143WA0263302633
B2003073837750N11204148WA0263402634
B2003083837747N11204152WA0263502635
B2003093837743N11204156WA0263502635
B2003103837740N11204160WA0263302633
B2003113837737N11204166WA0263202632
B2003123837735N11204172WA0263002630
B2003133837733N11204178WA0263002630
B2003143837731N11204184WA0263102631
B2003153837730N11204189WA0263002630
B2003163837728N11204195WA0262702627
B2003173837726N11204203WA0262402624
B2003183837724N11204211WA0262102621
B2003193837722N11204218WA0261902619
B2003203837721N11204224WA0261902619
B2003213837719N11204229WA0261902619
B2003223837718N11204234WA0261802618
B2003233837717N11204240WA0261502615
B2003243837716N11204247WA0261202612
B2003253837715N11204255WA0260802608
B2003263837714N11204262WA0260602606
B2003273837712N11204270WA0260502605
B2003283837710N11204276WA0260402604
B2003293837709N11204282WA0260202602
B2003303837707N11204289WA0260102601
B2003313837705N11204295WA0259902599
B2003323837704N11204302WA0259602596
B2003333837702N11204309WA0259402594
B2003343837701N11204316WA0259102591
B2003353837699N11204323WA0259002590
B2003363837698N11204330WA0258802588
B2003373837697N11204337WA0258702587
B2003383837696N11204344WA0258502585
B2003393837694N11204352WA0258302583
B2003403837693N11204359WA0258102581
B2003413837691N11204367WA0257902579
B2003423837689N11204375WA0257802578
B2003433837687N11204382WA0257802578
B2003443837686N11204390WA0257802578
B2003453837685N11204397WA0257902579
B2003463837685N11204403WA0258002580
B2003473837684N11204409WA0258002580
B2003483837682N11204416WA0257802578
B2003493837681N11204423WA0257702577
B2003503837679N11204431WA0257402574
B2003513837679N11204438WA0257202572
B2003523837678N11204445WA0257202572
B2003533837678N11204451WA0257102571
B2003543837677N11204457WA0257102571
B2003553837677N11204464WA0256902569
B2003563837676N11204471WA0256802568
B2003573837676N11204479WA0256702567
B2003583837675N11204486WA0256702567
B2003593837674N11204493WA0256802568
B2004003837673N11204499WA0256802568
B2004013837672N11204506WA0256702567
B2004023837671N11204513WA0256702567
B2004033837669N11204521WA0256602566
B2004043837668N11204529WA0256702567
B2004053837667N11204536WA0256902569
B2004063837666N11204543WA0257202572
B2004073837666N11204549WA0257502575
B2004083837665N11204554WA0257802578
B2004093837665N11204558WA0257902579
B2004103837663N11204562WA0258002580
B2004113837660N11204565WA0258002580
B2004123837655N11204566WA0257902579
B2004133837649N11204565WA0257702577
B2004143837644N11204562WA0257802578
B2004153837640N11204557WA0257902579
B2004163837638N11204550WA0257902579
B2004173837637N11204543WA0258002580
B2004183837638N11204535WA0258102581
B2004193837641N11204529WA0258302583
B2004203837645N11204524WA0258402584
B2004213837650N11204520WA0258602586
B2004223837655N11204519WA0258702587
B2004233837661N11204519WA0258802588
B2004243837666N11204521WA0258802588
B2004253837672N11204525WA0258802588
B2004263837677N11204530WA0258902589
B2004273837682N11204535WA0259002590
B2004283837686N11204539WA0259202592
B2004293837690N11204542WA0259302593
B2004303837693N11204546WA0259402594
B2004313837695N11204551WA0259402594
B2004323837696N11204557WA0259202592
B2004333837696N11204564WA0259002590
B2004343837695N11204571WA0258902589
B2004353837694N11204578WA0258902589
B2004363837694N11204584WA0258902589
B2004373837694N11204590WA0258902589
B2004383837693N11204596WA0258902589
B2004393837692N11204602WA0258702587
B2004403837690N11204608WA0258702587
B2004413837688N11204613WA0258702587
B2004423837687N11204619WA0258802588
B2004433837686N11204624WA0258802588
B2004443837685N11204629WA0258802588
B2004453837683N11204635WA0258702587
B2004463837681N11204641WA0258602586
B2004473837679N11204647WA0258602586
B2004483837677N11204653WA0258602586
B2004493837676N11204658WA0258602586
B2004503837675N11204664WA0258602586
B2004513837673N11204669WA0258602586
B2004523837672N11204676WA0258502585
B2004533837670N11204682WA0258402584
B2004543837668N11204689WA0258202582
B2004553837667N11204696WA0258002580
B2004563837665N11204702WA0257902579
B2004573837664N11204708WA0257802578
B2004583837663N11204713WA0257702577
B2004593837661N11204719WA0257502575
B2005003837659N11204725WA0257202572
B2005013837657N11204731WA0257102571
B2005023837655N11204737WA0257002570
B2005033837653N11204743WA0257102571
B2005043837651N11204748WA0257102571
B2005053837649N11204754WA0257102571
B2005063837647N11204759WA0257002570
B2005073837644N11204766WA0256902569
B2005083837641N11204772WA0256902569
B2005093837638N11204779WA0256902569
B2005103837635N11204786WA0256902569
B2005113837632N11204793WA0257002570
B2005123837629N11204799WA0257002570
B2005133837626N11204806WA0257102571
B2005143837623N11204813WA0257102571
B2005153837620N11204820WA0257202572
B2005163837617N11204826WA0257302573
B2005173837614N11204832WA0257502575
B2005183837611N11204837WA0257602576
B2005193837608N11204843WA0257602576
B2005203837605N11204849WA0257602576
B2005213837602N11204855WA0257602576
B2005223837600N11204861WA0257602576
B2005233837598N11204866WA0257702577
B2005243837596N11204871WA0257802578
B2005253837595N11204877WA0257802578
B2005263837593N11204883WA0257802578
B2005273837591N11204889WA0257802578
B2005283837589N11204894WA0257902579
B2005293837587N11204899WA0258102581
B2005303837585N11204903WA0258402584
B2005313837584N11204907WA0258502585
B2005323837583N11204912WA0258602586
B2005333837581N11204917WA0258602586
B2005343837579N11204923WA0258602586
B2005353837578N11204928WA0258802588
B2005363837578N11204932WA0258902589
B2005373837577N11204937WA0259002590
B2005383837576N11204942WA0259002590
B2005393837574N11204946WA0259002590
B2005403837573N11204951WA0259102591
B2005413837572N11204955WA0259302593
B2005423837572N11204958WA0259502595
B2005433837572N11204962WA0259602596
B2005443837573N11204966WA0259702597
B2005453837573N11204971WA0259702597
B2005463837574N11204975WA0259702597
B2005473837574N11204980WA0259702597
B2005483837573N11204985WA0259602596
B2005493837573N11204990WA0259602596
B2005503837574N11204995WA0259602596
B2005513837574N11205000WA0259602596
B2005523837575N11205005WA0259702597
B2005533837576N11205010WA0259702597
B2005543837577N11205014WA0259602596
B2005553837578N11205020WA0259402594
B2005563837579N11205025WA0259302593
B2005573837579N11205031WA0259102591
B2005583837580N11205036WA0259002590
B2005593837580N11205041WA0259002590
B2006003837580N11205046WA0258902589
B2006013837580N11205051WA0258802588
B2006023837581N11205056WA0258702587
B2006033837581N11205062WA0258502585
B2006043837580N11205067WA0258502585
B2006053837580N11205071WA0258602586
B2006063837579N11205074WA0258702587
B2006073837580N11205076WA0258802588
B2006083837580N11205079WA0258902589
B2006093837581N11205083WA0258702587
B2006103837582N11205087WA0258502585
B2006113837582N11205092WA0258202582
B2006123837582N11205097WA0257902579
B2006133837581N11205102WA0257802578
B2006143837579N11205106WA0257702577
B2006153837578N11205110WA0257602576
B2006163837578N11205113WA0257602576
B2006173837578N11205118WA0257502575
B2006183837578N11205122WA0257302573
B2006193837578N11205128WA0257002570
B2006203837577N11205134WA0256802568
B2006213837577N11205139WA0256802568
B2006223837577N11205143WA0256802568
B2006233837577N11205148WA0256702567
B2006243837576N11205152WA0256602566
B2006253837575N11205157WA0256302563
B2006263837574N11205162WA0256102561
B2006273837572N11205168WA0255902559
B2006283837571N11205173WA0255802558
B2006293837570N11205177WA0255802558
B2006303837569N11205182WA0255702557
B2006313837568N11205187WA0255502555
B2006323837567N11205194WA0255302553
B2006333837565N11205200WA0255102551
B2006343837563N11205206WA0255002550
B2006353837560N11205210WA0255102551
B2006363837558N11205213WA0255202552
B2006373837555N11205216WA0255102551
B2006383837552N11205220WA0254902549
B2006393837549N11205225WA0254802548
B2006403837545N11205230WA0254602546
B2006413837542N11205234WA0254602546
B2006423837538N11205238WA0254602546
B2006433837536N11205242WA0254602546
B2006443837535N11205246WA0254602546
B2006453837534N11205250WA0254502545
B2006463837532N11205255WA0254402544
B2006473837531N11205260WA0254202542
B2006483837530N11205265WA0254102541
B2006493837529N11205271WA0254002540
B2006503837529N11205276WA0253902539
B2006513837528N11205282WA0253802538
B2006523837528N11205287WA0253802538
B2006533837527N11205292WA0253702537
B2006543837526N11205297WA0253702537
B2006553837526N11205301WA0253602536
B2006563837526N11205306WA0253502535
B2006573837525N11205311WA0253402534
B2006583837525N11205316WA0253302533
B2006593837525N11205321WA0253102531
B2007003837524N11205326WA0253002530
B2007013837523N11205331WA0252802528
B2007023837523N11205336WA0252702527
B2007033837522N11205340WA0252702527
B2007043837521N11205345WA0252502525
B2007053837521N11205349WA0252402524
B2007063837520N11205354WA0252402524
B2007073837519N11205358WA0252302523
B2007083837519N11205363WA0252202522
B2007093837519N11205367WA0252002520
B2007103837518N11205371WA0251902519
B2007113837517N11205376WA0251702517
B2007123837516N11205380WA0251602516
B2007133837514N11205385WA0251402514
B2007143837514N11205390WA0251302513
B2007153837513N11205395WA0251102511
B2007163837512N11205400WA0251102511
B2007173837511N11205404WA0251102511
B2007183837510N11205409WA0251002510
B2007193837509N11205414WA0250902509
B2007203837508N11205419WA0250902509
B2007213837507N11205425WA0250802508
B2007223837507N11205431WA0250702507
B2007233837508N11205437WA0250702507
B2007243837509N11205441WA0250702507
B2007253837510N11205446WA0250602506
B2007263837510N11205450WA0250502505
B2007273837509N11205455WA0250302503
B2007283837509N11205460WA0250102501
B2007293837508N11205464WA0249902499
B2007303837508N11205468WA0249802498
B2007313837507N11205473WA0249702497
B2007323837507N11205477WA0249602496
B2007333837506N11205481WA0249502495
B2007343837505N11205486WA0249402494
B2007353837505N11205490WA0249302493
B2007363837504N11205494WA0249202492
B2007373837503N11205497WA0249102491
B2007383837502N11205501WA0249002490
B2007393837501N11205505WA0248802488
B2007403837500N11205509WA0248702487
B2007413837500N11205515WA0248502485
B2007423837499N11205520WA0248402484
B2007433837499N11205525WA0248202482
B2007443837498N11205530WA0248102481
B2007453837498N11205535WA0247902479
B2007463837498N11205541WA0247702477
B2007473837498N11205547WA0247502475
B2007483837498N11205553WA0247302473
B2007493837497N11205558WA0247302473
B2007503837496N11205563WA0247202472
B2007513837495N11205567WA0247202472
B2007523837494N11205571WA0247002470
B2007533837493N11205576WA0246702467
B2007543837492N11205582WA0246502465
B2007553837491N11205588WA0246302463
B2007563837490N11205593WA0246302463
B2007573837490N11205597WA0246202462
B2007583837489N11205602WA0246102461
B2007593837488N11205608WA0245902459
B2008003837488N11205614WA0245802458
B2008013837488N11205619WA0245702457
B2008023837488N11205624WA0245702457
B2008033837487N11205628WA0245602456
B2008043837486N11205633WA0245502455
B2008053837485N11205638WA0245302453
B2008063837484N11205643WA0245002450
B2008073837483N11205647WA0244902449
B2008083837481N11205652WA0244802448
B2008093837480N11205657WA0244602446
B2008103837479N11205662WA0244502445
B2008113837478N11205667WA0244202442
B2008123837477N11205672WA0244102441
B2008133837475N11205678WA0243902439
B2008143837474N11205683WA0243802438
B2008153837473N11205688WA0243702437
B2008163837472N11205694WA0243602436
B2008173837471N11205699WA0243502435
B2008183837470N11205704WA0243402434
B2008193837468N11205710WA0243302433
B2008203837467N11205715WA0243202432
B2008213837466N11205720WA0243102431
B2008223837465N11205726WA0243002430
B2008233837463N11205732WA0242902429
B2008243837462N11205737WA0242802428
B2008253837460N11205742WA0242702427
B2008263837459N11205747WA0242702427
B2008273837457N11205751WA0242802428
B2008283837456N11205755WA0242702427
B2008293837454N11205760WA0242602426
B2008303837452N11205764WA0242502425
B2008313837450N11205769WA0242302423
B2008323837449N11205774WA0242202422
B2008333837447N11205778WA0242302423
B2008343837446N11205782WA0242302423
B2008353837445N11205786WA0242302423
B2008363837444N11205790WA0242102421
B2008373837443N11205795WA0241902419
B2008383837441N11205801WA0241802418
B2008393837440N11205806WA0241702417
B2008403837439N11205810WA0241802418
B2008413837437N11205814WA0241802418
B2008423837436N11205818WA0241802418
B2008433837435N11205822WA0241802418
B2008443837433N11205826WA0241702417
B2008453837432N11205831WA0241702417
B2008463837431N11205836WA0241702417
B2008473837430N11205840WA0241602416
B2008483837429N11205845WA0241602416
B2008493837428N11205849WA0241602416
B2008503837427N11205854WA0241502415
B2008513837425N11205858WA0241402414
B2008523837424N11205863WA0241402414
B2008533837423N11205867WA0241402414
B2008543837421N11205871WA0241302413
B2008553837420N11205875WA0241202412
B2008563837418N11205880WA0241002410
B2008573837416N11205884WA0240902409
B2008583837414N11205889WA0240902409
B2008593837412N11205894WA0240802408
B2009003837410N11205898WA0240802408
B2009013837408N11205902WA0240702407
B2009023837406N11205907WA0240602406
B2009033837404N11205911WA0240602406
B2009043837403N11205916WA0240502405
B2009053837401N11205920WA0240502405
B2009063837399N11205924WA0240402404
B2009073837397N11205928WA0240302403
B2009083837394N11205932WA0240302403
B2009093837392N11205936WA0240302403
B2009103837390N11205939WA0240302403
B2009113837387N11205943WA0240302403
B2009123837385N11205947WA0240302403
B2009133837382N11205951WA0240302403
B2009143837380N11205955WA0240302403
B2009153837378N11205959WA0240402404
B2009163837376N11205963WA0240402404
B2009173837373N11205966WA0240402404
B2009183837371N11205971WA0240402404
B2009193837368N11205975WA0240402404
B2009203837366N11205979WA0240402404
B2009213837363N11205984WA0240402404
B2009223837361N11205988WA0240402404
B2009233837358N11205992WA0240402404
B2009243837355N11205996WA0240302403
B2009253837352N11206000WA0240202402
B2009263837349N11206004WA0240202402
B2009273837346N11206008WA0240202402
B2009283837344N11206012WA0240202402
B2009293837342N11206016WA0240202402
B2009303837340N11206020WA0240202402
B2009313837338N11206024WA0240102401
B2009323837335N11206028WA0240002400
B2009333837333N11206033WA0239902399
B2009343837331N11206038WA0239802398
B2009353837329N11206043WA0239702397
B2009363837327N11206048WA0239702397
B2009373837325N11206052WA0239702397
B2009383837323N11206057WA0239702397
B2009393837322N11206062WA0239702397
B2009403837321N11206066WA0239702397
B2009413837320N11206070WA0239702397
B2009423837318N11206075WA0239602396
B2009433837317N11206079WA0239502395
B2009443837316N11206084WA0239302393
B2009453837314N11206090WA0239202392
B2009463837313N11206094WA0239102391
B2009473837311N11206099WA0239002390
B2009483837310N11206104WA0239002390
B2009493837309N11206109WA0238902389
B2009503837307N11206114WA0238802388
B2009513837306N11206119WA0238802388
B2009523837304N11206124WA0238702387
B2009533837302N11206128WA0238602386
B2009543837301N11206133WA0238502385
B2009553837299N11206139WA0238402384
B2009563837298N11206143WA0238302383
B2009573837296N11206148WA0238202382
B2009583837295N11206153WA0238102381
B2009593837293N11206158WA0238002380
B2010003837292N11206163WA0237902379
B2010013837291N11206168WA0237802378
B2010023837290N11206174WA0237702377
B2010033837288N11206179WA0237502375
B2010043837287N11206184WA0237302373
B2010053837286N11206189WA0237202372
B2010063837286N11206195WA0237002370
B2010073837286N11206201WA0236902369
B2010083837286N11206207WA0236702367
B2010093837287N11206213WA0236602366
B2010103837287N11206219WA0236502365
B2010113837287N11206225WA0236402364
B2010123837287N11206231WA0236202362
B2010133837288N11206237WA0236102361
B2010143837288N11206243WA0235902359
B2010153837289N11206249WA0235802358
B2010163837291N11206255WA0235602356
B2010173837292N11206261WA0235402354
B2010183837294N11206268WA0235302353
B2010193837296N11206274WA0235102351
B2010203837298N11206280WA0235002350
B2010213837300N11206286WA0234902349
B2010223837302N11206291WA0234802348
B2010233837305N11206297WA0234702347
B2010243837307N11206303WA0234502345
B2010253837309N11206310WA0234302343
B2010263837311N11206316WA0234202342
B2010273837313N11206322WA0234102341
B2010283837315N11206328WA0234102341
B2010293837317N11206333WA0234002340
B2010303837319N11206339WA0233902339
B2010313837320N11206346WA0233702337
B2010323837322N11206352WA0233502335
B2010333837323N11206359WA0233402334
B2010343837325N11206364WA0233402334
B2010353837327N11206369WA0233402334
B2010363837328N11206375WA0233302333
B2010373837329N11206380WA0233202332
B2010383837330N11206386WA0233002330
B2010393837331N11206392WA0232802328
B2010403837333N11206398WA0232702327
B2010413837334N11206404WA0232602326
B2010423837334N11206410WA0232502325
B2010433837335N11206415WA0232402324
B2010443837335N11206421WA0232202322
B2010453837336N11206427WA0232102321
B2010463837337N11206434WA0231902319
B2010473837337N11206441WA0231802318
B2010483837338N11206447WA0231702317
B2010493837338N11206454WA0231602316
B2010503837338N11206460WA0231502315
B2010513837338N11206466WA0231502315
B2010523837338N11206472WA0231502315
B2010533837337N11206478WA0231402314
B2010543837337N11206484WA0231302313
B2010553837337N11206490WA0231202312
B2010563837337N11206497WA0231102311
B2010573837337N11206503WA0231102311
B2010583837336N11206508WA0231002310
B2010593837335N11206514WA0230902309
B2011003837335N11206520WA0230802308
B2011013837334N11206526WA0230702307
B2011023837333N11206532WA0230602306
B2011033837332N11206537WA0230602306
B2011043837332N11206543WA0230502305
B2011053837332N11206548WA0230502305
B2011063837332N11206554WA0230502305
B2011073837334N11206560WA0230402304
B2011083837336N11206566WA0230202302
B2011093837339N11206572WA0230102301
B2011103837341N11206578WA0230102301
B2011113837342N11206584WA0230102301
B2011123837344N11206590WA0230002300
B2011133837345N11206596WA0229902299
B2011143837346N11206602WA0229802298
B2011153837347N11206608WA0229702297
B2011163837348N11206614WA0229602296
B2011173837349N11206620WA0229602296
B2011183837349N11206626WA0229502295
B2011193837350N11206632WA0229402294
B2011203837350N11206638WA0229302293
B2011213837350N11206644WA0229202292
B2011223837350N11206649WA0229102291
B2011233837350N11206655WA0229002290
B2011243837349N11206661WA0228902289
B2011253837350N11206667WA0228802288
B2011263837350N11206672WA0228802288
B2011273837350N11206678WA0228702287
B2011283837351N11206684WA0228602286
B2011293837351N11206690WA0228502285
B2011303837350N11206696WA0228502285
B2011313837350N11206701WA0228402284
B2011323837350N11206706WA0228402284
B2011333837350N11206712WA0228202282
B2011343837351N11206718WA0228102281
B2011353837351N11206724WA0228002280
B2011363837351N11206729WA0227902279
B2011373837352N11206735WA0227802278
B2011383837353N11206740WA0227702277
B2011393837353N11206746WA0227602276
B2011403837354N11206751WA0227502275
B2011413837355N11206756WA0227302273
B2011423837355N11206761WA0227102271
B2011433837356N11206767WA0226902269
B2011443837357N11206773WA0226702267
B2011453837357N11206779WA0226502265
B2011463837357N11206784WA0226402264
B2011473837358N11206789WA0226302263
B2011483837359N11206795WA0226202262
B2011493837360N11206800WA0226002260
B2011503837361N11206805WA0225802258
B2011513837361N11206811WA0225602256
B2011523837362N11206817WA0225502255
B2011533837362N11206822WA0225302253
B2011543837362N11206828WA0225202252
B2011553837361N11206833WA0225002250
B2011563837360N11206838WA0224902249
B2011573837358N11206844WA0224802248
B2011583837356N11206849WA0224702247
B2011593837355N11206854WA0224702247
B2012003837353N11206858WA0224702247
B2012013837352N11206863WA0224702247
B2012023837350N11206867WA0224602246
B2012033837348N11206872WA0224402244
B2012043837345N11206876WA0224302243
B2012053837342N11206881WA0224102241
B2012063837340N11206886WA0224002240
B2012073837338N11206891WA0224002240
B2012083837337N11206897WA0223902239
B2012093837337N11206902WA0223902239
B2012103837335N11206907WA0223802238
B2012113837334N11206912WA0223702237
B2012123837332N11206917WA0223602236
B2012133837331N11206921WA0223502235
B2012143837329N11206926WA0223502235
B2012153837327N11206931WA0223302233
B2012163837326N11206935WA0223202232
B2012173837324N11206941WA0223102231
B2012183837322N11206946WA0223002230
B2012193837320N11206950WA0222902229
B2012203837318N11206954WA0222902229
B2012213837316N11206958WA0222902229
B2012223837314N11206962WA0222802228
B2012233837312N11206966WA0222602226
B2012243837310N11206971WA0222402224
B2012253837308N11206975WA0222302223
B2012263837306N11206980WA0222202222
B2012273837304N11206985WA0222202222
B2012283837302N11206989WA0222202222
B2012293837300N11206993WA0222102221
B2012303837298N11206998WA0222102221
B2012313837296N11207003WA0222002220
B2012323837294N11207008WA0221902219
B2012333837292N11207012WA0221902219
B2012343837289N11207015WA0221902219
B2012353837287N11207018WA0221902219
B2012363837285N11207022WA0221802218
B2012373837284N11207026WA0221602216
B2012383837282N11207031WA0221402214
B2012393837280N11207035WA0221302213
B2012403837277N11207039WA0221302213
B2012413837274N11207042WA0221202212
B2012423837271N11207046WA0221002210
B2012433837268N11207051WA0220902209
B2012443837265N11207055WA0220802208
B2012453837262N11207058WA0220902209
B2012463837259N11207061WA0220902209
B2012473837256N11207064WA0220902209
B2012483837253N11207067WA0220702207
B2012493837250N11207071WA0220502205
B2012503837247N11207075WA0220302203
B2012513837243N11207079WA0220102201
B2012523837239N11207082WA0220102201
B2012533837236N11207085WA0220102201
B2012543837233N11207088WA0220002200
B2012553837229N11207090WA0219902199
B2012563837225N11207092WA0219802198
B2012573837220N11207094WA0219602196
B2012583837215N11207095WA0219402194
B2012593837210N11207097WA0219402194
B2013003837205N11207098WA0219502195
B2013013837201N11207098WA0219502195
B2013023837196N11207098WA0219302193
B2013033837191N11207099WA0219102191
B2013043837185N11207099WA0218802188
B2013053837179N11207099WA0218702187
B2013063837174N11207100WA0218602186
B2013073837169N11207100WA0218502185
B2013083837164N11207101WA0218502185
B2013093837158N11207102WA0218302183
B2013103837153N11207103WA0218102181
B2013113837147N11207104WA0218002180
B2013123837142N11207105WA0217902179
B2013133837137N11207106WA0217902179
B2013143837133N11207106WA0217902179
B2013153837128N11207107WA0217802178
B2013163837123N11207107WA0217602176
B2013173837118N11207108WA0217502175
B2013183837113N11207109WA0217302173
B2013193837108N11207109WA0217302173
B2013203837103N11207109WA0217202172
B2013213837098N11207109WA0217202172
B2013223837092N11207108WA0217102171
B2013233837087N11207107WA0216902169
B2013243837081N11207106WA0216802168
B2013253837075N11207105WA0216802168
B2013263837070N11207104WA0216802168
B2013273837064N11207103WA0216702167
B2013283837059N11207102WA0216602166
B2013293837053N11207101WA0216502165
B2013303837048N11207100WA0216402164
B2013313837042N11207099WA0216302163
B2013323837037N11207098WA0216202162
B2013333837031N11207098WA0216002160
B2013343837026N11207098WA0215902159
B2013353837020N11207098WA0215702157
B2013363837015N11207097WA0215602156
B2013373837009N11207096WA0215502155
B2013383837003N11207095WA0215302153
B2013393836997N11207094WA0215102151
B2013403836991N11207092WA0214902149
B2013413836986N11207090WA0214802148
B2013423836980N11207089WA0214602146
B2013433836974N11207087WA0214502145
B2013443836969N11207086WA0214402144
B2013453836963N11207086WA0214302143
B2013463836958N11207087WA0214102141
B2013473836953N11207088WA0214002140
B2013483836947N11207089WA0213802138
B2013493836942N11207090WA0213602136
B2013503836936N11207091WA0213402134
B2013513836930N11207092WA0213202132
B2013523836924N11207092WA0213102131
B2013533836918N11207091WA0213002130
B2013543836912N11207088WA0212802128
B2013553836907N11207083WA0212702127
B2013563836902N11207078WA0212602126
B2013573836897N11207072WA0212502125
B2013583836893N11207066WA0212402124
B2013593836889N11207059WA0212302123
B2014003836886N11207051WA0212202122
B2014013836883N11207042WA0212102121
B2014023836881N11207034WA0212002120
B2014033836879N11207025WA0211902119
B2014043836876N11207016WA0211902119
B2014053836875N11207008WA0212002120
B2014063836874N11207001WA0212102121
B2014073836874N11206994WA0212202122
B2014083836873N11206987WA0212202122
B2014093836872N11206980WA0212002120
B2014103836871N11206972WA0211802118
B2014113836869N11206963WA0211602116
B2014123836868N11206955WA0211502115
B2014133836867N11206947WA0211402114
B2014143836867N11206939WA0211402114
B2014153836866N11206931WA0211302113
B2014163836867N11206924WA0211102111
B2014173836867N11206916WA0211002110
B2014183836868N11206908WA0210902109
B2014193836869N11206900WA0210902109
B2014203836870N11206893WA0210802108
B2014213836870N11206885WA0210802108
B2014223836871N11206878WA0210802108
B2014233836872N11206871WA0210702107
B2014243836873N11206864WA0210602106
B2014253836875N11206857WA0210402104
B2014263836877N11206849WA0210202102
B2014273836878N11206842WA0210102101
B2014283836880N11206835WA0210002100
B2014293836882N11206828WA0209902099
B2014303836884N11206822WA0209802098
B2014313836887N11206817WA0209602096
B2014323836890N11206811WA0209402094
B2014333836893N11206805WA0209302093
B2014343836896N11206799WA0209202092
B2014353836898N11206794WA0209102091
B2014363836901N11206788WA0208902089
B2014373836904N11206782WA0208802088
B2014383836907N11206776WA0208702087
B2014393836909N11206770WA0208802088
B2014403836910N11206765WA0208802088
B2014413836912N11206758WA0208702087
B2014423836914N11206752WA0208502085
B2014433836916N11206745WA0208302083
B2014443836919N11206739WA0208202082
B2014453836922N11206734WA0208002080
B2014463836925N11206730WA0207902079
B2014473836929N11206726WA0207802078
B2014483836933N11206722WA0207502075
B2014493836937N11206718WA0207302073
B2014503836941N11206713WA0207202072
B2014513836944N11206709WA0207102071
B2014523836947N11206705WA0207002070
B2014533836951N11206702WA0206802068
B2014543836956N11206699WA0206502065
B2014553836961N11206696WA0206302063
B2014563836965N11206693WA0206202062
B2014573836969N11206691WA0206202062
B2014583836973N11206689WA0206202062
B2014593836977N11206689WA0206102061
B2015003836982N11206689WA0205902059
B2015013836986N11206689WA0205802058
B2015023836991N11206690WA0205602056
B2015033836996N11206691WA0205502055
B2015043837001N11206693WA0205402054
B2015053837006N11206694WA0205202052
B2015063837011N11206697WA0205002050
B2015073837016N11206699WA0204902049
B2015083837022N11206702WA0204802048
B2015093837027N11206704WA0204802048
B2015103837031N11206707WA0204802048
B2015113837036N11206709WA0204802048
B2015123837041N11206711WA0204702047
B2015133837046N11206714WA0204602046
B2015143837051N11206716WA0204602046
B2015153837056N11206718WA0204602046
B2015163837061N11206720WA0204702047
B2015173837065N11206722WA0204802048
B2015183837068N11206723WA0204902049
B2015193837071N11206725WA0204802048
B2015203837075N11206726WA0204702047
B2015213837079N11206728WA0204502045
B2015223837084N11206730WA0204302043
B2015233837089N11206731WA0204102041
B2015243837094N11206733WA0204002040
B2015253837098N11206734WA0203902039
B2015263837103N11206736WA0203802038
B2015273837108N11206738WA0203602036
B2015283837113N11206741WA0203402034
B2015293837117N11206745WA0203202032
B2015303837122N11206747WA0203102031
B2015313837126N11206749WA0203102031
B2015323837130N11206752WA0203002030
B2015333837135N11206754WA0202802028
B2015343837139N11206757WA0202602026
B2015353837144N11206760WA0202402024
B2015363837148N11206761WA0202402024
B2015373837152N11206763WA0202402024
B2015383837155N11206765WA0202302023
B2015393837158N11206768WA0202102021
B2015403837162N11206771WA0201802018
B2015413837166N11206775WA0201602016
B2015423837170N11206779WA0201402014
B2015433837173N11206783WA0201202012
B2015443837176N11206787WA0201102011
B2015453837179N11206791WA0200902009
B2015463837182N11206794WA0200802008
B2015473837185N11206796WA0200602006
B2015483837187N11206800WA0200302003
B2015493837191N11206804WA0200002000
B2015503837194N11206809WA0199701997
B2015513837197N11206813WA0199601996
B2015523837200N11206816WA0199501995
B2015533837202N11206820WA0199301993
B2015543837205N11206825WA0199101991
B2015553837208N11206830WA0198901989
B2015563837211N11206836WA0198701987
B2015573837213N11206842WA0198601986
B2015583837215N11206848WA0198501985
B2015593837216N11206854WA0198501985
B2016003837218N11206860WA0198501985
B2016013837220N11206866WA0198401984
B2016023837221N11206872WA0198301983
B2016033837223N11206878WA0198201982
B2016043837225N11206884WA0198101981
B2016053837227N11206891WA0198101981
B2016063837228N11206897WA0198001980
B2016073837230N11206904WA0198001980
B2016083837231N11206910WA0197901979
B2016093837232N11206917WA0198001980
B2016103837232N11206923WA0198001980
B2016113837232N11206929WA0198001980
B2016123837231N11206935WA0197801978
B2016133837230N11206942WA0197701977
B2016143837230N11206950WA0197501975
B2016153837230N11206957WA0197301973
B2016163837230N11206964WA0197201972
B2016173837230N11206970WA0197201972
B2016183837230N11206977WA0197101971
B2016193837229N11206983WA0197001970
B2016203837229N11206990WA0196901969
B2016213837229N11206997WA0196801968
B2016223837229N11207004WA0196701967
B2016233837229N11207010WA0196701967
B2016243837229N11207016WA0196701967
B2016253837228N11207023WA0196601966
B2016263837228N11207029WA0196501965
B2016273837227N11207036WA0196401964
B2016283837225N11207042WA0196401964
B2016293837223N11207048WA0196301963
B2016303837221N11207054WA0196101961
B2016313837219N11207061WA0195901959
B2016323837216N11207068WA0195701957
B2016333837213N11207075WA0195501955
B2016343837210N11207081WA0195401954
B2016353837207N11207087WA0195401954
B2016363837204N11207093WA0195301953
B2016373837200N11207099WA0195101951
B2016383837197N11207105WA0194901949
B2016393837194N11207112WA0194801948
B2016403837191N11207118WA0194801948
B2016413837188N11207123WA0194801948
B2016423837185N11207129WA0194701947
B2016433837181N11207135WA0194401944
B2016443837178N11207141WA0194201942
B2016453837174N11207147WA0194001940
B2016463837170N11207153WA0193901939
B2016473837166N11207158WA0193901939
B2016483837161N11207163WA0193801938
B2016493837156N11207167WA0193701937
B2016503837151N11207171WA0193601936
B2016513837146N11207175WA0193501935
B2016523837140N11207179WA0193401934
B2016533837135N11207182WA0193401934
B2016543837129N11207185WA0193301933
B2016553837123N11207188WA0193101931
B2016563837116N11207191WA0193001930
B2016573837109N11207192WA0193001930
B2016583837103N11207193WA0192901929
B2016593837096N11207193WA0192901929
B2017003837089N11207192WA0192901929
B2017013837082N11207192WA0192801928
B2017023837075N11207191WA0192801928
B2017033837068N11207191WA0192901929
B2017043837062N11207189WA0192901929
B2017053837055N11207188WA0192801928
B2017063837048N11207185WA0192701927
B2017073837042N11207181WA0192601926
B2017083837035N11207177WA0192601926
B2017093837029N11207174WA0192601926
B2017103837024N11207171WA0192601926
B2017113837018N11207168WA0192401924
B2017123837012N11207164WA0192301923
B2017133837007N11207160WA0192201922
B2017143837002N11207155WA0192001920
B2017153836997N11207150WA0192001920
B2017163836992N11207145WA0191901919
B2017173836987N11207140WA0191801918
B2017183836982N11207135WA0191701917
B2017193836977N11207130WA0191601916
B2017203836973N11207124WA0191501915
B2017213836970N11207119WA0191401914
B2017223836966N11207113WA0191301913
B2017233836964N11207108WA0191101911
B2017243836961N11207102WA0190901909
B2017253836959N11207096WA0190801908
B2017263836958N11207089WA0190601906
B2017273836957N11207083WA0190501905
B2017283836957N11207078WA0190401904
B2017293836956N11207073WA0190401904
B2017303836956N11207067WA0190401904
B2017313836956N11207062WA0190401904
B2017323836958N11207057WA0190301903
B2017333836961N11207052WA0190301903
B2017343836964N11207050WA0190501905
B2017353836967N11207050WA0190701907
B2017363836971N11207051WA0190801908
B2017373836975N11207053WA0190701907
B2017383836980N11207056WA0190601906
B2017393836984N11207059WA0190601906
B2017403836988N11207063WA0190501905
B2017413836990N11207067WA0190401904
B2017423836993N11207071WA0190301903
B2017433836995N11207077WA0190101901
B2017443836998N11207083WA0189701897
B2017453837001N11207089WA0189501895
B2017463837004N11207096WA0189301893
B2017473837006N11207102WA0189201892
B2017483837007N11207109WA0189001890
B2017493837007N11207117WA0188801888
B2017503837007N11207125WA0188701887
B2017513837006N11207134WA0188501885
B2017523837005N11207141WA0188501885
B2017533837002N11207147WA0188501885
B2017543836998N11207153WA0188501885
B2017553836993N11207158WA0188301883
B2017563836986N11207161WA0188101881
B2017573836979N11207162WA0187901879
B2017583836973N11207160WA0187701877
B2017593836967N11207157WA0187501875
B2018003836963N11207151WA0187201872
B2018013836961N11207145WA0186901869
B2018023836959N11207139WA0186601866
B2018033836960N11207134WA0186401864
B2018043836961N11207128WA0186201862
B2018053836963N11207123WA0186001860
B2018063836966N11207118WA0185801858
B2018073836970N11207114WA0185501855
B2018083836973N11207110WA0185301853
B2018093836977N11207108WA0185201852
B2018103836980N11207106WA0185101851
B2018113836983N11207105WA0184901849
B2018123836987N11207104WA0184601846
B2018133836991N11207103WA0184301843
B2018143836995N11207103WA0184201842
B2018153837000N11207104WA0184101841
B2018163837003N11207105WA0184101841
B2018173837007N11207107WA0183901839
B2018183837011N11207109WA0183601836
B2018193837015N11207112WA0183401834
B2018203837019N11207115WA0183101831
B2018213837023N11207119WA0182901829
B2018223837026N11207124WA0182801828
B2018233837029N11207128WA0182701827
B2018243837032N11207133WA0182501825
B2018253837036N11207138WA0182301823
B2018263837040N11207144WA0182101821
B2018273837044N11207149WA0181901819
B2018283837048N11207155WA0181801818
B2018293837051N11207159WA0181801818
B2018303837054N11207162WA0181901819
B2018313837057N11207164WA0181801818
B2018323837060N11207166WA0181601816
B2018333837064N11207168WA0181401814
B2018343837067N11207170WA0181301813
B2018353837071N11207172WA0181201812
B2018363837075N11207172WA0181001810
B2018373837079N11207172WA0180901809
B2018383837082N11207171WA0180801808
B2018393837086N11207170WA0180701807
B2018403837089N11207170WA0180501805
B2018413837093N11207169WA0180401804
B2018423837096N11207169WA0180201802
B2018433837099N11207172WA0180201802
B2018443837101N11207177WA0179901799
B2018453837101N11207185WA0179601796
B2018463837099N11207194WA0179301793
B2018473837093N11207200WA0179101791
B2018483837086N11207204WA0178901789
B2018493837080N11207204WA0178801788
B2018503837073N11207204WA0178701787
B2018513837068N11207204WA0178601786
B2018523837063N11207202WA0178401784
B2018533837059N11207198WA0178001780
B2018543837055N11207192WA0177601776
B2018553837052N11207185WA0177401774
B2018563837050N11207179WA0177301773
B2018573837049N11207174WA0177401774
B2018583837047N11207170WA0177301773
B2018593837047N11207165WA0177201772
B2019003837046N11207159WA0177001770
B2019013837046N11207153WA0176801768
B2019023837046N11207148WA0176701767
B2019033837045N11207143WA0176701767
B2019043837045N11207139WA0176601766
B2019053837046N11207135WA0176501765
B2019063837047N11207131WA0176301763
B2019073837049N11207126WA0176101761
B2019083837049N11207121WA0175901759
B2019093837049N11207116WA0175801758
B2019103837049N11207110WA0175701757
B2019113837048N11207106WA0175701757
B2019123837049N11207101WA0175601756
B2019133837050N11207098WA0175601756
B2019143837052N11207096WA0175501755
B2019153837056N11207096WA0175401754
B2019163837059N11207099WA0175201752
B2019173837062N11207103WA0175001750
B2019183837064N11207107WA0174901749
B2019193837067N11207111WA0174801748
B2019203837069N11207114WA0174601746
B2019213837072N11207118WA0174301743
B2019223837075N11207121WA0174101741
B2019233837078N11207123WA0173801738
B2019243837081N11207124WA0173601736
B2019253837084N11207124WA0173401734
B2019263837088N11207123WA0173201732
B2019273837092N11207122WA0173101731
B2019283837096N11207120WA0173101731
B2019293837099N11207119WA0173101731
B2019303837102N11207118WA0173201732
B2019313837106N11207118WA0173301733
B2019323837109N11207118WA0173401734
B2019333837111N11207120WA0173601736
B2019343837113N11207123WA0173801738
B2019353837114N11207127WA0173901739
B2019363837113N11207132WA0174001740
B2019373837111N11207139WA0173901739
B2019383837105N11207145WA0173801738
B2019393837097N11207148WA0173701737
B2019403837089N11207147WA0173501735
B2019413837082N11207143WA0173501735
B2019423837077N11207136WA0173601736
B2019433837075N11207131WA0173801738
B2019443837074N11207125WA0174001740
B2019453837073N11207119WA0174101741
B2019463837072N11207113WA0174001740
B2019473837071N11207106WA0174001740
B2019483837070N11207100WA0174101741
B2019493837070N11207095WA0174101741
B2019503837069N11207091WA0174101741
B2019513837069N11207087WA0174001740
B2019523837069N11207081WA0173801738
B2019533837068N11207075WA0173601736
B2019543837068N11207070WA0173401734
B2019553837068N11207065WA0173401734
B2019563837067N11207061WA0173401734
B2019573837066N11207056WA0173301733
B2019583837065N11207050WA0173201732
B2019593837063N11207045WA0173101731
B2020003837062N11207039WA0173101731
B2020013837060N11207035WA0173001730
B2020023837059N11207030WA0172901729
B2020033837058N11207024WA0172701727
B2020043837057N11207018WA0172501725
B2020053837057N11207013WA0172401724
B2020063837057N11207009WA0172201722
B2020073837058N11207005WA0172001720
B2020083837060N11207001WA0171701717
B2020093837062N11206997WA0171401714
B2020103837065N11206994WA0171201712
B2020113837068N11206990WA0170901709
B2020123837070N11206987WA0170901709
B2020133837071N11206983WA0170801708
B2020143837073N11206980WA0170701707
B2020153837074N11206978WA0170601706
B2020163837076N11206975WA0170501705
B2020173837078N11206972WA0170301703
B2020183837081N11206970WA0170001700
B2020193837084N11206968WA0169801698
B2020203837088N11206967WA0169701697
B2020213837091N11206966WA0169601696
B2020223837093N11206964WA0169601696
B2020233837095N11206961WA0169501695
B2020243837097N11206957WA0169401694
B2020253837099N11206954WA0169501695
B2020263837100N11206951WA0169601696
B2020273837101N11206949WA0169701697
B2020283837103N11206946WA0169601696
B2020293837105N11206945WA0169401694
B2020303837109N11206944WA0169101691
B2020313837113N11206945WA0168901689
B2020323837117N11206947WA0168701687
B2020333837121N11206950WA0168501685
B2020343837124N11206952WA0168401684
B2020353837128N11206952WA0168301683
B2020363837132N11206952WA0168201682
B2020373837135N11206952WA0168001680
B2020383837139N11206951WA0167801678
B2020393837142N11206950WA0167701677
B2020403837145N11206950WA0167501675
B2020413837147N11206950WA0167301673
B2020423837148N11206951WA0167201672
B2020433837148N11206951WA0167201672
B2020443837149N11206951WA0167201672
B2020453837150N11206951WA0167201672
B2020463837150N11206951WA0167201672
B2020473837150N11206951WA0167301673
B2020483837150N11206951WA0167201672
B2020493837150N11206951WA0167201672
B2020503837150N11206951WA0167201672
B2020513837150N11206950WA0167301673
B2020523837150N11206950WA0167201672
B2020533837150N11206950WA0167201672
B2020543837150N11206950WA0167201672
B2020553837150N11206950WA0167201672
B2020563837150N11206950WA0167201672
B2020573837150N11206950WA0167201672
B2020583837150N11206950WA0167201672
