AXFMFLYMASTER LIVETRACK
HFDTE210926
HFFXA010
HFPLTPILOT:Giancarlo Dasilveira
HFGTYGLIDERTYPE:Ozone Delta 5 / Ozone Exoceat
HFCIDCOMPETITIONID:5
HFDTM100GPSDATUM:WGS-1984
HFRFWFIRMWAREVERSION:lt.flymaster.net bsGetPilotTrack
B2102063838044N11203552WA0267902679
B2102073838043N11203550WA0267902679
B2102083838043N11203548WA0268002680
B2102093838043N11203546WA0268002680
B2102103838042N11203544WA0268002680
B2102113838042N11203541WA0268102681
B2102123838041N11203538WA0268102681
B2102133838040N11203535WA0268102681
B2102143838039N11203532WA0268102681
B2102153838038N11203529WA0268102681
B2102163838037N11203526WA0268002680
B2102173838036N11203523WA0268002680
B2102183838035N11203520WA0268002680
B2102193838034N11203516WA0268002680
B2102203838034N11203513WA0268002680
B2102213838033N11203510WA0268002680
B2102223838032N11203507WA0268002680
B2102233838031N11203503WA0268002680
B2102243838030N11203500WA0267902679
B2102253838029N11203497WA0267902679
B2102263838028N11203494WA0267802678
B2102273838028N11203491WA0267802678
B2102283838028N11203489WA0267702677
B2102293838030N11203488WA0267602676
B2102303838031N11203487WA0267502675
B2102313838032N11203488WA0267402674
B2102323838033N11203489WA0267302673
B2102333838034N11203490WA0267202672
B2102343838035N11203492WA0267002670
B2102353838037N11203495WA0266902669
B2102363838038N11203497WA0266802668
B2102373838040N11203500WA0266802668
B2102383838042N11203502WA0266702667
B2102393838044N11203505WA0266602666
B2102403838046N11203508WA0266402664
B2102413838049N11203510WA0266402664
B2102423838051N11203511WA0266302663
B2102433838054N11203513WA0266202662
B2102443838057N11203515WA0266102661
B2102453838060N11203517WA0266002660
B2102463838063N11203518WA0265702657
B2102473838066N11203520WA0265502655
B2102483838068N11203522WA0265302653
B2102493838070N11203524WA0265102651
B2102503838072N11203526WA0265002650
B2102513838074N11203528WA0264902649
B2102523838076N11203531WA0264902649
B2102533838077N11203534WA0264802648
B2102543838079N11203537WA0264602646
B2102553838081N11203539WA0264802648
B2102563838082N11203542WA0264902649
B2102573838084N11203545WA0264802648
B2102583838085N11203548WA0264802648
B2102593838087N11203550WA0264502645
B2103003838089N11203553WA0264302643
B2103013838091N11203554WA0264302643
B2103023838094N11203556WA0264302643
B2103033838096N11203557WA0264102641
B2103043838099N11203557WA0264102641
B2103053838101N11203557WA0264102641
B2103063838102N11203556WA0264002640
B2103073838103N11203555WA0264102641
B2103083838104N11203553WA0264002640
B2103093838104N11203550WA0264002640
B2103103838104N11203548WA0264102641
B2103113838103N11203546WA0264202642
B2103123838102N11203543WA0264302643
B2103133838100N11203541WA0264302643
B2103143838099N11203537WA0264202642
B2103153838098N11203534WA0264202642
B2103163838097N11203530WA0264002640
B2103173838096N11203526WA0264002640
B2103183838096N11203522WA0263902639
B2103193838095N11203518WA0264002640
B2103203838094N11203513WA0263902639
B2103213838093N11203509WA0263802638
B2103223838093N11203504WA0263702637
B2103233838092N11203498WA0263602636
B2103243838092N11203492WA0263602636
B2103253838091N11203487WA0263602636
B2103263838090N11203481WA0263402634
B2103273838089N11203476WA0263602636
B2103283838088N11203470WA0263602636
B2103293838086N11203465WA0263802638
B2103303838085N11203460WA0263702637
B2103313838083N11203454WA0263602636
B2103323838081N11203449WA0263402634
B2103333838079N11203443WA0263202632
B2103343838078N11203437WA0263102631
B2103353838077N11203432WA0263002630
B2103363838075N11203426WA0263002630
B2103373838073N11203421WA0262802628
B2103383838072N11203416WA0262702627
B2103393838071N11203410WA0262602626
B2103403838070N11203404WA0262602626
B2103413838069N11203399WA0262502625
B2103423838068N11203393WA0262402624
B2103433838067N11203387WA0262302623
B2103443838067N11203382WA0262202622
B2103453838066N11203376WA0262002620
B2103463838065N11203372WA0261902619
B2103473838065N11203367WA0261902619
B2103483838064N11203364WA0261902619
B2103493838064N11203360WA0261902619
B2103503838065N11203357WA0261802618
B2103513838065N11203355WA0261702617
B2103523838067N11203355WA0261602616
B2103533838069N11203355WA0261602616
B2103543838071N11203355WA0261502615
B2103553838072N11203356WA0261502615
B2103563838073N11203359WA0261402614
B2103573838074N11203362WA0261302613
B2103583838075N11203365WA0261202612
B2103593838076N11203368WA0261002610
B2104003838078N11203372WA0261002610
B2104013838080N11203375WA0260702607
B2104023838082N11203379WA0260602606
B2104033838084N11203383WA0260502605
B2104043838086N11203388WA0260602606
B2104053838088N11203392WA0260502605
B2104063838090N11203396WA0260402604
B2104073838092N11203400WA0260302603
B2104083838095N11203405WA0260202602
B2104093838097N11203409WA0260102601
B2104103838100N11203413WA0259902599
B2104113838103N11203417WA0259802598
B2104123838106N11203421WA0259702597
B2104133838109N11203424WA0259602596
B2104143838112N11203427WA0259502595
B2104153838115N11203431WA0259402594
B2104163838119N11203434WA0259302593
B2104173838122N11203437WA0259202592
B2104183838126N11203440WA0259102591
B2104193838130N11203443WA0258902589
B2104203838133N11203447WA0258802588
B2104213838137N11203450WA0258602586
B2104223838141N11203453WA0258502585
B2104233838145N11203456WA0258402584
B2104243838148N11203460WA0258302583
B2104253838152N11203463WA0258102581
B2104263838156N11203466WA0258102581
B2104273838159N11203470WA0258002580
B2104283838162N11203474WA0258002580
B2104293838165N11203478WA0257902579
B2104303838167N11203481WA0257802578
B2104313838169N11203484WA0257702577
B2104323838172N11203486WA0257702577
B2104333838174N11203489WA0257702577
B2104343838176N11203490WA0257602576
B2104353838178N11203491WA0257502575
B2104363838180N11203489WA0257402574
B2104373838180N11203488WA0257302573
B2104383838181N11203486WA0257202572
B2104393838181N11203483WA0257102571
B2104403838180N11203480WA0257002570
B2104413838180N11203477WA0256902569
B2104423838179N11203474WA0256802568
B2104433838178N11203470WA0256702567
B2104443838177N11203467WA0256602566
B2104453838176N11203465WA0256602566
B2104463838176N11203463WA0256502565
B2104473838176N11203461WA0256502565
B2104483838175N11203459WA0256402564
B2104493838175N11203457WA0256402564
B2104503838174N11203455WA0256302563
B2104513838174N11203454WA0256302563
B2104523838174N11203454WA0256202562
B2104533838173N11203453WA0256102561
B2104543838173N11203453WA0256102561
B2104553838173N11203453WA0256002560
B2104563838173N11203453WA0255902559
B2104573838173N11203453WA0255802558
B2104583838173N11203453WA0255702557
B2104593838173N11203452WA0255702557
B2105003838173N11203452WA0255602556
B2105013838173N11203452WA0255502555
B2105023838173N11203452WA0255502555
B2105033838173N11203452WA0255402554
B2105043838173N11203452WA0255402554
B2105053838173N11203452WA0255302553
B2105063838172N11203452WA0255302553
B2105073838172N11203452WA0255302553
B2105083838172N11203452WA0255202552
B2105093838172N11203452WA0255202552
B2105103838172N11203451WA0255202552
B2105113838172N11203451WA0255202552
B2105123838172N11203451WA0255202552
B2105133838172N11203451WA0255202552
B2105143838172N11203451WA0255102551
B2105153838171N11203451WA0255102551
B2105163838171N11203452WA0255002550
B2105173838171N11203451WA0255002550
B2105183838171N11203451WA0255002550
B2105193838171N11203452WA0254902549
B2105203838171N11203452WA0255002550
B2105213838171N11203452WA0254902549
B2105223838170N11203452WA0254902549
B2105233838170N11203452WA0254802548
B2105243838170N11203452WA0254702547
B2105253838170N11203452WA0254702547
B2105263838170N11203452WA0254602546
B2105273838169N11203452WA0254602546
B2105283838169N11203452WA0254502545
B2105293838169N11203452WA0254502545
B2105303838169N11203452WA0254502545
B2105313838169N11203452WA0254502545
B2105323838169N11203452WA0254402544
B2105333838169N11203452WA0254402544
B2105343838169N11203451WA0254302543
B2105353838169N11203451WA0254302543
B2105363838168N11203451WA0254302543
B2105373838168N11203451WA0254302543
B2105383838168N11203451WA0254302543
B2105393838168N11203451WA0254302543
B2105403838168N11203451WA0254302543
B2105413838168N11203451WA0254302543
B2105423838168N11203451WA0254302543
B2105433838168N11203451WA0254302543
B2105443838168N11203451WA0254302543
B2105453838168N11203451WA0254302543
B2105463838168N11203451WA0254402544
B2105473838168N11203451WA0254402544
B2105483838168N11203451WA0254402544
B2105493838168N11203451WA0254402544
B2105503838168N11203452WA0254402544
B2105513838168N11203452WA0254502545
B2105523838168N11203452WA0254502545
B2105533838168N11203452WA0254502545
B2105543838168N11203452WA0254502545
B2105553838168N11203452WA0254502545
B2105563838168N11203452WA0254502545
B2105573838168N11203452WA0254502545
B2105583838168N11203452WA0254502545
B2105593838168N11203452WA0254502545
B2106003838168N11203452WA0254602546
B2106013838168N11203451WA0254602546
B2106023838168N11203451WA0254602546
B2106033838168N11203451WA0254602546
B2106043838168N11203451WA0254602546
B2106053838167N11203451WA0254602546
B2106063838168N11203451WA0254702547
B2106073838167N11203451WA0254702547
B2106083838168N11203451WA0254702547
B2106093838168N11203451WA0254702547
B2106103838168N11203451WA0254702547
B2106113838168N11203451WA0254702547
B2106123838168N11203451WA0254702547
B2106133838167N11203451WA0254602546
B2106143838167N11203451WA0254602546
B2106153838167N11203451WA0254602546
B2106163838168N11203450WA0254602546
B2106173838168N11203450WA0254602546
B2106183838167N11203450WA0254502545
B2106193838167N11203450WA0254502545
B2106203838168N11203450WA0254502545
B2106213838167N11203450WA0254502545
B2106223838167N11203450WA0254502545
B2106233838167N11203450WA0254402544
B2106243838167N11203450WA0254402544
B2106253838167N11203450WA0254402544
B2106263838167N11203450WA0254402544
B2106273838167N11203450WA0254302543
B2106283838167N11203450WA0254302543
B2106293838167N11203450WA0254302543
B2106303838168N11203450WA0254302543
B2106313838168N11203450WA0254302543
B2106323838168N11203450WA0254302543
B2106333838168N11203450WA0254302543
B2106343838168N11203450WA0254302543
B2106353838168N11203450WA0254402544
B2106363838169N11203451WA0254402544
B2106373838169N11203452WA0254402544
B2106383838169N11203452WA0254402544
B2106393838169N11203453WA0254502545
B2106403838170N11203453WA0254602546
B2106413838170N11203453WA0254702547
B2106423838171N11203454WA0255002550
B2106433838171N11203454WA0255102551
B2106443838171N11203454WA0255302553
B2106453838171N11203454WA0255402554
B2106463838171N11203454WA0255502555
B2106473838172N11203454WA0255602556
B2106483838172N11203455WA0255802558
B2106493838171N11203455WA0255902559
B2106503838172N11203455WA0255902559
B2106513838172N11203455WA0256002560
B2106523838172N11203455WA0256102561
B2106533838172N11203455WA0256102561
B2106543838172N11203455WA0256202562
B2106553838172N11203455WA0256302563
B2106563838172N11203455WA0256302563
B2106573838172N11203456WA0256302563
B2106583838172N11203456WA0256402564
B2106593838172N11203456WA0256402564
B2107003838172N11203456WA0256402564
B2107013838172N11203456WA0256502565
B2107023838172N11203456WA0256502565
B2107033838172N11203456WA0256502565
B2107043838172N11203456WA0256502565
B2107053838172N11203456WA0256502565
B2107063838172N11203456WA0256602566
B2107073838172N11203456WA0256602566
B2107083838172N11203456WA0256602566
B2107093838172N11203455WA0256602566
B2107103838172N11203455WA0256602566
B2107113838172N11203455WA0256602566
B2107123838172N11203455WA0256602566
B2107133838172N11203455WA0256602566
B2107143838172N11203454WA0256602566
B2107153838171N11203454WA0256602566
B2107163838172N11203454WA0256602566
B2107173838172N11203454WA0256602566
B2107183838172N11203454WA0256702567
B2107193838172N11203454WA0256702567
B2107203838172N11203454WA0256702567
B2107213838171N11203454WA0256702567
B2107223838171N11203454WA0256702567
B2107233838171N11203454WA0256702567
B2107243838172N11203454WA0256702567
B2107253838172N11203453WA0256702567
B2107263838172N11203453WA0256702567
B2107273838172N11203453WA0256702567
B2107283838172N11203453WA0256702567
B2107293838172N11203453WA0256702567
B2107303838172N11203453WA0256702567
B2107313838172N11203453WA0256702567
B2107323838172N11203453WA0256702567
B2107333838172N11203453WA0256702567
B2107343838172N11203453WA0256702567
B2107353838172N11203453WA0256702567
B2107363838172N11203453WA0256702567
B2107373838172N11203453WA0256702567
B2107383838172N11203453WA0256702567
B2107393838172N11203453WA0256702567
B2107403838172N11203453WA0256702567
B2107413838172N11203453WA0256702567
B2107423838172N11203453WA0256702567
B2107433838172N11203453WA0256702567
B2107443838172N11203453WA0256702567
B2107453838172N11203453WA0256702567
B2107463838172N11203453WA0256602566
B2107473838172N11203453WA0256602566
B2107483838172N11203453WA0256602566
B2107493838172N11203453WA0256702567
B2107503838172N11203453WA0256702567
B2107513838172N11203452WA0256602566
B2107523838172N11203451WA0256602566
B2107533838171N11203450WA0256602566
B2107543838171N11203449WA0256502565
B2107553838171N11203447WA0256502565
B2107563838170N11203445WA0256502565
B2107573838170N11203443WA0256402564
B2107583838169N11203441WA0256402564
B2107593838169N11203439WA0256302563
B2108003838169N11203436WA0256202562
B2108013838168N11203434WA0256102561
B2108023838168N11203431WA0256102561
B2108033838167N11203428WA0256002560
B2108043838167N11203426WA0256002560
B2108053838166N11203423WA0255902559
B2108063838166N11203420WA0255802558
B2108073838165N11203417WA0255702557
B2108083838165N11203415WA0255702557
B2108093838165N11203411WA0255602556
B2108103838165N11203408WA0255502555
B2108113838165N11203404WA0255402554
B2108123838164N11203401WA0255302553
B2108133838164N11203397WA0255302553
B2108143838165N11203393WA0255202552
B2108153838165N11203389WA0255102551
B2108163838165N11203386WA0254902549
B2108173838165N11203382WA0254902549
B2108183838165N11203378WA0254802548
B2108193838165N11203375WA0254802548
B2108203838165N11203373WA0254602546
B2108213838164N11203370WA0254502545
B2108223838164N11203368WA0254402544
B2108233838163N11203365WA0254302543
B2108243838163N11203363WA0254102541
B2108253838162N11203360WA0253902539
B2108263838161N11203358WA0253902539
B2108273838161N11203355WA0253802538
B2108283838161N11203352WA0253802538
B2108293838160N11203349WA0253802538
B2108303838160N11203346WA0253602536
B2108313838160N11203343WA0253502535
B2108323838160N11203339WA0253502535
B2108333838160N11203335WA0253302533
B2108343838161N11203332WA0253302533
B2108353838162N11203328WA0253402534
B2108363838163N11203325WA0253502535
B2108373838165N11203322WA0253502535
B2108383838167N11203319WA0253502535
B2108393838169N11203316WA0253502535
B2108403838171N11203313WA0253402534
B2108413838173N11203310WA0253502535
B2108423838175N11203307WA0253402534
B2108433838178N11203303WA0253402534
B2108443838180N11203299WA0253402534
B2108453838182N11203296WA0253502535
B2108463838185N11203292WA0253502535
B2108473838187N11203289WA0253502535
B2108483838189N11203285WA0253502535
B2108493838191N11203281WA0253402534
B2108503838192N11203277WA0253502535
B2108513838193N11203272WA0253502535
B2108523838194N11203267WA0253402534
B2108533838195N11203263WA0253502535
B2108543838195N11203259WA0253502535
B2108553838196N11203255WA0253602536
B2108563838196N11203251WA0253602536
B2108573838196N11203248WA0253702537
B2108583838196N11203244WA0253702537
B2108593838195N11203241WA0253802538
B2109003838194N11203237WA0253702537
B2109013838193N11203233WA0253602536
B2109023838191N11203230WA0253602536
B2109033838189N11203227WA0253502535
B2109043838187N11203225WA0253402534
B2109053838184N11203222WA0253402534
B2109063838181N11203220WA0253302533
B2109073838178N11203219WA0253302533
B2109083838175N11203217WA0253402534
B2109093838172N11203216WA0253402534
B2109103838169N11203215WA0253402534
B2109113838166N11203214WA0253502535
B2109123838163N11203213WA0253502535
B2109133838160N11203212WA0253502535
B2109143838157N11203211WA0253502535
B2109153838155N11203210WA0253502535
B2109163838152N11203209WA0253402534
B2109173838149N11203208WA0253402534
B2109183838147N11203206WA0253302533
B2109193838145N11203203WA0253202532
B2109203838144N11203200WA0253202532
B2109213838143N11203197WA0253202532
B2109223838144N11203194WA0253102531
B2109233838145N11203192WA0253002530
B2109243838146N11203189WA0252902529
B2109253838148N11203186WA0252802528
B2109263838150N11203183WA0252602526
B2109273838152N11203180WA0252702527
B2109283838155N11203178WA0252702527
B2109293838158N11203175WA0252702527
B2109303838160N11203172WA0252602526
B2109313838163N11203169WA0252502525
B2109323838166N11203166WA0252502525
B2109333838169N11203164WA0252502525
B2109343838172N11203161WA0252402524
B2109353838175N11203158WA0252402524
B2109363838178N11203155WA0252402524
B2109373838181N11203152WA0252302523
B2109383838184N11203149WA0252402524
B2109393838187N11203146WA0252302523
B2109403838190N11203142WA0252302523
B2109413838192N11203138WA0252302523
B2109423838195N11203134WA0252302523
B2109433838197N11203130WA0252202522
B2109443838199N11203126WA0252202522
B2109453838201N11203121WA0252002520
B2109463838203N11203117WA0251802518
B2109473838206N11203113WA0251602516
B2109483838209N11203109WA0251602516
B2109493838212N11203105WA0251502515
B2109503838215N11203102WA0251502515
B2109513838218N11203098WA0251402514
B2109523838221N11203095WA0251302513
B2109533838224N11203091WA0251202512
B2109543838227N11203088WA0251202512
B2109553838230N11203085WA0251102511
B2109563838232N11203081WA0251002510
B2109573838233N11203077WA0250902509
B2109583838234N11203073WA0250802508
B2109593838233N11203069WA0250702507
B2110003838233N11203065WA0250602506
B2110013838232N11203061WA0250502505
B2110023838232N11203058WA0250302503
B2110033838233N11203054WA0250102501
B2110043838235N11203051WA0250002500
B2110053838237N11203049WA0249902499
B2110063838240N11203047WA0249902499
B2110073838242N11203046WA0249902499
B2110083838245N11203045WA0249902499
B2110093838247N11203043WA0249802498
B2110103838249N11203040WA0249702497
B2110113838250N11203037WA0249802498
B2110123838251N11203034WA0249702497
B2110133838252N11203030WA0249602496
B2110143838253N11203026WA0249502495
B2110153838254N11203022WA0249502495
B2110163838254N11203018WA0249402494
B2110173838255N11203014WA0249302493
B2110183838256N11203010WA0249302493
B2110193838257N11203006WA0249202492
B2110203838259N11203003WA0249202492
B2110213838261N11203001WA0249102491
B2110223838264N11202999WA0249102491
B2110233838266N11202999WA0249102491
B2110243838269N11202998WA0249002490
B2110253838272N11202996WA0249002490
B2110263838274N11202995WA0249002490
B2110273838277N11202992WA0249002490
B2110283838279N11202990WA0248902489
B2110293838280N11202986WA0248802488
B2110303838281N11202983WA0248802488
B2110313838282N11202980WA0248902489
B2110323838284N11202977WA0248902489
B2110333838286N11202974WA0248902489
B2110343838288N11202972WA0249002490
B2110353838291N11202971WA0249002490
B2110363838294N11202972WA0249102491
B2110373838296N11202973WA0249102491
B2110383838299N11202974WA0249002490
B2110393838301N11202977WA0249102491
B2110403838302N11202980WA0249102491
B2110413838304N11202983WA0249002490
B2110423838305N11202987WA0248902489
B2110433838306N11202991WA0248902489
B2110443838307N11202994WA0248702487
B2110453838308N11202998WA0248602486
B2110463838309N11203002WA0248502485
B2110473838309N11203007WA0248402484
B2110483838310N11203011WA0248302483
B2110493838310N11203016WA0248302483
B2110503838310N11203020WA0248302483
B2110513838310N11203025WA0248202482
B2110523838311N11203030WA0248102481
B2110533838310N11203034WA0248002480
B2110543838311N11203039WA0247902479
B2110553838311N11203044WA0248002480
B2110563838311N11203049WA0247902479
B2110573838311N11203053WA0247902479
B2110583838311N11203058WA0247802478
B2110593838313N11203062WA0247602476
B2111003838314N11203066WA0247502475
B2111013838317N11203069WA0247302473
B2111023838319N11203072WA0247102471
B2111033838322N11203074WA0247002470
B2111043838324N11203077WA0246802468
B2111053838327N11203080WA0246702467
B2111063838329N11203083WA0246602466
B2111073838332N11203085WA0246502465
B2111083838334N11203088WA0246302463
B2111093838337N11203090WA0246302463
B2111103838340N11203093WA0246102461
B2111113838343N11203096WA0246202462
B2111123838346N11203099WA0246202462
B2111133838350N11203100WA0246202462
B2111143838353N11203102WA0246102461
B2111153838356N11203103WA0246002460
B2111163838360N11203103WA0246002460
B2111173838363N11203105WA0245802458
B2111183838367N11203106WA0245802458
B2111193838370N11203107WA0245702457
B2111203838374N11203108WA0245502455
B2111213838377N11203109WA0245402454
B2111223838381N11203110WA0245202452
B2111233838385N11203111WA0245202452
B2111243838388N11203112WA0245102451
B2111253838392N11203114WA0245102451
B2111263838396N11203114WA0245102451
B2111273838399N11203115WA0245102451
B2111283838402N11203116WA0245102451
B2111293838405N11203117WA0245002450
B2111303838408N11203118WA0244802448
B2111313838411N11203120WA0244702447
B2111323838414N11203121WA0244602446
B2111333838417N11203122WA0244502445
B2111343838419N11203125WA0244402444
B2111353838421N11203127WA0244302443
B2111363838422N11203131WA0244102441
B2111373838422N11203134WA0243902439
B2111383838422N11203138WA0243702437
B2111393838421N11203142WA0243602436
B2111403838420N11203145WA0243602436
B2111413838419N11203149WA0243402434
B2111423838418N11203152WA0243302433
B2111433838416N11203154WA0243302433
B2111443838414N11203156WA0243402434
B2111453838412N11203158WA0243402434
B2111463838408N11203158WA0243402434
B2111473838405N11203156WA0243502435
B2111483838402N11203155WA0243502435
B2111493838399N11203154WA0243602436
B2111503838395N11203153WA0243402434
B2111513838392N11203151WA0243302433
B2111523838389N11203150WA0243302433
B2111533838385N11203148WA0243302433
B2111543838382N11203146WA0243302433
B2111553838379N11203144WA0243202432
B2111563838376N11203143WA0243302433
B2111573838372N11203141WA0243302433
B2111583838370N11203140WA0243302433
B2111593838367N11203139WA0243302433
B2112003838364N11203139WA0243302433
B2112013838362N11203138WA0243302433
B2112023838360N11203138WA0243202432
B2112033838358N11203139WA0243202432
B2112043838356N11203139WA0243102431
B2112053838354N11203140WA0243002430
B2112063838354N11203143WA0243002430
B2112073838354N11203145WA0242902429
B2112083838355N11203148WA0242902429
B2112093838356N11203150WA0242902429
B2112103838358N11203152WA0242802428
B2112113838360N11203156WA0242802428
B2112123838361N11203159WA0242702427
B2112133838363N11203162WA0242602426
B2112143838364N11203166WA0242502425
B2112153838366N11203170WA0242502425
B2112163838367N11203174WA0242402424
B2112173838369N11203178WA0242402424
B2112183838371N11203182WA0242402424
B2112193838372N11203186WA0242302423
B2112203838374N11203190WA0242302423
B2112213838377N11203193WA0242202422
B2112223838379N11203196WA0242102421
B2112233838382N11203199WA0242102421
B2112243838385N11203202WA0242002420
B2112253838387N11203205WA0241902419
B2112263838390N11203208WA0241802418
B2112273838393N11203211WA0241802418
B2112283838395N11203214WA0241702417
B2112293838397N11203216WA0241602416
B2112303838399N11203219WA0241502415
B2112313838401N11203222WA0241502415
B2112323838403N11203224WA0241302413
B2112333838405N11203227WA0241202412
B2112343838407N11203229WA0241002410
B2112353838409N11203231WA0240802408
B2112363838412N11203233WA0240702407
B2112373838414N11203235WA0240602406
B2112383838417N11203237WA0240502405
B2112393838420N11203238WA0240402404
B2112403838422N11203239WA0240302403
B2112413838425N11203241WA0240202402
B2112423838427N11203243WA0240202402
B2112433838429N11203246WA0240102401
B2112443838431N11203248WA0240002400
B2112453838433N11203250WA0239902399
B2112463838434N11203253WA0239802398
B2112473838436N11203255WA0239802398
B2112483838437N11203257WA0239702397
B2112493838438N11203260WA0239602396
B2112503838440N11203262WA0239602396
B2112513838441N11203265WA0239502395
B2112523838443N11203267WA0239502395
B2112533838445N11203270WA0239402394
B2112543838446N11203273WA0239302393
B2112553838448N11203276WA0239302393
B2112563838451N11203280WA0239202392
B2112573838453N11203283WA0239002390
B2112583838456N11203285WA0238902389
B2112593838459N11203287WA0238802388
B2113003838462N11203289WA0238602386
B2113013838465N11203291WA0238502385
B2113023838469N11203293WA0238402384
B2113033838472N11203295WA0238302383
B2113043838475N11203296WA0238202382
B2113053838478N11203297WA0238102381
B2113063838481N11203299WA0238002380
B2113073838484N11203300WA0238002380
B2113083838487N11203302WA0237902379
B2113093838490N11203304WA0237802378
B2113103838493N11203306WA0237702377
B2113113838495N11203308WA0237602376
B2113123838499N11203310WA0237502375
B2113133838502N11203312WA0237502375
B2113143838505N11203314WA0237402374
B2113153838509N11203316WA0237302373
B2113163838512N11203318WA0237202372
B2113173838515N11203319WA0237102371
B2113183838519N11203321WA0237002370
B2113193838522N11203323WA0236902369
B2113203838524N11203325WA0236802368
B2113213838527N11203326WA0236702367
B2113223838530N11203328WA0236702367
B2113233838533N11203331WA0236602366
B2113243838536N11203333WA0236602366
B2113253838539N11203336WA0236502365
B2113263838542N11203339WA0236402364
B2113273838544N11203342WA0236402364
B2113283838547N11203345WA0236202362
B2113293838550N11203348WA0236102361
B2113303838552N11203351WA0236002360
B2113313838555N11203353WA0235902359
B2113323838558N11203355WA0235802358
B2113333838561N11203357WA0235602356
B2113343838564N11203359WA0235502355
B2113353838567N11203361WA0235402354
B2113363838570N11203362WA0235202352
B2113373838573N11203364WA0235102351
B2113383838576N11203365WA0235002350
B2113393838578N11203367WA0234902349
B2113403838581N11203369WA0234902349
B2113413838584N11203371WA0234802348
B2113423838586N11203373WA0234602346
B2113433838589N11203375WA0234502345
B2113443838592N11203377WA0234402344
B2113453838596N11203379WA0234402344
B2113463838599N11203380WA0234302343
B2113473838602N11203382WA0234302343
B2113483838605N11203383WA0234302343
B2113493838608N11203385WA0234202342
B2113503838611N11203387WA0234202342
B2113513838615N11203389WA0234102341
B2113523838618N11203390WA0234102341
B2113533838621N11203391WA0234002340
B2113543838624N11203393WA0234002340
B2113553838627N11203394WA0234002340
B2113563838630N11203396WA0233902339
B2113573838633N11203397WA0233902339
B2113583838637N11203399WA0233802338
B2113593838640N11203400WA0233702337
B2114003838643N11203401WA0233602336
B2114013838646N11203402WA0233402334
B2114023838650N11203404WA0233302333
B2114033838652N11203405WA0233202332
B2114043838655N11203407WA0233102331
B2114053838658N11203408WA0233002330
B2114063838661N11203410WA0232902329
B2114073838663N11203412WA0232802328
B2114083838666N11203414WA0232702327
B2114093838668N11203416WA0232602326
B2114103838671N11203418WA0232502325
B2114113838673N11203420WA0232402324
B2114123838676N11203422WA0232302323
B2114133838678N11203425WA0232202322
B2114143838681N11203427WA0232102321
B2114153838684N11203430WA0232102321
B2114163838687N11203432WA0232102321
B2114173838690N11203434WA0232102321
B2114183838693N11203436WA0232102321
B2114193838697N11203438WA0231902319
B2114203838700N11203441WA0231702317
B2114213838703N11203443WA0231502315
B2114223838706N11203445WA0231402314
B2114233838708N11203448WA0231202312
B2114243838711N11203450WA0230902309
B2114253838713N11203451WA0230802308
B2114263838716N11203453WA0230802308
B2114273838719N11203454WA0230702307
B2114283838722N11203456WA0230702307
B2114293838724N11203457WA0230702307
B2114303838728N11203458WA0230702307
B2114313838731N11203460WA0230602306
B2114323838734N11203461WA0230602306
B2114333838737N11203463WA0230602306
B2114343838740N11203464WA0230702307
B2114353838742N11203465WA0230602306
B2114363838745N11203467WA0230502305
B2114373838748N11203469WA0230502305
B2114383838750N11203471WA0230402304
B2114393838752N11203473WA0230302303
B2114403838754N11203475WA0230302303
B2114413838756N11203477WA0230202302
B2114423838757N11203479WA0230102301
B2114433838759N11203481WA0230002300
B2114443838761N11203483WA0229902299
B2114453838763N11203486WA0229902299
B2114463838765N11203489WA0229902299
B2114473838767N11203492WA0229902299
B2114483838769N11203495WA0229802298
B2114493838771N11203498WA0229802298
B2114503838773N11203502WA0229702297
B2114513838775N11203505WA0229602296
B2114523838777N11203508WA0229502295
B2114533838779N11203511WA0229502295
B2114543838782N11203513WA0229402294
B2114553838784N11203516WA0229302293
B2114563838786N11203519WA0229302293
B2114573838788N11203521WA0229302293
B2114583838791N11203523WA0229202292
B2114593838793N11203524WA0229102291
B2115003838796N11203526WA0229102291
B2115013838799N11203527WA0229002290
B2115023838801N11203527WA0228902289
B2115033838804N11203528WA0228802288
B2115043838806N11203529WA0228702287
B2115053838809N11203529WA0228502285
B2115063838812N11203529WA0228402284
B2115073838814N11203529WA0228302283
B2115083838817N11203529WA0228202282
B2115093838820N11203529WA0228202282
B2115103838823N11203529WA0228102281
B2115113838826N11203530WA0228002280
B2115123838828N11203530WA0228002280
B2115133838831N11203530WA0228002280
B2115143838834N11203530WA0227902279
B2115153838837N11203531WA0227802278
B2115163838841N11203531WA0227802278
B2115173838844N11203532WA0227802278
B2115183838847N11203533WA0227802278
B2115193838849N11203534WA0227702277
B2115203838852N11203534WA0227702277
B2115213838855N11203535WA0227702277
B2115223838857N11203535WA0227602276
B2115233838860N11203535WA0227602276
B2115243838862N11203535WA0227602276
B2115253838864N11203534WA0227602276
B2115263838867N11203531WA0227602276
B2115273838868N11203528WA0227502275
B2115283838869N11203525WA0227402274
B2115293838871N11203521WA0227402274
B2115303838872N11203518WA0227302273
B2115313838873N11203514WA0227202272
B2115323838875N11203511WA0227102271
B2115333838876N11203507WA0227102271
B2115343838878N11203503WA0227102271
B2115353838880N11203499WA0227102271
B2115363838881N11203496WA0227002270
B2115373838883N11203492WA0227002270
B2115383838884N11203488WA0226902269
B2115393838886N11203484WA0226902269
B2115403838888N11203480WA0226802268
B2115413838890N11203476WA0226802268
B2115423838892N11203472WA0226702267
B2115433838894N11203468WA0226702267
B2115443838896N11203464WA0226702267
B2115453838898N11203461WA0226602266
B2115463838900N11203458WA0226602266
B2115473838902N11203454WA0226502265
B2115483838904N11203452WA0226502265
B2115493838907N11203449WA0226402264
B2115503838910N11203448WA0226402264
B2115513838912N11203446WA0226302263
B2115523838915N11203446WA0226302263
B2115533838918N11203445WA0226202262
B2115543838921N11203446WA0226202262
B2115553838924N11203446WA0226102261
B2115563838927N11203447WA0226102261
B2115573838929N11203448WA0226002260
B2115583838932N11203449WA0225902259
B2115593838935N11203450WA0225802258
B2116003838938N11203452WA0225702257
B2116013838940N11203453WA0225602256
B2116023838943N11203455WA0225502255
B2116033838945N11203455WA0225302253
B2116043838948N11203455WA0225202252
B2116053838950N11203454WA0225102251
B2116063838953N11203453WA0225002250
B2116073838955N11203451WA0225002250
B2116083838957N11203448WA0225002250
B2116093838959N11203446WA0224902249
B2116103838960N11203442WA0224802248
B2116113838961N11203439WA0224702247
B2116123838962N11203435WA0224702247
B2116133838962N11203432WA0224702247
B2116143838962N11203428WA0224702247
B2116153838961N11203424WA0224602246
B2116163838960N11203420WA0224602246
B2116173838958N11203417WA0224602246
B2116183838956N11203414WA0224502245
B2116193838954N11203411WA0224502245
B2116203838952N11203408WA0224602246
B2116213838950N11203406WA0224602246
B2116223838948N11203403WA0224602246
B2116233838946N11203400WA0224502245
B2116243838944N11203397WA0224502245
B2116253838942N11203394WA0224402244
B2116263838941N11203391WA0224402244
B2116273838940N11203388WA0224402244
B2116283838940N11203385WA0224402244
B2116293838940N11203383WA0224502245
B2116303838941N11203381WA0224602246
B2116313838943N11203380WA0224502245
B2116323838945N11203379WA0224602246
B2116333838947N11203380WA0224702247
B2116343838949N11203381WA0224702247
B2116353838951N11203382WA0224702247
B2116363838954N11203383WA0224702247
B2116373838956N11203385WA0224602246
B2116383838959N11203385WA0224502245
B2116393838961N11203386WA0224502245
B2116403838964N11203385WA0224502245
B2116413838967N11203384WA0224602246
B2116423838969N11203381WA0224602246
B2116433838972N11203379WA0224602246
B2116443838974N11203377WA0224702247
B2116453838977N11203374WA0224602246
B2116463838979N11203373WA0224602246
B2116473838982N11203372WA0224602246
B2116483838984N11203372WA0224602246
B2116493838987N11203373WA0224602246
B2116503838989N11203374WA0224602246
B2116513838992N11203375WA0224602246
B2116523838994N11203376WA0224402244
B2116533838997N11203377WA0224202242
B2116543839001N11203378WA0224202242
B2116553839004N11203379WA0224002240
B2116563839007N11203379WA0224002240
B2116573839009N11203379WA0223902239
B2116583839012N11203378WA0223902239
B2116593839015N11203377WA0223902239
B2117003839018N11203377WA0223902239
B2117013839021N11203377WA0223902239
B2117023839023N11203377WA0223902239
B2117033839025N11203378WA0223802238
B2117043839028N11203380WA0223802238
B2117053839030N11203383WA0223702237
B2117063839031N11203386WA0223702237
B2117073839032N11203389WA0223702237
B2117083839033N11203393WA0223702237
B2117093839035N11203396WA0223702237
B2117103839036N11203400WA0223702237
B2117113839037N11203403WA0223702237
B2117123839038N11203407WA0223702237
B2117133839040N11203411WA0223702237
B2117143839041N11203414WA0223702237
B2117153839043N11203418WA0223602236
B2117163839044N11203421WA0223402234
B2117173839046N11203424WA0223302233
B2117183839048N11203427WA0223202232
B2117193839050N11203430WA0223102231
B2117203839052N11203431WA0223102231
B2117213839055N11203432WA0222902229
B2117223839058N11203433WA0222702227
B2117233839061N11203433WA0222502225
B2117243839064N11203434WA0222302223
B2117253839066N11203435WA0222102221
B2117263839069N11203436WA0221902219
B2117273839072N11203438WA0221802218
B2117283839075N11203440WA0221502215
B2117293839078N11203442WA0221302213
B2117303839081N11203444WA0221102211
B2117313839083N11203446WA0221002210
B2117323839086N11203448WA0220702207
B2117333839089N11203450WA0220602206
B2117343839092N11203452WA0220402204
B2117353839095N11203454WA0220202202
B2117363839098N11203456WA0220102201
B2117373839101N11203458WA0220002200
B2117383839104N11203461WA0219902199
B2117393839107N11203463WA0219702197
B2117403839110N11203465WA0219602196
B2117413839113N11203467WA0219502195
B2117423839116N11203470WA0219302193
B2117433839119N11203472WA0219002190
B2117443839122N11203474WA0219002190
B2117453839125N11203476WA0218902189
B2117463839128N11203478WA0218802188
B2117473839132N11203480WA0218602186
B2117483839135N11203482WA0218402184
B2117493839138N11203483WA0218202182
B2117503839141N11203485WA0218002180
B2117513839144N11203487WA0217802178
B2117523839148N11203488WA0217602176
B2117533839151N11203489WA0217502175
B2117543839155N11203490WA0217402174
B2117553839159N11203491WA0217102171
B2117563839163N11203492WA0217002170
B2117573839166N11203494WA0216902169
B2117583839169N11203495WA0216602166
B2117593839172N11203496WA0216502165
B2118003839174N11203496WA0216502165
B2118013839177N11203498WA0216402164
B2118023839180N11203499WA0216202162
B2118033839182N11203500WA0216202162
B2118043839186N11203501WA0216002160
B2118053839188N11203501WA0215902159
B2118063839191N11203501WA0215702157
B2118073839194N11203501WA0215602156
B2118083839197N11203501WA0215402154
B2118093839199N11203502WA0215302153
B2118103839202N11203502WA0215202152
B2118113839204N11203503WA0215002150
B2118123839207N11203504WA0215002150
B2118133839209N11203504WA0214802148
B2118143839212N11203506WA0214702147
B2118153839214N11203507WA0214602146
B2118163839217N11203508WA0214402144
B2118173839220N11203509WA0214202142
B2118183839223N11203510WA0214102141
B2118193839226N11203510WA0213902139
B2118203839228N11203511WA0213802138
B2118213839231N11203511WA0213702137
B2118223839234N11203511WA0213702137
B2118233839237N11203511WA0213602136
B2118243839241N11203511WA0213602136
B2118253839244N11203512WA0213402134
B2118263839248N11203512WA0213402134
B2118273839251N11203513WA0213402134
B2118283839254N11203513WA0213202132
B2118293839257N11203514WA0213202132
B2118303839261N11203516WA0213002130
B2118313839264N11203517WA0212902129
B2118323839268N11203518WA0212802128
B2118333839271N11203519WA0212802128
B2118343839274N11203521WA0212602126
B2118353839277N11203522WA0212502125
B2118363839280N11203522WA0212302123
B2118373839283N11203523WA0212202122
B2118383839286N11203523WA0212002120
B2118393839289N11203523WA0212002120
B2118403839291N11203523WA0211902119
B2118413839294N11203522WA0211802118
B2118423839297N11203521WA0211702117
B2118433839299N11203520WA0211602116
B2118443839302N11203519WA0211502115
B2118453839305N11203518WA0211602116
B2118463839308N11203516WA0211602116
B2118473839311N11203516WA0211502115
B2118483839313N11203516WA0211502115
B2118493839316N11203516WA0211502115
B2118503839317N11203518WA0211502115
B2118513839319N11203520WA0211502115
B2118523839320N11203523WA0211402114
B2118533839322N11203526WA0211402114
B2118543839323N11203529WA0211402114
B2118553839325N11203533WA0211402114
B2118563839327N11203536WA0211302113
B2118573839329N11203539WA0211202112
B2118583839330N11203542WA0211202112
B2118593839333N11203545WA0211302113
B2119003839335N11203548WA0211202112
B2119013839337N11203551WA0211102111
B2119023839339N11203555WA0211102111
B2119033839341N11203558WA0211002110
B2119043839344N11203561WA0211002110
B2119053839346N11203564WA0210902109
B2119063839349N11203566WA0210902109
B2119073839352N11203568WA0210802108
B2119083839354N11203570WA0210802108
B2119093839357N11203572WA0210802108
B2119103839359N11203573WA0210902109
B2119113839362N11203575WA0210802108
B2119123839365N11203575WA0210702107
B2119133839368N11203576WA0210702107
B2119143839371N11203576WA0210602106
B2119153839373N11203576WA0210602106
B2119163839376N11203576WA0210502105
B2119173839379N11203575WA0210402104
B2119183839383N11203575WA0210302103
B2119193839386N11203575WA0210302103
B2119203839389N11203575WA0210202102
B2119213839393N11203575WA0210102101
B2119223839396N11203576WA0210102101
B2119233839400N11203576WA0210102101
B2119243839404N11203577WA0210002100
B2119253839407N11203579WA0209902099
B2119263839410N11203580WA0209802098
B2119273839413N11203582WA0209702097
B2119283839415N11203584WA0209602096
B2119293839418N11203586WA0209602096
B2119303839421N11203588WA0209402094
B2119313839423N11203591WA0209402094
B2119323839426N11203593WA0209402094
B2119333839429N11203595WA0209302093
B2119343839431N11203598WA0209202092
B2119353839433N11203601WA0209102091
B2119363839435N11203604WA0209002090
B2119373839437N11203607WA0209002090
B2119383839439N11203610WA0209002090
B2119393839441N11203613WA0209002090
B2119403839443N11203616WA0208902089
B2119413839445N11203618WA0208802088
B2119423839447N11203620WA0208702087
B2119433839450N11203622WA0208502085
B2119443839452N11203623WA0208402084
B2119453839455N11203625WA0208202082
B2119463839458N11203626WA0208102081
B2119473839462N11203628WA0208002080
B2119483839464N11203629WA0207902079
B2119493839467N11203631WA0207802078
B2119503839470N11203633WA0207602076
B2119513839473N11203634WA0207702077
B2119523839476N11203633WA0207702077
B2119533839478N11203632WA0207702077
B2119543839480N11203631WA0207602076
B2119553839482N11203629WA0207502075
B2119563839484N11203626WA0207602076
B2119573839486N11203624WA0207602076
B2119583839488N11203622WA0207602076
B2119593839490N11203619WA0207602076
B2120003839492N11203617WA0207602076
B2120013839494N11203616WA0207602076
B2120023839496N11203616WA0207602076
B2120033839497N11203616WA0207502075
B2120043839499N11203617WA0207402074
B2120053839501N11203618WA0207502075
B2120063839503N11203619WA0207402074
B2120073839505N11203621WA0207302073
B2120083839507N11203623WA0207102071
B2120093839509N11203626WA0207002070
B2120103839511N11203629WA0207002070
B2120113839513N11203632WA0207002070
B2120123839515N11203635WA0206902069
B2120133839517N11203637WA0206902069
B2120143839520N11203640WA0206802068
B2120153839522N11203642WA0206702067
B2120163839525N11203643WA0206702067
B2120173839527N11203645WA0206602066
B2120183839530N11203647WA0206402064
B2120193839533N11203648WA0206302063
B2120203839535N11203649WA0206302063
B2120213839538N11203650WA0206202062
B2120223839540N11203652WA0206202062
B2120233839543N11203652WA0206102061
B2120243839545N11203653WA0206002060
B2120253839548N11203654WA0205902059
B2120263839551N11203654WA0205802058
B2120273839554N11203653WA0205702057
B2120283839556N11203653WA0205702057
B2120293839559N11203653WA0205802058
B2120303839561N11203653WA0205802058
B2120313839564N11203654WA0205802058
B2120323839566N11203655WA0205802058
B2120333839568N11203658WA0205702057
B2120343839570N11203660WA0205702057
B2120353839572N11203663WA0205602056
B2120363839574N11203665WA0205502055
B2120373839576N11203668WA0205502055
B2120383839578N11203671WA0205502055
B2120393839580N11203673WA0205402054
B2120403839583N11203676WA0205502055
B2120413839585N11203678WA0205302053
B2120423839588N11203680WA0205302053
B2120433839591N11203681WA0205202052
B2120443839593N11203683WA0205002050
B2120453839596N11203684WA0204802048
B2120463839599N11203685WA0204802048
B2120473839602N11203686WA0204702047
B2120483839604N11203686WA0204602046
B2120493839607N11203685WA0204402044
B2120503839610N11203683WA0204402044
B2120513839612N11203682WA0204502045
B2120523839614N11203680WA0204402044
B2120533839616N11203678WA0204402044
B2120543839618N11203677WA0204402044
B2120553839620N11203675WA0204402044
B2120563839622N11203673WA0204302043
B2120573839624N11203671WA0204302043
B2120583839627N11203669WA0204202042
B2120593839629N11203668WA0204102041
B2121003839632N11203667WA0204102041
B2121013839635N11203667WA0204002040
B2121023839637N11203667WA0203902039
B2121033839640N11203667WA0203802038
B2121043839642N11203668WA0203702037
B2121053839644N11203669WA0203802038
B2121063839647N11203671WA0203702037
B2121073839649N11203672WA0203602036
B2121083839651N11203674WA0203602036
B2121093839653N11203675WA0203602036
B2121103839656N11203677WA0203502035
B2121113839658N11203678WA0203402034
B2121123839660N11203680WA0203302033
B2121133839662N11203682WA0203302033
B2121143839664N11203684WA0203202032
B2121153839665N11203687WA0203002030
B2121163839667N11203689WA0203002030
B2121173839668N11203692WA0202902029
B2121183839670N11203694WA0202702027
B2121193839672N11203697WA0202702027
B2121203839673N11203699WA0202702027
B2121213839675N11203701WA0202702027
B2121223839677N11203703WA0202702027
B2121233839680N11203705WA0202702027
B2121243839682N11203706WA0202602026
B2121253839685N11203708WA0202502025
B2121263839687N11203709WA0202502025
B2121273839689N11203711WA0202502025
B2121283839691N11203713WA0202502025
B2121293839692N11203716WA0202502025
B2121303839693N11203719WA0202502025
B2121313839694N11203722WA0202502025
B2121323839695N11203725WA0202502025
B2121333839695N11203729WA0202402024
B2121343839696N11203732WA0202402024
B2121353839697N11203736WA0202402024
B2121363839698N11203739WA0202302023
B2121373839699N11203743WA0202202022
B2121383839700N11203746WA0202202022
B2121393839701N11203750WA0202202022
B2121403839703N11203753WA0202102021
B2121413839704N11203757WA0202102021
B2121423839706N11203760WA0202102021
B2121433839708N11203763WA0202102021
B2121443839710N11203767WA0202002020
B2121453839712N11203769WA0201902019
B2121463839714N11203772WA0201902019
B2121473839716N11203775WA0201802018
B2121483839718N11203777WA0201802018
B2121493839720N11203779WA0201702017
B2121503839722N11203781WA0201602016
B2121513839724N11203783WA0201502015
B2121523839726N11203786WA0201402014
B2121533839729N11203788WA0201402014
B2121543839731N11203791WA0201302013
B2121553839733N11203792WA0201202012
B2121563839736N11203795WA0201102011
B2121573839738N11203797WA0201102011
B2121583839740N11203798WA0201002010
B2121593839742N11203800WA0200902009
B2122003839745N11203801WA0200802008
B2122013839747N11203802WA0200702007
B2122023839750N11203803WA0200602006
B2122033839753N11203804WA0200502005
B2122043839756N11203804WA0200402004
B2122053839758N11203804WA0200302003
B2122063839761N11203803WA0200302003
B2122073839764N11203802WA0200302003
B2122083839766N11203802WA0200302003
B2122093839769N11203801WA0200302003
B2122103839771N11203801WA0200202002
B2122113839774N11203800WA0200202002
B2122123839777N11203800WA0200102001
B2122133839780N11203799WA0200102001
B2122143839783N11203799WA0200002000
B2122153839787N11203798WA0200002000
B2122163839790N11203798WA0199901999
B2122173839793N11203798WA0199901999
B2122183839797N11203797WA0199901999
B2122193839800N11203797WA0199901999
B2122203839802N11203796WA0199901999
B2122213839805N11203795WA0199901999
B2122223839808N11203794WA0199901999
B2122233839811N11203793WA0199901999
B2122243839814N11203792WA0199801998
B2122253839817N11203790WA0199801998
B2122263839820N11203789WA0199701997
B2122273839822N11203788WA0199701997
B2122283839825N11203786WA0199601996
B2122293839827N11203785WA0199601996
B2122303839830N11203784WA0199601996
B2122313839832N11203783WA0199501995
B2122323839835N11203782WA0199501995
B2122333839837N11203781WA0199501995
B2122343839840N11203781WA0199401994
B2122353839842N11203782WA0199401994
B2122363839844N11203784WA0199401994
B2122373839846N11203786WA0199301993
B2122383839847N11203788WA0199201992
B2122393839848N11203790WA0199301993
B2122403839848N11203793WA0199201992
B2122413839848N11203797WA0199101991
B2122423839847N11203799WA0199101991
B2122433839846N11203802WA0199001990
B2122443839845N11203806WA0199001990
B2122453839844N11203809WA0198901989
B2122463839843N11203812WA0198801988
B2122473839843N11203816WA0198601986
B2122483839842N11203819WA0198501985
B2122493839842N11203823WA0198401984
B2122503839842N11203826WA0198301983
B2122513839843N11203830WA0198201982
B2122523839844N11203834WA0198101981
B2122533839845N11203838WA0198101981
B2122543839846N11203842WA0198101981
B2122553839848N11203846WA0198001980
B2122563839849N11203849WA0197901979
B2122573839850N11203853WA0197901979
B2122583839852N11203856WA0197901979
B2122593839853N11203860WA0198001980
B2123003839854N11203864WA0197901979
B2123013839855N11203868WA0197901979
B2123023839856N11203873WA0197901979
B2123033839858N11203877WA0197901979
B2123043839859N11203881WA0197801978
B2123053839860N11203885WA0197801978
B2123063839861N11203889WA0197701977
B2123073839862N11203893WA0197701977
B2123083839863N11203897WA0197601976
B2123093839864N11203901WA0197601976
B2123103839865N11203905WA0197601976
B2123113839866N11203909WA0197601976
B2123123839868N11203912WA0197501975
B2123133839869N11203915WA0197501975
B2123143839871N11203918WA0197501975
B2123153839873N11203920WA0197401974
B2123163839875N11203923WA0197301973
B2123173839877N11203926WA0197401974
B2123183839879N11203928WA0197401974
B2123193839882N11203930WA0197401974
B2123203839884N11203932WA0197301973
B2123213839887N11203935WA0197301973
B2123223839889N11203937WA0197101971
B2123233839891N11203940WA0197101971
B2123243839894N11203942WA0197101971
B2123253839896N11203945WA0197001970
B2123263839899N11203947WA0196901969
B2123273839901N11203950WA0196901969
B2123283839903N11203952WA0196801968
B2123293839906N11203955WA0196701967
B2123303839909N11203958WA0196701967
B2123313839912N11203960WA0196701967
B2123323839914N11203963WA0196601966
B2123333839917N11203965WA0196401964
B2123343839920N11203967WA0196401964
B2123353839922N11203969WA0196301963
B2123363839925N11203971WA0196301963
B2123373839927N11203973WA0196201962
B2123383839930N11203975WA0196201962
B2123393839933N11203976WA0196101961
B2123403839935N11203978WA0196001960
B2123413839938N11203979WA0195901959
B2123423839941N11203981WA0195801958
B2123433839943N11203982WA0195701957
B2123443839946N11203984WA0195701957
B2123453839948N11203986WA0195601956
B2123463839951N11203988WA0195701957
B2123473839954N11203990WA0195701957
B2123483839957N11203992WA0195601956
B2123493839959N11203994WA0195701957
B2123503839961N11203996WA0195601956
B2123513839963N11203998WA0195501955
B2123523839965N11204001WA0195401954
B2123533839967N11204003WA0195401954
B2123543839969N11204006WA0195301953
B2123553839971N11204008WA0195201952
B2123563839973N11204012WA0195001950
B2123573839975N11204014WA0195001950
B2123583839976N11204017WA0195001950
B2123593839978N11204020WA0194901949
B2124003839979N11204023WA0194901949
B2124013839980N11204026WA0194901949
B2124023839982N11204029WA0194801948
B2124033839983N11204032WA0194701947
B2124043839985N11204035WA0194501945
B2124053839986N11204038WA0194201942
B2124063839987N11204041WA0194001940
B2124073839989N11204044WA0193901939
B2124083839990N11204047WA0193801938
B2124093839992N11204050WA0193701937
B2124103839993N11204054WA0193701937
B2124113839994N11204057WA0193601936
B2124123839995N11204061WA0193601936
B2124133839996N11204064WA0193601936
B2124143839997N11204068WA0193501935
B2124153839998N11204071WA0193401934
B2124163839999N11204075WA0193301933
B2124173839999N11204078WA0193301933
B2124183840000N11204082WA0193201932
B2124193840001N11204086WA0193101931
B2124203840001N11204089WA0193101931
B2124213840002N11204093WA0193201932
B2124223840002N11204096WA0193301933
B2124233840002N11204100WA0193301933
B2124243840002N11204104WA0193301933
B2124253840002N11204107WA0193201932
B2124263840001N11204110WA0193101931
B2124273840001N11204114WA0193101931
B2124283840000N11204117WA0193101931
B2124293840000N11204120WA0193101931
B2124303839999N11204124WA0193101931
B2124313839999N11204127WA0193101931
B2124323839999N11204131WA0193201932
B2124333839999N11204134WA0193301933
B2124343839999N11204138WA0193401934
B2124353840000N11204142WA0193401934
B2124363840001N11204146WA0193501935
B2124373840003N11204150WA0193501935
B2124383840004N11204153WA0193501935
B2124393840006N11204157WA0193501935
B2124403840008N11204160WA0193401934
B2124413840011N11204163WA0193201932
B2124423840013N11204166WA0193201932
B2124433840015N11204168WA0193101931
B2124443840017N11204170WA0193001930
B2124453840020N11204171WA0192901929
B2124463840022N11204172WA0192801928
B2124473840025N11204173WA0192701927
B2124483840028N11204172WA0192601926
B2124493840031N11204171WA0192501925
B2124503840034N11204171WA0192501925
B2124513840036N11204171WA0192501925
B2124523840039N11204172WA0192501925
B2124533840042N11204173WA0192501925
B2124543840045N11204175WA0192401924
B2124553840047N11204177WA0192301923
B2124563840050N11204180WA0192201922
B2124573840052N11204183WA0192101921
B2124583840053N11204186WA0192001920
B2124593840055N11204189WA0192001920
B2125003840056N11204191WA0192001920
B2125013840058N11204194WA0192101921
B2125023840059N11204196WA0192001920
B2125033840060N11204199WA0191801918
B2125043840062N11204201WA0191701917
B2125053840064N11204204WA0191701917
B2125063840066N11204207WA0191501915
B2125073840068N11204210WA0191401914
B2125083840071N11204214WA0191401914
B2125093840073N11204217WA0191401914
B2125103840076N11204220WA0191401914
B2125113840078N11204223WA0191301913
B2125123840080N11204226WA0191301913
B2125133840083N11204229WA0191201912
B2125143840085N11204232WA0191301913
B2125153840088N11204234WA0191301913
B2125163840090N11204236WA0191401914
B2125173840093N11204237WA0191501915
B2125183840096N11204239WA0191501915
B2125193840099N11204240WA0191501915
B2125203840101N11204241WA0191501915
B2125213840104N11204242WA0191601916
B2125223840107N11204244WA0191501915
B2125233840110N11204246WA0191501915
B2125243840113N11204248WA0191401914
B2125253840116N11204250WA0191401914
B2125263840119N11204252WA0191301913
B2125273840121N11204255WA0191301913
B2125283840124N11204259WA0191201912
B2125293840127N11204261WA0191201912
B2125303840130N11204264WA0191201912
B2125313840133N11204266WA0191201912
B2125323840135N11204268WA0191101911
B2125333840138N11204270WA0191001910
B2125343840141N11204270WA0190901909
B2125353840144N11204271WA0190801908
B2125363840148N11204272WA0190801908
B2125373840151N11204273WA0190701907
B2125383840154N11204273WA0190701907
B2125393840158N11204274WA0190601906
B2125403840162N11204274WA0190501905
B2125413840165N11204274WA0190501905
B2125423840168N11204274WA0190401904
B2125433840172N11204273WA0190401904
B2125443840175N11204273WA0190401904
B2125453840179N11204272WA0190401904
B2125463840182N11204271WA0190401904
B2125473840187N11204269WA0190301903
B2125483840191N11204267WA0190301903
B2125493840195N11204265WA0190301903
B2125503840199N11204263WA0190201902
B2125513840204N11204261WA0190201902
B2125523840208N11204259WA0190101901
B2125533840212N11204257WA0190101901
B2125543840216N11204254WA0190101901
B2125553840219N11204253WA0190001900
B2125563840223N11204251WA0190001900
B2125573840227N11204249WA0190001900
B2125583840231N11204247WA0190001900
B2125593840235N11204246WA0190001900
B2126003840239N11204246WA0190001900
B2126013840242N11204246WA0189901899
B2126023840246N11204245WA0189901899
B2126033840250N11204245WA0189901899
B2126043840254N11204246WA0189901899
B2126053840258N11204247WA0189701897
B2126063840261N11204248WA0189601896
B2126073840265N11204250WA0189501895
B2126083840269N11204251WA0189501895
B2126093840273N11204253WA0189401894
B2126103840276N11204254WA0189301893
B2126113840280N11204255WA0189201892
B2126123840284N11204256WA0189201892
B2126133840287N11204257WA0189101891
B2126143840291N11204258WA0189001890
B2126153840295N11204260WA0188801888
B2126163840298N11204262WA0188701887
B2126173840302N11204264WA0188601886
B2126183840305N11204266WA0188501885
B2126193840308N11204268WA0188301883
B2126203840311N11204271WA0188401884
B2126213840314N11204273WA0188401884
B2126223840317N11204275WA0188401884
B2126233840321N11204277WA0188401884
B2126243840324N11204279WA0188301883
B2126253840327N11204280WA0188301883
B2126263840331N11204282WA0188201882
B2126273840334N11204283WA0188201882
B2126283840337N11204286WA0188201882
B2126293840340N11204289WA0188201882
B2126303840342N11204292WA0188101881
B2126313840345N11204296WA0188001880
B2126323840347N11204300WA0188001880
B2126333840348N11204304WA0187901879
B2126343840349N11204309WA0187901879
B2126353840350N11204314WA0187801878
B2126363840351N11204319WA0187801878
B2126373840351N11204323WA0187701877
B2126383840352N11204328WA0187601876
B2126393840352N11204332WA0187501875
B2126403840353N11204336WA0187401874
B2126413840354N11204340WA0187401874
B2126423840355N11204344WA0187201872
B2126433840357N11204347WA0187101871
B2126443840359N11204350WA0187001870
B2126453840361N11204352WA0186901869
B2126463840363N11204354WA0186801868
B2126473840366N11204356WA0186701867
B2126483840369N11204358WA0186601866
B2126493840373N11204359WA0186401864
B2126503840376N11204360WA0186401864
B2126513840380N11204361WA0186301863
B2126523840383N11204362WA0186101861
B2126533840387N11204363WA0186001860
B2126543840390N11204363WA0185901859
B2126553840393N11204362WA0185701857
B2126563840397N11204361WA0185801858
B2126573840400N11204360WA0185701857
B2126583840404N11204359WA0185701857
B2126593840407N11204357WA0185601856
B2127003840411N11204355WA0185601856
B2127013840414N11204354WA0185501855
B2127023840417N11204353WA0185501855
B2127033840421N11204353WA0185401854
B2127043840425N11204353WA0185401854
B2127053840428N11204354WA0185201852
B2127063840432N11204355WA0185101851
B2127073840436N11204356WA0185001850
B2127083840439N11204358WA0184901849
B2127093840443N11204360WA0184701847
B2127103840447N11204361WA0184601846
B2127113840450N11204363WA0184501845
B2127123840454N11204364WA0184401844
B2127133840458N11204365WA0184401844
B2127143840462N11204367WA0184301843
B2127153840466N11204368WA0184101841
B2127163840470N11204370WA0184001840
B2127173840474N11204372WA0183901839
B2127183840478N11204373WA0183701837
B2127193840482N11204375WA0183601836
B2127203840487N11204376WA0183601836
B2127213840491N11204377WA0183501835
B2127223840495N11204379WA0183401834
B2127233840499N11204380WA0183301833
B2127243840504N11204382WA0183101831
B2127253840508N11204385WA0182901829
B2127263840512N11204387WA0182701827
B2127273840516N11204389WA0182501825
B2127283840521N11204392WA0182401824
B2127293840525N11204394WA0182201822
B2127303840529N11204397WA0182001820
B2127313840533N11204399WA0181901819
B2127323840537N11204402WA0181701817
B2127333840542N11204404WA0181501815
B2127343840547N11204407WA0181301813
B2127353840551N11204410WA0181301813
B2127363840555N11204412WA0181201812
B2127373840559N11204414WA0181101811
B2127383840563N11204417WA0180901809
B2127393840567N11204419WA0180801808
B2127403840571N11204422WA0180801808
B2127413840574N11204424WA0180801808
B2127423840578N11204426WA0180701807
B2127433840582N11204428WA0180601806
B2127443840586N11204430WA0180501805
B2127453840589N11204432WA0180501805
B2127463840592N11204434WA0180501805
B2127473840596N11204436WA0180401804
B2127483840599N11204438WA0180301803
B2127493840602N11204440WA0180201802
B2127503840606N11204441WA0180101801
B2127513840609N11204443WA0179901799
B2127523840612N11204445WA0179901799
B2127533840616N11204447WA0179801798
B2127543840619N11204450WA0179801798
B2127553840622N11204453WA0179701797
B2127563840626N11204455WA0179601796
B2127573840629N11204458WA0179601796
B2127583840632N11204462WA0179601796
B2127593840635N11204465WA0179701797
B2128003840639N11204467WA0179601796
B2128013840642N11204471WA0179501795
B2128023840645N11204474WA0179401794
B2128033840648N11204477WA0179401794
B2128043840651N11204480WA0179401794
B2128053840653N11204484WA0179201792
B2128063840655N11204488WA0179101791
B2128073840658N11204492WA0179101791
B2128083840660N11204497WA0179101791
B2128093840662N11204501WA0179101791
B2128103840664N11204505WA0179201792
B2128113840667N11204510WA0179201792
B2128123840669N11204513WA0179201792
B2128133840672N11204517WA0179201792
B2128143840675N11204520WA0179201792
B2128153840677N11204524WA0179201792
B2128163840679N11204528WA0179201792
B2128173840682N11204531WA0179201792
B2128183840685N11204534WA0179301793
B2128193840687N11204538WA0179301793
B2128203840689N11204542WA0179201792
B2128213840692N11204545WA0179201792
B2128223840694N11204548WA0179201792
B2128233840697N11204552WA0179101791
B2128243840700N11204554WA0179001790
B2128253840703N11204556WA0179101791
B2128263840706N11204558WA0179001790
B2128273840710N11204559WA0179001790
B2128283840713N11204561WA0178801788
B2128293840717N11204562WA0178701787
B2128303840721N11204563WA0178601786
B2128313840725N11204564WA0178501785
B2128323840729N11204566WA0178501785
B2128333840733N11204567WA0178401784
B2128343840737N11204568WA0178301783
B2128353840740N11204570WA0178201782
B2128363840744N11204572WA0178201782
B2128373840748N11204573WA0178101781
B2128383840751N11204575WA0178001780
B2128393840755N11204577WA0177901779
B2128403840758N11204578WA0177701777
B2128413840761N11204580WA0177601776
B2128423840764N11204582WA0177501775
B2128433840767N11204583WA0177401774
B2128443840770N11204585WA0177301773
B2128453840774N11204587WA0177101771
B2128463840777N11204590WA0177101771
B2128473840780N11204592WA0176901769
B2128483840783N11204594WA0176901769
B2128493840786N11204597WA0176801768
B2128503840789N11204599WA0176701767
B2128513840792N11204601WA0176801768
B2128523840795N11204604WA0176701767
B2128533840798N11204608WA0176701767
B2128543840801N11204611WA0176801768
B2128553840804N11204615WA0176801768
B2128563840806N11204618WA0176601766
B2128573840809N11204622WA0176701767
B2128583840812N11204626WA0176601766
B2128593840814N11204631WA0176801768
B2129003840817N11204635WA0176701767
B2129013840821N11204639WA0176801768
B2129023840824N11204642WA0176601766
B2129033840826N11204645WA0176701767
B2129043840829N11204647WA0176701767
B2129053840831N11204649WA0176701767
B2129063840832N11204650WA0176601766
B2129073840834N11204652WA0176501765
B2129083840835N11204653WA0176401764
B2129093840836N11204654WA0176301763
B2129103840836N11204655WA0176301763
B2129113840836N11204655WA0176301763
B2129123840837N11204656WA0176401764
B2129133840838N11204657WA0176301763
B2129143840839N11204659WA0176101761
B2129153840840N11204662WA0176001760
B2129163840841N11204664WA0175901759
B2129173840843N11204667WA0175901759
B2129183840845N11204670WA0175901759
B2129193840848N11204673WA0175901759
B2129203840850N11204676WA0175901759
B2129213840852N11204679WA0175801758
B2129223840855N11204682WA0175701757
B2129233840858N11204685WA0175701757
B2129243840860N11204688WA0175601756
B2129253840863N11204691WA0175601756
B2129263840865N11204695WA0175501755
B2129273840867N11204697WA0175501755
B2129283840870N11204701WA0175401754
B2129293840872N11204704WA0175401754
B2129303840875N11204707WA0175201752
B2129313840878N11204710WA0175201752
B2129323840881N11204714WA0175101751
B2129333840884N11204717WA0175001750
B2129343840888N11204720WA0174901749
B2129353840891N11204722WA0175001750
B2129363840895N11204725WA0175001750
B2129373840899N11204729WA0174801748
B2129383840904N11204732WA0174701747
B2129393840908N11204735WA0174701747
B2129403840912N11204738WA0174701747
B2129413840916N11204740WA0174501745
B2129423840921N11204741WA0174501745
B2129433840925N11204742WA0174401744
B2129443840929N11204743WA0174301743
B2129453840933N11204744WA0174201742
B2129463840938N11204744WA0174301743
B2129473840942N11204745WA0174201742
B2129483840946N11204746WA0174101741
B2129493840950N11204748WA0174001740
B2129503840954N11204750WA0174001740
B2129513840958N11204752WA0174001740
B2129523840962N11204755WA0173901739
B2129533840966N11204757WA0173901739
B2129543840969N11204760WA0173801738
B2129553840973N11204763WA0173701737
B2129563840977N11204766WA0173601736
B2129573840981N11204770WA0173601736
B2129583840985N11204773WA0173601736
B2129593840989N11204776WA0173401734
B2130003840993N11204779WA0173301733
B2130013840997N11204783WA0173301733
B2130023841002N11204786WA0173201732
B2130033841006N11204789WA0173201732
B2130043841011N11204792WA0173101731
B2130053841015N11204795WA0173101731
B2130063841019N11204798WA0173001730
B2130073841024N11204801WA0172901729
B2130083841028N11204804WA0172801728
B2130093841032N11204807WA0172701727
B2130103841036N11204809WA0172601726
B2130113841040N11204812WA0172501725
B2130123841044N11204815WA0172401724
B2130133841048N11204818WA0172301723
B2130143841052N11204821WA0172201722
B2130153841057N11204823WA0172101721
B2130163841061N11204826WA0172001720
B2130173841065N11204829WA0172001720
B2130183841069N11204831WA0171901719
B2130193841072N11204834WA0171801718
B2130203841076N11204836WA0171701717
B2130213841080N11204839WA0171601716
B2130223841083N11204842WA0171501715
B2130233841087N11204844WA0171301713
B2130243841091N11204847WA0171201712
B2130253841094N11204849WA0171001710
B2130263841098N11204851WA0170901709
B2130273841102N11204854WA0170801708
B2130283841105N11204857WA0170701707
B2130293841109N11204859WA0170601706
B2130303841112N11204862WA0170501705
B2130313841116N11204866WA0170301703
B2130323841119N11204869WA0170201702
B2130333841123N11204873WA0170101701
B2130343841126N11204877WA0170001700
B2130353841130N11204881WA0169801698
B2130363841133N11204884WA0169701697
B2130373841137N11204888WA0169501695
B2130383841140N11204892WA0169401694
B2130393841143N11204895WA0169301693
B2130403841146N11204899WA0169101691
B2130413841150N11204902WA0168901689
B2130423841153N11204906WA0168801688
B2130433841156N11204910WA0168601686
B2130443841159N11204914WA0168501685
B2130453841163N11204918WA0168401684
B2130463841166N11204921WA0168401684
B2130473841170N11204924WA0168301683
B2130483841173N11204928WA0168201682
B2130493841176N11204932WA0168101681
B2130503841179N11204936WA0168001680
B2130513841183N11204940WA0168001680
B2130523841186N11204944WA0168001680
B2130533841189N11204947WA0167901679
B2130543841192N11204950WA0167801678
B2130553841196N11204953WA0167701677
B2130563841199N11204956WA0167701677
B2130573841202N11204958WA0167501675
B2130583841206N11204960WA0167501675
B2130593841210N11204962WA0167301673
B2131003841214N11204963WA0167201672
B2131013841218N11204965WA0167101671
B2131023841222N11204967WA0167001670
B2131033841226N11204969WA0167001670
B2131043841230N11204970WA0167001670
B2131053841235N11204972WA0166901669
B2131063841239N11204974WA0166901669
B2131073841244N11204976WA0166901669
B2131083841249N11204978WA0166801668
B2131093841253N11204980WA0166701667
B2131103841257N11204983WA0166601666
B2131113841261N11204985WA0166601666
B2131123841265N11204988WA0166401664
B2131133841268N11204989WA0166301663
B2131143841272N11204990WA0166301663
B2131153841277N11204992WA0166201662
B2131163841281N11204992WA0166101661
B2131173841285N11204993WA0166201662
B2131183841288N11204994WA0166101661
B2131193841292N11204994WA0166001660
B2131203841296N11204994WA0165901659
B2131213841301N11204993WA0165901659
B2131223841305N11204992WA0165801658
B2131233841309N11204991WA0165701657
B2131243841313N11204989WA0165701657
B2131253841318N11204987WA0165601656
B2131263841321N11204985WA0165601656
B2131273841325N11204983WA0165701657
B2131283841330N11204981WA0165801658
B2131293841334N11204979WA0165701657
B2131303841339N11204976WA0165701657
B2131313841343N11204974WA0165601656
B2131323841347N11204972WA0165601656
B2131333841351N11204969WA0165601656
B2131343841356N11204967WA0165501655
B2131353841360N11204963WA0165501655
B2131363841365N11204960WA0165301653
B2131373841369N11204957WA0165401654
B2131383841373N11204953WA0165301653
B2131393841377N11204949WA0165301653
B2131403841381N11204945WA0165301653
B2131413841384N11204941WA0165201652
B2131423841388N11204937WA0165101651
B2131433841392N11204933WA0165101651
B2131443841395N11204930WA0165101651
B2131453841399N11204927WA0165001650
B2131463841403N11204924WA0164901649
B2131473841407N11204923WA0165101651
B2131483841411N11204922WA0165001650
B2131493841415N11204923WA0165001650
B2131503841419N11204924WA0164901649
B2131513841423N11204926WA0164901649
B2131523841427N11204928WA0164701647
B2131533841432N11204930WA0164601646
B2131543841436N11204932WA0164401644
B2131553841441N11204934WA0164401644
B2131563841445N11204936WA0164201642
B2131573841450N11204938WA0164201642
B2131583841454N11204942WA0164101641
B2131593841458N11204945WA0164101641
B2132003841461N11204949WA0164101641
B2132013841465N11204953WA0164101641
B2132023841468N11204957WA0164101641
B2132033841472N11204960WA0164001640
B2132043841475N11204963WA0164001640
B2132053841479N11204965WA0163801638
B2132063841481N11204967WA0163701637
B2132073841484N11204969WA0163701637
B2132083841486N11204971WA0163801638
B2132093841488N11204972WA0163701637
B2132103841490N11204973WA0163601636
B2132113841492N11204974WA0163501635
B2132123841493N11204975WA0163401634
B2132133841494N11204976WA0163401634
B2132143841495N11204977WA0163401634
B2132153841496N11204979WA0163301633
B2132163841497N11204981WA0163401634
B2132173841497N11204984WA0163401634
B2132183841497N11204986WA0163301633
B2132193841497N11204990WA0163301633
B2132203841496N11204994WA0163301633
B2132213841496N11204998WA0163201632
B2132223841495N11205004WA0163301633
B2132233841494N11205010WA0163301633
B2132243841493N11205017WA0163301633
B2132253841492N11205024WA0163301633
B2132263841492N11205032WA0163201632
B2132273841491N11205041WA0163201632
B2132283841491N11205050WA0163101631
B2132293841490N11205060WA0163101631
B2132303841490N11205070WA0163101631
B2132313841490N11205080WA0163101631
B2132323841489N11205091WA0163101631
B2132333841489N11205102WA0163101631
B2132343841488N11205113WA0163101631
B2132353841488N11205125WA0163101631
B2132363841487N11205136WA0163101631
B2132373841486N11205148WA0163201632
B2132383841486N11205160WA0163201632
B2132393841486N11205171WA0163301633
B2132403841485N11205183WA0163301633
B2132413841485N11205195WA0163301633
B2132423841485N11205206WA0163401634
B2132433841485N11205218WA0163301633
B2132443841485N11205230WA0163301633
B2132453841485N11205242WA0163201632
B2132463841486N11205254WA0163201632
B2132473841485N11205266WA0163201632
B2132483841485N11205278WA0163201632
B2132493841483N11205290WA0163101631
B2132503841481N11205301WA0163001630
B2132513841478N11205312WA0162801628
B2132523841474N11205323WA0162801628
B2132533841470N11205333WA0162701627
B2132543841464N11205342WA0162701627
B2132553841458N11205351WA0162701627
B2132563841452N11205359WA0162701627
B2132573841445N11205367WA0162801628
B2132583841439N11205375WA0162801628
B2132593841432N11205383WA0162801628
B2133003841425N11205391WA0162901629
B2133013841418N11205399WA0162901629
B2133023841411N11205407WA0163001630
B2133033841404N11205415WA0163001630
B2133043841397N11205423WA0163001630
B2133053841390N11205431WA0163001630
B2133063841383N11205439WA0163001630
B2133073841376N11205447WA0163001630
B2133083841369N11205456WA0163001630
B2133093841362N11205464WA0162901629
B2133103841355N11205472WA0162901629
B2133113841347N11205481WA0162901629
B2133123841340N11205489WA0162801628
B2133133841333N11205497WA0162901629
B2133143841326N11205505WA0162901629
B2133153841320N11205513WA0162901629
B2133163841313N11205521WA0162901629
B2133173841307N11205530WA0162901629
B2133183841300N11205538WA0162901629
B2133193841294N11205548WA0162901629
B2133203841288N11205557WA0162801628
B2133213841282N11205566WA0162801628
B2133223841276N11205576WA0162801628
B2133233841270N11205585WA0162701627
B2133243841264N11205595WA0162601626
B2133253841258N11205604WA0162501625
B2133263841252N11205614WA0162501625
B2133273841246N11205624WA0162401624
B2133283841240N11205633WA0162401624
B2133293841234N11205643WA0162301623
B2133303841227N11205653WA0162301623
B2133313841221N11205662WA0162301623
B2133323841215N11205672WA0162301623
B2133333841208N11205682WA0162301623
B2133343841201N11205692WA0162301623
B2133353841195N11205703WA0162301623
B2133363841188N11205713WA0162301623
B2133373841181N11205723WA0162301623
B2133383841174N11205734WA0162401624
B2133393841167N11205745WA0162401624
B2133403841160N11205755WA0162401624
B2133413841154N11205766WA0162301623
B2133423841147N11205776WA0162301623
B2133433841140N11205787WA0162301623
B2133443841133N11205798WA0162201622
B2133453841127N11205807WA0162201622
B2133463841121N11205817WA0162201622
B2133473841116N11205826WA0162201622
B2133483841112N11205835WA0162101621
B2133493841109N11205845WA0162101621
B2133503841106N11205855WA0162101621
B2133513841104N11205865WA0162101621
B2133523841103N11205873WA0162101621
B2133533841102N11205882WA0162101621
B2133543841102N11205889WA0162001620
B2133553841101N11205897WA0162001620
B2133563841101N11205903WA0162001620
B2133573841100N11205909WA0162001620
B2133583841100N11205914WA0162001620
B2133593841100N11205919WA0162001620
B2134003841099N11205921WA0161901619
B2134013841099N11205923WA0161801618
B2134023841099N11205924WA0161701617
B2134033841099N11205924WA0161701617
B2134043841099N11205924WA0161601616
B2134053841099N11205925WA0161501615
B2134063841098N11205927WA0161501615
B2134073841097N11205929WA0161501615
B2134083841095N11205930WA0161401614
B2134093841092N11205932WA0161501615
B2134103841089N11205932WA0161401614
B2134113841084N11205933WA0161401614
B2134123841079N11205933WA0161501615
B2134133841074N11205933WA0161501615
B2134143841068N11205933WA0161601616
B2134153841062N11205933WA0161601616
B2134163841055N11205933WA0161601616
B2134173841047N11205933WA0161601616
B2134183841039N11205933WA0161701617
B2134193841031N11205933WA0161701617
B2134203841023N11205933WA0161601616
B2134213841014N11205933WA0161701617
B2134223841004N11205933WA0161701617
B2134233840995N11205933WA0161701617
B2134243840985N11205933WA0161801618
B2134253840975N11205934WA0161701617
B2134263840965N11205935WA0161801618
B2134273840955N11205937WA0161801618
B2134283840945N11205940WA0161801618
B2134293840936N11205944WA0161801618
B2134303840926N11205949WA0161801618
B2134313840916N11205955WA0161701617
B2134323840906N11205961WA0161601616
B2134333840896N11205967WA0161601616
B2134343840886N11205973WA0161501615
B2134353840875N11205979WA0161501615
B2134363840865N11205986WA0161501615
B2134373840855N11205992WA0161501615
B2134383840844N11205998WA0161501615
B2134393840833N11206004WA0161601616
B2134403840823N11206010WA0161601616
B2134413840811N11206015WA0161601616
B2134423840800N11206019WA0161701617
B2134433840788N11206022WA0161601616
B2134443840777N11206026WA0161701617
B2134453840765N11206029WA0161801618
B2134463840753N11206033WA0161801618
B2134473840742N11206037WA0161901619
B2134483840731N11206041WA0161901619
B2134493840719N11206045WA0162001620
B2134503840708N11206049WA0161901619
B2134513840697N11206053WA0162001620
B2134523840685N11206058WA0162101621
B2134533840674N11206062WA0162101621
B2134543840662N11206066WA0162101621
B2134553840651N11206071WA0162101621
B2134563840640N11206075WA0162201622
B2134573840628N11206080WA0162101621
B2134583840617N11206083WA0162101621
B2134593840606N11206086WA0162001620
B2135003840595N11206087WA0162001620
B2135013840584N11206087WA0162001620
B2135023840574N11206086WA0162101621
B2135033840563N11206083WA0162101621
B2135043840553N11206080WA0162101621
B2135053840543N11206076WA0162101621
B2135063840534N11206071WA0162201622
B2135073840524N11206066WA0162201622
B2135083840514N11206061WA0162301623
B2135093840504N11206056WA0162201622
B2135103840494N11206053WA0162301623
B2135113840484N11206051WA0162301623
B2135123840474N11206050WA0162301623
B2135133840464N11206049WA0162301623
B2135143840453N11206048WA0162401624
B2135153840443N11206047WA0162401624
B2135163840433N11206045WA0162401624
B2135173840423N11206045WA0162401624
B2135183840413N11206044WA0162301623
B2135193840403N11206044WA0162301623
B2135203840393N11206045WA0162301623
B2135213840383N11206046WA0162301623
B2135223840373N11206048WA0162301623
B2135233840363N11206050WA0162301623
B2135243840353N11206053WA0162301623
B2135253840344N11206056WA0162301623
B2135263840334N11206058WA0162301623
B2135273840324N11206061WA0162301623
B2135283840313N11206064WA0162301623
B2135293840303N11206067WA0162301623
B2135303840293N11206071WA0162301623
B2135313840284N11206074WA0162301623
B2135323840274N11206078WA0162301623
B2135333840263N11206082WA0162301623
B2135343840253N11206086WA0162301623
B2135353840243N11206090WA0162301623
B2135363840234N11206094WA0162301623
B2135373840224N11206098WA0162401624
B2135383840214N11206100WA0162401624
B2135393840204N11206101WA0162401624
B2135403840194N11206101WA0162501625
B2135413840184N11206101WA0162501625
B2135423840174N11206101WA0162501625
B2135433840164N11206101WA0162501625
B2135443840154N11206101WA0162501625
B2135453840144N11206101WA0162501625
B2135463840134N11206101WA0162601626
B2135473840124N11206101WA0162601626
B2135483840114N11206102WA0162701627
B2135493840104N11206103WA0162701627
B2135503840094N11206103WA0162701627
B2135513840084N11206104WA0162701627
B2135523840074N11206105WA0162701627
B2135533840064N11206106WA0162701627
B2135543840054N11206107WA0162701627
B2135553840044N11206107WA0162701627
B2135563840034N11206108WA0162701627
B2135573840024N11206109WA0162701627
B2135583840014N11206110WA0162701627
B2135593840004N11206110WA0162701627
B2136003839993N11206111WA0162701627
B2136013839983N11206112WA0162701627
B2136023839973N11206113WA0162701627
B2136033839962N11206114WA0162701627
B2136043839951N11206115WA0162701627
B2136053839941N11206116WA0162701627
B2136063839930N11206117WA0162701627
B2136073839919N11206118WA0162701627
B2136083839908N11206119WA0162701627
B2136093839897N11206120WA0162701627
B2136103839886N11206121WA0162701627
B2136113839875N11206122WA0162701627
B2136123839863N11206123WA0162701627
B2136133839852N11206124WA0162701627
B2136143839841N11206125WA0162701627
B2136153839829N11206126WA0162701627
B2136163839818N11206127WA0162701627
B2136173839807N11206129WA0162701627
B2136183839795N11206130WA0162701627
B2136193839784N11206132WA0162701627
B2136203839773N11206134WA0162601626
B2136213839762N11206136WA0162601626
B2136223839751N11206139WA0162601626
B2136233839740N11206141WA0162601626
B2136243839730N11206144WA0162601626
B2136253839721N11206148WA0162601626
B2136263839712N11206154WA0162501625
B2136273839704N11206161WA0162601626
B2136283839696N11206168WA0162501625
B2136293839688N11206177WA0162501625
B2136303839680N11206186WA0162401624
B2136313839672N11206195WA0162501625
B2136323839664N11206204WA0162501625
B2136333839656N11206213WA0162401624
B2136343839648N11206222WA0162501625
B2136353839639N11206231WA0162301623
B2136363839631N11206240WA0162301623
B2136373839623N11206248WA0162401624
B2136383839615N11206256WA0162401624
B2136393839606N11206263WA0162301623
B2136403839597N11206269WA0162301623
B2136413839587N11206275WA0162301623
B2136423839577N11206281WA0162301623
B2136433839567N11206285WA0162201622
B2136443839557N11206291WA0162201622
B2136453839546N11206295WA0162101621
B2136463839536N11206300WA0162201622
B2136473839525N11206305WA0162201622
B2136483839514N11206310WA0162101621
B2136493839504N11206315WA0162101621
B2136503839493N11206318WA0162101621
B2136513839482N11206322WA0162101621
B2136523839471N11206324WA0162101621
B2136533839459N11206325WA0162001620
B2136543839448N11206326WA0162001620
B2136553839437N11206326WA0162001620
B2136563839426N11206324WA0162001620
B2136573839415N11206322WA0162101621
B2136583839403N11206319WA0162101621
B2136593839392N11206315WA0162201622
B2137003839381N11206311WA0162201622
B2137013839369N11206308WA0162201622
B2137023839357N11206304WA0162301623
B2137033839346N11206300WA0162301623
B2137043839334N11206297WA0162301623
B2137053839323N11206293WA0162401624
B2137063839311N11206289WA0162401624
B2137073839300N11206286WA0162501625
B2137083839288N11206282WA0162601626
B2137093839277N11206280WA0162501625
B2137103839266N11206278WA0162501625
B2137113839254N11206278WA0162501625
B2137123839243N11206277WA0162601626
B2137133839232N11206277WA0162601626
B2137143839221N11206278WA0162501625
B2137153839211N11206279WA0162501625
B2137163839200N11206282WA0162501625
B2137173839190N11206285WA0162501625
B2137183839180N11206290WA0162601626
B2137193839170N11206296WA0162601626
B2137203839161N11206302WA0162701627
B2137213839151N11206309WA0162701627
B2137223839141N11206316WA0162701627
B2137233839130N11206323WA0162701627
B2137243839120N11206330WA0162701627
B2137253839110N11206337WA0162701627
B2137263839100N11206344WA0162701627
B2137273839090N11206352WA0162801628
B2137283839080N11206359WA0162801628
B2137293839070N11206366WA0162801628
B2137303839060N11206373WA0162901629
B2137313839049N11206380WA0163001630
B2137323839039N11206387WA0163001630
B2137333839029N11206394WA0163101631
B2137343839019N11206401WA0163101631
B2137353839009N11206409WA0163201632
B2137363839000N11206416WA0163201632
B2137373838990N11206423WA0163301633
B2137383838981N11206431WA0163301633
B2137393838972N11206439WA0163301633
B2137403838962N11206446WA0163301633
B2137413838953N11206454WA0163401634
B2137423838943N11206462WA0163401634
B2137433838933N11206470WA0163401634
B2137443838924N11206478WA0163401634
B2137453838914N11206486WA0163401634
B2137463838905N11206494WA0163501635
B2137473838895N11206502WA0163501635
B2137483838886N11206510WA0163601636
B2137493838876N11206518WA0163601636
B2137503838866N11206526WA0163601636
B2137513838856N11206534WA0163701637
B2137523838846N11206541WA0163701637
B2137533838837N11206549WA0163701637
B2137543838828N11206557WA0163701637
B2137553838819N11206564WA0163701637
B2137563838811N11206571WA0163701637
B2137573838802N11206579WA0163701637
B2137583838794N11206586WA0163701637
B2137593838785N11206594WA0163701637
B2138003838777N11206601WA0163701637
B2138013838768N11206609WA0163701637
B2138023838760N11206617WA0163701637
B2138033838751N11206625WA0163701637
B2138043838742N11206632WA0163701637
B2138053838734N11206641WA0163701637
B2138063838725N11206649WA0163701637
B2138073838716N11206657WA0163701637
B2138083838707N11206665WA0163701637
B2138093838698N11206673WA0163701637
B2138103838690N11206682WA0163701637
B2138113838682N11206690WA0163701637
B2138123838674N11206699WA0163601636
B2138133838665N11206708WA0163601636
B2138143838657N11206717WA0163601636
B2138153838649N11206726WA0163601636
B2138163838641N11206735WA0163501635
B2138173838633N11206744WA0163601636
B2138183838625N11206752WA0163601636
B2138193838617N11206760WA0163701637
B2138203838609N11206767WA0163701637
B2138213838600N11206774WA0163701637
B2138223838591N11206781WA0163701637
B2138233838583N11206788WA0163701637
B2138243838574N11206795WA0163701637
B2138253838565N11206802WA0163701637
B2138263838557N11206809WA0163701637
B2138273838547N11206815WA0163601636
B2138283838538N11206821WA0163601636
B2138293838529N11206828WA0163601636
B2138303838520N11206835WA0163601636
B2138313838511N11206841WA0163601636
B2138323838501N11206847WA0163601636
B2138333838492N11206854WA0163601636
B2138343838483N11206860WA0163601636
B2138353838475N11206867WA0163601636
B2138363838467N11206874WA0163601636
B2138373838458N11206880WA0163601636
B2138383838449N11206885WA0163601636
B2138393838440N11206889WA0163601636
B2138403838431N11206891WA0163501635
B2138413838421N11206892WA0163601636
B2138423838412N11206893WA0163601636
B2138433838403N11206893WA0163501635
B2138443838394N11206893WA0163501635
B2138453838387N11206893WA0163501635
B2138463838380N11206893WA0163601636
B2138473838373N11206893WA0163601636
B2138483838367N11206893WA0163701637
B2138493838361N11206893WA0163701637
B2138503838354N11206893WA0163801638
B2138513838348N11206893WA0163801638
B2138523838342N11206893WA0163901639
B2138533838336N11206893WA0163901639
B2138543838329N11206893WA0163901639
B2138553838323N11206893WA0163901639
B2138563838317N11206893WA0163901639
B2138573838310N11206893WA0163901639
B2138583838304N11206893WA0164001640
B2138593838297N11206893WA0164001640
B2139003838291N11206893WA0164001640
B2139013838285N11206893WA0164001640
B2139023838279N11206893WA0164001640
B2139033838272N11206893WA0164001640
B2139043838266N11206893WA0164001640
B2139053838260N11206893WA0164001640
B2139063838254N11206893WA0164001640
B2139073838248N11206893WA0164001640
B2139083838242N11206893WA0164001640
B2139093838236N11206893WA0164001640
B2139103838229N11206893WA0164101641
B2139113838223N11206893WA0164101641
B2139123838217N11206894WA0164201642
B2139133838211N11206894WA0164201642
B2139143838205N11206894WA0164201642
B2139153838199N11206894WA0164201642
B2139163838193N11206894WA0164101641
B2139173838186N11206894WA0164101641
B2139183838180N11206894WA0164201642
B2139193838174N11206894WA0164201642
B2139203838167N11206894WA0164201642
B2139213838161N11206894WA0164301643
B2139223838154N11206895WA0164201642
B2139233838147N11206895WA0164201642
B2139243838141N11206895WA0164301643
B2139253838134N11206895WA0164301643
B2139263838128N11206894WA0164301643
B2139273838121N11206894WA0164401644
B2139283838114N11206894WA0164401644
B2139293838107N11206894WA0164501645
B2139303838101N11206894WA0164501645
B2139313838094N11206894WA0164601646
B2139323838088N11206894WA0164701647
B2139333838081N11206894WA0164701647
B2139343838075N11206894WA0164801648
B2139353838068N11206894WA0164801648
B2139363838062N11206894WA0164901649
B2139373838056N11206894WA0164901649
B2139383838051N11206894WA0165001650
B2139393838046N11206894WA0165001650
B2139403838042N11206894WA0165101651
B2139413838038N11206894WA0165101651
B2139423838036N11206894WA0165101651
B2139433838034N11206894WA0165101651
B2139443838033N11206894WA0165101651
B2139453838032N11206894WA0165201652
B2139463838030N11206894WA0165201652
B2139473838027N11206894WA0165201652
B2139483838024N11206894WA0165201652
B2139493838020N11206894WA0165201652
B2139503838015N11206894WA0165201652
B2139513838010N11206894WA0165201652
B2139523838005N11206894WA0165301653
B2139533837999N11206894WA0165401654
B2139543837993N11206893WA0165401654
B2139553837987N11206893WA0165401654
B2139563837980N11206893WA0165501655
B2139573837974N11206893WA0165501655
B2139583837967N11206893WA0165401654
B2139593837961N11206893WA0165501655
B2140003837955N11206893WA0165401654
B2140013837949N11206893WA0165401654
B2140023837944N11206894WA0165401654
B2140033837939N11206894WA0165401654
B2140043837936N11206894WA0165401654
B2140053837933N11206894WA0165401654
B2140063837931N11206894WA0165401654
B2140073837930N11206895WA0165401654
B2140083837930N11206895WA0165401654
B2140093837929N11206895WA0165401654
B2140103837927N11206897WA0165501655
B2140113837926N11206899WA0165401654
B2140123837925N11206902WA0165401654
B2140133837924N11206906WA0165401654
B2140143837924N11206911WA0165301653
B2140153837924N11206917WA0165301653
B2140163837924N11206923WA0165301653
B2140173837924N11206930WA0165201652
B2140183837924N11206938WA0165201652
B2140193837923N11206947WA0165201652
B2140203837923N11206955WA0165301653
B2140213837923N11206965WA0165201652
B2140223837923N11206974WA0165301653
B2140233837923N11206983WA0165301653
B2140243837922N11206992WA0165301653
B2140253837922N11207000WA0165301653
B2140263837922N11207007WA0165301653
B2140273837921N11207013WA0165301653
B2140283837920N11207017WA0165301653
B2140293837918N11207020WA0165201652
B2140303837915N11207023WA0165301653
B2140313837913N11207025WA0165301653
B2140323837909N11207025WA0165401654
B2140333837905N11207025WA0165301653
B2140343837900N11207025WA0165301653
B2140353837895N11207025WA0165301653
B2140363837890N11207025WA0165301653
B2140373837884N11207025WA0165301653
B2140383837879N11207025WA0165201652
B2140393837873N11207025WA0165301653
B2140403837866N11207026WA0165301653
B2140413837860N11207026WA0165301653
B2140423837854N11207026WA0165301653
B2140433837848N11207026WA0165301653
B2140443837843N11207026WA0165401654
B2140453837838N11207025WA0165401654
B2140463837833N11207025WA0165501655
B2140473837830N11207025WA0165501655
B2140483837827N11207025WA0165601656
B2140493837825N11207025WA0165801658
B2140503837824N11207025WA0165801658
B2140513837823N11207025WA0165801658
B2140523837821N11207024WA0165901659
B2140533837819N11207022WA0165901659
B2140543837818N11207020WA0165901659
B2140553837817N11207017WA0166001660
B2140563837816N11207013WA0166101661
B2140573837816N11207008WA0166101661
B2140583837816N11207002WA0166301663
B2140593837816N11206996WA0166301663
B2141003837816N11206988WA0166301663
B2141013837816N11206981WA0166201662
B2141023837816N11206973WA0166201662
B2141033837816N11206965WA0166201662
B2141043837816N11206956WA0166101661
B2141053837816N11206948WA0166101661
B2141063837816N11206940WA0166001660
B2141073837816N11206932WA0166001660
B2141083837817N11206924WA0166101661
B2141093837817N11206917WA0166101661
B2141103837817N11206911WA0166101661
B2141113837816N11206905WA0166101661
B2141123837816N11206901WA0166101661
B2141133837814N11206897WA0166001660
B2141143837813N11206895WA0166101661
B2141153837811N11206893WA0166001660
B2141163837808N11206892WA0166001660
B2141173837805N11206892WA0166001660
B2141183837801N11206892WA0166001660
B2141193837796N11206892WA0166001660
B2141203837791N11206892WA0165901659
B2141213837786N11206892WA0165901659
B2141223837780N11206892WA0165901659
B2141233837774N11206892WA0165901659
B2141243837767N11206892WA0165801658
B2141253837760N11206892WA0165901659
B2141263837753N11206892WA0165801658
B2141273837745N11206892WA0165801658
B2141283837738N11206892WA0165801658
B2141293837730N11206892WA0165801658
B2141303837723N11206892WA0165801658
B2141313837715N11206892WA0165801658
B2141323837707N11206892WA0165801658
B2141333837699N11206892WA0165801658
B2141343837692N11206892WA0165701657
B2141353837684N11206892WA0165701657
B2141363837676N11206892WA0165801658
B2141373837668N11206892WA0165801658
B2141383837660N11206892WA0165801658
B2141393837652N11206892WA0165801658
B2141403837644N11206892WA0165801658
B2141413837636N11206892WA0165801658
B2141423837628N11206892WA0165801658
B2141433837620N11206893WA0165801658
B2141443837613N11206893WA0165901659
B2141453837605N11206893WA0165901659
B2141463837597N11206892WA0165901659
B2141473837589N11206892WA0165901659
B2141483837582N11206892WA0166001660
B2141493837574N11206892WA0166001660
B2141503837567N11206892WA0166001660
B2141513837559N11206892WA0166001660
B2141523837552N11206893WA0166001660
B2141533837545N11206892WA0166001660
B2141543837538N11206892WA0166001660
B2141553837532N11206893WA0166001660
B2141563837526N11206893WA0166101661
B2141573837521N11206893WA0166101661
B2141583837517N11206893WA0166101661
B2141593837513N11206893WA0166101661
B2142003837511N11206893WA0166101661
B2142013837510N11206893WA0166101661
B2142023837508N11206893WA0166101661
B2142033837506N11206893WA0166201662
B2142043837502N11206893WA0166201662
B2142053837498N11206893WA0166201662
B2142063837494N11206893WA0166101661
B2142073837489N11206893WA0166101661
B2142083837483N11206893WA0166101661
B2142093837477N11206893WA0166101661
B2142103837470N11206893WA0166101661
B2142113837463N11206893WA0166101661
B2142123837456N11206893WA0166101661
B2142133837450N11206893WA0166101661
B2142143837443N11206893WA0166001660
B2142153837436N11206893WA0166001660
B2142163837430N11206893WA0166001660
B2142173837423N11206893WA0165901659
B2142183837417N11206893WA0165901659
B2142193837411N11206893WA0165801658
B2142203837405N11206894WA0165701657
B2142213837400N11206894WA0165601656
B2142223837394N11206894WA0165501655
B2142233837389N11206894WA0165601656
B2142243837384N11206894WA0165601656
B2142253837379N11206893WA0165601656
B2142263837374N11206893WA0165601656
B2142273837369N11206893WA0165601656
B2142283837364N11206893WA0165501655
B2142293837360N11206893WA0165601656
B2142303837355N11206893WA0165501655
B2142313837350N11206893WA0165401654
B2142323837345N11206893WA0165501655
B2142333837341N11206893WA0165501655
B2142343837336N11206893WA0165601656
B2142353837331N11206893WA0165601656
B2142363837327N11206893WA0165601656
B2142373837322N11206893WA0165601656
B2142383837318N11206893WA0165601656
B2142393837313N11206893WA0165601656
B2142403837308N11206893WA0165701657
B2142413837303N11206893WA0165701657
B2142423837298N11206893WA0165701657
B2142433837293N11206892WA0165801658
B2142443837288N11206892WA0165801658
B2142453837283N11206892WA0165901659
B2142463837278N11206892WA0165901659
B2142473837273N11206892WA0166001660
B2142483837268N11206892WA0166001660
B2142493837263N11206892WA0166101661
B2142503837258N11206892WA0166201662
B2142513837253N11206892WA0166201662
B2142523837249N11206892WA0166301663
B2142533837244N11206892WA0166301663
B2142543837240N11206892WA0166301663
B2142553837236N11206892WA0166301663
B2142563837232N11206892WA0166401664
B2142573837229N11206891WA0166401664
B2142583837225N11206892WA0166401664
B2142593837220N11206892WA0166401664
B2143003837216N11206892WA0166401664
B2143013837212N11206892WA0166401664
B2143023837208N11206892WA0166401664
B2143033837203N11206892WA0166401664
B2143043837199N11206892WA0166501665
B2143053837195N11206892WA0166601666
B2143063837191N11206891WA0166601666
B2143073837187N11206891WA0166701667
B2143083837183N11206891WA0166701667
B2143093837179N11206891WA0166601666
B2143103837175N11206891WA0166501665
B2143113837172N11206891WA0166501665
B2143123837168N11206892WA0166501665
B2143133837164N11206892WA0166601666
B2143143837160N11206892WA0166601666
B2143153837157N11206892WA0166701667
B2143163837153N11206892WA0166701667
B2143173837150N11206892WA0166801668
B2143183837147N11206892WA0166801668
B2143193837145N11206891WA0166801668
B2143203837142N11206891WA0166801668
B2143213837139N11206891WA0166801668
B2143223837136N11206891WA0166801668
B2143233837132N11206891WA0166901669
B2143243837130N11206891WA0166901669
B2143253837127N11206890WA0167001670
B2143263837124N11206890WA0167001670
B2143273837123N11206890WA0167101671
B2143283837121N11206890WA0167101671
B2143293837119N11206890WA0167101671
B2143303837117N11206890WA0167101671
B2143313837116N11206890WA0167101671
B2143323837115N11206890WA0167201672
B2143333837113N11206890WA0167301673
B2143343837113N11206891WA0167301673
B2143353837112N11206892WA0167301673
B2143363837110N11206893WA0167401674
B2143373837109N11206896WA0167401674
B2143383837109N11206899WA0167501675
B2143393837108N11206903WA0167601676
B2143403837108N11206907WA0167601676
B2143413837108N11206911WA0167601676
B2143423837108N11206916WA0167501675
B2143433837108N11206920WA0167601676
B2143443837108N11206924WA0167601676
B2143453837108N11206928WA0167501675
B2143463837108N11206932WA0167501675
B2143473837108N11206936WA0167501675
B2143483837108N11206941WA0167401674
B2143493837108N11206945WA0167401674
B2143503837108N11206950WA0167401674
B2143513837109N11206955WA0167301673
B2143523837109N11206960WA0167301673
B2143533837109N11206965WA0167301673
B2143543837109N11206970WA0167301673
B2143553837109N11206975WA0167201672
B2143563837109N11206980WA0167201672
B2143573837110N11206985WA0167201672
B2143583837110N11206989WA0167201672
B2143593837110N11206994WA0167201672
B2144003837110N11206998WA0167201672
B2144013837111N11207001WA0167201672
B2144023837111N11207005WA0167201672
B2144033837111N11207008WA0167201672
B2144043837112N11207011WA0167201672
B2144053837113N11207014WA0167201672
B2144063837114N11207017WA0167101671
B2144073837115N11207020WA0167101671
B2144083837116N11207023WA0167001670
B2144093837117N11207026WA0167101671
B2144103837118N11207029WA0167001670
B2144113837120N11207031WA0167001670
B2144123837120N11207034WA0166901669
B2144133837121N11207036WA0167001670
B2144143837122N11207038WA0167001670
B2144153837122N11207040WA0167001670
B2144163837122N11207042WA0167001670
B2144173837123N11207044WA0167001670
B2144183837123N11207045WA0166901669
B2144193837123N11207047WA0166901669
B2144203837123N11207047WA0166901669
B2144213837123N11207048WA0166801668
B2144223837123N11207048WA0166801668
B2144233837123N11207048WA0166801668
B2144243837123N11207048WA0166801668
B2144253837123N11207048WA0166801668
B2144263837123N11207048WA0166701667
B2144273837123N11207048WA0166701667
B2144283837123N11207048WA0166701667
B2144293837123N11207048WA0166701667
B2144303837123N11207048WA0166701667
