AXFMFLYMASTER LIVETRACK
HFDTE210926
HFFXA010
HFPLTPILOT:Jaison Ashbaugh
HFGTYGLIDERTYPE:Niviuk Ikuma 3P / Ozone
HFCIDCOMPETITIONID:23
HFDTM100GPSDATUM:WGS-1984
HFRFWFIRMWAREVERSION:lt.flymaster.net bsGetPilotTrack
B2046373838038N11203639WA0267702677
B2046383838037N11203640WA0267702677
B2046393838037N11203642WA0267602676
B2046403838037N11203645WA0267602676
B2046413838036N11203648WA0267602676
B2046423838034N11203652WA0267702677
B2046433838031N11203656WA0267902679
B2046443838029N11203659WA0268102681
B2046453838028N11203662WA0268302683
B2046463838028N11203666WA0268302683
B2046473838027N11203670WA0268402684
B2046483838026N11203674WA0268302683
B2046493838025N11203678WA0268202682
B2046503838025N11203683WA0268202682
B2046513838025N11203688WA0268202682
B2046523838025N11203693WA0268202682
B2046533838025N11203698WA0268202682
B2046543838024N11203703WA0268202682
B2046553838023N11203708WA0268102681
B2046563838022N11203712WA0268102681
B2046573838021N11203717WA0268102681
B2046583838021N11203721WA0268002680
B2046593838021N11203726WA0268002680
B2047003838020N11203731WA0268002680
B2047013838020N11203736WA0268002680
B2047023838020N11203740WA0267902679
B2047033838019N11203745WA0267802678
B2047043838018N11203750WA0267602676
B2047053838016N11203754WA0267502675
B2047063838015N11203759WA0267402674
B2047073838013N11203763WA0267402674
B2047083838012N11203767WA0267202672
B2047093838011N11203772WA0267002670
B2047103838010N11203777WA0266802668
B2047113838009N11203783WA0266602666
B2047123838007N11203788WA0266502665
B2047133838005N11203794WA0266502665
B2047143838004N11203800WA0266502665
B2047153838003N11203804WA0266702667
B2047163838002N11203809WA0266902669
B2047173838002N11203814WA0267002670
B2047183838001N11203819WA0267002670
B2047193838002N11203824WA0267102671
B2047203838003N11203829WA0267102671
B2047213838004N11203834WA0267202672
B2047223838005N11203839WA0267302673
B2047233838009N11203842WA0267402674
B2047243838013N11203844WA0267502675
B2047253838018N11203845WA0267602676
B2047263838022N11203844WA0267702677
B2047273838027N11203841WA0267702677
B2047283838030N11203835WA0267802678
B2047293838032N11203827WA0267802678
B2047303838031N11203819WA0267902679
B2047313838027N11203812WA0268002680
B2047323838021N11203807WA0268202682
B2047333838014N11203807WA0268202682
B2047343838008N11203810WA0268302683
B2047353838003N11203815WA0268302683
B2047363838000N11203821WA0268502685
B2047373837999N11203827WA0268602686
B2047383837998N11203832WA0268902689
B2047393837998N11203837WA0269102691
B2047403837997N11203843WA0269202692
B2047413837996N11203849WA0269402694
B2047423837995N11203855WA0269602696
B2047433837994N11203861WA0269902699
B2047443837993N11203866WA0270202702
B2047453837993N11203872WA0270402704
B2047463837992N11203879WA0270502705
B2047473837992N11203885WA0270702707
B2047483837991N11203891WA0270902709
B2047493837990N11203896WA0271102711
B2047503837989N11203900WA0271302713
B2047513837988N11203905WA0271402714
B2047523837987N11203911WA0271502715
B2047533837985N11203918WA0271602716
B2047543837984N11203924WA0271902719
B2047553837983N11203928WA0272302723
B2047563837982N11203932WA0272702727
B2047573837980N11203936WA0272902729
B2047583837979N11203940WA0273002730
B2047593837978N11203945WA0273002730
B2048003837976N11203952WA0273002730
B2048013837974N11203958WA0273002730
B2048023837973N11203964WA0273202732
B2048033837971N11203969WA0273402734
B2048043837970N11203974WA0273502735
B2048053837969N11203979WA0273602736
B2048063837967N11203985WA0273602736
B2048073837966N11203990WA0273702737
B2048083837964N11203996WA0273702737
B2048093837963N11204002WA0273802738
B2048103837962N11204007WA0273902739
B2048113837961N11204011WA0274102741
B2048123837960N11204015WA0274202742
B2048133837960N11204019WA0274202742
B2048143837960N11204024WA0274102741
B2048153837960N11204030WA0274002740
B2048163837960N11204036WA0274002740
B2048173837959N11204042WA0274102741
B2048183837958N11204046WA0274202742
B2048193837957N11204050WA0274402744
B2048203837957N11204053WA0274502745
B2048213837957N11204058WA0274402744
B2048223837956N11204063WA0274302743
B2048233837955N11204070WA0274102741
B2048243837954N11204076WA0274202742
B2048253837953N11204080WA0274302743
B2048263837952N11204085WA0274402744
B2048273837952N11204090WA0274302743
B2048283837952N11204095WA0274202742
B2048293837952N11204100WA0273902739
B2048303837952N11204107WA0273702737
B2048313837952N11204113WA0273502735
B2048323837952N11204119WA0273402734
B2048333837952N11204124WA0273202732
B2048343837951N11204129WA0273102731
B2048353837950N11204134WA0273002730
B2048363837950N11204139WA0272802728
B2048373837949N11204144WA0272602726
B2048383837948N11204149WA0272402724
B2048393837946N11204155WA0272202722
B2048403837946N11204160WA0272102721
B2048413837947N11204165WA0271902719
B2048423837947N11204170WA0271702717
B2048433837948N11204175WA0271502715
B2048443837947N11204181WA0271202712
B2048453837947N11204187WA0270902709
B2048463837947N11204192WA0270802708
B2048473837947N11204197WA0270702707
B2048483837948N11204201WA0270602706
B2048493837948N11204205WA0270502705
B2048503837948N11204208WA0270302703
B2048513837948N11204212WA0270102701
B2048523837947N11204216WA0269802698
B2048533837947N11204221WA0269502695
B2048543837946N11204227WA0269202692
B2048553837945N11204233WA0269002690
B2048563837943N11204238WA0269002690
B2048573837942N11204242WA0269102691
B2048583837940N11204247WA0269202692
B2048593837939N11204252WA0269102691
B2049003837938N11204257WA0269002690
B2049013837936N11204263WA0269002690
B2049023837934N11204268WA0269002690
B2049033837932N11204273WA0269102691
B2049043837930N11204276WA0269202692
B2049053837927N11204280WA0269302693
B2049063837925N11204284WA0269302693
B2049073837923N11204288WA0269302693
B2049083837921N11204292WA0269402694
B2049093837919N11204296WA0269402694
B2049103837917N11204300WA0269402694
B2049113837915N11204305WA0269302693
B2049123837914N11204310WA0269202692
B2049133837912N11204315WA0269102691
B2049143837910N11204320WA0269102691
B2049153837908N11204325WA0269002690
B2049163837906N11204330WA0269002690
B2049173837904N11204334WA0269102691
B2049183837902N11204336WA0269102691
B2049193837900N11204339WA0269202692
B2049203837899N11204343WA0269002690
B2049213837898N11204348WA0268802688
B2049223837897N11204354WA0268702687
B2049233837896N11204360WA0268602686
B2049243837895N11204365WA0268702687
B2049253837895N11204369WA0268802688
B2049263837894N11204372WA0268802688
B2049273837893N11204376WA0268802688
B2049283837893N11204379WA0268702687
B2049293837891N11204384WA0268602686
B2049303837889N11204389WA0268402684
B2049313837887N11204394WA0268402684
B2049323837886N11204400WA0268402684
B2049333837884N11204405WA0268502685
B2049343837882N11204408WA0268802688
B2049353837880N11204411WA0269002690
B2049363837878N11204413WA0269202692
B2049373837876N11204416WA0269302693
B2049383837874N11204420WA0269202692
B2049393837872N11204425WA0269102691
B2049403837870N11204431WA0269202692
B2049413837868N11204436WA0269202692
B2049423837867N11204441WA0269302693
B2049433837866N11204445WA0269502695
B2049443837865N11204449WA0269602696
B2049453837864N11204452WA0269502695
B2049463837863N11204457WA0269402694
B2049473837862N11204462WA0269202692
B2049483837861N11204467WA0269202692
B2049493837860N11204470WA0269102691
B2049503837859N11204473WA0269202692
B2049513837858N11204476WA0269202692
B2049523837857N11204480WA0269002690
B2049533837856N11204484WA0268902689
B2049543837855N11204489WA0268802688
B2049553837854N11204494WA0268802688
B2049563837854N11204498WA0268802688
B2049573837854N11204503WA0268702687
B2049583837854N11204508WA0268702687
B2049593837853N11204514WA0268702687
B2050003837853N11204519WA0268702687
B2050013837853N11204525WA0268802688
B2050023837853N11204530WA0268902689
B2050033837853N11204536WA0269002690
B2050043837853N11204540WA0269202692
B2050053837853N11204545WA0269502695
B2050063837853N11204549WA0269702697
B2050073837854N11204553WA0269802698
B2050083837855N11204557WA0269902699
B2050093837856N11204563WA0269802698
B2050103837856N11204568WA0269702697
B2050113837857N11204574WA0269702697
B2050123837857N11204579WA0269702697
B2050133837858N11204583WA0269802698
B2050143837859N11204587WA0269902699
B2050153837859N11204591WA0270102701
B2050163837859N11204596WA0270102701
B2050173837859N11204600WA0270102701
B2050183837858N11204605WA0270102701
B2050193837858N11204609WA0270202702
B2050203837858N11204614WA0270202702
B2050213837858N11204618WA0270302703
B2050223837859N11204623WA0270402704
B2050233837859N11204627WA0270602706
B2050243837860N11204631WA0270802708
B2050253837862N11204635WA0271102711
B2050263837863N11204639WA0271202712
B2050273837865N11204644WA0271302713
B2050283837866N11204649WA0271402714
B2050293837867N11204653WA0271502715
B2050303837868N11204658WA0271502715
B2050313837869N11204662WA0271702717
B2050323837870N11204666WA0271802718
B2050333837871N11204670WA0271902719
B2050343837872N11204675WA0272002720
B2050353837873N11204679WA0272102721
B2050363837874N11204684WA0272102721
B2050373837874N11204688WA0272002720
B2050383837875N11204692WA0272002720
B2050393837876N11204696WA0271902719
B2050403837878N11204699WA0271902719
B2050413837880N11204703WA0271802718
B2050423837881N11204707WA0271602716
B2050433837882N11204712WA0271502715
B2050443837883N11204717WA0271302713
B2050453837883N11204722WA0271202712
B2050463837884N11204726WA0271202712
B2050473837885N11204731WA0271102711
B2050483837885N11204735WA0270902709
B2050493837886N11204739WA0270802708
B2050503837887N11204742WA0270702707
B2050513837888N11204746WA0270602706
B2050523837888N11204750WA0270402704
B2050533837889N11204753WA0270302703
B2050543837889N11204757WA0270102701
B2050553837890N11204761WA0270002700
B2050563837890N11204766WA0269902699
B2050573837891N11204770WA0269802698
B2050583837891N11204774WA0269802698
B2050593837891N11204778WA0269802698
B2051003837892N11204782WA0269902699
B2051013837892N11204785WA0270002700
B2051023837893N11204788WA0270002700
B2051033837893N11204791WA0269902699
B2051043837894N11204795WA0269702697
B2051053837894N11204798WA0269602696
B2051063837894N11204803WA0269402694
B2051073837894N11204807WA0269302693
B2051083837893N11204812WA0269202692
B2051093837893N11204817WA0269202692
B2051103837893N11204821WA0269302693
B2051113837894N11204824WA0269502695
B2051123837895N11204827WA0269702697
B2051133837896N11204830WA0269802698
B2051143837897N11204833WA0269902699
B2051153837899N11204837WA0269802698
B2051163837900N11204841WA0269702697
B2051173837901N11204845WA0269602696
B2051183837901N11204850WA0269602696
B2051193837901N11204854WA0269602696
B2051203837901N11204859WA0269502695
B2051213837902N11204864WA0269502695
B2051223837903N11204869WA0269402694
B2051233837904N11204875WA0269502695
B2051243837904N11204881WA0269602696
B2051253837905N11204887WA0269802698
B2051263837906N11204893WA0270002700
B2051273837907N11204899WA0270302703
B2051283837908N11204905WA0270502705
B2051293837909N11204910WA0270802708
B2051303837910N11204915WA0271002710
B2051313837910N11204920WA0271102711
B2051323837911N11204926WA0271202712
B2051333837911N11204932WA0271302713
B2051343837911N11204938WA0271502715
B2051353837911N11204943WA0271602716
B2051363837911N11204949WA0271802718
B2051373837911N11204955WA0272102721
B2051383837911N11204961WA0272302723
B2051393837911N11204966WA0272602726
B2051403837910N11204971WA0272802728
B2051413837910N11204977WA0273002730
B2051423837909N11204983WA0273202732
B2051433837909N11204988WA0273602736
B2051443837911N11204991WA0274002740
B2051453837913N11204993WA0274202742
B2051463837915N11204996WA0274202742
B2051473837918N11204999WA0274002740
B2051483837921N11205004WA0273702737
B2051493837923N11205009WA0273602736
B2051503837925N11205015WA0273702737
B2051513837927N11205019WA0273902739
B2051523837930N11205022WA0274202742
B2051533837933N11205025WA0274402744
B2051543837936N11205030WA0274402744
B2051553837939N11205035WA0274502745
B2051563837943N11205040WA0274502745
B2051573837946N11205045WA0274702747
B2051583837949N11205048WA0274802748
B2051593837953N11205052WA0274902749
B2052003837956N11205056WA0274902749
B2052013837960N11205061WA0274802748
B2052023837964N11205066WA0274702747
B2052033837967N11205072WA0274602746
B2052043837971N11205078WA0274602746
B2052053837975N11205083WA0274502745
B2052063837979N11205090WA0274502745
B2052073837983N11205096WA0274502745
B2052083837987N11205102WA0274502745
B2052093837990N11205107WA0274602746
B2052103837995N11205113WA0274702747
B2052113837999N11205118WA0274802748
B2052123838004N11205123WA0274802748
B2052133838008N11205128WA0274902749
B2052143838013N11205133WA0275002750
B2052153838017N11205137WA0275002750
B2052163838022N11205143WA0274902749
B2052173838026N11205148WA0274802748
B2052183838031N11205155WA0274802748
B2052193838035N11205161WA0274802748
B2052203838038N11205167WA0274702747
B2052213838040N11205173WA0274602746
B2052223838041N11205178WA0274502745
B2052233838041N11205183WA0274502745
B2052243838041N11205187WA0274602746
B2052253838042N11205191WA0274502745
B2052263838042N11205195WA0274202742
B2052273838042N11205199WA0273902739
B2052283838043N11205204WA0273602736
B2052293838044N11205209WA0273402734
B2052303838045N11205214WA0273202732
B2052313838045N11205219WA0272902729
B2052323838045N11205223WA0272702727
B2052333838045N11205227WA0272502725
B2052343838046N11205231WA0272302723
B2052353838048N11205235WA0272202722
B2052363838049N11205239WA0272202722
B2052373838051N11205243WA0272102721
B2052383838052N11205247WA0272002720
B2052393838052N11205251WA0271902719
B2052403838053N11205255WA0271802718
B2052413838054N11205260WA0271802718
B2052423838055N11205264WA0271802718
B2052433838056N11205268WA0271702717
B2052443838057N11205272WA0271502715
B2052453838058N11205276WA0271302713
B2052463838058N11205281WA0271102711
B2052473838059N11205285WA0270902709
B2052483838059N11205289WA0270602706
B2052493838059N11205293WA0270302703
B2052503838059N11205297WA0270002700
B2052513838059N11205302WA0269602696
B2052523838059N11205306WA0269202692
B2052533838058N11205310WA0268902689
B2052543838057N11205314WA0268602686
B2052553838056N11205319WA0268202682
B2052563838056N11205322WA0267902679
B2052573838055N11205326WA0267702677
B2052583838055N11205330WA0267402674
B2052593838054N11205334WA0267102671
B2053003838053N11205339WA0266702667
B2053013838053N11205343WA0266302663
B2053023838052N11205349WA0266002660
B2053033838052N11205354WA0265702657
B2053043838051N11205359WA0265502655
B2053053838051N11205364WA0265302653
B2053063838050N11205368WA0265002650
B2053073838050N11205372WA0264802648
B2053083838050N11205377WA0264402644
B2053093838049N11205382WA0264102641
B2053103838049N11205387WA0263702637
B2053113838049N11205392WA0263302633
B2053123838049N11205397WA0263002630
B2053133838049N11205402WA0262602626
B2053143838049N11205406WA0262202622
B2053153838049N11205411WA0261702617
B2053163838049N11205417WA0261102611
B2053173838049N11205422WA0260702607
B2053183838050N11205427WA0260402604
B2053193838050N11205432WA0260002600
B2053203838050N11205436WA0259502595
B2053213838050N11205442WA0259102591
B2053223838049N11205447WA0258602586
B2053233838048N11205453WA0258202582
B2053243838049N11205459WA0257902579
B2053253838049N11205465WA0257502575
B2053263838049N11205470WA0257102571
B2053273838048N11205476WA0256702567
B2053283838047N11205481WA0256302563
B2053293838046N11205487WA0255902559
B2053303838045N11205492WA0255602556
B2053313838043N11205497WA0255402554
B2053323838042N11205502WA0255202552
B2053333838041N11205506WA0255202552
B2053343838042N11205509WA0255402554
B2053353838042N11205512WA0255402554
B2053363838042N11205516WA0255302553
B2053373838042N11205520WA0255202552
B2053383838041N11205524WA0255102551
B2053393838040N11205529WA0255002550
B2053403838039N11205533WA0254902549
B2053413838038N11205537WA0255002550
B2053423838038N11205541WA0255102551
B2053433838038N11205546WA0255202552
B2053443838037N11205550WA0255202552
B2053453838036N11205555WA0255102551
B2053463838034N11205560WA0255002550
B2053473838033N11205564WA0255002550
B2053483838032N11205569WA0255102551
B2053493838031N11205573WA0255102551
B2053503838030N11205577WA0255202552
B2053513838028N11205581WA0255202552
B2053523838026N11205585WA0255102551
B2053533838024N11205589WA0255102551
B2053543838022N11205594WA0255102551
B2053553838020N11205598WA0255102551
B2053563838018N11205603WA0255102551
B2053573838016N11205608WA0255002550
B2053583838014N11205613WA0254902549
B2053593838011N11205619WA0254902549
B2054003838009N11205625WA0254902549
B2054013838006N11205630WA0254902549
B2054023838004N11205636WA0254902549
B2054033838002N11205641WA0255002550
B2054043838000N11205647WA0255002550
B2054053837997N11205653WA0255002550
B2054063837994N11205660WA0255002550
B2054073837991N11205665WA0255102551
B2054083837988N11205669WA0255202552
B2054093837987N11205673WA0255302553
B2054103837986N11205677WA0255102551
B2054113837984N11205683WA0254802548
B2054123837983N11205690WA0254302543
B2054133837982N11205699WA0254002540
B2054143837982N11205707WA0254002540
B2054153837981N11205712WA0254402544
B2054163837980N11205716WA0254802548
B2054173837979N11205720WA0255102551
B2054183837979N11205724WA0255302553
B2054193837979N11205728WA0255402554
B2054203837979N11205732WA0255502555
B2054213837980N11205736WA0255602556
B2054223837980N11205740WA0255702557
B2054233837978N11205745WA0255702557
B2054243837975N11205750WA0255702557
B2054253837972N11205755WA0255702557
B2054263837968N11205760WA0255702557
B2054273837964N11205764WA0255802558
B2054283837959N11205768WA0255902559
B2054293837955N11205771WA0256202562
B2054303837951N11205774WA0256402564
B2054313837947N11205778WA0256502565
B2054323837944N11205783WA0256602566
B2054333837940N11205788WA0256602566
B2054343837937N11205793WA0256802568
B2054353837933N11205797WA0257102571
B2054363837930N11205801WA0257302573
B2054373837928N11205806WA0257502575
B2054383837925N11205811WA0257702577
B2054393837923N11205816WA0257902579
B2054403837919N11205821WA0258002580
B2054413837916N11205826WA0258102581
B2054423837912N11205830WA0258202582
B2054433837909N11205835WA0258202582
B2054443837905N11205840WA0258302583
B2054453837902N11205845WA0258302583
B2054463837898N11205851WA0258302583
B2054473837895N11205856WA0258302583
B2054483837892N11205862WA0258402584
B2054493837888N11205867WA0258502585
B2054503837885N11205873WA0258602586
B2054513837882N11205878WA0258802588
B2054523837880N11205883WA0258902589
B2054533837877N11205889WA0259002590
B2054543837874N11205894WA0259102591
B2054553837871N11205900WA0259202592
B2054563837868N11205905WA0259302593
B2054573837865N11205910WA0259502595
B2054583837863N11205915WA0259702597
B2054593837861N11205920WA0260002600
B2055003837859N11205925WA0260202602
B2055013837858N11205930WA0260302603
B2055023837857N11205936WA0260302603
B2055033837854N11205942WA0260202602
B2055043837851N11205949WA0260102601
B2055053837848N11205954WA0260302603
B2055063837846N11205957WA0260602606
B2055073837845N11205960WA0260902609
B2055083837844N11205963WA0261002610
B2055093837842N11205968WA0261002610
B2055103837839N11205973WA0261002610
B2055113837836N11205978WA0261002610
B2055123837833N11205983WA0261202612
B2055133837830N11205987WA0261402614
B2055143837828N11205990WA0261502615
B2055153837825N11205994WA0261602616
B2055163837823N11205998WA0261602616
B2055173837820N11206003WA0261602616
B2055183837818N11206007WA0261602616
B2055193837815N11206012WA0261602616
B2055203837813N11206016WA0261702617
B2055213837810N11206019WA0261802618
B2055223837808N11206023WA0261802618
B2055233837804N11206027WA0261802618
B2055243837802N11206032WA0261802618
B2055253837799N11206036WA0261802618
B2055263837796N11206039WA0261902619
B2055273837794N11206042WA0262002620
B2055283837792N11206044WA0262002620
B2055293837790N11206047WA0261902619
B2055303837787N11206051WA0261802618
B2055313837784N11206055WA0261602616
B2055323837781N11206059WA0261502615
B2055333837778N11206063WA0261502615
B2055343837776N11206067WA0261502615
B2055353837774N11206070WA0261402614
B2055363837771N11206074WA0261202612
B2055373837767N11206079WA0261002610
B2055383837764N11206083WA0260802608
B2055393837762N11206088WA0260702607
B2055403837759N11206092WA0260602606
B2055413837757N11206097WA0260502605
B2055423837753N11206102WA0260302603
B2055433837749N11206108WA0260202602
B2055443837745N11206113WA0260102601
B2055453837741N11206119WA0260102601
B2055463837737N11206124WA0260202602
B2055473837734N11206128WA0260302603
B2055483837730N11206133WA0260202602
B2055493837726N11206138WA0260002600
B2055503837721N11206142WA0259802598
B2055513837717N11206148WA0259502595
B2055523837713N11206154WA0259402594
B2055533837708N11206160WA0259202592
B2055543837704N11206166WA0259102591
B2055553837700N11206171WA0258902589
B2055563837696N11206176WA0258802588
B2055573837693N11206181WA0258602586
B2055583837690N11206187WA0258302583
B2055593837687N11206194WA0257902579
B2056003837684N11206201WA0257602576
B2056013837681N11206207WA0257302573
B2056023837678N11206213WA0257002570
B2056033837674N11206219WA0256802568
B2056043837671N11206224WA0256602566
B2056053837667N11206229WA0256402564
B2056063837663N11206235WA0256202562
B2056073837659N11206241WA0256002560
B2056083837657N11206247WA0255902559
B2056093837657N11206254WA0255702557
B2056103837658N11206261WA0255402554
B2056113837662N11206266WA0255202552
B2056123837667N11206268WA0255002550
B2056133837672N11206267WA0254902549
B2056143837676N11206261WA0254602546
B2056153837676N11206251WA0254202542
B2056163837673N11206244WA0253902539
B2056173837667N11206241WA0253602536
B2056183837660N11206241WA0253402534
B2056193837655N11206245WA0253302533
B2056203837651N11206250WA0253202532
B2056213837650N11206257WA0253002530
B2056223837651N11206264WA0252702527
B2056233837655N11206269WA0252402524
B2056243837660N11206272WA0252302523
B2056253837665N11206271WA0252102521
B2056263837670N11206267WA0251902519
B2056273837674N11206261WA0251702517
B2056283837675N11206254WA0251402514
B2056293837674N11206247WA0251202512
B2056303837671N11206240WA0251002510
B2056313837666N11206237WA0250802508
B2056323837660N11206235WA0250602506
B2056333837654N11206236WA0250502505
B2056343837649N11206239WA0250202502
B2056353837645N11206244WA0250002500
B2056363837642N11206250WA0249802498
B2056373837640N11206256WA0249502495
B2056383837641N11206263WA0249202492
B2056393837642N11206268WA0249002490
B2056403837645N11206272WA0248802488
B2056413837649N11206275WA0248502485
B2056423837654N11206275WA0248202482
B2056433837658N11206274WA0248002480
B2056443837663N11206270WA0247702477
B2056453837666N11206264WA0247302473
B2056463837667N11206256WA0247002470
B2056473837664N11206249WA0246802468
B2056483837660N11206244WA0246602466
B2056493837653N11206243WA0246402464
B2056503837648N11206245WA0246202462
B2056513837643N11206249WA0246002460
B2056523837640N11206254WA0245902459
B2056533837638N11206259WA0245702457
B2056543837636N11206264WA0245502455
B2056553837634N11206270WA0245202452
B2056563837632N11206275WA0244802448
B2056573837629N11206280WA0244502445
B2056583837626N11206285WA0244302443
B2056593837623N11206290WA0243902439
B2057003837620N11206296WA0243602436
B2057013837617N11206301WA0243102431
B2057023837614N11206307WA0242902429
B2057033837612N11206311WA0242702427
B2057043837612N11206314WA0242602426
B2057053837612N11206318WA0242502425
B2057063837615N11206321WA0242202422
B2057073837619N11206322WA0241902419
B2057083837623N11206321WA0241402414
B2057093837628N11206317WA0241002410
B2057103837631N11206309WA0240702407
B2057113837631N11206300WA0240302403
B2057123837628N11206291WA0240002400
B2057133837622N11206286WA0239702397
B2057143837616N11206286WA0239502395
B2057153837612N11206288WA0239202392
B2057163837608N11206292WA0238802388
B2057173837605N11206296WA0238402384
B2057183837602N11206300WA0238102381
B2057193837602N11206305WA0237802378
B2057203837603N11206310WA0237402374
B2057213837605N11206314WA0237102371
B2057223837609N11206316WA0236802368
B2057233837612N11206316WA0236502365
B2057243837616N11206312WA0236202362
B2057253837620N11206306WA0235902359
B2057263837622N11206299WA0235502355
B2057273837622N11206291WA0235202352
B2057283837619N11206284WA0234902349
B2057293837614N11206278WA0234502345
B2057303837609N11206274WA0234102341
B2057313837603N11206272WA0233702337
B2057323837597N11206273WA0233402334
B2057333837592N11206275WA0232902329
B2057343837587N11206278WA0232402324
B2057353837583N11206282WA0231902319
B2057363837579N11206288WA0231502315
B2057373837577N11206295WA0231002310
B2057383837576N11206303WA0230602306
B2057393837578N11206309WA0230202302
B2057403837581N11206313WA0229902299
B2057413837585N11206316WA0229602296
B2057423837589N11206316WA0229302293
B2057433837592N11206314WA0229002290
B2057443837595N11206309WA0228702287
B2057453837596N11206303WA0228402284
B2057463837595N11206297WA0228102281
B2057473837592N11206291WA0227802278
B2057483837586N11206287WA0227402274
B2057493837580N11206286WA0227102271
B2057503837574N11206287WA0226702267
B2057513837568N11206290WA0226302263
B2057523837564N11206294WA0226002260
B2057533837560N11206299WA0225702257
B2057543837557N11206304WA0225302253
B2057553837555N11206310WA0225002250
B2057563837554N11206315WA0224802248
B2057573837554N11206320WA0224402244
B2057583837555N11206325WA0224102241
B2057593837557N11206330WA0223602236
B2058003837560N11206335WA0223202232
B2058013837565N11206339WA0222802228
B2058023837570N11206341WA0222402224
B2058033837575N11206342WA0222102221
B2058043837580N11206340WA0221702217
B2058053837585N11206337WA0221302213
B2058063837588N11206332WA0220802208
B2058073837589N11206325WA0220302203
B2058083837589N11206318WA0219802198
B2058093837587N11206312WA0219302193
B2058103837583N11206308WA0218902189
B2058113837577N11206306WA0218502185
B2058123837571N11206307WA0218002180
B2058133837565N11206310WA0217602176
B2058143837560N11206315WA0217102171
B2058153837555N11206320WA0216602166
B2058163837550N11206325WA0216202162
B2058173837546N11206330WA0215902159
B2058183837543N11206335WA0215602156
B2058193837539N11206339WA0215302153
B2058203837536N11206343WA0214902149
B2058213837532N11206348WA0214502145
B2058223837529N11206352WA0214202142
B2058233837527N11206355WA0214202142
B2058243837526N11206358WA0214302143
B2058253837525N11206362WA0214202142
B2058263837523N11206365WA0214002140
B2058273837520N11206370WA0213702137
B2058283837516N11206374WA0213402134
B2058293837513N11206379WA0213302133
B2058303837509N11206383WA0213202132
B2058313837505N11206386WA0213102131
B2058323837500N11206389WA0212802128
B2058333837495N11206391WA0212602126
B2058343837490N11206395WA0212402124
B2058353837485N11206399WA0212302123
B2058363837481N11206404WA0212102121
B2058373837478N11206408WA0212202122
B2058383837474N11206412WA0212202122
B2058393837470N11206415WA0212202122
B2058403837466N11206418WA0212102121
B2058413837462N11206422WA0212002120
B2058423837458N11206425WA0211902119
B2058433837455N11206428WA0211802118
B2058443837452N11206432WA0211802118
B2058453837450N11206434WA0211702117
B2058463837449N11206437WA0211502115
B2058473837447N11206440WA0211202112
B2058483837445N11206444WA0210902109
B2058493837442N11206448WA0210502105
B2058503837439N11206454WA0210102101
B2058513837436N11206459WA0209902099
B2058523837433N11206464WA0209902099
B2058533837429N11206468WA0209802098
B2058543837425N11206472WA0209802098
B2058553837421N11206477WA0209502095
B2058563837417N11206481WA0209402094
B2058573837413N11206486WA0209402094
B2058583837410N11206491WA0209302093
B2058593837407N11206495WA0209302093
B2059003837404N11206500WA0209202092
B2059013837400N11206504WA0209002090
B2059023837395N11206510WA0208802088
B2059033837390N11206515WA0208702087
B2059043837385N11206520WA0208602086
B2059053837380N11206523WA0208602086
B2059063837376N11206525WA0208502085
B2059073837371N11206528WA0208402084
B2059083837366N11206531WA0208102081
B2059093837360N11206535WA0207802078
B2059103837354N11206539WA0207502075
B2059113837347N11206543WA0207402074
B2059123837340N11206547WA0207402074
B2059133837335N11206550WA0207502075
B2059143837331N11206553WA0207702077
B2059153837327N11206556WA0207702077
B2059163837322N11206560WA0207502075
B2059173837317N11206564WA0207402074
B2059183837312N11206567WA0207202072
B2059193837306N11206571WA0207102071
B2059203837301N11206576WA0207102071
B2059213837297N11206580WA0207002070
B2059223837293N11206583WA0207002070
B2059233837289N11206587WA0206902069
B2059243837286N11206591WA0206702067
B2059253837283N11206595WA0206502065
B2059263837280N11206600WA0206302063
B2059273837277N11206604WA0206202062
B2059283837274N11206608WA0206102061
B2059293837271N11206612WA0205902059
B2059303837268N11206615WA0205802058
B2059313837266N11206619WA0205702057
B2059323837263N11206622WA0205602056
B2059333837260N11206626WA0205502055
B2059343837257N11206630WA0205302053
B2059353837254N11206634WA0205202052
B2059363837250N11206638WA0205102051
B2059373837247N11206643WA0205002050
B2059383837244N11206647WA0205002050
B2059393837242N11206651WA0204902049
B2059403837241N11206656WA0204802048
B2059413837241N11206660WA0204702047
B2059423837244N11206664WA0204402044
B2059433837248N11206666WA0204102041
B2059443837253N11206664WA0203902039
B2059453837257N11206658WA0203602036
B2059463837257N11206649WA0203302033
B2059473837255N11206641WA0203202032
B2059483837251N11206635WA0203102031
B2059493837246N11206630WA0203002030
B2059503837239N11206627WA0202902029
B2059513837232N11206625WA0202702027
B2059523837225N11206626WA0202602026
B2059533837219N11206629WA0202402024
B2059543837215N11206634WA0202202022
B2059553837213N11206640WA0202102021
B2059563837213N11206645WA0202002020
B2059573837215N11206650WA0201802018
B2059583837217N11206654WA0201502015
B2059593837220N11206657WA0201302013
B2100003837223N11206657WA0201102011
B2100013837226N11206656WA0200902009
B2100023837228N11206652WA0200702007
B2100033837229N11206646WA0200402004
B2100043837228N11206640WA0200202002
B2100053837225N11206633WA0200002000
B2100063837219N11206627WA0199801998
B2100073837213N11206623WA0199701997
B2100083837206N11206622WA0199601996
B2100093837199N11206623WA0199301993
B2100103837194N11206627WA0199101991
B2100113837189N11206631WA0198901989
B2100123837186N11206637WA0198701987
B2100133837183N11206643WA0198501985
B2100143837182N11206649WA0198301983
B2100153837183N11206654WA0198301983
B2100163837184N11206658WA0198101981
B2100173837187N11206660WA0197901979
B2100183837190N11206659WA0197801978
B2100193837193N11206656WA0197601976
B2100203837194N11206651WA0197401974
B2100213837194N11206644WA0197101971
B2100223837192N11206637WA0196901969
B2100233837187N11206630WA0196701967
B2100243837180N11206627WA0196701967
B2100253837172N11206627WA0196501965
B2100263837165N11206630WA0196401964
B2100273837160N11206636WA0196301963
B2100283837158N11206642WA0196201962
B2100293837157N11206647WA0196101961
B2100303837156N11206652WA0196101961
B2100313837156N11206656WA0196101961
B2100323837154N11206661WA0196101961
B2100333837152N11206666WA0196001960
B2100343837149N11206671WA0195901959
B2100353837147N11206676WA0195801958
B2100363837146N11206680WA0195901959
B2100373837145N11206684WA0196001960
B2100383837146N11206687WA0196001960
B2100393837147N11206691WA0195801958
B2100403837147N11206695WA0195701957
B2100413837147N11206700WA0195601956
B2100423837147N11206705WA0195401954
B2100433837147N11206710WA0195301953
B2100443837147N11206714WA0195201952
B2100453837147N11206719WA0195001950
B2100463837147N11206724WA0194801948
B2100473837147N11206729WA0194601946
B2100483837147N11206734WA0194501945
B2100493837147N11206740WA0194501945
B2100503837147N11206744WA0194501945
B2100513837147N11206748WA0194501945
B2100523837147N11206750WA0194501945
B2100533837148N11206752WA0194401944
B2100543837149N11206755WA0194201942
B2100553837150N11206758WA0193901939
B2100563837151N11206762WA0193701937
B2100573837151N11206766WA0193601936
B2100583837151N11206769WA0193501935
B2100593837150N11206773WA0193401934
B2101003837150N11206776WA0193201932
B2101013837150N11206779WA0193101931
B2101023837150N11206782WA0193001930
B2101033837151N11206785WA0192901929
B2101043837151N11206788WA0192701927
B2101053837151N11206791WA0192401924
B2101063837152N11206794WA0192201922
B2101073837153N11206797WA0192001920
B2101083837153N11206800WA0191801918
B2101093837154N11206803WA0191501915
B2101103837154N11206806WA0191201912
B2101113837154N11206810WA0190901909
B2101123837153N11206813WA0190601906
B2101133837153N11206817WA0190401904
B2101143837153N11206820WA0190201902
B2101153837152N11206823WA0190101901
B2101163837151N11206826WA0190101901
B2101173837150N11206829WA0190201902
B2101183837149N11206831WA0190201902
B2101193837149N11206834WA0190201902
B2101203837150N11206837WA0190201902
B2101213837153N11206840WA0190101901
B2101223837155N11206843WA0190001900
B2101233837157N11206846WA0190001900
B2101243837158N11206849WA0190001900
B2101253837158N11206853WA0189901899
B2101263837159N11206857WA0189801898
B2101273837159N11206861WA0189801898
B2101283837160N11206865WA0189801898
B2101293837160N11206869WA0189901899
B2101303837161N11206871WA0190101901
B2101313837163N11206873WA0190301903
B2101323837166N11206874WA0190301903
B2101333837171N11206875WA0190101901
B2101343837177N11206876WA0190001900
B2101353837183N11206874WA0189901899
B2101363837189N11206870WA0189901899
B2101373837194N11206864WA0189901899
B2101383837198N11206856WA0189901899
B2101393837201N11206849WA0190001900
B2101403837203N11206841WA0190001900
B2101413837205N11206833WA0189901899
B2101423837207N11206823WA0189801898
B2101433837207N11206813WA0189601896
B2101443837206N11206803WA0189501895
B2101453837203N11206793WA0189501895
B2101463837199N11206786WA0189401894
B2101473837193N11206780WA0189301893
B2101483837188N11206776WA0189201892
B2101493837183N11206774WA0189201892
B2101503837179N11206773WA0189201892
B2101513837175N11206773WA0189001890
B2101523837170N11206774WA0188801888
B2101533837166N11206775WA0188501885
B2101543837161N11206776WA0188401884
B2101553837157N11206778WA0188301883
B2101563837154N11206780WA0188301883
B2101573837151N11206783WA0188201882
B2101583837147N11206785WA0188201882
B2101593837144N11206788WA0188101881
B2102003837140N11206792WA0188001880
B2102013837137N11206795WA0188001880
B2102023837134N11206799WA0188001880
B2102033837132N11206803WA0188101881
B2102043837131N11206807WA0188201882
B2102053837132N11206810WA0188401884
B2102063837132N11206813WA0188401884
B2102073837132N11206816WA0188501885
B2102083837131N11206819WA0188501885
B2102093837129N11206821WA0188501885
B2102103837125N11206823WA0188401884
B2102113837121N11206825WA0188401884
B2102123837116N11206827WA0188401884
B2102133837111N11206829WA0188401884
B2102143837106N11206831WA0188401884
B2102153837101N11206831WA0188501885
B2102163837096N11206832WA0188701887
B2102173837092N11206833WA0188701887
B2102183837087N11206834WA0188801888
B2102193837081N11206836WA0188801888
B2102203837076N11206837WA0189001890
B2102213837072N11206838WA0189301893
B2102223837069N11206839WA0189501895
B2102233837065N11206841WA0189601896
B2102243837061N11206844WA0189601896
B2102253837057N11206847WA0189701897
B2102263837053N11206850WA0189901899
B2102273837051N11206853WA0190001900
B2102283837049N11206857WA0190201902
B2102293837047N11206861WA0190401904
B2102303837045N11206865WA0190501905
B2102313837044N11206869WA0190601906
B2102323837044N11206872WA0190801908
B2102333837046N11206876WA0190801908
B2102343837049N11206879WA0190601906
B2102353837054N11206883WA0190501905
B2102363837058N11206886WA0190401904
B2102373837062N11206888WA0190501905
B2102383837065N11206890WA0190501905
B2102393837068N11206892WA0190501905
B2102403837071N11206896WA0190401904
B2102413837075N11206900WA0190201902
B2102423837079N11206904WA0190001900
B2102433837082N11206909WA0190001900
B2102443837085N11206913WA0190001900
B2102453837087N11206917WA0189901899
B2102463837089N11206920WA0189901899
B2102473837091N11206925WA0189701897
B2102483837094N11206929WA0189501895
B2102493837096N11206935WA0189301893
B2102503837098N11206940WA0189201892
B2102513837100N11206945WA0189101891
B2102523837102N11206949WA0189101891
B2102533837103N11206953WA0189001890
B2102543837104N11206957WA0188901889
B2102553837106N11206962WA0188601886
B2102563837108N11206967WA0188401884
B2102573837109N11206973WA0188201882
B2102583837111N11206977WA0188001880
B2102593837113N11206981WA0187901879
B2103003837116N11206985WA0187701877
B2103013837120N11206988WA0187401874
B2103023837125N11206989WA0187001870
B2103033837131N11206988WA0186601866
B2103043837136N11206984WA0186401864
B2103053837139N11206978WA0186201862
B2103063837141N11206971WA0186001860
B2103073837141N11206963WA0185701857
B2103083837139N11206957WA0185501855
B2103093837136N11206952WA0185201852
B2103103837131N11206949WA0185001850
B2103113837126N11206950WA0184701847
B2103123837121N11206953WA0184501845
B2103133837117N11206958WA0184301843
B2103143837116N11206963WA0184201842
B2103153837116N11206968WA0184101841
B2103163837118N11206972WA0184001840
B2103173837122N11206976WA0183701837
B2103183837126N11206978WA0183401834
B2103193837132N11206979WA0183101831
B2103203837137N11206978WA0182901829
B2103213837142N11206975WA0182601826
B2103223837146N11206971WA0182301823
B2103233837149N11206965WA0182101821
B2103243837151N11206958WA0181801818
B2103253837150N11206950WA0181501815
B2103263837147N11206943WA0181301813
B2103273837143N11206938WA0181101811
B2103283837138N11206935WA0181001810
B2103293837134N11206934WA0180901809
B2103303837129N11206935WA0180701807
B2103313837125N11206938WA0180501805
B2103323837123N11206942WA0180201802
B2103333837122N11206948WA0180001800
B2103343837124N11206953WA0179701797
B2103353837126N11206957WA0179501795
B2103363837130N11206960WA0179301793
B2103373837134N11206962WA0179001790
B2103383837138N11206964WA0178801788
B2103393837143N11206965WA0178601786
B2103403837148N11206965WA0178401784
B2103413837153N11206964WA0178301783
B2103423837158N11206962WA0178201782
B2103433837163N11206959WA0178001780
B2103443837167N11206955WA0177801778
B2103453837172N11206949WA0177601776
B2103463837175N11206943WA0177401774
B2103473837178N11206935WA0177301773
B2103483837178N11206927WA0177101771
B2103493837177N11206919WA0176901769
B2103503837175N11206911WA0176801768
B2103513837173N11206904WA0176701767
B2103523837170N11206897WA0176601766
B2103533837166N11206891WA0176401764
B2103543837161N11206887WA0176301763
B2103553837156N11206884WA0176101761
B2103563837151N11206881WA0175901759
B2103573837146N11206879WA0175901759
B2103583837141N11206876WA0175701757
B2103593837137N11206875WA0175601756
B2104003837133N11206874WA0175501755
B2104013837128N11206874WA0175201752
B2104023837124N11206874WA0175001750
B2104033837119N11206874WA0174801748
B2104043837115N11206875WA0174601746
B2104053837111N11206877WA0174401744
B2104063837108N11206879WA0174201742
B2104073837106N11206882WA0174201742
B2104083837103N11206885WA0174201742
B2104093837100N11206888WA0174201742
B2104103837097N11206891WA0174201742
B2104113837095N11206894WA0174201742
B2104123837095N11206898WA0174101741
B2104133837096N11206901WA0174001740
B2104143837099N11206903WA0173801738
B2104153837102N11206904WA0173601736
B2104163837106N11206903WA0173301733
B2104173837110N11206902WA0173101731
B2104183837115N11206899WA0172901729
B2104193837119N11206897WA0172701727
B2104203837123N11206894WA0172601726
B2104213837127N11206893WA0172501725
B2104223837132N11206891WA0172401724
B2104233837136N11206890WA0172201722
B2104243837140N11206890WA0172101721
B2104253837143N11206890WA0172001720
B2104263837147N11206891WA0171901719
B2104273837151N11206891WA0171801718
B2104283837155N11206892WA0171701717
B2104293837159N11206892WA0171601716
B2104303837162N11206893WA0171501715
B2104313837165N11206894WA0171401714
B2104323837168N11206894WA0171501715
B2104333837171N11206894WA0171401714
B2104343837174N11206898WA0171301713
B2104353837174N11206903WA0171201712
B2104363837170N11206907WA0171101711
B2104373837165N11206909WA0171001710
B2104383837161N11206908WA0171101711
B2104393837157N11206905WA0171301713
B2104403837153N11206902WA0171301713
B2104413837148N11206900WA0171201712
B2104423837143N11206898WA0171101711
B2104433837137N11206897WA0171001710
B2104443837133N11206897WA0171101711
B2104453837130N11206900WA0171101711
B2104463837129N11206903WA0171001710
B2104473837129N11206908WA0170701707
B2104483837131N11206912WA0170501705
B2104493837134N11206914WA0170301703
B2104503837138N11206914WA0170201702
B2104513837142N11206914WA0170001700
B2104523837146N11206912WA0169901699
B2104533837149N11206910WA0169901699
B2104543837151N11206909WA0170001700
B2104553837154N11206909WA0169901699
B2104563837156N11206911WA0169701697
B2104573837158N11206916WA0169501695
B2104583837157N11206921WA0169301693
B2104593837153N11206925WA0169201692
B2105003837149N11206927WA0169101691
B2105013837146N11206929WA0169201692
B2105023837144N11206932WA0169201692
B2105033837141N11206935WA0169101691
B2105043837139N11206939WA0169001690
B2105053837137N11206943WA0168801688
B2105063837136N11206947WA0168801688
B2105073837137N11206950WA0168701687
B2105083837138N11206954WA0168501685
B2105093837138N11206959WA0168401684
B2105103837138N11206964WA0168201682
B2105113837139N11206970WA0168101681
B2105123837139N11206975WA0168001680
B2105133837140N11206979WA0167901679
B2105143837141N11206982WA0167901679
B2105153837142N11206985WA0167901679
B2105163837142N11206986WA0167901679
B2105173837142N11206987WA0167801678
B2105183837142N11206987WA0167901679
B2105193837142N11206987WA0167801678
B2105203837143N11206987WA0167801678
B2105213837143N11206987WA0167801678
B2105223837143N11206987WA0167701677
B2105233837143N11206987WA0167701677
B2105243837143N11206987WA0167701677
B2105253837143N11206986WA0167701677
B2105263837143N11206986WA0167601676
B2105273837143N11206986WA0167601676
B2105283837143N11206986WA0167601676
B2105293837143N11206986WA0167601676
B2105303837143N11206986WA0167601676
B2105313837143N11206986WA0167601676
