AXFMFLYMASTER LIVETRACK
HFDTE210926
HFFXA010
HFPLTPILOT:Matthew Glass
HFGTYGLIDERTYPE:Ozone Alpina 5 / Niviuk Arrow P2
HFCIDCOMPETITIONID:3688
HFDTM100GPSDATUM:WGS-1984
HFRFWFIRMWAREVERSION:lt.flymaster.net bsGetPilotTrack
B1941273838049N11203636WA0266502665
B1941283838049N11203638WA0266502665
B1941293838050N11203640WA0266402664
B1941303838050N11203643WA0266402664
B1941313838051N11203646WA0266202662
B1941323838051N11203651WA0266102661
B1941333838052N11203655WA0266202662
B1941343838053N11203659WA0266202662
B1941353838053N11203664WA0266102661
B1941363838053N11203669WA0266102661
B1941373838053N11203675WA0266002660
B1941383838053N11203681WA0266002660
B1941393838054N11203686WA0266002660
B1941403838056N11203692WA0266002660
B1941413838058N11203697WA0266102661
B1941423838059N11203703WA0266102661
B1941433838061N11203708WA0266202662
B1941443838062N11203715WA0266302663
B1941453838063N11203721WA0266402664
B1941463838065N11203726WA0266402664
B1941473838067N11203732WA0266502665
B1941483838067N11203738WA0266702667
B1941493838065N11203742WA0266702667
B1941503838061N11203746WA0266602666
B1941513838057N11203750WA0266502665
B1941523838054N11203754WA0266502665
B1941533838050N11203757WA0266502665
B1941543838047N11203759WA0266502665
B1941553838042N11203761WA0266402664
B1941563838036N11203763WA0266302663
B1941573838031N11203766WA0266202662
B1941583838026N11203768WA0266102661
B1941593838022N11203770WA0266202662
B1942003838017N11203771WA0266202662
B1942013838013N11203772WA0266102661
B1942023838008N11203773WA0266002660
B1942033838003N11203774WA0265902659
B1942043837999N11203774WA0265802658
B1942053837994N11203773WA0265702657
B1942063837990N11203773WA0265602656
B1942073837985N11203772WA0265602656
B1942083837981N11203770WA0265402654
B1942093837976N11203769WA0265202652
B1942103837970N11203768WA0265002650
B1942113837965N11203768WA0264802648
B1942123837960N11203768WA0264702647
B1942133837955N11203768WA0264602646
B1942143837950N11203768WA0264502645
B1942153837946N11203768WA0264402644
B1942163837941N11203767WA0264202642
B1942173837936N11203767WA0264002640
B1942183837931N11203766WA0263802638
B1942193837925N11203765WA0263702637
B1942203837920N11203763WA0263502635
B1942213837915N11203760WA0263402634
B1942223837910N11203758WA0263402634
B1942233837905N11203756WA0263202632
B1942243837901N11203753WA0263102631
B1942253837896N11203750WA0262902629
B1942263837891N11203747WA0262702627
B1942273837885N11203744WA0262502625
B1942283837880N11203741WA0262202622
B1942293837874N11203738WA0262102621
B1942303837869N11203735WA0262002620
B1942313837864N11203733WA0261902619
B1942323837859N11203731WA0261802618
B1942333837853N11203729WA0261602616
B1942343837848N11203726WA0261302613
B1942353837841N11203723WA0261102611
B1942363837835N11203721WA0260902609
B1942373837830N11203718WA0260802608
B1942383837824N11203714WA0260602606
B1942393837818N11203710WA0260502605
B1942403837812N11203707WA0260402604
B1942413837806N11203704WA0260402604
B1942423837801N11203701WA0260302603
B1942433837796N11203697WA0260302603
B1942443837790N11203694WA0260202602
B1942453837784N11203691WA0260202602
B1942463837778N11203688WA0260202602
B1942473837772N11203686WA0260402604
B1942483837767N11203683WA0260502605
B1942493837762N11203679WA0260802608
B1942503837757N11203676WA0260902609
B1942513837753N11203673WA0261102611
B1942523837747N11203671WA0261102611
B1942533837742N11203671WA0261102611
B1942543837737N11203673WA0261202612
B1942553837732N11203677WA0261302613
B1942563837729N11203683WA0261402614
B1942573837727N11203690WA0261502615
B1942583837728N11203696WA0261802618
B1942593837730N11203702WA0261902619
B1943003837734N11203705WA0262002620
B1943013837739N11203707WA0262102621
B1943023837744N11203708WA0262302623
B1943033837748N11203709WA0262302623
B1943043837752N11203712WA0262302623
B1943053837755N11203717WA0262302623
B1943063837756N11203723WA0262102621
B1943073837755N11203729WA0262002620
B1943083837752N11203735WA0261902619
B1943093837746N11203737WA0261802618
B1943103837740N11203736WA0261702617
B1943113837734N11203732WA0261602616
B1943123837728N11203726WA0261502615
B1943133837724N11203719WA0261402614
B1943143837721N11203712WA0261402614
B1943153837718N11203704WA0261302613
B1943163837715N11203696WA0261302613
B1943173837711N11203687WA0261102611
B1943183837706N11203679WA0261102611
B1943193837701N11203673WA0261402614
B1943203837696N11203668WA0261902619
B1943213837693N11203664WA0262502625
B1943223837691N11203659WA0262802628
B1943233837689N11203655WA0263102631
B1943243837684N11203650WA0263002630
B1943253837678N11203646WA0262902629
B1943263837671N11203641WA0262702627
B1943273837664N11203638WA0262702627
B1943283837657N11203636WA0263002630
B1943293837652N11203635WA0263302633
B1943303837647N11203635WA0263502635
B1943313837644N11203637WA0263502635
B1943323837640N11203642WA0263302633
B1943333837638N11203648WA0263202632
B1943343837636N11203655WA0263102631
B1943353837637N11203662WA0263102631
B1943363837639N11203668WA0263102631
B1943373837643N11203673WA0263102631
B1943383837647N11203676WA0263002630
B1943393837652N11203678WA0262902629
B1943403837657N11203679WA0262802628
B1943413837663N11203681WA0262602626
B1943423837668N11203682WA0262502625
B1943433837672N11203686WA0262502625
B1943443837675N11203691WA0262402624
B1943453837675N11203698WA0262202622
B1943463837673N11203706WA0261902619
B1943473837669N11203713WA0261802618
B1943483837666N11203719WA0261702617
B1943493837662N11203723WA0261802618
B1943503837659N11203728WA0261802618
B1943513837656N11203732WA0261702617
B1943523837652N11203738WA0261502615
B1943533837649N11203744WA0261102611
B1943543837646N11203751WA0260802608
B1943553837643N11203759WA0260502605
B1943563837641N11203767WA0260302603
B1943573837638N11203774WA0260202602
B1943583837637N11203780WA0260202602
B1943593837635N11203786WA0260002600
B1944003837634N11203793WA0259802598
B1944013837633N11203801WA0259602596
B1944023837632N11203809WA0259202592
B1944033837631N11203817WA0258902589
B1944043837630N11203825WA0258702587
B1944053837628N11203833WA0258502585
B1944063837627N11203840WA0258402584
B1944073837626N11203848WA0258202582
B1944083837625N11203856WA0258102581
B1944093837624N11203864WA0258002580
B1944103837624N11203872WA0257902579
B1944113837623N11203879WA0258002580
B1944123837621N11203887WA0257902579
B1944133837620N11203895WA0257802578
B1944143837619N11203903WA0257902579
B1944153837620N11203910WA0258102581
B1944163837622N11203916WA0258102581
B1944173837625N11203923WA0258202582
B1944183837627N11203931WA0258202582
B1944193837629N11203939WA0258202582
B1944203837629N11203947WA0258302583
B1944213837629N11203954WA0258402584
B1944223837629N11203961WA0258302583
B1944233837628N11203968WA0258202582
B1944243837626N11203976WA0258002580
B1944253837623N11203983WA0257802578
B1944263837619N11203990WA0257702577
B1944273837613N11203995WA0257602576
B1944283837606N11203998WA0257502575
B1944293837599N11203999WA0257402574
B1944303837593N11203998WA0257302573
B1944313837586N11203996WA0257202572
B1944323837580N11203993WA0257102571
B1944333837573N11203989WA0257002570
B1944343837568N11203983WA0257002570
B1944353837563N11203977WA0257002570
B1944363837559N11203970WA0257002570
B1944373837555N11203962WA0257002570
B1944383837553N11203954WA0257002570
B1944393837552N11203946WA0256902569
B1944403837552N11203937WA0256702567
B1944413837554N11203929WA0256502565
B1944423837556N11203920WA0256402564
B1944433837558N11203912WA0256402564
B1944443837561N11203905WA0256402564
B1944453837565N11203899WA0256402564
B1944463837570N11203894WA0256502565
B1944473837575N11203889WA0256602566
B1944483837580N11203884WA0256702567
B1944493837586N11203881WA0256902569
B1944503837591N11203879WA0257102571
B1944513837597N11203878WA0257202572
B1944523837602N11203879WA0257302573
B1944533837607N11203881WA0257202572
B1944543837612N11203886WA0257202572
B1944553837615N11203892WA0257202572
B1944563837616N11203899WA0257402574
B1944573837615N11203905WA0257602576
B1944583837611N11203910WA0257802578
B1944593837605N11203913WA0257802578
B1945003837598N11203915WA0257902579
B1945013837592N11203915WA0258002580
B1945023837585N11203913WA0258102581
B1945033837579N11203908WA0258202582
B1945043837574N11203902WA0258202582
B1945053837570N11203894WA0258202582
B1945063837569N11203885WA0258202582
B1945073837570N11203876WA0258302583
B1945083837573N11203869WA0258302583
B1945093837578N11203864WA0258402584
B1945103837584N11203860WA0258402584
B1945113837589N11203859WA0258402584
B1945123837595N11203859WA0258402584
B1945133837600N11203862WA0258402584
B1945143837605N11203867WA0258302583
B1945153837609N11203873WA0258302583
B1945163837611N11203881WA0258302583
B1945173837612N11203888WA0258402584
B1945183837611N11203895WA0258602586
B1945193837609N11203902WA0258702587
B1945203837606N11203908WA0258802588
B1945213837601N11203914WA0258902589
B1945223837595N11203918WA0258902589
B1945233837588N11203919WA0258902589
B1945243837581N11203918WA0259002590
B1945253837574N11203915WA0259102591
B1945263837569N11203910WA0259202592
B1945273837565N11203903WA0259202592
B1945283837563N11203894WA0259102591
B1945293837562N11203885WA0258902589
B1945303837563N11203876WA0258802588
B1945313837566N11203867WA0258702587
B1945323837571N11203861WA0258702587
B1945333837577N11203859WA0258602586
B1945343837582N11203860WA0258602586
B1945353837588N11203864WA0258602586
B1945363837592N11203868WA0258702587
B1945373837596N11203873WA0258802588
B1945383837600N11203877WA0258902589
B1945393837603N11203882WA0258902589
B1945403837607N11203888WA0258802588
B1945413837612N11203895WA0258602586
B1945423837616N11203900WA0258702587
B1945433837622N11203905WA0258702587
B1945443837626N11203908WA0259002590
B1945453837630N11203910WA0259302593
B1945463837634N11203913WA0259502595
B1945473837637N11203917WA0259502595
B1945483837639N11203923WA0259502595
B1945493837640N11203929WA0259402594
B1945503837639N11203935WA0259402594
B1945513837637N11203941WA0259302593
B1945523837632N11203946WA0259302593
B1945533837626N11203948WA0259202592
B1945543837619N11203947WA0259002590
B1945553837613N11203946WA0258802588
B1945563837606N11203945WA0258602586
B1945573837599N11203946WA0258502585
B1945583837592N11203949WA0258302583
B1945593837585N11203953WA0258202582
B1946003837580N11203959WA0258102581
B1946013837576N11203964WA0258102581
B1946023837572N11203969WA0258002580
B1946033837570N11203975WA0257902579
B1946043837569N11203981WA0257602576
B1946053837568N11203988WA0257202572
B1946063837568N11203996WA0256802568
B1946073837568N11204004WA0256402564
B1946083837567N11204012WA0256102561
B1946093837567N11204020WA0255702557
B1946103837566N11204028WA0255402554
B1946113837565N11204036WA0255002550
B1946123837564N11204045WA0254802548
B1946133837562N11204053WA0254602546
B1946143837562N11204062WA0254502545
B1946153837561N11204069WA0254502545
B1946163837560N11204076WA0254402544
B1946173837558N11204083WA0254302543
B1946183837557N11204091WA0254002540
B1946193837556N11204100WA0253702537
B1946203837556N11204109WA0253402534
B1946213837557N11204118WA0253202532
B1946223837557N11204126WA0253002530
B1946233837556N11204133WA0252902529
B1946243837556N11204141WA0252702527
B1946253837555N11204149WA0252502525
B1946263837555N11204156WA0252302523
B1946273837554N11204164WA0252202522
B1946283837553N11204172WA0251902519
B1946293837552N11204180WA0251802518
B1946303837551N11204188WA0251602516
B1946313837551N11204195WA0251502515
B1946323837550N11204203WA0251302513
B1946333837550N11204210WA0251102511
B1946343837550N11204218WA0250902509
B1946353837549N11204226WA0250702507
B1946363837548N11204234WA0250402504
B1946373837548N11204242WA0250302503
B1946383837547N11204250WA0250202502
B1946393837547N11204258WA0250102501
B1946403837546N11204266WA0250002500
B1946413837546N11204274WA0249902499
B1946423837545N11204282WA0249702497
B1946433837545N11204290WA0249602496
B1946443837544N11204298WA0249402494
B1946453837544N11204306WA0249202492
B1946463837544N11204314WA0248902489
B1946473837543N11204322WA0248702487
B1946483837542N11204329WA0248502485
B1946493837541N11204337WA0248102481
B1946503837540N11204345WA0247802478
B1946513837539N11204353WA0247602476
B1946523837538N11204361WA0247402474
B1946533837538N11204368WA0247202472
B1946543837537N11204375WA0247002470
B1946553837536N11204382WA0246802468
B1946563837535N11204389WA0246702467
B1946573837535N11204396WA0246602466
B1946583837535N11204403WA0246502465
B1946593837536N11204409WA0246302463
B1947003837536N11204415WA0246002460
B1947013837534N11204421WA0245602456
B1947023837533N11204427WA0245302453
B1947033837531N11204433WA0245002450
B1947043837530N11204440WA0244602446
B1947053837529N11204447WA0244302443
B1947063837527N11204454WA0244202442
B1947073837526N11204460WA0244002440
B1947083837524N11204466WA0243802438
B1947093837523N11204473WA0243702437
B1947103837521N11204479WA0243402434
B1947113837519N11204486WA0243202432
B1947123837518N11204493WA0243002430
B1947133837517N11204500WA0242902429
B1947143837516N11204507WA0242702427
B1947153837515N11204514WA0242502425
B1947163837513N11204521WA0242402424
B1947173837511N11204528WA0242202422
B1947183837509N11204535WA0242002420
B1947193837506N11204541WA0241902419
B1947203837504N11204547WA0241802418
B1947213837502N11204554WA0241602416
B1947223837500N11204560WA0241502415
B1947233837498N11204566WA0241302413
B1947243837496N11204572WA0241102411
B1947253837493N11204578WA0240902409
B1947263837490N11204584WA0240802408
B1947273837488N11204589WA0240702407
B1947283837486N11204595WA0240502405
B1947293837485N11204602WA0240302403
B1947303837483N11204609WA0240002400
B1947313837482N11204616WA0239802398
B1947323837480N11204624WA0239602396
B1947333837479N11204630WA0239502395
B1947343837478N11204636WA0239402394
B1947353837476N11204642WA0239302393
B1947363837475N11204648WA0239102391
B1947373837474N11204655WA0238802388
B1947383837473N11204663WA0238602386
B1947393837471N11204671WA0238402384
B1947403837469N11204677WA0238402384
B1947413837468N11204683WA0238502385
B1947423837467N11204688WA0238502385
B1947433837466N11204693WA0238502385
B1947443837465N11204698WA0238302383
B1947453837464N11204703WA0238002380
B1947463837463N11204709WA0237602376
B1947473837461N11204716WA0237202372
B1947483837459N11204724WA0236902369
B1947493837457N11204730WA0236602366
B1947503837455N11204737WA0236502365
B1947513837453N11204742WA0236402364
B1947523837451N11204748WA0236302363
B1947533837449N11204754WA0236102361
B1947543837447N11204760WA0235802358
B1947553837445N11204766WA0235602356
B1947563837443N11204772WA0235302353
B1947573837441N11204778WA0234902349
B1947583837439N11204785WA0234602346
B1947593837438N11204792WA0234202342
B1948003837437N11204800WA0233802338
B1948013837436N11204807WA0233602336
B1948023837435N11204814WA0233402334
B1948033837434N11204820WA0233202332
B1948043837433N11204827WA0233102331
B1948053837432N11204833WA0232902329
B1948063837431N11204840WA0232702327
B1948073837430N11204847WA0232402324
B1948083837429N11204853WA0232102321
B1948093837428N11204861WA0231802318
B1948103837427N11204868WA0231502315
B1948113837425N11204877WA0231202312
B1948123837424N11204885WA0230902309
B1948133837422N11204893WA0230702307
B1948143837421N11204901WA0230702307
B1948153837420N11204908WA0230802308
B1948163837419N11204914WA0231002310
B1948173837419N11204919WA0231002310
B1948183837417N11204925WA0230902309
B1948193837416N11204931WA0230802308
B1948203837415N11204938WA0230602306
B1948213837414N11204945WA0230302303
B1948223837413N11204952WA0230202302
B1948233837413N11204958WA0230102301
B1948243837412N11204964WA0230002300
B1948253837411N11204970WA0229902299
B1948263837411N11204976WA0229702297
B1948273837410N11204982WA0229502295
B1948283837410N11204989WA0229302293
B1948293837410N11204996WA0229002290
B1948303837409N11205004WA0228802288
B1948313837409N11205011WA0228702287
B1948323837408N11205018WA0228602286
B1948333837407N11205025WA0228402284
B1948343837406N11205032WA0228202282
B1948353837406N11205039WA0227902279
B1948363837405N11205047WA0227502275
B1948373837405N11205055WA0227302273
B1948383837404N11205063WA0227102271
B1948393837404N11205071WA0227102271
B1948403837403N11205078WA0227002270
B1948413837403N11205085WA0226902269
B1948423837403N11205092WA0226902269
B1948433837403N11205098WA0226902269
B1948443837404N11205105WA0226902269
B1948453837405N11205111WA0226902269
B1948463837408N11205117WA0227002270
B1948473837410N11205123WA0227202272
B1948483837412N11205128WA0227302273
B1948493837413N11205134WA0227302273
B1948503837413N11205139WA0227302273
B1948513837411N11205146WA0227202272
B1948523837408N11205152WA0227102271
B1948533837403N11205155WA0227102271
B1948543837398N11205156WA0227302273
B1948553837393N11205152WA0227302273
B1948563837389N11205145WA0227102271
B1948573837388N11205135WA0226902269
B1948583837391N11205125WA0226702267
B1948593837397N11205117WA0226602266
B1949003837404N11205113WA0226602266
B1949013837411N11205114WA0226602266
B1949023837417N11205117WA0226802268
B1949033837421N11205120WA0226902269
B1949043837424N11205123WA0226902269
B1949053837428N11205126WA0226902269
B1949063837432N11205129WA0226802268
B1949073837436N11205135WA0226602266
B1949083837439N11205142WA0226502265
B1949093837441N11205150WA0226202262
B1949103837442N11205157WA0226202262
B1949113837443N11205164WA0226202262
B1949123837445N11205171WA0226202262
B1949133837446N11205178WA0226202262
B1949143837446N11205185WA0226002260
B1949153837447N11205193WA0225902259
B1949163837447N11205201WA0225902259
B1949173837447N11205208WA0226002260
B1949183837447N11205214WA0226102261
B1949193837447N11205221WA0226202262
B1949203837447N11205227WA0226402264
B1949213837448N11205234WA0226502265
B1949223837447N11205240WA0226702267
B1949233837446N11205245WA0226902269
B1949243837444N11205251WA0227002270
B1949253837440N11205256WA0227102271
B1949263837435N11205259WA0227202272
B1949273837428N11205260WA0227302273
B1949283837420N11205257WA0227402274
B1949293837415N11205250WA0227402274
B1949303837412N11205241WA0227402274
B1949313837413N11205230WA0227302273
B1949323837417N11205222WA0227302273
B1949333837423N11205217WA0227402274
B1949343837429N11205215WA0227602276
B1949353837435N11205216WA0227702277
B1949363837440N11205220WA0227902279
B1949373837443N11205224WA0228202282
B1949383837446N11205230WA0228402284
B1949393837446N11205235WA0228702287
B1949403837445N11205241WA0229002290
B1949413837442N11205246WA0229202292
B1949423837437N11205250WA0229202292
B1949433837430N11205251WA0229202292
B1949443837423N11205248WA0229302293
B1949453837417N11205242WA0229402294
B1949463837414N11205233WA0229502295
B1949473837413N11205224WA0229602296
B1949483837414N11205215WA0229602296
B1949493837418N11205207WA0229602296
B1949503837424N11205203WA0229602296
B1949513837430N11205203WA0229702297
B1949523837435N11205206WA0229902299
B1949533837439N11205209WA0230102301
B1949543837443N11205212WA0230502305
B1949553837446N11205215WA0230802308
B1949563837449N11205218WA0231002310
B1949573837452N11205222WA0231102311
B1949583837453N11205227WA0231202312
B1949593837452N11205234WA0231202312
B1950003837449N11205240WA0231202312
B1950013837444N11205245WA0231302313
B1950023837438N11205246WA0231502315
B1950033837431N11205244WA0231602316
B1950043837426N11205238WA0231702317
B1950053837421N11205231WA0231702317
B1950063837419N11205221WA0231702317
B1950073837418N11205211WA0231802318
B1950083837420N11205202WA0231802318
B1950093837424N11205195WA0231902319
B1950103837429N11205190WA0232002320
B1950113837434N11205188WA0232202322
B1950123837439N11205188WA0232402324
B1950133837443N11205191WA0232502325
B1950143837446N11205196WA0232502325
B1950153837447N11205202WA0232702327
B1950163837446N11205208WA0232802328
B1950173837443N11205213WA0233002330
B1950183837439N11205216WA0233102331
B1950193837433N11205218WA0233202332
B1950203837427N11205217WA0233202332
B1950213837421N11205214WA0233202332
B1950223837415N11205208WA0233202332
B1950233837411N11205200WA0233202332
B1950243837409N11205191WA0233302333
B1950253837409N11205182WA0233302333
B1950263837412N11205173WA0233302333
B1950273837416N11205166WA0233202332
B1950283837421N11205162WA0233202332
B1950293837427N11205161WA0233302333
B1950303837432N11205161WA0233602336
B1950313837437N11205163WA0233702337
B1950323837440N11205166WA0233902339
B1950333837443N11205170WA0234002340
B1950343837446N11205175WA0234102341
B1950353837447N11205180WA0234302343
B1950363837446N11205185WA0234402344
B1950373837442N11205189WA0234402344
B1950383837436N11205192WA0234302343
B1950393837429N11205191WA0234202342
B1950403837421N11205188WA0234202342
B1950413837415N11205181WA0234302343
B1950423837412N11205172WA0234302343
B1950433837411N11205162WA0234302343
B1950443837413N11205153WA0234202342
B1950453837417N11205145WA0234102341
B1950463837423N11205141WA0234102341
B1950473837430N11205140WA0234202342
B1950483837436N11205142WA0234402344
B1950493837440N11205144WA0234702347
B1950503837444N11205146WA0234902349
B1950513837447N11205148WA0235102351
B1950523837450N11205151WA0235202352
B1950533837453N11205154WA0235102351
B1950543837456N11205160WA0234902349
B1950553837456N11205166WA0234802348
B1950563837455N11205172WA0234702347
B1950573837451N11205178WA0234702347
B1950583837445N11205182WA0234602346
B1950593837439N11205182WA0234702347
B1951003837433N11205180WA0234902349
B1951013837428N11205175WA0235102351
B1951023837424N11205168WA0235102351
B1951033837421N11205160WA0235102351
B1951043837420N11205150WA0234902349
B1951053837422N11205140WA0234902349
B1951063837425N11205133WA0234902349
B1951073837431N11205129WA0235002350
B1951083837436N11205128WA0235002350
B1951093837441N11205129WA0235002350
B1951103837446N11205131WA0235002350
B1951113837451N11205133WA0235002350
B1951123837455N11205136WA0235002350
B1951133837458N11205140WA0234902349
B1951143837461N11205146WA0234802348
B1951153837463N11205153WA0234702347
B1951163837464N11205161WA0234702347
B1951173837464N11205167WA0234902349
B1951183837463N11205172WA0235002350
B1951193837462N11205177WA0235102351
B1951203837460N11205183WA0235002350
B1951213837458N11205188WA0234902349
B1951223837453N11205193WA0234802348
B1951233837448N11205195WA0234702347
B1951243837442N11205194WA0234602346
B1951253837436N11205190WA0234502345
B1951263837432N11205185WA0234402344
B1951273837429N11205178WA0234402344
B1951283837428N11205169WA0234202342
B1951293837430N11205160WA0234002340
B1951303837433N11205152WA0233802338
B1951313837437N11205145WA0233802338
B1951323837442N11205140WA0233802338
B1951333837448N11205138WA0233902339
B1951343837453N11205138WA0234002340
B1951353837458N11205140WA0234002340
B1951363837462N11205143WA0234002340
B1951373837465N11205149WA0234002340
B1951383837466N11205155WA0233802338
B1951393837465N11205162WA0233702337
B1951403837463N11205168WA0233602336
B1951413837459N11205172WA0233502335
B1951423837454N11205174WA0233402334
B1951433837448N11205173WA0233302333
B1951443837443N11205170WA0233102331
B1951453837438N11205164WA0232902329
B1951463837435N11205157WA0232602326
B1951473837434N11205148WA0232402324
B1951483837435N11205140WA0232202322
B1951493837439N11205132WA0232102321
B1951503837444N11205128WA0232002320
B1951513837449N11205125WA0232002320
B1951523837454N11205124WA0232002320
B1951533837458N11205125WA0231902319
B1951543837462N11205126WA0231802318
B1951553837466N11205129WA0231602316
B1951563837470N11205132WA0231402314
B1951573837474N11205137WA0231202312
B1951583837477N11205142WA0231002310
B1951593837479N11205147WA0230902309
B1952003837480N11205153WA0230802308
B1952013837480N11205159WA0230802308
B1952023837480N11205164WA0230602306
B1952033837480N11205171WA0230402304
B1952043837480N11205178WA0230102301
B1952053837479N11205185WA0229902299
B1952063837479N11205193WA0229702297
B1952073837478N11205200WA0229702297
B1952083837477N11205206WA0229602296
B1952093837477N11205213WA0229402294
B1952103837477N11205220WA0229202292
B1952113837476N11205228WA0228902289
B1952123837475N11205235WA0228702287
B1952133837475N11205243WA0228502285
B1952143837473N11205250WA0228402284
B1952153837472N11205257WA0228202282
B1952163837470N11205265WA0227902279
B1952173837469N11205272WA0227802278
B1952183837467N11205279WA0227602276
B1952193837466N11205286WA0227602276
B1952203837464N11205293WA0227502275
B1952213837462N11205300WA0227402274
B1952223837460N11205308WA0227102271
B1952233837456N11205317WA0226902269
B1952243837453N11205326WA0226702267
B1952253837451N11205334WA0226802268
B1952263837449N11205342WA0226802268
B1952273837447N11205350WA0226702267
B1952283837445N11205358WA0226502265
B1952293837442N11205366WA0226402264
B1952303837439N11205375WA0226202262
B1952313837435N11205383WA0226102261
B1952323837431N11205390WA0226002260
B1952333837427N11205398WA0226002260
B1952343837424N11205406WA0225902259
B1952353837421N11205413WA0225802258
B1952363837419N11205421WA0225602256
B1952373837416N11205429WA0225302253
B1952383837414N11205437WA0225102251
B1952393837412N11205445WA0224802248
B1952403837410N11205453WA0224502245
B1952413837407N11205461WA0224402244
B1952423837405N11205468WA0224202242
B1952433837402N11205475WA0224002240
B1952443837398N11205482WA0223802238
B1952453837395N11205490WA0223602236
B1952463837392N11205497WA0223402234
B1952473837389N11205505WA0223202232
B1952483837387N11205512WA0223102231
B1952493837385N11205519WA0223102231
B1952503837383N11205525WA0223102231
B1952513837381N11205531WA0223002230
B1952523837380N11205537WA0222802228
B1952533837377N11205543WA0222502225
B1952543837375N11205549WA0222202222
B1952553837372N11205556WA0221802218
B1952563837370N11205564WA0221502215
B1952573837367N11205572WA0221202212
B1952583837365N11205579WA0221002210
B1952593837362N11205587WA0220902209
B1953003837360N11205594WA0220802208
B1953013837357N11205601WA0220602206
B1953023837355N11205608WA0220402204
B1953033837353N11205616WA0220202202
B1953043837351N11205623WA0220102201
B1953053837348N11205629WA0219902199
B1953063837345N11205635WA0219902199
B1953073837343N11205642WA0219702197
B1953083837342N11205649WA0219602196
B1953093837340N11205657WA0219502195
B1953103837338N11205665WA0219402194
B1953113837336N11205672WA0219402194
B1953123837334N11205678WA0219602196
B1953133837332N11205684WA0219702197
B1953143837331N11205690WA0219602196
B1953153837331N11205696WA0219602196
B1953163837330N11205702WA0219402194
B1953173837329N11205708WA0219302193
B1953183837326N11205714WA0219302193
B1953193837321N11205718WA0219202192
B1953203837315N11205720WA0219202192
B1953213837309N11205719WA0219102191
B1953223837304N11205715WA0219002190
B1953233837299N11205709WA0218902189
B1953243837297N11205702WA0218802188
B1953253837296N11205693WA0218502185
B1953263837298N11205685WA0218302183
B1953273837303N11205678WA0218102181
B1953283837309N11205675WA0217902179
B1953293837315N11205675WA0217802178
B1953303837319N11205679WA0217702177
B1953313837322N11205683WA0217602176
B1953323837324N11205688WA0217502175
B1953333837325N11205693WA0217402174
B1953343837325N11205699WA0217302173
B1953353837325N11205706WA0217102171
B1953363837325N11205713WA0217002170
B1953373837324N11205719WA0217002170
B1953383837324N11205725WA0217002170
B1953393837323N11205731WA0217102171
B1953403837322N11205736WA0217002170
B1953413837322N11205743WA0216802168
B1953423837321N11205750WA0216602166
B1953433837321N11205757WA0216502165
B1953443837319N11205764WA0216402164
B1953453837317N11205770WA0216402164
B1953463837316N11205776WA0216602166
B1953473837315N11205781WA0216702167
B1953483837314N11205787WA0216602166
B1953493837314N11205794WA0216402164
B1953503837313N11205801WA0216302163
B1953513837312N11205808WA0216202162
B1953523837311N11205815WA0216102161
B1953533837310N11205823WA0216102161
B1953543837309N11205830WA0216002160
B1953553837308N11205836WA0216002160
B1953563837308N11205843WA0215902159
B1953573837308N11205849WA0215802158
B1953583837307N11205856WA0215702157
B1953593837306N11205863WA0215602156
B1954003837305N11205870WA0215502155
B1954013837304N11205877WA0215402154
B1954023837303N11205883WA0215402154
B1954033837302N11205890WA0215402154
B1954043837302N11205896WA0215202152
B1954053837301N11205903WA0215102151
B1954063837301N11205910WA0215002150
B1954073837300N11205916WA0215102151
B1954083837299N11205921WA0215102151
B1954093837299N11205926WA0215202152
B1954103837300N11205931WA0215002150
B1954113837300N11205937WA0214802148
B1954123837300N11205943WA0214502145
B1954133837300N11205950WA0214302143
B1954143837300N11205956WA0214102141
B1954153837300N11205960WA0214002140
B1954163837300N11205965WA0213802138
B1954173837299N11205969WA0213502135
B1954183837298N11205974WA0213102131
B1954193837297N11205981WA0212802128
B1954203837296N11205987WA0212402124
B1954213837294N11205993WA0212102121
B1954223837291N11205999WA0211902119
B1954233837289N11206005WA0211602116
B1954243837288N11206012WA0211302113
B1954253837287N11206019WA0211002110
B1954263837285N11206027WA0210802108
B1954273837284N11206035WA0210502105
B1954283837282N11206042WA0210402104
B1954293837281N11206048WA0210402104
B1954303837280N11206054WA0210402104
B1954313837279N11206060WA0210302103
B1954323837278N11206066WA0210102101
B1954333837278N11206073WA0210002100
B1954343837277N11206080WA0209802098
B1954353837276N11206087WA0209702097
B1954363837275N11206095WA0209602096
B1954373837274N11206103WA0209502095
B1954383837272N11206112WA0209502095
B1954393837271N11206120WA0209502095
B1954403837270N11206128WA0209602096
B1954413837269N11206136WA0210002100
B1954423837270N11206142WA0210302103
B1954433837270N11206147WA0210502105
B1954443837271N11206153WA0210502105
B1954453837270N11206160WA0210402104
B1954463837268N11206167WA0210402104
B1954473837265N11206173WA0210202102
B1954483837259N11206178WA0210102101
B1954493837253N11206182WA0210002100
B1954503837247N11206187WA0210002100
B1954513837243N11206192WA0210102101
B1954523837239N11206198WA0210202102
B1954533837237N11206205WA0210202102
B1954543837237N11206212WA0210102101
B1954553837239N11206220WA0209902099
B1954563837243N11206227WA0209802098
B1954573837247N11206233WA0209602096
B1954583837252N11206239WA0209502095
B1954593837256N11206245WA0209402094
B1955003837259N11206251WA0209302093
B1955013837260N11206258WA0209102091
B1955023837260N11206265WA0209002090
B1955033837259N11206273WA0208802088
B1955043837258N11206281WA0208602086
B1955053837258N11206288WA0208402084
B1955063837257N11206295WA0208302083
B1955073837257N11206303WA0208002080
B1955083837257N11206310WA0207702077
B1955093837257N11206318WA0207502075
B1955103837256N11206325WA0207302073
B1955113837256N11206332WA0207202072
B1955123837255N11206339WA0207002070
B1955133837255N11206345WA0206802068
B1955143837254N11206352WA0206702067
B1955153837254N11206358WA0206602066
B1955163837253N11206365WA0206402064
B1955173837251N11206371WA0206302063
B1955183837248N11206376WA0206202062
B1955193837245N11206380WA0206102061
B1955203837241N11206383WA0206002060
B1955213837239N11206387WA0205902059
B1955223837236N11206392WA0205602056
B1955233837235N11206398WA0205302053
B1955243837233N11206404WA0205102051
B1955253837232N11206410WA0204802048
B1955263837230N11206415WA0204702047
B1955273837229N11206421WA0204502045
B1955283837227N11206426WA0204402044
B1955293837226N11206432WA0204202042
B1955303837225N11206439WA0203902039
B1955313837223N11206445WA0203702037
B1955323837222N11206452WA0203502035
B1955333837221N11206459WA0203302033
B1955343837220N11206465WA0203102031
B1955353837219N11206471WA0202902029
B1955363837218N11206478WA0202702027
B1955373837218N11206484WA0202402024
B1955383837217N11206491WA0202102021
B1955393837216N11206497WA0201802018
B1955403837214N11206504WA0201502015
B1955413837212N11206510WA0201302013
B1955423837211N11206517WA0201102011
B1955433837210N11206523WA0200902009
B1955443837208N11206530WA0200702007
B1955453837207N11206537WA0200502005
B1955463837206N11206544WA0200302003
B1955473837204N11206551WA0200002000
B1955483837203N11206559WA0199901999
B1955493837201N11206566WA0199701997
B1955503837199N11206573WA0199501995
B1955513837197N11206581WA0199301993
B1955523837194N11206588WA0199201992
B1955533837191N11206594WA0199001990
B1955543837188N11206601WA0198901989
B1955553837185N11206606WA0198801988
B1955563837182N11206612WA0198601986
B1955573837179N11206618WA0198401984
B1955583837177N11206625WA0198201982
B1955593837175N11206632WA0198001980
B1956003837174N11206638WA0197901979
B1956013837173N11206645WA0197901979
B1956023837171N11206652WA0197901979
B1956033837169N11206658WA0197901979
B1956043837167N11206664WA0197601976
B1956053837164N11206671WA0197401974
B1956063837162N11206679WA0197201972
B1956073837160N11206688WA0197001970
B1956083837157N11206697WA0196801968
B1956093837155N11206705WA0196801968
B1956103837152N11206712WA0196901969
B1956113837150N11206719WA0197001970
B1956123837148N11206726WA0196901969
B1956133837145N11206733WA0196801968
B1956143837142N11206742WA0196501965
B1956153837140N11206750WA0196301963
B1956163837137N11206758WA0196201962
B1956173837135N11206765WA0196101961
B1956183837133N11206772WA0196001960
B1956193837131N11206780WA0195901959
B1956203837129N11206787WA0195701957
B1956213837127N11206795WA0195501955
B1956223837125N11206803WA0195201952
B1956233837123N11206811WA0195101951
B1956243837120N11206818WA0194901949
B1956253837115N11206824WA0194601946
B1956263837110N11206829WA0194401944
B1956273837105N11206834WA0194201942
B1956283837100N11206840WA0194001940
B1956293837096N11206845WA0193901939
B1956303837091N11206851WA0193701937
B1956313837086N11206856WA0193401934
B1956323837081N11206861WA0193201932
B1956333837075N11206866WA0193001930
B1956343837069N11206870WA0192801928
B1956353837063N11206874WA0192601926
B1956363837057N11206878WA0192501925
B1956373837051N11206881WA0192301923
B1956383837045N11206885WA0192101921
B1956393837039N11206890WA0191901919
B1956403837032N11206895WA0191701917
B1956413837026N11206900WA0191501915
B1956423837019N11206905WA0191301913
B1956433837013N11206910WA0191201912
B1956443837007N11206916WA0191101911
B1956453837003N11206922WA0191101911
B1956463837000N11206929WA0191001910
B1956473836998N11206935WA0190901909
B1956483836997N11206942WA0190801908
B1956493836995N11206949WA0190601906
B1956503836994N11206956WA0190401904
B1956513836994N11206964WA0190101901
B1956523836995N11206971WA0189901899
B1956533836998N11206976WA0189801898
B1956543837003N11206979WA0189601896
B1956553837008N11206979WA0189301893
B1956563837013N11206978WA0189001890
B1956573837017N11206974WA0188701887
B1956583837020N11206969WA0188501885
B1956593837022N11206962WA0188201882
B1957003837022N11206954WA0188001880
B1957013837020N11206946WA0187701877
B1957023837018N11206938WA0187501875
B1957033837015N11206931WA0187401874
B1957043837013N11206924WA0187201872
B1957053837012N11206917WA0187101871
B1957063837013N11206910WA0186901869
B1957073837017N11206905WA0186701867
B1957083837022N11206902WA0186401864
B1957093837028N11206904WA0186301863
B1957103837030N11206911WA0186001860
B1957113837030N11206920WA0185601856
B1957123837032N11206927WA0185401854
B1957133837035N11206931WA0185501855
B1957143837040N11206930WA0184901849
B1957153837047N11206925WA0184101841
B1957163837053N11206920WA0183701837
B1957173837059N11206920WA0183601836
B1957183837062N11206925WA0183201832
B1957193837057N11206931WA0182501825
B1957203837048N11206930WA0181901819
B1957213837042N11206923WA0181501815
B1957223837038N11206913WA0181501815
B1957233837040N11206906WA0181001810
B1957243837045N11206903WA0180501805
B1957253837050N11206905WA0180201802
B1957263837053N11206909WA0180001800
B1957273837054N11206916WA0179901799
B1957283837055N11206922WA0179801798
B1957293837055N11206928WA0179701797
B1957303837055N11206934WA0179501795
B1957313837054N11206941WA0179301793
B1957323837054N11206949WA0178901789
B1957333837053N11206956WA0178601786
B1957343837052N11206963WA0178601786
B1957353837049N11206967WA0178701787
B1957363837043N11206969WA0178701787
B1957373837037N11206968WA0178301783
B1957383837033N11206963WA0178001780
B1957393837030N11206954WA0177801778
B1957403837033N11206946WA0177501775
B1957413837038N11206942WA0177201772
B1957423837045N11206945WA0176901769
B1957433837047N11206952WA0176501765
B1957443837047N11206961WA0176201762
B1957453837044N11206967WA0176201762
B1957463837039N11206970WA0176301763
B1957473837034N11206971WA0176101761
B1957483837028N11206969WA0175801758
B1957493837023N11206965WA0175601756
B1957503837019N11206959WA0175401754
B1957513837017N11206951WA0175101751
B1957523837018N11206944WA0174801748
B1957533837020N11206939WA0174701747
B1957543837025N11206937WA0174501745
B1957553837029N11206941WA0173901739
B1957563837031N11206949WA0173301733
B1957573837029N11206959WA0172701727
B1957583837026N11206966WA0172701727
B1957593837025N11206971WA0172601726
B1958003837025N11206975WA0172801728
B1958013837028N11206978WA0172601726
B1958023837033N11206978WA0172101721
B1958033837038N11206975WA0171601716
B1958043837040N11206969WA0171501715
B1958053837041N11206964WA0171401714
B1958063837041N11206959WA0171501715
B1958073837041N11206954WA0171501715
B1958083837042N11206950WA0171301713
B1958093837046N11206946WA0170901709
B1958103837051N11206943WA0170601706
B1958113837056N11206945WA0170301703
B1958123837061N11206950WA0170101701
B1958133837064N11206957WA0169801698
B1958143837067N11206963WA0169601696
B1958153837071N11206967WA0169601696
B1958163837076N11206968WA0169401694
B1958173837081N11206964WA0169101691
B1958183837085N11206958WA0168701687
B1958193837088N11206952WA0168501685
B1958203837091N11206948WA0168401684
B1958213837095N11206946WA0168401684
B1958223837098N11206945WA0168401684
B1958233837102N11206945WA0168201682
B1958243837107N11206945WA0168001680
B1958253837113N11206944WA0167701677
B1958263837120N11206943WA0167501675
B1958273837127N11206943WA0167301673
B1958283837133N11206944WA0167201672
B1958293837138N11206946WA0167301673
B1958303837142N11206946WA0167201672
B1958313837147N11206947WA0167101671
B1958323837151N11206947WA0167101671
B1958333837153N11206947WA0167101671
B1958343837155N11206946WA0167001670
B1958353837156N11206946WA0166901669
B1958363837157N11206946WA0166801668
B1958373837158N11206946WA0166701667
B1958383837159N11206946WA0166601666
B1958393837160N11206947WA0166501665
B1958403837161N11206947WA0166401664
B1958413837160N11206947WA0166301663
B1958423837160N11206947WA0166201662
B1958433837160N11206947WA0166101661
B1958443837160N11206947WA0166101661
B1958453837160N11206946WA0166001660
B1958463837160N11206946WA0166001660
B1958473837160N11206946WA0165901659
B1958483837160N11206946WA0165801658
B1958493837160N11206946WA0165801658
B1958503837160N11206946WA0165701657
B1958513837160N11206946WA0165701657
B1958523837160N11206946WA0165601656
B1958533837160N11206946WA0165601656
B1958543837161N11206946WA0165501655
B1958553837161N11206946WA0165501655
B1958563837160N11206946WA0165501655
B1958573837160N11206946WA0165501655
B1958583837160N11206945WA0165401654
B1958593837160N11206945WA0165401654
B1959003837160N11206945WA0165401654
B1959013837160N11206945WA0165401654
B1959023837160N11206944WA0165301653
B1959033837160N11206944WA0165301653
B1959043837160N11206943WA0165201652
B1959053837160N11206944WA0165201652
B1959063837160N11206944WA0165301653
B1959073837160N11206943WA0165301653
B1959083837160N11206943WA0165201652
B1959093837160N11206943WA0165201652
B1959103837160N11206943WA0165201652
B1959113837160N11206944WA0165201652
B1959123837160N11206944WA0165201652
B1959133837159N11206944WA0165101651
B1959143837159N11206945WA0165101651
B1959153837158N11206945WA0165101651
B1959163837158N11206946WA0165101651
B1959173837157N11206947WA0165101651
