AXFMSFP Flymaster Live, V1.0
HFFXA010
HFPLTPILOT:Mike Steed
HFGTYGLIDERTYPE:Flow Xc Racer2 / Woody Valley Gto Light
HFGIDGLIDERID:
HFDTM100GPSDATUM:WGS-1984
HFCIDCOMPETITIONID:117
HFCCLCOMPETITIONCLASS:
HOSITSITE:LAUNCH
HFGPS:UBLOXNEO6
HFPRSPRESSALTSENSOR:NA
HFRFWFIRMWAREVERSION:202g
HFRHWHARDWAREVERSION:1.0R2
HFFTYFRTYPE:FLYMASTER,LIVE
HFDTE280625
B1918094748242N12002356WA0105401119
B1918104748242N12002356WA0105401119
B1918114748243N12002357WA0105401120
B1918124748243N12002358WA0105401119
B1918134748242N12002359WA0105401119
B1918144748242N12002361WA0105401119
B1918154748242N12002362WA0105401119
B1918164748242N12002364WA0105401118
B1918174748241N12002365WA0105301118
B1918184748241N12002365WA0105301118
B1918194748241N12002366WA0105301118
B1918204748241N12002367WA0105301118
B1918214748240N12002368WA0105301118
B1918224748240N12002369WA0105201118
B1918234748240N12002372WA0105201118
B1918244748240N12002374WA0105201117
B1918254748239N12002378WA0105101117
B1918264748238N12002381WA0105101116
B1918274748237N12002384WA0105101116
B1918284748236N12002389WA0105001115
B1918294748236N12002395WA0104901114
B1918304748235N12002401WA0104901114
B1918314748234N12002405WA0104901114
B1918324748233N12002408WA0104901113
B1918334748232N12002410WA0104901112
B1918344748231N12002415WA0104901111
B1918354748229N12002422WA0104901109
B1918364748227N12002428WA0104801108
B1918374748226N12002432WA0104801107
B1918384748224N12002436WA0104701106
B1918394748222N12002440WA0104601105
B1918404748219N12002445WA0104601102
B1918414748216N12002450WA0104501099
B1918424748213N12002456WA0104401097
B1918434748211N12002461WA0104201095
B1918444748209N12002466WA0104101094
B1918454748207N12002472WA0103901091
B1918464748205N12002478WA0103801088
B1918474748203N12002483WA0103601084
B1918484748199N12002488WA0103401080
B1918494748197N12002491WA0103101077
B1918504748194N12002495WA0103001076
B1918514748191N12002499WA0102801076
B1918524748188N12002501WA0102701074
B1918534748184N12002501WA0102601071
B1918544748181N12002498WA0102601070
B1918554748176N12002496WA0102601070
B1918564748172N12002493WA0102601073
B1918574748169N12002488WA0102801081
B1918584748166N12002483WA0102901086
B1918594748164N12002477WA0103101088
B1919004748160N12002473WA0103201088
B1919014748156N12002468WA0103401088
B1919024748153N12002463WA0103501088
B1919034748152N12002455WA0103701089
B1919044748151N12002447WA0103701090
B1919054748150N12002440WA0103801090
B1919064748148N12002434WA0103901091
B1919074748145N12002431WA0104001092
B1919084748142N12002429WA0104001092
B1919094748138N12002426WA0104101092
B1919104748133N12002425WA0104101091
B1919114748129N12002424WA0104101090
B1919124748125N12002426WA0104101088
B1919124748125N12002426WA0104101088
B1919134748121N12002429WA0104001086
B1919144748118N12002433WA0103901083
B1919154748115N12002437WA0103701081
B1919164748112N12002440WA0103601079
B1919174748108N12002445WA0103401077
B1919184748106N12002450WA0103301073
B1919194748104N12002455WA0103001069
B1919204748102N12002462WA0102801067
B1919214748099N12002468WA0102501062
B1919224748095N12002475WA0102301060
B1919234748093N12002481WA0102001058
B1919244748091N12002485WA0101801056
B1919254748090N12002490WA0101601054
B1919264748088N12002495WA0101401052
B1919274748085N12002502WA0101101047
B1919284748082N12002508WA0101001044
B1919294748080N12002514WA0100701043
B1919304748077N12002519WA0100601043
B1919314748075N12002523WA0100401042
B1919324748072N12002527WA0100201041
B1919334748070N12002531WA0100001038
B1919344748068N12002537WA0099901035
B1919354748066N12002543WA0099601033
B1919364748063N12002549WA0099401030
B1919374748060N12002555WA0099201029
B1919384748057N12002561WA0099101028
B1919394748054N12002567WA0098901026
B1919404748051N12002572WA0098701025
B1919414748049N12002578WA0098601022
B1919424748047N12002584WA0098501023
B1919434748046N12002589WA0098501024
B1919444748044N12002593WA0098401026
B1919454748043N12002597WA0098401026
B1919464748043N12002603WA0098301026
B1919474748043N12002609WA0098201022
B1919484748045N12002616WA0098201021
B1919494748047N12002623WA0098101019
B1919504748048N12002630WA0098001018
B1919514748049N12002636WA0097801018
B1919524748050N12002643WA0097701016
B1919534748051N12002650WA0097601015
B1919544748053N12002657WA0097501014
B1919554748054N12002663WA0097401012
B1919564748055N12002671WA0097201011
B1919574748056N12002679WA0097101009
B1919584748056N12002687WA0097001008
B1919594748057N12002695WA0096801007
B1920004748058N12002703WA0096701007
B1920014748059N12002711WA0096601007
B1920024748060N12002718WA0096501007
B1920034748061N12002726WA0096301006
B1920044748062N12002733WA0096201005
B1920054748063N12002742WA0096101003
B1920064748064N12002750WA0096001002
B1920074748066N12002758WA0095901001
B1920084748067N12002766WA0095801000
B1920094748069N12002773WA0095700999
B1920104748071N12002779WA0095600999
B1920114748073N12002786WA0095600998
B1920124748076N12002793WA0095500997
B1920134748079N12002800WA0095400996
B1920144748082N12002808WA0095300995
B1920154748085N12002816WA0095100995
B1920154748085N12002816WA0095100995
B1920164748088N12002824WA0095100995
B1920174748091N12002832WA0094900995
B1920184748093N12002841WA0094900994
B1920194748095N12002849WA0094800994
B1920204748098N12002859WA0094700993
B1920214748100N12002868WA0094600993
B1920224748103N12002878WA0094600995
B1920234748105N12002887WA0094600997
B1920244748108N12002897WA0094600999
B1920254748109N12002906WA0094701001
B1920264748110N12002914WA0094701003
B1920274748109N12002922WA0094801004
B1920284748107N12002929WA0094901005
B1920294748104N12002934WA0095001006
B1920304748100N12002937WA0095101007
B1920314748096N12002937WA0095301010
B1920324748093N12002937WA0095401011
B1920334748090N12002938WA0095601012
B1920344748089N12002942WA0095601013
B1920354748088N12002948WA0095801012
B1920364748091N12002954WA0095801010
B1920374748096N12002959WA0095901013
B1920384748102N12002961WA0096001015
B1920394748109N12002960WA0096101016
B1920404748115N12002956WA0096101018
B1920414748121N12002952WA0096301019
B1920424748127N12002945WA0096301021
B1920434748131N12002937WA0096401021
B1920444748134N12002927WA0096501023
B1920454748135N12002917WA0096601025
B1920464748136N12002908WA0096701026
B1920474748136N12002900WA0096801029
B1920484748136N12002894WA0096901031
B1920494748135N12002889WA0097101033
B1920504748134N12002885WA0097201034
B1920514748131N12002881WA0097401034
B1920524748128N12002876WA0097501035
B1920534748125N12002871WA0097701037
B1920544748122N12002866WA0097801041
B1920554748119N12002863WA0098001045
B1920564748116N12002862WA0098101048
B1920574748113N12002862WA0098401049
B1920584748108N12002861WA0098501049
B1920594748104N12002859WA0098701051
B1921004748100N12002858WA0098801053
B1921014748097N12002857WA0099001054
B1921024748095N12002858WA0099101056
B1921034748094N12002860WA0099301056
B1921044748095N12002864WA0099401055
B1921054748098N12002869WA0099501055
B1921064748103N12002873WA0099501056
B1921074748109N12002874WA0099501057
B1921084748115N12002871WA0099501057
B1921094748121N12002865WA0099601057
B1921104748126N12002859WA0099601057
B1921114748130N12002853WA0099701060
B1921124748133N12002848WA0099801064
B1921134748136N12002843WA0099901067
B1921144748140N12002838WA0100001068
B1921154748144N12002831WA0100201069
B1921164748146N12002824WA0100301070
B1921174748147N12002815WA0100401072
B1921184748146N12002808WA0100601075
B1921184748146N12002808WA0100601075
B1921194748143N12002803WA0100701077
B1921204748139N12002800WA0100901079
B1921214748136N12002800WA0101001080
B1921224748134N12002803WA0101201083
B1921234748133N12002806WA0101401085
B1921244748134N12002811WA0101501086
B1921254748135N12002815WA0101701087
B1921264748139N12002819WA0101801088
B1921274748143N12002823WA0102001089
B1921284748147N12002828WA0102101090
B1921294748151N12002834WA0102201092
B1921304748156N12002838WA0102401094
B1921314748160N12002840WA0102601098
B1921324748164N12002840WA0102701101
B1921334748169N12002836WA0103001103
B1921344748173N12002829WA0103101102
B1921354748176N12002819WA0103201102
B1921364748176N12002809WA0103301104
B1921374748174N12002801WA0103501105
B1921384748170N12002796WA0103701108
B1921394748166N12002794WA0103901113
B1921404748163N12002791WA0104101118
B1921414748162N12002788WA0104401122
B1921424748161N12002785WA0104601125
B1921434748159N12002782WA0104901126
B1921444748158N12002781WA0105101126
B1921454748155N12002783WA0105301125
B1921464748153N12002787WA0105401125
B1921474748153N12002792WA0105501126
B1921484748156N12002797WA0105601127
B1921494748160N12002801WA0105701128
B1921504748163N12002804WA0105801130
B1921514748164N12002809WA0106001132
B1921524748164N12002814WA0106101133
B1921534748164N12002818WA0106301135
B1921544748164N12002822WA0106401137
B1921554748164N12002824WA0106601139
B1921564748164N12002828WA0106801141
B1921574748164N12002832WA0106901142
B1921584748167N12002837WA0107101143
B1921594748172N12002840WA0107201143
B1922004748179N12002838WA0107201140
B1922014748186N12002831WA0107301138
B1922024748191N12002821WA0107301136
B1922034748195N12002811WA0107301138
B1922044748197N12002803WA0107401147
B1922054748198N12002796WA0107501151
B1922064748199N12002790WA0107601154
B1922074748199N12002783WA0107801155
B1922084748200N12002775WA0107901157
B1922094748198N12002767WA0108101159
B1922104748196N12002760WA0108201161
B1922114748193N12002755WA0108401163
B1922124748190N12002752WA0108501165
B1922134748187N12002751WA0108701167
B1922144748184N12002751WA0108801169
B1922154748181N12002749WA0109101170
B1922164748179N12002747WA0109201172
B1922174748176N12002744WA0109401173
B1922184748174N12002741WA0109501174
B1922194748170N12002739WA0109601175
B1922204748165N12002737WA0109701175
B1922214748160N12002735WA0109801176
B1922224748156N12002731WA0109901178
B1922224748156N12002731WA0109901178
B1922234748153N12002727WA0110001179
B1922244748150N12002723WA0110101180
B1922254748147N12002718WA0110101181
B1922264748144N12002713WA0110201181
B1922274748141N12002707WA0110301181
B1922284748137N12002702WA0110301181
B1922294748134N12002697WA0110301182
B1922304748132N12002693WA0110301183
B1922314748129N12002691WA0110301183
B1922324748125N12002689WA0110301183
B1922334748122N12002689WA0110301183
B1922344748118N12002693WA0110201183
B1922354748116N12002697WA0110101183
B1922364748116N12002703WA0110101183
B1922374748117N12002710WA0110001182
B1922384748118N12002716WA0109901182
B1922394748120N12002721WA0109801182
B1922404748123N12002727WA0109701181
B1922414748127N12002732WA0109501181
B1922424748129N12002738WA0109401181
B1922434748132N12002745WA0109101180
B1922444748134N12002752WA0109001180
B1922454748135N12002758WA0108801179
B1922464748136N12002763WA0108601179
B1922474748136N12002768WA0108401179
B1922484748137N12002773WA0108301179
B1922494748136N12002779WA0108101178
B1922504748135N12002785WA0108001178
B1922514748132N12002789WA0107801178
B1922524748128N12002793WA0107701178
B1922534748125N12002794WA0107501179
B1922544748121N12002795WA0107401179
B1922554748118N12002796WA0107301178
B1922564748115N12002796WA0107201177
B1922574748110N12002797WA0107001175
B1922584748106N12002798WA0106901174
B1922594748101N12002798WA0106701173
B1923004748097N12002797WA0106601172
B1923014748093N12002797WA0106401170
B1923024748090N12002797WA0106301169
B1923034748086N12002796WA0106101168
B1923044748081N12002792WA0105901166
B1923054748076N12002787WA0105701164
B1923064748071N12002781WA0105501163
B1923074748068N12002775WA0105301163
B1923084748065N12002769WA0105201163
B1923094748062N12002763WA0105101162
B1923104748059N12002757WA0105001161
B1923114748056N12002750WA0104801159
B1923124748053N12002741WA0104701155
B1923134748051N12002732WA0104501153
B1923144748050N12002722WA0104401152
B1923154748049N12002713WA0104201150
B1923164748049N12002705WA0104101150
B1923174748049N12002698WA0104001149
B1923184748049N12002691WA0103901148
B1923194748048N12002682WA0103801147
B1923204748048N12002673WA0103701145
B1923214748048N12002663WA0103601144
B1923224748048N12002653WA0103501143
B1923234748047N12002644WA0103401142
B1923244748048N12002635WA0103301141
B1923254748048N12002626WA0103201140
B1923264748050N12002617WA0103101138
B1923264748050N12002617WA0103101138
B1923274748051N12002609WA0103001136
B1923284748052N12002600WA0102901134
B1923294748050N12002593WA0102801131
B1923304748048N12002587WA0102601126
B1923314748046N12002579WA0102401121
B1923324748043N12002571WA0102301116
B1923334748040N12002562WA0102001111
B1923344748037N12002555WA0101801107
B1923354748034N12002547WA0101501104
B1923364748031N12002540WA0101401102
B1923374748029N12002533WA0101101099
B1923384748027N12002525WA0100901095
B1923394748025N12002516WA0100601092
B1923404748024N12002508WA0100401087
B1923414748023N12002498WA0100101083
B1923424748021N12002489WA0099901079
B1923434748020N12002480WA0099601076
B1923444748018N12002471WA0099401072
B1923454748016N12002462WA0099101069
B1923464748014N12002453WA0098801065
B1923474748011N12002444WA0098501062
B1923484748007N12002436WA0098301058
B1923494748003N12002427WA0097901054
B1923504747999N12002417WA0097701051
B1923514747994N12002408WA0097301048
B1923524747990N12002400WA0097101047
B1923534747986N12002393WA0096801046
B1923544747982N12002388WA0096701044
B1923554747979N12002383WA0096401043
B1923564747975N12002378WA0096201040
B1923574747971N12002372WA0096001037
B1923584747966N12002366WA0095801034
B1923594747960N12002362WA0095501031
B1924004747954N12002358WA0095301027
B1924014747948N12002354WA0095101025
B1924024747943N12002351WA0094901023
B1924034747938N12002348WA0094601021
B1924044747932N12002345WA0094501019
B1924054747926N12002342WA0094201016
B1924064747920N12002340WA0094001013
B1924074747914N12002338WA0093701011
B1924084747908N12002336WA0093501008
B1924094747903N12002334WA0093301005
B1924104747898N12002332WA0093101002
B1924114747893N12002331WA0092800998
B1924124747888N12002330WA0092600994
B1924134747883N12002331WA0092300990
B1924144747878N12002332WA0092000986
B1924154747873N12002336WA0091700981
B1924164747868N12002340WA0091400977
B1924174747863N12002344WA0091000974
B1924184747857N12002349WA0090800971
B1924194747852N12002353WA0090400969
B1924204747847N12002357WA0090200967
B1924214747841N12002361WA0089900964
B1924224747836N12002365WA0089700961
B1924234747832N12002368WA0089500963
B1924244747828N12002371WA0089400966
B1924254747825N12002374WA0089300969
B1924264747822N12002376WA0089200970
B1924274747819N12002379WA0089100969
B1924284747815N12002381WA0089100968
B1924294747811N12002383WA0089100966
B1924304747805N12002384WA0089000964
B1924304747805N12002384WA0089000964
B1924314747800N12002385WA0089000964
B1924324747796N12002385WA0089000963
B1924334747792N12002384WA0089000961
B1924344747788N12002384WA0089100960
B1924354747783N12002383WA0089100959
B1924364747778N12002382WA0089100958
B1924374747773N12002380WA0089100958
B1924384747769N12002379WA0089200958
B1924394747764N12002378WA0089200957
B1924404747760N12002377WA0089200957
B1924414747755N12002376WA0089300956
B1924424747750N12002375WA0089300956
B1924434747745N12002374WA0089400956
B1924444747740N12002373WA0089400956
B1924454747736N12002372WA0089500957
B1924464747732N12002373WA0089600957
B1924474747728N12002374WA0089700958
B1924484747724N12002375WA0089700960
B1924494747720N12002376WA0089800962
B1924504747717N12002377WA0089900963
B1924514747714N12002380WA0090000964
B1924524747713N12002384WA0090100964
B1924534747713N12002389WA0090200963
B1924544747715N12002393WA0090200963
B1924554747719N12002394WA0090300964
B1924564747723N12002394WA0090300964
B1924574747727N12002393WA0090400965
B1924584747731N12002390WA0090500966
B1924594747736N12002386WA0090600966
B1925004747741N12002380WA0090700966
B1925014747745N12002373WA0090800966
B1925024747749N12002365WA0090900967
B1925034747753N12002355WA0091000968
B1925044747755N12002345WA0091100969
B1925054747756N12002335WA0091200969
B1925064747756N12002324WA0091300971
B1925074747755N12002313WA0091500973
B1925084747753N12002303WA0091600974
B1925094747751N12002293WA0091700974
B1925104747748N12002284WA0091800975
B1925114747744N12002276WA0091900977
B1925124747739N12002269WA0092000978
B1925134747734N12002263WA0092100979
B1925144747730N12002257WA0092200981
B1925154747725N12002251WA0092300982
B1925164747720N12002246WA0092400983
B1925174747714N12002242WA0092600984
B1925184747708N12002240WA0092700986
B1925194747703N12002239WA0092800989
B1925204747699N12002237WA0093000992
B1925214747694N12002235WA0093200994
B1925224747690N12002234WA0093300996
B1925234747686N12002234WA0093600998
B1925244747682N12002237WA0093700999
B1925254747680N12002241WA0093901000
B1925264747678N12002245WA0094001003
B1925274747677N12002249WA0094201004
B1925284747678N12002253WA0094401006
B1925294747679N12002257WA0094601008
B1925304747683N12002260WA0094701009
B1925314747687N12002262WA0094801010
B1925324747692N12002262WA0094901012
B1925334747697N12002259WA0095101014
B1925334747697N12002259WA0095101014
B1925344747701N12002254WA0095201015
B1925354747705N12002247WA0095401015
B1925364747709N12002238WA0095501016
B1925374747711N12002228WA0095601016
B1925384747711N12002216WA0095701017
B1925394747708N12002205WA0095801019
B1925404747704N12002197WA0095901021
B1925414747699N12002191WA0096001023
B1925424747694N12002186WA0096101026
B1925434747689N12002182WA0096201029
B1925444747684N12002180WA0096301031
B1925454747680N12002179WA0096501032
B1925464747675N12002179WA0096601033
B1925474747670N12002181WA0096801035
B1925484747666N12002184WA0096901037
B1925494747663N12002188WA0097101039
B1925504747662N12002193WA0097201041
B1925514747663N12002198WA0097401042
B1925524747667N12002202WA0097501044
B1925534747673N12002203WA0097601045
B1925544747679N12002203WA0097701046
B1925554747685N12002199WA0097901049
B1925564747690N12002194WA0098001052
B1925574747693N12002187WA0098201054
B1925584747696N12002179WA0098301055
B1925594747698N12002170WA0098501056
B1926004747698N12002160WA0098601057
B1926014747696N12002150WA0098701057
B1926024747692N12002141WA0098801057
B1926034747687N12002134WA0098901058
B1926044747682N12002129WA0099001059
B1926054747677N12002126WA0099101060
B1926064747672N12002125WA0099201062
B1926074747667N12002126WA0099401063
B1926084747664N12002128WA0099501065
B1926094747661N12002132WA0099601067
B1926104747660N12002138WA0099701069
B1926114747661N12002144WA0099901069
B1926124747664N12002149WA0100001070
B1926134747668N12002153WA0100201072
B1926144747673N12002153WA0100301074
B1926154747678N12002152WA0100501077
B1926164747683N12002148WA0100601079
B1926174747687N12002142WA0100801080
B1926184747690N12002134WA0100901081
B1926194747692N12002125WA0101101082
B1926204747691N12002115WA0101101083
B1926214747688N12002105WA0101301083
B1926224747684N12002098WA0101401085
B1926234747679N12002093WA0101501086
B1926244747674N12002091WA0101601087
B1926254747670N12002092WA0101701089
B1926264747666N12002094WA0101801091
B1926274747663N12002097WA0102001092
B1926284747661N12002102WA0102101094
B1926294747660N12002108WA0102201096
B1926304747661N12002114WA0102301098
B1926314747664N12002119WA0102501101
B1926324747667N12002123WA0102601103
B1926334747670N12002126WA0102801106
B1926344747674N12002127WA0102901108
B1926354747679N12002127WA0103101110
B1926364747684N12002124WA0103201111
B1926374747688N12002118WA0103401111
B1926374747688N12002118WA0103401111
B1926384747692N12002109WA0103501111
B1926394747694N12002099WA0103701112
B1926404747693N12002088WA0103701113
B1926414747690N12002079WA0103901114
B1926424747685N12002072WA0104001115
B1926434747680N12002067WA0104101117
B1926444747676N12002063WA0104201119
B1926454747671N12002061WA0104401121
B1926464747667N12002059WA0104501123
B1926474747663N12002058WA0104601125
B1926484747659N12002059WA0104801126
B1926494747656N12002061WA0104901128
B1926504747652N12002064WA0105001129
B1926514747649N12002069WA0105201131
B1926524747648N12002074WA0105301133
B1926534747647N12002080WA0105501136
B1926544747649N12002085WA0105601138
B1926554747652N12002089WA0105801140
B1926564747657N12002092WA0105901142
B1926574747662N12002092WA0106101145
B1926584747668N12002091WA0106301148
B1926594747674N12002088WA0106501151
B1927004747678N12002084WA0106701154
B1927014747681N12002077WA0107001156
B1927024747683N12002069WA0107201158
B1927034747685N12002060WA0107401160
B1927044747685N12002050WA0107601161
B1927054747684N12002040WA0107801162
B1927064747681N12002031WA0107901163
B1927074747676N12002023WA0108101164
B1927084747670N12002018WA0108201165
B1927094747663N12002016WA0108401167
B1927104747658N12002016WA0108601169
B1927114747654N12002017WA0108801172
B1927124747650N12002018WA0108901176
B1927134747647N12002021WA0109201179
B1927144747645N12002026WA0109301182
B1927154747643N12002032WA0109601184
B1927164747642N12002037WA0109701188
B1927174747642N12002042WA0110001193
B1927184747644N12002046WA0110201197
B1927194747646N12002048WA0110601200
B1927204747650N12002051WA0110801203
B1927214747655N12002053WA0111101204
B1927224747660N12002053WA0111301205
B1927234747667N12002052WA0111501205
B1927244747674N12002048WA0111701207
B1927254747679N12002040WA0111901208
B1927264747683N12002031WA0112001210
B1927274747685N12002021WA0112301213
B1927284747685N12002011WA0112501216
B1927294747683N12002002WA0112701219
B1927304747681N12001993WA0112901221
B1927314747677N12001985WA0113101222
B1927324747671N12001979WA0113301223
B1927334747665N12001976WA0113501224
B1927344747659N12001977WA0113601225
B1927354747654N12001980WA0113901227
B1927364747651N12001983WA0114001231
B1927374747648N12001987WA0114301234
B1927384747646N12001991WA0114501237
B1927394747646N12001995WA0114801240
B1927404747647N12001999WA0115001243
B1927404747647N12001999WA0115001243
B1927414747649N12002002WA0115301245
B1927424747653N12002005WA0115501248
B1927434747658N12002006WA0115701250
B1927444747665N12002004WA0115901251
B1927454747672N12001999WA0116101253
B1927464747677N12001992WA0116301256
B1927474747681N12001983WA0116601258
B1927484747682N12001973WA0116701260
B1927494747681N12001964WA0117001262
B1927504747678N12001956WA0117201264
B1927514747674N12001949WA0117401267
B1927524747669N12001947WA0117601269
B1927534747665N12001947WA0117901271
B1927544747661N12001950WA0118001274
B1927554747661N12001953WA0118301276
B1927564747662N12001956WA0118501279
B1927574747663N12001959WA0118701281
B1927584747666N12001963WA0118901283
B1927594747670N12001966WA0119101284
B1928004747674N12001968WA0119301285
B1928014747679N12001968WA0119501288
B1928024747684N12001963WA0119701291
B1928034747689N12001957WA0119901292
B1928044747693N12001950WA0120101293
B1928054747696N12001942WA0120301295
B1928064747696N12001933WA0120501298
B1928074747693N12001923WA0120701299
B1928084747688N12001915WA0120901300
B1928094747682N12001910WA0121101301
B1928104747677N12001909WA0121201304
B1928114747673N12001911WA0121501307
B1928124747671N12001914WA0121601309
B1928134747669N12001918WA0121901311
B1928144747669N12001922WA0122001314
B1928154747670N12001925WA0122301316
B1928164747672N12001928WA0122401318
B1928174747676N12001930WA0122701319
B1928184747681N12001930WA0122801320
B1928194747687N12001928WA0123001322
B1928204747691N12001925WA0123201325
B1928214747695N12001920WA0123401327
B1928224747698N12001912WA0123501329
B1928234747699N12001903WA0123801330
B1928244747699N12001893WA0123901331
B1928254747697N12001883WA0124101332
B1928264747693N12001874WA0124201333
B1928274747688N12001867WA0124401334
B1928284747684N12001861WA0124501336
B1928294747680N12001857WA0124701338
B1928304747675N12001854WA0124901340
B1928314747671N12001853WA0125101343
B1928324747668N12001853WA0125201344
B1928334747664N12001855WA0125301345
B1928344747662N12001859WA0125401346
B1928354747661N12001864WA0125601346
B1928364747661N12001868WA0125701348
B1928374747662N12001872WA0125901350
B1928384747664N12001876WA0126001353
B1928394747666N12001878WA0126201355
B1928404747669N12001880WA0126301358
B1928414747674N12001880WA0126501359
B1928424747679N12001877WA0126601359
B1928434747684N12001872WA0126801361
B1928444747689N12001865WA0126901362
B1928444747689N12001865WA0126901362
B1928454747692N12001856WA0127101363
B1928464747693N12001846WA0127201364
B1928474747693N12001836WA0127401365
B1928484747691N12001827WA0127501365
B1928494747688N12001818WA0127601366
B1928504747684N12001811WA0127701367
B1928514747679N12001805WA0127901368
B1928524747674N12001801WA0128001369
B1928534747669N12001799WA0128101370
B1928544747664N12001799WA0128201370
B1928554747659N12001801WA0128301371
B1928564747656N12001804WA0128401373
B1928574747653N12001808WA0128501375
B1928584747652N12001813WA0128601376
B1928594747652N12001818WA0128801378
B1929004747654N12001822WA0128901379
B1929014747657N12001826WA0129001380
B1929024747662N12001827WA0129101381
B1929034747666N12001826WA0129201381
B1929044747671N12001821WA0129301382
B1929054747676N12001814WA0129401382
B1929064747679N12001805WA0129501382
B1929074747681N12001794WA0129601383
B1929084747681N12001783WA0129701383
B1929094747679N12001773WA0129801384
B1929104747677N12001763WA0129801384
B1929114747673N12001754WA0129901385
B1929124747668N12001746WA0130001385
B1929134747662N12001740WA0130001385
B1929144747656N12001736WA0130101386
B1929154747650N12001734WA0130201386
B1929164747644N12001733WA0130201388
B1929174747640N12001733WA0130401390
B1929184747636N12001733WA0130501391
B1929194747634N12001734WA0130601393
B1929204747632N12001737WA0130701392
B1929214747631N12001741WA0130701392
B1929224747631N12001746WA0130801391
B1929234747633N12001751WA0130801390
B1929244747637N12001754WA0130801390
B1929254747642N12001753WA0130801391
B1929264747647N12001751WA0130901390
B1929274747652N12001747WA0130901391
B1929284747657N12001742WA0130901391
B1929294747661N12001736WA0130901392
B1929304747664N12001729WA0131001391
B1929314747667N12001721WA0131001391
B1929324747669N12001712WA0131001390
B1929334747671N12001702WA0131001389
B1929344747671N12001691WA0131001388
B1929354747670N12001681WA0130901387
B1929364747669N12001670WA0130901387
B1929374747666N12001660WA0130901388
B1929384747662N12001652WA0130901388
B1929394747658N12001646WA0130901389
B1929404747654N12001642WA0130901389
B1929414747650N12001639WA0130901389
B1929424747646N12001638WA0130901388
B1929434747642N12001640WA0130801387
B1929444747640N12001643WA0130801385
B1929454747639N12001647WA0130701384
B1929464747639N12001652WA0130601381
B1929474747640N12001657WA0130501379
B1929484747642N12001661WA0130401376
B1929484747642N12001661WA0130401376
B1929494747644N12001666WA0130201373
B1929504747646N12001671WA0130001370
B1929514747648N12001676WA0129801368
B1929524747650N12001681WA0129701366
B1929534747652N12001685WA0129501365
B1929544747653N12001691WA0129401362
B1929554747654N12001698WA0129101358
B1929564747655N12001706WA0128901352
B1929574747655N12001715WA0128601347
B1929584747656N12001724WA0128301343
B1929594747656N12001732WA0128001342
B1930004747657N12001740WA0127801340
B1930014747657N12001747WA0127601338
B1930024747657N12001755WA0127401336
B1930034747658N12001763WA0127101333
B1930044747659N12001771WA0126901330
B1930054747660N12001779WA0126601329
B1930064747661N12001787WA0126401327
B1930074747663N12001795WA0126201325
B1930084747664N12001802WA0126001324
B1930094747665N12001809WA0125701323
B1930104747666N12001816WA0125601321
B1930114747668N12001824WA0125301318
B1930124747670N12001832WA0125101315
B1930134747671N12001840WA0124801312
B1930144747673N12001848WA0124601310
B1930154747674N12001855WA0124401307
B1930164747675N12001862WA0124201306
B1930174747676N12001869WA0123901303
B1930184747676N12001877WA0123701301
B1930194747677N12001884WA0123401298
B1930204747678N12001891WA0123201297
B1930214747678N12001898WA0123001295
B1930224747678N12001904WA0122801293
B1930234747677N12001910WA0122501291
B1930244747676N12001917WA0122401289
B1930254747676N12001924WA0122101287
B1930264747677N12001931WA0121901285
B1930274747678N12001938WA0121701284
B1930284747678N12001943WA0121501283
B1930294747678N12001949WA0121301281
B1930304747677N12001955WA0121101278
B1930314747677N12001962WA0120901276
B1930324747677N12001969WA0120701273
B1930334747678N12001977WA0120401270
B1930344747680N12001985WA0120301267
B1930354747682N12001993WA0120001265
B1930364747684N12002000WA0119801263
B1930374747685N12002008WA0119601262
B1930384747687N12002016WA0119401261
B1930394747688N12002023WA0119201259
B1930404747691N12002031WA0119001256
B1930414747693N12002039WA0118701252
B1930424747695N12002048WA0118501249
B1930434747697N12002057WA0118301247
B1930444747700N12002066WA0118101246
B1930454747703N12002073WA0117901245
B1930464747705N12002081WA0117701244
B1930474747707N12002088WA0117501243
B1930484747708N12002096WA0117401242
B1930494747710N12002103WA0117201241
B1930504747712N12002111WA0117101240
B1930514747714N12002119WA0117001240
B1930524747717N12002127WA0116901240
B1930524747717N12002127WA0116901240
B1930534747720N12002134WA0116801240
B1930544747722N12002141WA0116801240
B1930554747725N12002146WA0116701242
B1930564747729N12002149WA0116701244
B1930574747732N12002152WA0116701244
B1930584747736N12002155WA0116701244
B1930594747739N12002159WA0116601241
B1931004747742N12002165WA0116501239
B1931014747745N12002171WA0116401237
B1931024747748N12002176WA0116401236
B1931034747751N12002181WA0116201235
B1931044747754N12002186WA0116201234
B1931054747757N12002192WA0116101232
B1931064747760N12002197WA0116001232
B1931074747763N12002203WA0115901231
B1931084747765N12002209WA0115801229
B1931094747767N12002214WA0115601229
B1931104747768N12002219WA0115601229
B1931114747769N12002224WA0115401228
B1931124747770N12002228WA0115301227
B1931134747772N12002233WA0115201225
B1931144747774N12002237WA0115101222
B1931154747775N12002242WA0114801219
B1931164747776N12002248WA0114701214
B1931174747778N12002254WA0114401210
B1931184747781N12002260WA0114201205
B1931194747784N12002267WA0113801200
B1931204747786N12002275WA0113601194
B1931214747789N12002284WA0113101189
B1931224747791N12002293WA0112801184
B1931234747794N12002301WA0112401180
B1931244747796N12002308WA0112101177
B1931254747797N12002315WA0111701174
B1931264747797N12002322WA0111401171
B1931274747797N12002330WA0111001166
B1931284747796N12002338WA0110701162
B1931294747795N12002347WA0110201157
B1931304747795N12002356WA0109901153
B1931314747795N12002366WA0109401149
B1931324747795N12002375WA0109101146
B1931334747795N12002384WA0108701143
B1931344747794N12002392WA0108401140
B1931354747794N12002400WA0108001137
B1931364747793N12002409WA0107701135
B1931374747793N12002417WA0107301131
B1931384747792N12002426WA0107001128
B1931394747791N12002435WA0106701126
B1931404747790N12002444WA0106401125
B1931414747790N12002453WA0106101124
B1931424747790N12002461WA0105901124
B1931434747789N12002468WA0105701122
B1931444747789N12002476WA0105501120
B1931454747789N12002484WA0105201118
B1931464747788N12002493WA0105001114
B1931474747788N12002503WA0104801111
B1931484747787N12002512WA0104601108
B1931494747786N12002521WA0104301107
B1931504747785N12002529WA0104101106
B1931514747785N12002537WA0103901106
B1931524747785N12002545WA0103801104
B1931534747785N12002554WA0103601101
B1931544747785N12002563WA0103401098
B1931554747785N12002573WA0103201096
B1931564747785N12002582WA0103101096
B1931564747785N12002582WA0103101096
B1931574747785N12002589WA0102901097
B1931584747786N12002594WA0102901098
B1931594747788N12002599WA0102801098
B1932004747789N12002603WA0102701098
B1932014747790N12002609WA0102701097
B1932024747791N12002616WA0102601097
B1932034747791N12002624WA0102501096
B1932044747790N12002631WA0102501095
B1932054747790N12002639WA0102401097
B1932064747789N12002645WA0102401097
B1932074747787N12002651WA0102401099
B1932084747786N12002656WA0102401099
B1932094747784N12002661WA0102401100
B1932104747783N12002665WA0102401099
B1932114747784N12002671WA0102401098
B1932124747786N12002677WA0102301094
B1932134747790N12002681WA0102201089
B1932144747796N12002682WA0102201086
B1932154747802N12002679WA0102001084
B1932164747808N12002672WA0101901081
B1932174747812N12002663WA0101701080
B1932184747813N12002653WA0101601079
B1932194747814N12002644WA0101501078
B1932204747814N12002636WA0101301077
B1932214747814N12002628WA0101201076
B1932224747813N12002619WA0101101074
B1932234747813N12002609WA0100901071
B1932244747813N12002600WA0100801070
B1932254747813N12002590WA0100601069
B1932264747813N12002582WA0100501070
B1932274747813N12002574WA0100401071
B1932284747814N12002566WA0100401071
B1932294747816N12002558WA0100301071
B1932304747818N12002550WA0100301071
B1932314747822N12002541WA0100201070
B1932324747826N12002533WA0100201070
B1932334747831N12002528WA0100101070
B1932344747836N12002524WA0100101071
B1932354747841N12002520WA0100101070
B1932364747845N12002515WA0100101070
B1932374747850N12002509WA0100201070
B1932384747854N12002504WA0100201071
B1932394747859N12002499WA0100201071
B1932404747864N12002495WA0100201071
B1932414747869N12002490WA0100201071
B1932424747873N12002484WA0100201071
B1932434747875N12002475WA0100201068
B1932444747877N12002465WA0100201065
B1932454747875N12002454WA0100101063
B1932464747871N12002446WA0100101061
B1932474747866N12002441WA0100001060
B1932484747862N12002439WA0099901060
B1932494747858N12002439WA0099801060
B1932504747855N12002439WA0099801059
B1932514747852N12002439WA0099701059
B1932524747849N12002441WA0099601058
B1932534747845N12002445WA0099501056
B1932544747843N12002449WA0099401054
B1932554747841N12002455WA0099301054
B1932564747840N12002460WA0099301054
B1932574747839N12002465WA0099201054
B1932584747837N12002470WA0099201054
B1932594747836N12002475WA0099101054
B1933004747834N12002482WA0099101053
B1933004747834N12002482WA0099101053
B1933014747833N12002489WA0099001052
B1933024747832N12002496WA0098901053
B1933034747832N12002503WA0098901055
B1933044747832N12002507WA0098901057
B1933054747830N12002510WA0098901058
B1933064747828N12002512WA0098901060
B1933074747824N12002514WA0098901060
B1933084747821N12002517WA0098901060
B1933094747818N12002521WA0098901060
B1933104747815N12002525WA0098901061
B1933114747813N12002527WA0098901061
B1933124747811N12002529WA0098901062
B1933134747810N12002533WA0098901061
B1933144747810N12002538WA0098901059
B1933154747812N12002543WA0098901054
B1933164747817N12002548WA0098801051
B1933174747823N12002549WA0098701048
B1933184747830N12002545WA0098601046
B1933194747835N12002540WA0098501045
B1933204747839N12002533WA0098401043
B1933214747843N12002527WA0098301041
B1933224747846N12002519WA0098201039
B1933234747850N12002511WA0098101038
B1933244747854N12002501WA0098001036
B1933254747856N12002491WA0097901035
B1933264747858N12002480WA0097801035
B1933274747858N12002469WA0097701036
B1933284747857N12002458WA0097701037
B1933294747855N12002448WA0097601037
B1933304747853N12002438WA0097601038
B1933314747851N12002428WA0097601038
B1933324747848N12002419WA0097601038
B1933334747845N12002411WA0097501039
B1933344747842N12002404WA0097501039
B1933354747838N12002397WA0097501039
B1933364747833N12002390WA0097501039
B1933374747828N12002385WA0097501039
B1933384747824N12002379WA0097401039
B1933394747819N12002373WA0097401039
B1933404747814N12002367WA0097401039
B1933414747810N12002360WA0097401039
B1933424747805N12002354WA0097301039
B1933434747801N12002350WA0097301038
B1933444747797N12002345WA0097301038
B1933454747794N12002340WA0097201036
B1933464747790N12002333WA0097101034
B1933474747786N12002327WA0097001031
B1933484747781N12002319WA0096901028
B1933494747777N12002311WA0096701026
B1933504747773N12002304WA0096601024
B1933514747769N12002297WA0096401023
B1933524747766N12002290WA0096301021
B1933534747762N12002283WA0096201019
B1933544747759N12002276WA0096001016
B1933554747755N12002269WA0095801014
B1933564747751N12002262WA0095701012
B1933574747748N12002254WA0095501010
B1933584747745N12002245WA0095401009
B1933594747742N12002237WA0095201009
B1934004747740N12002227WA0095101008
B1934014747739N12002217WA0095001007
B1934024747738N12002207WA0094901005
B1934034747738N12002195WA0094701003
B1934044747738N12002184WA0094601002
B1934044747738N12002184WA0094601002
B1934054747738N12002174WA0094501001
B1934064747738N12002164WA0094300999
B1934074747738N12002154WA0094200997
B1934084747738N12002143WA0094000995
B1934094747738N12002132WA0093800992
B1934104747738N12002120WA0093700990
B1934114747738N12002110WA0093500988
B1934124747739N12002099WA0093400987
B1934134747739N12002089WA0093200986
B1934144747740N12002079WA0093000983
B1934154747741N12002068WA0092800981
B1934164747741N12002057WA0092700979
B1934174747741N12002046WA0092500976
B1934184747741N12002034WA0092300973
B1934194747741N12002022WA0092100970
B1934204747741N12002010WA0091900968
B1934214747741N12001997WA0091600966
B1934224747740N12001985WA0091500964
B1934234747739N12001974WA0091200962
B1934244747738N12001962WA0091000959
B1934254747738N12001950WA0090800957
B1934264747737N12001938WA0090600955
B1934274747737N12001926WA0090300952
B1934284747736N12001913WA0090100949
B1934294747735N12001899WA0089800946
B1934304747734N12001885WA0089600943
B1934314747733N12001871WA0089400940
B1934324747732N12001858WA0089200939
B1934334747732N12001845WA0088900938
B1934344747731N12001832WA0088700937
B1934354747731N12001820WA0088500935
B1934364747730N12001807WA0088300933
B1934374747730N12001794WA0088100930
B1934384747729N12001781WA0087900928
B1934394747728N12001768WA0087600925
B1934404747727N12001755WA0087500923
B1934414747726N12001742WA0087200922
B1934424747725N12001728WA0087100920
B1934434747725N12001715WA0086900920
B1934444747723N12001703WA0086800923
B1934454747723N12001693WA0086700926
B1934464747722N12001685WA0086700930
B1934474747723N12001676WA0086700932
B1934484747724N12001668WA0086700932
B1934494747725N12001659WA0086700932
B1934504747726N12001649WA0086700931
B1934514747727N12001638WA0086700931
B1934524747729N12001627WA0086700932
B1934534747729N12001617WA0086700933
B1934544747730N12001607WA0086700933
B1934554747730N12001598WA0086700932
B1934564747730N12001587WA0086700930
B1934574747730N12001575WA0086600928
B1934584747730N12001562WA0086500925
B1934594747730N12001550WA0086400924
B1935004747730N12001538WA0086300923
B1935014747730N12001527WA0086200923
B1935024747730N12001517WA0086100922
B1935034747729N12001506WA0086000920
B1935044747729N12001494WA0085900919
B1935054747729N12001482WA0085800917
B1935064747729N12001470WA0085700916
B1935074747728N12001458WA0085600915
B1935084747728N12001447WA0085500915
B1935084747728N12001447WA0085500915
B1935094747729N12001437WA0085400916
B1935104747731N12001426WA0085400916
B1935114747733N12001415WA0085400918
B1935124747735N12001405WA0085400919
B1935134747738N12001397WA0085400922
B1935144747742N12001391WA0085500924
B1935154747748N12001388WA0085500925
B1935164747754N12001388WA0085600926
B1935174747759N12001392WA0085600927
B1935184747763N12001397WA0085700929
B1935194747763N12001404WA0085800931
B1935204747761N12001410WA0085800933
B1935214747757N12001412WA0086000935
B1935224747753N12001412WA0086100938
B1935234747749N12001407WA0086200940
B1935244747746N12001399WA0086300941
B1935254747744N12001389WA0086500939
B1935264747742N12001379WA0086500938
B1935274747742N12001369WA0086700941
B1935284747744N12001360WA0086800943
B1935294747749N12001352WA0086900944
B1935304747754N12001347WA0087000944
B1935314747759N12001345WA0087200945
B1935324747764N12001345WA0087300947
B1935334747768N12001349WA0087400949
B1935344747771N12001354WA0087600950
B1935354747772N12001361WA0087800953
B1935364747772N12001366WA0087900957
B1935374747771N12001370WA0088100960
B1935384747769N12001372WA0088300962
B1935394747765N12001374WA0088500966
B1935404747761N12001374WA0088600967
B1935414747756N12001371WA0088800966
B1935424747751N12001365WA0088900966
B1935434747748N12001355WA0089000966
B1935444747747N12001346WA0089100967
B1935454747748N12001336WA0089200967
B1935464747749N12001326WA0089200967
B1935474747750N12001316WA0089300966
B1935484747752N12001305WA0089400964
B1935494747755N12001296WA0089400964
B1935504747760N12001289WA0089500964
B1935514747766N12001284WA0089500965
B1935524747772N12001280WA0089600967
B1935534747777N12001276WA0089700970
B1935544747781N12001273WA0089800973
B1935554747785N12001273WA0090000974
B1935564747790N12001276WA0090000974
B1935574747793N12001281WA0090100975
B1935584747794N12001288WA0090200976
B1935594747794N12001294WA0090400979
B1936004747793N12001298WA0090500981
B1936014747793N12001302WA0090700984
B1936024747792N12001305WA0090800988
B1936034747791N12001307WA0091000990
B1936044747788N12001308WA0091200993
B1936054747784N12001307WA0091400995
B1936064747779N12001302WA0091500996
B1936074747776N12001294WA0091600996
B1936084747774N12001283WA0091700997
B1936094747774N12001271WA0091800997
B1936104747776N12001261WA0091800998
B1936114747780N12001252WA0092000999
B1936124747785N12001246WA0092001001
B1936124747785N12001246WA0092001001
B1936134747791N12001240WA0092201003
B1936144747797N12001236WA0092301005
B1936154747802N12001235WA0092501007
B1936164747807N12001235WA0092601009
B1936174747811N12001237WA0092801011
B1936184747814N12001240WA0092901013
B1936194747816N12001244WA0093101014
B1936204747816N12001249WA0093201017
B1936214747816N12001253WA0093501020
B1936224747815N12001255WA0093601023
B1936234747811N12001255WA0093801025
B1936244747808N12001251WA0094001026
B1936254747804N12001246WA0094101025
B1936264747800N12001238WA0094101024
B1936274747798N12001227WA0094201023
B1936284747798N12001215WA0094201021
B1936294747801N12001203WA0094201019
B1936304747804N12001192WA0094201019
B1936314747809N12001182WA0094201022
B1936324747813N12001173WA0094201024
B1936334747816N12001165WA0094401027
B1936344747820N12001160WA0094401030
B1936354747823N12001154WA0094601030
B1936364747828N12001149WA0094601030
B1936374747834N12001144WA0094701029
B1936384747840N12001140WA0094801030
B1936394747845N12001141WA0094901032
B1936404747850N12001143WA0095001034
B1936414747854N12001147WA0095101034
B1936424747858N12001150WA0095201037
B1936434747861N12001152WA0095401039
B1936444747863N12001154WA0095501040
B1936454747864N12001158WA0095601042
B1936464747865N12001161WA0095701042
B1936474747865N12001166WA0095801043
B1936484747864N12001170WA0095901044
B1936494747862N12001171WA0096101045
B1936504747858N12001171WA0096101046
B1936514747854N12001163WA0096201048
B1936524747850N12001156WA0096201048
B1936534747847N12001149WA0096201049
B1936544747844N12001141WA0096201050
B1936554747842N12001132WA0096201051
B1936564747842N12001121WA0096301051
B1936574747843N12001109WA0096301051
B1936584747847N12001099WA0096301052
B1936594747851N12001092WA0096401055
B1937004747856N12001089WA0096401057
B1937014747860N12001090WA0096501058
B1937024747864N12001092WA0096501058
B1937034747868N12001094WA0096601058
B1937044747869N12001098WA0096701059
B1937054747869N12001101WA0096801060
B1937064747868N12001101WA0096901062
B1937074747866N12001101WA0097101062
B1937084747865N12001100WA0097101062
B1937094747862N12001099WA0097201062
B1937104747858N12001099WA0097201061
B1937114747854N12001097WA0097101058
B1937124747850N12001094WA0097001058
B1937134747846N12001089WA0097001057
B1937144747843N12001083WA0096901057
B1937154747841N12001075WA0096801056
B1937164747841N12001065WA0096701056
B1937164747841N12001065WA0096701056
B1937174747842N12001055WA0096601053
B1937184747844N12001042WA0096401050
B1937194747846N12001030WA0096201046
B1937204747850N12001018WA0096101040
B1937214747856N12001009WA0095901036
B1937224747862N12001001WA0095701035
B1937234747869N12000995WA0095601036
B1937244747875N12000990WA0095501040
B1937254747880N12000988WA0095501040
B1937264747885N12000987WA0095501042
B1937274747890N12000987WA0095501042
B1937284747895N12000990WA0095501041
B1937294747899N12000993WA0095501040
B1937304747902N12000998WA0095501040
B1937314747903N12001004WA0095501040
B1937324747903N12001009WA0095501040
B1937334747902N12001014WA0095501041
B1937344747900N12001016WA0095601040
B1937354747896N12001017WA0095601041
B1937364747893N12001016WA0095601040
B1937374747889N12001012WA0095601040
B1937384747885N12001009WA0095601038
B1937394747882N12001004WA0095501038
B1937404747879N12000997WA0095501037
B1937414747875N12000988WA0095501037
B1937424747874N12000978WA0095401035
B1937434747875N12000968WA0095401035
B1937444747876N12000958WA0095301033
B1937454747879N12000949WA0095301030
B1937464747884N12000940WA0095201028
B1937474747889N12000931WA0095201026
B1937484747894N12000924WA0095101026
B1937494747900N12000918WA0095101027
B1937504747906N12000915WA0095101027
B1937514747912N12000913WA0095101028
B1937524747918N12000911WA0095201029
B1937534747924N12000909WA0095201030
B1937544747930N12000909WA0095301031
B1937554747936N12000909WA0095401032
B1937564747941N12000910WA0095401033
B1937574747947N12000913WA0095501033
B1937584747951N12000917WA0095601033
B1937594747954N12000923WA0095601033
B1938004747954N12000928WA0095701034
B1938014747952N12000934WA0095701034
B1938024747949N12000937WA0095701033
B1938034747945N12000938WA0095701033
B1938044747941N12000937WA0095701033
B1938054747938N12000934WA0095701032
B1938064747935N12000929WA0095701032
B1938074747932N12000922WA0095701032
B1938084747931N12000912WA0095701032
B1938094747931N12000902WA0095701032
B1938104747933N12000892WA0095601032
B1938114747937N12000882WA0095601032
B1938124747941N12000873WA0095601031
B1938134747946N12000864WA0095601031
B1938144747953N12000858WA0095601032
B1938154747959N12000855WA0095601034
B1938164747965N12000856WA0095601034
B1938174747970N12000859WA0095601034
B1938184747974N12000864WA0095601034
B1938194747976N12000870WA0095701035
B1938204747977N12000875WA0095801036
B1938204747977N12000875WA0095801036
B1938214747976N12000878WA0095801036
B1938224747974N12000881WA0095901037
B1938234747970N12000882WA0095901037
B1938244747966N12000882WA0095901037
B1938254747962N12000881WA0095901037
B1938264747958N12000877WA0095901037
B1938274747954N12000872WA0095901039
B1938284747952N12000867WA0095901041
B1938294747950N12000862WA0096001044
B1938304747949N12000857WA0096001044
B1938314747946N12000854WA0096101043
B1938324747943N12000851WA0096101041
B1938334747940N12000848WA0096101038
B1938344747936N12000844WA0096101037
B1938354747932N12000839WA0096101037
B1938364747928N12000833WA0096101036
B1938374747924N12000828WA0096101035
B1938384747920N12000824WA0096101035
B1938394747917N12000822WA0096101036
B1938404747914N12000820WA0096101037
B1938414747911N12000817WA0096101036
B1938424747908N12000814WA0096101035
B1938434747905N12000812WA0096101033
B1938444747902N12000810WA0096101031
B1938454747898N12000809WA0096001030
B1938464747895N12000808WA0095901028
B1938474747891N12000805WA0095901027
B1938484747889N12000801WA0095901029
B1938494747886N12000798WA0095801029
B1938504747882N12000795WA0095801030
B1938514747879N12000792WA0095801029
B1938524747875N12000789WA0095701029
B1938534747871N12000785WA0095701030
B1938544747868N12000782WA0095601029
B1938554747865N12000778WA0095601028
B1938564747861N12000774WA0095501026
B1938574747857N12000770WA0095401023
B1938584747853N12000765WA0095301022
B1938594747849N12000759WA0095201020
B1939004747846N12000754WA0095101018
B1939014747842N12000749WA0095001017
B1939024747838N12000744WA0094901014
B1939034747834N12000740WA0094701012
B1939044747829N12000734WA0094601010
B1939054747825N12000728WA0094401008
B1939064747820N12000722WA0094301006
B1939074747816N12000715WA0094101005
B1939084747811N12000709WA0094001003
B1939094747806N12000703WA0093801000
B1939104747801N12000696WA0093700998
B1939114747797N12000689WA0093500996
B1939124747792N12000682WA0093400994
B1939134747788N12000676WA0093200992
B1939144747783N12000670WA0093100990
B1939154747779N12000665WA0092900987
B1939164747774N12000660WA0092700985
B1939174747769N12000654WA0092500983
B1939184747764N12000648WA0092400980
B1939194747759N12000641WA0092200978
B1939204747754N12000634WA0092000976
B1939214747748N12000628WA0091800974
B1939224747743N12000623WA0091600972
B1939234747737N12000617WA0091400970
B1939244747731N12000613WA0091200967
B1939244747731N12000613WA0091200967
B1939254747725N12000608WA0091000966
B1939264747720N12000603WA0090900964
B1939274747715N12000600WA0090700964
B1939284747710N12000597WA0090600964
B1939294747705N12000594WA0090400962
B1939304747700N12000589WA0090300961
B1939314747695N12000584WA0090100960
B1939324747690N12000579WA0090000959
B1939334747685N12000573WA0089800959
B1939344747680N12000566WA0089700958
B1939354747675N12000559WA0089500958
B1939364747671N12000552WA0089500958
B1939374747668N12000545WA0089400958
B1939384747665N12000538WA0089300957
B1939394747662N12000530WA0089200956
B1939404747659N12000523WA0089100955
B1939414747656N12000515WA0089000954
B1939424747654N12000507WA0089000951
B1939434747651N12000499WA0088800948
B1939444747648N12000490WA0088700947
B1939454747645N12000481WA0088500945
B1939464747642N12000472WA0088400944
B1939474747639N12000465WA0088200943
B1939484747636N12000458WA0088100945
B1939494747633N12000452WA0088000944
B1939504747630N12000446WA0087900942
B1939514747627N12000438WA0087700939
B1939524747624N12000430WA0087600935
B1939534747621N12000422WA0087300932
B1939544747617N12000414WA0087200930
B1939554747614N12000406WA0087000929
B1939564747611N12000399WA0086900930
B1939574747608N12000392WA0086700928
B1939584747604N12000384WA0086600927
B1939594747601N12000376WA0086400925
B1940004747597N12000369WA0086200924
B1940014747594N12000361WA0086100923
B1940024747591N12000354WA0086000922
B1940034747588N12000346WA0085900921
B1940044747585N12000338WA0085700919
B1940054747581N12000330WA0085600916
B1940064747577N12000322WA0085400914
B1940074747574N12000313WA0085300912
B1940084747570N12000305WA0085200910
B1940094747567N12000298WA0085000909
B1940104747563N12000292WA0084900908
B1940114747560N12000287WA0084700906
B1940124747556N12000282WA0084600905
B1940134747552N12000276WA0084400903
B1940144747548N12000270WA0084300902
B1940154747544N12000264WA0084100901
B1940164747540N12000257WA0084000900
B1940174747536N12000251WA0083900899
B1940184747533N12000245WA0083700897
B1940194747529N12000239WA0083600894
B1940204747525N12000233WA0083400891
B1940214747521N12000227WA0083200889
B1940224747516N12000220WA0083100887
B1940234747512N12000214WA0082900886
B1940244747509N12000208WA0082800884
B1940254747505N12000201WA0082600883
B1940264747501N12000194WA0082400880
B1940274747498N12000187WA0082200878
B1940274747498N12000187WA0082200878
B1940284747494N12000180WA0082100876
B1940294747490N12000173WA0081900873
B1940304747487N12000166WA0081700871
B1940314747483N12000159WA0081500869
B1940324747480N12000152WA0081300866
B1940334747476N12000145WA0081100864
B1940344747473N12000137WA0080900862
B1940354747469N12000129WA0080600860
B1940364747466N12000122WA0080500858
B1940374747462N12000114WA0080200856
B1940384747458N12000106WA0080100854
B1940394747454N12000099WA0079800851
B1940404747451N12000092WA0079700849
B1940414747447N12000085WA0079400848
B1940424747444N12000077WA0079300846
B1940434747440N12000069WA0079000845
B1940444747437N12000061WA0078900843
B1940454747433N12000054WA0078700841
B1940464747430N12000047WA0078600840
B1940474747426N12000040WA0078400838
B1940484747423N12000032WA0078200836
B1940494747419N12000025WA0078000834
B1940504747415N12000017WA0077900832
B1940514747411N12000010WA0077700830
B1940524747407N12000004WA0077600829
B1940534747404N11959997WA0077400828
B1940544747400N11959990WA0077300827
B1940554747396N11959984WA0077100825
B1940564747392N11959977WA0077000824
B1940574747388N11959971WA0076800822
B1940584747384N11959964WA0076700821
B1940594747380N11959958WA0076500820
B1941004747376N11959951WA0076400819
B1941014747372N11959945WA0076300819
B1941024747368N11959939WA0076200818
B1941034747365N11959932WA0076100817
B1941044747361N11959926WA0076000816
B1941054747358N11959920WA0075800814
B1941064747353N11959914WA0075700813
B1941074747349N11959907WA0075600811
B1941084747345N11959901WA0075500809
B1941094747341N11959895WA0075300808
B1941104747337N11959889WA0075200807
B1941114747333N11959884WA0075100806
B1941124747329N11959878WA0075000804
B1941134747325N11959872WA0074800803
B1941144747321N11959867WA0074700801
B1941154747317N11959861WA0074600800
B1941164747313N11959855WA0074500798
B1941174747309N11959848WA0074300797
B1941184747304N11959842WA0074200795
B1941194747300N11959836WA0074100794
B1941204747296N11959830WA0074000792
B1941214747292N11959824WA0073800791
B1941224747288N11959818WA0073700789
B1941234747283N11959811WA0073600788
B1941244747279N11959806WA0073500786
B1941254747274N11959800WA0073300785
B1941264747270N11959794WA0073200784
B1941274747265N11959788WA0073000782
B1941284747261N11959782WA0072900780
B1941294747257N11959776WA0072800779
B1941304747252N11959770WA0072700778
B1941314747248N11959764WA0072500777
B1941314747248N11959764WA0072500777
B1941324747244N11959758WA0072400775
B1941334747239N11959753WA0072300774
B1941344747235N11959747WA0072100772
B1941354747230N11959741WA0072000770
B1941364747226N11959734WA0071900769
B1941374747222N11959727WA0071700768
B1941384747218N11959722WA0071600766
B1941394747214N11959716WA0071500765
B1941404747210N11959711WA0071400763
B1941414747206N11959706WA0071200762
B1941424747202N11959700WA0071100761
B1941434747197N11959693WA0070900760
B1941444747193N11959687WA0070800759
B1941454747189N11959681WA0070700757
B1941464747186N11959675WA0070600756
B1941474747182N11959668WA0070400755
B1941484747178N11959660WA0070300754
B1941494747175N11959653WA0070100753
B1941504747171N11959646WA0070000752
B1941514747167N11959639WA0069900751
B1941524747163N11959633WA0069800750
B1941534747159N11959627WA0069600747
B1941544747155N11959621WA0069400745
B1941554747151N11959615WA0069200742
B1941564747146N11959609WA0069100741
B1941574747142N11959604WA0068900739
B1941584747137N11959598WA0068800738
B1941594747133N11959592WA0068600736
B1942004747128N11959586WA0068400735
B1942014747124N11959580WA0068200733
B1942024747119N11959575WA0068100731
B1942034747114N11959570WA0067900729
B1942044747110N11959564WA0067700728
B1942054747105N11959559WA0067500726
B1942064747100N11959554WA0067400724
B1942074747095N11959548WA0067100722
B1942084747090N11959542WA0067000720
B1942094747086N11959537WA0066700717
B1942104747081N11959530WA0066600715
B1942114747076N11959525WA0066400714
B1942124747071N11959519WA0066200713
B1942134747067N11959513WA0066000711
B1942144747063N11959508WA0065900709
B1942154747058N11959502WA0065700707
B1942164747054N11959496WA0065600705
B1942174747049N11959490WA0065300703
B1942184747044N11959483WA0065200701
B1942194747040N11959476WA0065000699
B1942204747036N11959470WA0064800697
B1942214747031N11959464WA0064600695
B1942224747027N11959458WA0064400692
B1942234747023N11959451WA0064200689
B1942244747018N11959444WA0064000687
B1942254747013N11959437WA0063700685
B1942264747009N11959430WA0063600683
B1942274747004N11959423WA0063300682
B1942284747000N11959415WA0063200680
B1942294746996N11959407WA0063000678
B1942304746993N11959399WA0062800676
B1942314746991N11959389WA0062600675
B1942324746989N11959378WA0062400673
B1942334746988N11959367WA0062200671
B1942344746988N11959356WA0062100669
B1942354746989N11959345WA0061800668
B1942354746989N11959345WA0061800668
B1942364746990N11959334WA0061700666
B1942374746991N11959323WA0061500664
B1942384746993N11959312WA0061300662
B1942394746995N11959301WA0061100660
B1942404746997N11959291WA0061000658
B1942414747000N11959280WA0060800657
B1942424747004N11959269WA0060700655
B1942434747007N11959259WA0060500654
B1942444747011N11959249WA0060300654
B1942454747016N11959240WA0060200653
B1942464747021N11959232WA0060100653
B1942474747026N11959223WA0059900651
B1942484747031N11959215WA0059800650
B1942494747036N11959206WA0059700649
B1942504747041N11959198WA0059600649
B1942514747047N11959190WA0059500648
B1942524747052N11959182WA0059400646
B1942534747058N11959175WA0059300645
B1942544747064N11959167WA0059200644
B1942554747070N11959159WA0059000643
B1942564747075N11959152WA0058900642
B1942574747081N11959144WA0058800640
B1942584747087N11959137WA0058700639
B1942594747093N11959130WA0058600638
B1943004747099N11959124WA0058500636
B1943014747105N11959117WA0058400635
B1943024747111N11959111WA0058300633
B1943034747117N11959105WA0058100632
B1943044747123N11959099WA0058000629
B1943054747130N11959093WA0057800628
B1943064747136N11959087WA0057700626
B1943074747142N11959082WA0057500625
B1943084747148N11959076WA0057400624
B1943094747154N11959070WA0057300622
B1943104747160N11959064WA0057200620
B1943114747167N11959058WA0057000618
B1943124747173N11959053WA0056900616
B1943134747180N11959048WA0056700615
B1943144747186N11959043WA0056600613
B1943154747192N11959038WA0056400611
B1943164747198N11959032WA0056300609
B1943174747204N11959027WA0056100607
B1943184747210N11959021WA0056000605
B1943194747217N11959017WA0055700602
B1943204747223N11959012WA0055600600
B1943214747230N11959009WA0055300598
B1943224747237N11959006WA0055200596
B1943234747244N11959003WA0054900593
B1943244747251N11959000WA0054700591
B1943254747258N11958998WA0054400589
B1943264747265N11958996WA0054200587
B1943274747272N11958994WA0054000584
B1943284747279N11958992WA0053800581
B1943294747286N11958991WA0053500579
B1943304747294N11958989WA0053300577
B1943314747301N11958987WA0053000575
B1943324747308N11958986WA0052900573
B1943334747315N11958985WA0052600570
B1943344747322N11958985WA0052400568
B1943354747329N11958984WA0052200566
B1943364747336N11958984WA0052000563
B1943374747344N11958984WA0051700561
B1943384747352N11958985WA0051500558
B1943394747360N11958985WA0051300556
B1943404747367N11958985WA0051100554
B1943404747367N11958985WA0051100554
B1943414747374N11958985WA0050800552
B1943424747382N11958984WA0050700550
B1943434747389N11958984WA0050400548
B1943444747396N11958983WA0050200546
B1943454747404N11958982WA0050000543
B1943464747411N11958981WA0049800540
B1943474747419N11958979WA0049500538
B1943484747426N11958978WA0049400536
B1943494747434N11958977WA0049100534
B1943504747441N11958975WA0049000532
B1943514747448N11958974WA0048700530
B1943524747455N11958972WA0048600528
B1943534747463N11958971WA0048300525
B1943544747471N11958971WA0048200523
B1943554747478N11958971WA0047900521
B1943564747486N11958970WA0047800519
B1943574747493N11958970WA0047500517
B1943584747501N11958969WA0047400515
B1943594747509N11958968WA0047100512
B1944004747516N11958968WA0046900509
B1944014747524N11958968WA0046700506
B1944024747532N11958967WA0046500504
B1944034747539N11958967WA0046300502
B1944044747547N11958967WA0046100500
B1944054747554N11958966WA0045800497
B1944064747562N11958966WA0045700495
B1944074747569N11958967WA0045400492
B1944084747577N11958967WA0045300491
B1944094747584N11958966WA0045000489
B1944104747591N11958965WA0044900488
B1944114747598N11958964WA0044600486
B1944124747605N11958963WA0044500484
B1944134747612N11958962WA0044200482
B1944144747620N11958961WA0044100479
B1944154747627N11958961WA0043800478
B1944164747635N11958960WA0043700476
B1944174747642N11958959WA0043500475
B1944184747649N11958958WA0043300473
B1944194747657N11958956WA0043100471
B1944204747664N11958954WA0043000469
B1944214747672N11958952WA0042700467
B1944224747679N11958950WA0042600465
B1944234747687N11958949WA0042300462
B1944244747694N11958948WA0042200460
B1944254747701N11958946WA0041900458
B1944264747708N11958945WA0041800456
B1944274747716N11958945WA0041500453
B1944284747723N11958944WA0041300450
B1944294747730N11958944WA0041100448
B1944304747737N11958945WA0040900446
B1944314747744N11958946WA0040700444
B1944324747750N11958947WA0040500442
B1944334747756N11958949WA0040300439
B1944344747761N11958952WA0040100437
B1944354747767N11958956WA0039900434
B1944364747772N11958961WA0039700432
B1944374747777N11958966WA0039400429
B1944384747781N11958971WA0039200427
B1944394747785N11958976WA0039000425
B1944404747789N11958981WA0038800422
B1944414747793N11958987WA0038500419
B1944424747797N11958992WA0038300417
B1944434747800N11958999WA0038100414
B1944444747804N11959005WA0037900413
B1944444747804N11959005WA0037900413
B1944454747807N11959012WA0037600410
B1944464747809N11959019WA0037500408
B1944474747811N11959026WA0037200407
B1944484747813N11959034WA0037100404
B1944494747814N11959042WA0036800403
B1944504747816N11959049WA0036700405
B1944514747817N11959055WA0036500404
B1944524747819N11959060WA0036400403
B1944534747821N11959066WA0036300402
B1944544747823N11959072WA0036200399
B1944554747826N11959079WA0036000395
B1944564747830N11959086WA0035800391
B1944574747834N11959091WA0035600391
B1944584747840N11959095WA0035500389
B1944594747847N11959097WA0035300387
B1945004747854N11959096WA0035200385
B1945014747860N11959090WA0034900383
B1945024747865N11959085WA0034800379
B1945034747869N11959078WA0034600379
B1945044747872N11959071WA0034400379
B1945054747873N11959064WA0034200378
B1945064747874N11959057WA0034100376
B1945074747873N11959050WA0033900374
B1945084747872N11959043WA0033800372
B1945094747871N11959037WA0033600370
B1945104747870N11959031WA0033400369
B1945114747868N11959026WA0033200367
B1945124747866N11959020WA0033100365
B1945134747863N11959016WA0032900363
B1945144747861N11959012WA0032800361
B1945154747858N11959009WA0032600360
B1945164747856N11959005WA0032500358
B1945174747853N11959003WA0032400356
B1945184747850N11959000WA0032200354
B1945194747846N11959000WA0032100352
B1945204747844N11958999WA0032000347
B1945214747842N11958996WA0031800340
B1945224747840N11958989WA0031700333
B1945234747839N11958981WA0031400331
B1945244747839N11958972WA0031300329
B1945254747840N11958963WA0031000326
B1945264747842N11958955WA0030900325
B1945274747845N11958946WA0030600322
B1945284747848N11958940WA0030400320
B1945294747853N11958933WA0030200317
B1945304747858N11958927WA0030000315
B1945314747864N11958920WA0029700313
B1945324747871N11958916WA0029600311
B1945334747879N11958915WA0029300309
B1945344747886N11958915WA0029200308
B1945354747892N11958915WA0028900307
B1945364747898N11958916WA0028800305
B1945374747904N11958916WA0028600303
B1945384747910N11958915WA0028500300
B1945394747917N11958914WA0028300298
B1945404747924N11958912WA0028200295
B1945414747931N11958910WA0027900293
B1945424747938N11958909WA0027800291
B1945434747945N11958909WA0027600288
B1945444747951N11958908WA0027400286
B1945454747958N11958908WA0027200282
B1945464747964N11958907WA0027100278
B1945474747971N11958907WA0026900275
B1945484747978N11958908WA0026800272
B1945494747984N11958909WA0026600270
B1945504747990N11958911WA0026500269
B1945504747990N11958911WA0026500269
B1945514747996N11958914WA0026300268
B1945524748001N11958918WA0026200265
B1945534748006N11958923WA0026000263
B1945544748011N11958929WA0025900258
B1945554748016N11958936WA0025700253
B1945564748019N11958944WA0025500248
B1945574748023N11958951WA0025300244
B1945584748026N11958957WA0025200242
B1945594748030N11958964WA0025000240
B1946004748033N11958972WA0024900237
B1946014748037N11958979WA0024700238
B1946024748039N11958988WA0024600236
B1946034748040N11958996WA0024500236
B1946044748041N11959004WA0024400234
B1946054748042N11959011WA0024300234
B1946064748043N11959019WA0024200233
B1946074748043N11959025WA0024100231
B1946084748043N11959033WA0024000229
B1946094748042N11959040WA0023900225
B1946104748041N11959048WA0023800223
B1946114748040N11959055WA0023700223
B1946124748039N11959061WA0023600221
B1946134748037N11959066WA0023500220
B1946144748033N11959070WA0023400218
B1946154748030N11959072WA0023200216
B1946164748026N11959070WA0023100214
B1946174748023N11959067WA0023000215
B1946184748020N11959063WA0022900212
B1946194748018N11959059WA0022800209
B1946204748015N11959055WA0022700207
B1946214748013N11959051WA0022600206
B1946224748011N11959047WA0022500206
B1946234748009N11959043WA0022300208
B1946244748006N11959040WA0022200210
B1946254748003N11959037WA0022100211
B1946264748000N11959033WA0022000213
B1946274747998N11959030WA0021900214
B1946284747996N11959027WA0021900215
B1946294747993N11959025WA0021800217
B1946304747991N11959024WA0021700219
B1946314747988N11959023WA0021600219
B1946324747985N11959024WA0021600219
B1946334747982N11959026WA0021500220
B1946344747979N11959031WA0021400222
B1946354747978N11959038WA0021200222
B1946364747977N11959047WA0021100221
B1946374747977N11959055WA0021000220
B1946384747976N11959062WA0020900220
B1946394747974N11959068WA0020700219
B1946404747972N11959073WA0020600218
B1946414747969N11959079WA0020500218
B1946424747966N11959083WA0020400217
B1946434747963N11959086WA0020200217
B1946444747960N11959087WA0020100216
B1946454747956N11959087WA0020000215
B1946464747951N11959088WA0019900214
B1946474747946N11959088WA0019700213
B1946484747941N11959090WA0019500212
B1946494747937N11959092WA0019400212
B1946504747933N11959094WA0019300212
B1946514747929N11959096WA0019200211
B1946524747925N11959098WA0019100210
B1946534747921N11959100WA0018900209
B1946544747917N11959102WA0018900209
B1946544747917N11959102WA0018900209
B1946554747915N11959102WA0018800209
B1946564747914N11959102WA0018700208
B1946574747914N11959102WA0018700207
B1946584747914N11959102WA0018600207
B1946594747913N11959102WA0018600207
B1947004747913N11959102WA0018500207
B1947014747913N11959102WA0018500208
B1947024747913N11959102WA0018500208
B1947034747913N11959102WA0018400207
B1947044747913N11959102WA0018400207
B1947054747913N11959102WA0018400207
B1947064747913N11959102WA0018400207
B1947074747913N11959102WA0018400207
B1947084747913N11959102WA0018400207
B1947094747913N11959102WA0018300208
B1947104747913N11959102WA0018300208
B1947114747912N11959102WA0018300208
B1947124747912N11959102WA0018300208
B1947134747912N11959102WA0018300208
B1947144747912N11959102WA0018300208
B1947154747912N11959101WA0018300208
B1947164747912N11959101WA0018300208
B1947174747912N11959101WA0018300208
B1947184747912N11959101WA0018300208
B1947194747912N11959101WA0018300208
B1947204747912N11959101WA0018300209
B1947214747912N11959101WA0018300209
B1947224747912N11959101WA0018300209
B1947234747912N11959101WA0018300209
B1947244747912N11959101WA0018300209
B1947254747912N11959101WA0018300209
B1947264747912N11959101WA0018300209
B1947274747912N11959101WA0018200209
B1947284747912N11959101WA0018200209
B1947294747912N11959101WA0018200209
B1947304747912N11959101WA0018200210
B1947314747912N11959100WA0018200210
B1947324747912N11959100WA0018200210
B1947334747912N11959100WA0018200210
B1947344747912N11959100WA0018200211
B1947354747912N11959100WA0018200211
B1947364747912N11959100WA0018200211
B1947374747912N11959100WA0018200211
B1947384747912N11959100WA0018200212
B1947394747912N11959100WA0018200212
B1947404747912N11959100WA0018200212
B1947414747912N11959100WA0018200212
B1947424747912N11959100WA0018200212
B1947434747913N11959100WA0018200212
B1947444747913N11959099WA0018200212
B1947454747913N11959099WA0018200212
B1947464747913N11959099WA0018200212
B1947474747913N11959099WA0018200212
B1947484747913N11959100WA0018200212
B1947494747912N11959099WA0018200213
B1947504747912N11959100WA0018200213
B1947514747912N11959100WA0018200213
B1947524747912N11959100WA0018200213
B1947534747912N11959100WA0018200213
B1947544747912N11959100WA0018200214
B1947554747912N11959100WA0018200214
B1947564747912N11959100WA0018200214
B1947574747912N11959100WA0018200214
B1947584747912N11959100WA0018200215
B1947594747912N11959100WA0018200215
B1948004747912N11959100WA0018200215
