AXFMSFP Flymaster Live, V1.0
HFFXA010
HFPLTPILOT:Steven Young
HFGTYGLIDERTYPE:Ozone Photon / Supair Delight 4
HFGIDGLIDERID:
HFDTM100GPSDATUM:WGS-1984
HFCIDCOMPETITIONID:171
HFCCLCOMPETITIONCLASS:
HOSITSITE:LAUNCH
HFGPS:UBLOXNEO6
HFPRSPRESSALTSENSOR:NA
HFRFWFIRMWAREVERSION:202g
HFRHWHARDWAREVERSION:1.0R2
HFFTYFRTYPE:FLYMASTER,LIVE
HFDTE280625
B1822104748237N12002367WA0105301118
B1822114748236N12002370WA0105301117
B1822124748235N12002372WA0105301117
B1822134748234N12002375WA0105201116
B1822144748234N12002377WA0105201114
B1822154748233N12002381WA0105101114
B1822164748233N12002385WA0105101113
B1822174748232N12002389WA0105001113
B1822184748231N12002394WA0104901112
B1822194748229N12002397WA0104901111
B1822204748227N12002400WA0104801111
B1822214748225N12002401WA0104801110
B1822224748223N12002402WA0104701110
B1822234748222N12002404WA0104701110
B1822244748221N12002407WA0104601108
B1822254748219N12002409WA0104601106
B1822264748218N12002413WA0104401102
B1822274748215N12002418WA0104301099
B1822284748212N12002422WA0104101096
B1822294748209N12002426WA0104001095
B1822304748206N12002429WA0103901094
B1822314748203N12002432WA0103801093
B1822324748201N12002434WA0103801093
B1822334748199N12002437WA0103701094
B1822344748196N12002440WA0103601094
B1822354748193N12002442WA0103601093
B1822364748189N12002444WA0103501093
B1822374748186N12002447WA0103501094
B1822384748182N12002448WA0103401095
B1822394748179N12002449WA0103401096
B1822404748176N12002449WA0103401098
B1822414748173N12002449WA0103501100
B1822424748171N12002448WA0103501101
B1822434748168N12002449WA0103501100
B1822444748165N12002450WA0103501097
B1822454748161N12002452WA0103401096
B1822464748156N12002454WA0103401095
B1822474748152N12002454WA0103301094
B1822484748148N12002453WA0103301093
B1822494748144N12002453WA0103201092
B1822504748139N12002453WA0103101091
B1822514748134N12002454WA0103001090
B1822524748130N12002454WA0103001090
B1822534748126N12002453WA0102901089
B1822544748122N12002451WA0102801089
B1822554748118N12002450WA0102801088
B1822564748113N12002448WA0102701087
B1822574748107N12002447WA0102601086
B1822584748101N12002447WA0102501085
B1822594748095N12002447WA0102401085
B1823004748090N12002445WA0102401085
B1823014748085N12002443WA0102301086
B1823024748081N12002441WA0102301086
B1823034748077N12002439WA0102301087
B1823044748073N12002437WA0102201087
B1823054748068N12002435WA0102201087
B1823064748063N12002432WA0102201087
B1823074748059N12002429WA0102101086
B1823084748054N12002424WA0102101085
B1823094748050N12002421WA0102001085
B1823104748046N12002418WA0102001086
B1823114748042N12002416WA0102001086
B1823124748038N12002413WA0102001086
B1823134748034N12002410WA0102001085
B1823144748030N12002406WA0101901083
B1823154748026N12002402WA0101901083
B1823154748026N12002402WA0101901083
B1823164748022N12002397WA0101801085
B1823174748019N12002392WA0101801086
B1823184748016N12002386WA0101801087
B1823194748013N12002380WA0101801087
B1823204748009N12002374WA0101801087
B1823214748005N12002369WA0101901087
B1823224748001N12002363WA0101901088
B1823234747997N12002358WA0101901088
B1823244747994N12002352WA0101901088
B1823254747991N12002346WA0101901089
B1823264747988N12002340WA0102001090
B1823274747986N12002333WA0102001090
B1823284747983N12002327WA0102001090
B1823294747981N12002320WA0102001090
B1823304747978N12002314WA0102001089
B1823314747976N12002308WA0102101088
B1823324747973N12002301WA0102101087
B1823334747971N12002294WA0102001086
B1823344747969N12002287WA0102001084
B1823354747966N12002280WA0102001082
B1823364747964N12002273WA0101901081
B1823374747963N12002266WA0101801080
B1823384747961N12002258WA0101701079
B1823394747960N12002251WA0101701077
B1823404747959N12002243WA0101601076
B1823414747957N12002235WA0101501074
B1823424747956N12002227WA0101301072
B1823434747954N12002219WA0101301071
B1823444747953N12002211WA0101101070
B1823454747951N12002203WA0101001069
B1823464747950N12002195WA0100901067
B1823474747948N12002187WA0100801066
B1823484747947N12002178WA0100601064
B1823494747946N12002170WA0100501063
B1823504747944N12002162WA0100401061
B1823514747943N12002154WA0100201059
B1823524747942N12002146WA0100001056
B1823534747941N12002137WA0099901054
B1823544747939N12002128WA0099701051
B1823554747938N12002118WA0099501049
B1823564747938N12002109WA0099301048
B1823574747937N12002101WA0099201046
B1823584747937N12002093WA0099001045
B1823594747936N12002085WA0098901042
B1824004747935N12002076WA0098601040
B1824014747934N12002066WA0098501037
B1824024747932N12002057WA0098201034
B1824034747931N12002048WA0098001032
B1824044747930N12002039WA0097801030
B1824054747929N12002030WA0097601028
B1824064747929N12002021WA0097401026
B1824074747928N12002012WA0097301025
B1824084747928N12002003WA0097001023
B1824094747927N12001994WA0096901021
B1824104747927N12001985WA0096601019
B1824114747926N12001976WA0096501017
B1824124747926N12001966WA0096201015
B1824134747925N12001956WA0096101013
B1824144747924N12001946WA0095901011
B1824154747923N12001937WA0095701010
B1824164747923N12001927WA0095601009
B1824174747922N12001917WA0095401007
B1824184747921N12001907WA0095201005
B1824184747921N12001907WA0095201005
B1824194747921N12001897WA0095101004
B1824204747921N12001887WA0095001002
B1824214747921N12001877WA0094901001
B1824224747921N12001868WA0094701000
B1824234747921N12001858WA0094600998
B1824244747921N12001848WA0094400997
B1824254747920N12001839WA0094300996
B1824264747920N12001831WA0094200995
B1824274747919N12001822WA0094100993
B1824284747919N12001814WA0093900992
B1824294747918N12001806WA0093800990
B1824304747916N12001798WA0093700989
B1824314747914N12001791WA0093600988
B1824324747912N12001782WA0093500987
B1824334747909N12001772WA0093400986
B1824344747907N12001763WA0093200985
B1824354747906N12001755WA0093200984
B1824364747904N12001747WA0093000983
B1824374747902N12001739WA0092900980
B1824384747900N12001731WA0092700978
B1824394747898N12001722WA0092600976
B1824404747896N12001713WA0092500974
B1824414747894N12001703WA0092300973
B1824424747892N12001694WA0092200972
B1824434747890N12001686WA0092100972
B1824444747888N12001677WA0092000973
B1824454747886N12001668WA0092000973
B1824464747885N12001660WA0091900974
B1824474747882N12001653WA0091900975
B1824484747881N12001645WA0091900975
B1824494747880N12001638WA0091900976
B1824504747879N12001629WA0091900975
B1824514747878N12001619WA0091900974
B1824524747877N12001610WA0091800973
B1824534747875N12001600WA0091800971
B1824544747872N12001591WA0091700970
B1824554747871N12001582WA0091700970
B1824564747869N12001574WA0091600969
B1824574747867N12001565WA0091600968
B1824584747865N12001554WA0091500967
B1824594747863N12001544WA0091500967
B1825004747861N12001534WA0091400968
B1825014747860N12001526WA0091400970
B1825024747859N12001518WA0091500971
B1825034747857N12001509WA0091500970
B1825044747855N12001499WA0091400967
B1825054747852N12001489WA0091400965
B1825064747850N12001478WA0091300964
B1825074747848N12001467WA0091300964
B1825084747847N12001457WA0091300966
B1825094747847N12001448WA0091300969
B1825104747847N12001439WA0091400972
B1825114747846N12001430WA0091400973
B1825124747845N12001420WA0091500974
B1825134747844N12001410WA0091600974
B1825144747843N12001401WA0091600975
B1825154747842N12001393WA0091700976
B1825164747841N12001384WA0091700975
B1825174747841N12001374WA0091700973
B1825184747840N12001362WA0091700971
B1825194747840N12001351WA0091700970
B1825204747840N12001341WA0091700971
B1825214747840N12001332WA0091700973
B1825214747840N12001332WA0091700973
B1825224747840N12001324WA0091800973
B1825234747840N12001315WA0091800974
B1825244747839N12001306WA0091800973
B1825254747838N12001295WA0091700972
B1825264747837N12001284WA0091700971
B1825274747835N12001275WA0091700971
B1825284747835N12001266WA0091700972
B1825294747836N12001259WA0091700973
B1825304747837N12001252WA0091700973
B1825314747837N12001244WA0091700972
B1825324747836N12001235WA0091600969
B1825334747835N12001224WA0091600966
B1825344747836N12001213WA0091500965
B1825354747838N12001203WA0091500968
B1825364747839N12001194WA0091500969
B1825374747840N12001186WA0091500971
B1825384747840N12001176WA0091500970
B1825394747840N12001166WA0091500969
B1825404747841N12001156WA0091400969
B1825414747841N12001146WA0091400969
B1825424747842N12001136WA0091400969
B1825434747843N12001125WA0091400969
B1825444747844N12001114WA0091400969
B1825454747845N12001103WA0091400970
B1825464747847N12001092WA0091400970
B1825474747849N12001081WA0091400970
B1825484747851N12001070WA0091400971
B1825494747851N12001058WA0091500971
B1825504747850N12001047WA0091500972
B1825514747849N12001037WA0091500973
B1825524747850N12001027WA0091600976
B1825534747851N12001018WA0091700979
B1825544747854N12001009WA0091800980
B1825554747854N12001001WA0091900980
B1825564747854N12000992WA0091900978
B1825574747854N12000983WA0091900976
B1825584747853N12000973WA0091900975
B1825594747852N12000964WA0091900973
B1826004747850N12000955WA0091800971
B1826014747849N12000945WA0091800970
B1826024747850N12000935WA0091700968
B1826034747850N12000925WA0091600967
B1826044747851N12000916WA0091500966
B1826054747851N12000906WA0091500964
B1826064747852N12000897WA0091400962
B1826074747852N12000888WA0091300961
B1826084747852N12000880WA0091100960
B1826094747852N12000871WA0091100958
B1826104747852N12000862WA0090900956
B1826114747852N12000852WA0090800953
B1826124747852N12000841WA0090600950
B1826134747853N12000831WA0090400949
B1826144747854N12000821WA0090300948
B1826154747855N12000812WA0090200949
B1826164747856N12000804WA0090100949
B1826174747858N12000796WA0090000949
B1826184747859N12000787WA0089900948
B1826194747860N12000778WA0089800947
B1826204747862N12000769WA0089700946
B1826214747863N12000760WA0089600945
B1826224747865N12000752WA0089500945
B1826234747867N12000743WA0089500944
B1826244747869N12000733WA0089300943
B1826244747869N12000733WA0089300943
B1826254747871N12000724WA0089300942
B1826264747873N12000715WA0089200941
B1826274747876N12000706WA0089100941
B1826284747878N12000697WA0089000941
B1826294747881N12000688WA0089000941
B1826304747884N12000679WA0088900940
B1826314747887N12000670WA0088900940
B1826324747889N12000662WA0088800941
B1826334747890N12000654WA0088800940
B1826344747892N12000646WA0088700939
B1826354747893N12000638WA0088700938
B1826364747894N12000629WA0088600937
B1826374747894N12000620WA0088500935
B1826384747895N12000612WA0088500934
B1826394747895N12000604WA0088400935
B1826404747896N12000595WA0088300935
B1826414747896N12000585WA0088300935
B1826424747897N12000575WA0088300935
B1826434747899N12000566WA0088200935
B1826444747900N12000558WA0088200935
B1826454747901N12000550WA0088200934
B1826464747903N12000543WA0088100933
B1826474747904N12000535WA0088000931
B1826484747905N12000527WA0087900929
B1826494747906N12000519WA0087900928
B1826504747907N12000511WA0087700926
B1826514747908N12000502WA0087600925
B1826524747909N12000494WA0087500923
B1826534747910N12000485WA0087400921
B1826544747911N12000476WA0087300919
B1826554747912N12000466WA0087200918
B1826564747912N12000457WA0087000918
B1826574747913N12000448WA0087000917
B1826584747913N12000441WA0086800917
B1826594747914N12000433WA0086800916
B1827004747915N12000425WA0086600914
B1827014747917N12000416WA0086500912
B1827024747918N12000407WA0086400911
B1827034747919N12000399WA0086300909
B1827044747920N12000391WA0086200908
B1827054747921N12000383WA0086000905
B1827064747922N12000375WA0085900903
B1827074747923N12000367WA0085700899
B1827084747924N12000358WA0085500895
B1827094747925N12000348WA0085300892
B1827104747925N12000339WA0085000888
B1827114747926N12000330WA0084800886
B1827124747927N12000322WA0084500883
B1827134747928N12000313WA0084400881
B1827144747929N12000304WA0084100878
B1827154747930N12000296WA0083900876
B1827164747930N12000288WA0083600873
B1827174747930N12000280WA0083400870
B1827184747930N12000271WA0083100867
B1827194747930N12000263WA0082900863
B1827204747930N12000254WA0082600860
B1827214747929N12000246WA0082400857
B1827224747929N12000239WA0082000854
B1827234747928N12000232WA0081800850
B1827244747927N12000224WA0081400847
B1827254747926N12000216WA0081200844
B1827264747925N12000208WA0080800841
B1827274747924N12000201WA0080600838
B1827274747924N12000201WA0080600838
B1827284747923N12000194WA0080200836
B1827294747921N12000187WA0080000833
B1827304747920N12000180WA0079600829
B1827314747918N12000173WA0079400826
B1827324747917N12000166WA0079000822
B1827334747915N12000159WA0078800819
B1827344747913N12000152WA0078400816
B1827354747911N12000145WA0078100812
B1827364747910N12000137WA0077800809
B1827374747909N12000130WA0077500805
B1827384747907N12000122WA0077100802
B1827394747906N12000114WA0076900799
B1827404747904N12000106WA0076500796
B1827414747902N12000099WA0076200793
B1827424747900N12000092WA0075900791
B1827434747899N12000085WA0075600787
B1827444747897N12000078WA0075200784
B1827454747895N12000070WA0075000781
B1827464747893N12000062WA0074600777
B1827474747892N12000055WA0074300775
B1827484747891N12000048WA0074000773
B1827494747891N12000040WA0073800770
B1827504747890N12000032WA0073400767
B1827514747889N12000024WA0073200763
B1827524747887N12000017WA0072800760
B1827534747886N12000010WA0072500758
B1827544747884N12000004WA0072200755
B1827554747883N11959997WA0072000753
B1827564747882N11959991WA0071600750
B1827574747880N11959984WA0071400747
B1827584747878N11959976WA0071000743
B1827594747877N11959969WA0070800739
B1828004747875N11959962WA0070400736
B1828014747874N11959955WA0070200734
B1828024747872N11959949WA0069800732
B1828034747870N11959943WA0069600729
B1828044747868N11959937WA0069300725
B1828054747866N11959930WA0069000722
B1828064747863N11959923WA0068700720
B1828074747860N11959916WA0068500718
B1828084747858N11959909WA0068200716
B1828094747857N11959902WA0068000716
B1828104747856N11959896WA0067700715
B1828114747855N11959890WA0067600715
B1828124747855N11959883WA0067400715
B1828134747854N11959877WA0067300713
B1828144747853N11959870WA0067100711
B1828154747851N11959863WA0066900709
B1828164747850N11959857WA0066700708
B1828174747849N11959850WA0066600706
B1828184747848N11959843WA0066400705
B1828194747847N11959836WA0066300704
B1828204747846N11959830WA0066100703
B1828214747844N11959823WA0066000701
B1828224747841N11959817WA0065800700
B1828234747839N11959811WA0065700699
B1828244747837N11959805WA0065500697
B1828254747836N11959797WA0065400696
B1828264747835N11959788WA0065200695
B1828274747835N11959779WA0065100693
B1828284747836N11959770WA0064900692
B1828294747837N11959763WA0064800692
B1828304747840N11959756WA0064700690
B1828304747840N11959756WA0064700690
B1828314747843N11959748WA0064600688
B1828324747847N11959740WA0064300684
B1828334747851N11959732WA0064200681
B1828344747856N11959724WA0064000678
B1828354747860N11959717WA0063800677
B1828364747864N11959710WA0063600675
B1828374747870N11959704WA0063400673
B1828384747875N11959698WA0063200670
B1828394747881N11959692WA0063000668
B1828404747887N11959686WA0062800666
B1828414747893N11959680WA0062700664
B1828424747899N11959676WA0062500663
B1828434747905N11959672WA0062300662
B1828444747910N11959667WA0062100661
B1828454747916N11959663WA0062000659
B1828464747922N11959659WA0061800657
B1828474747928N11959654WA0061600654
B1828484747934N11959649WA0061400651
B1828494747940N11959644WA0061300649
B1828504747946N11959639WA0061000647
B1828514747952N11959634WA0060900645
B1828524747958N11959630WA0060600642
B1828534747964N11959625WA0060400639
B1828544747971N11959620WA0060200636
B1828554747977N11959615WA0060000633
B1828564747983N11959610WA0059700632
B1828574747989N11959605WA0059600630
B1828584747995N11959601WA0059300628
B1828594748002N11959597WA0059100626
B1829004748008N11959593WA0058900623
B1829014748014N11959589WA0058700620
B1829024748020N11959585WA0058400618
B1829034748027N11959581WA0058200615
B1829044748034N11959578WA0058000613
B1829054748041N11959574WA0057800611
B1829064748047N11959569WA0057500609
B1829074748053N11959565WA0057400607
B1829084748059N11959561WA0057100606
B1829094748065N11959557WA0056900604
B1829104748072N11959553WA0056700602
B1829114748078N11959548WA0056500599
B1829124748084N11959544WA0056200597
B1829134748091N11959539WA0056100595
B1829144748097N11959534WA0055800593
B1829154748103N11959529WA0055600591
B1829164748108N11959524WA0055400589
B1829174748114N11959518WA0055200587
B1829184748120N11959513WA0055000585
B1829194748125N11959508WA0054900583
B1829204748131N11959504WA0054600580
B1829214748137N11959500WA0054400578
B1829224748143N11959496WA0054200576
B1829234748149N11959492WA0054000575
B1829244748154N11959488WA0053800573
B1829254748159N11959484WA0053700571
B1829264748165N11959479WA0053400568
B1829274748170N11959474WA0053200565
B1829284748176N11959469WA0053000563
B1829294748181N11959463WA0052800561
B1829304748186N11959458WA0052500558
B1829314748191N11959452WA0052400557
B1829324748196N11959445WA0052100555
B1829324748196N11959445WA0052100555
B1829334748200N11959438WA0052000554
B1829344748205N11959431WA0051800553
B1829354748208N11959425WA0051700554
B1829364748212N11959419WA0051600555
B1829374748215N11959414WA0051500555
B1829384748219N11959408WA0051300553
B1829394748222N11959402WA0051200551
B1829404748225N11959394WA0051100548
B1829414748227N11959384WA0050900546
B1829424748229N11959374WA0050800545
B1829434748230N11959365WA0050700545
B1829444748230N11959357WA0050600545
B1829454748230N11959349WA0050500545
B1829464748231N11959341WA0050400545
B1829474748231N11959332WA0050400544
B1829484748231N11959324WA0050300543
B1829494748231N11959316WA0050200541
B1829504748231N11959308WA0050100539
B1829514748231N11959300WA0050000537
B1829524748233N11959292WA0049800535
B1829534748234N11959284WA0049700533
B1829544748235N11959275WA0049500531
B1829554748236N11959266WA0049400529
B1829564748238N11959258WA0049200528
B1829574748239N11959250WA0049100526
B1829584748242N11959241WA0048900525
B1829594748244N11959232WA0048800524
B1830004748247N11959224WA0048700522
B1830014748249N11959216WA0048600521
B1830024748252N11959208WA0048400519
B1830034748255N11959200WA0048300517
B1830044748258N11959191WA0048100515
B1830054748262N11959183WA0048000513
B1830064748265N11959174WA0047800511
B1830074748268N11959166WA0047700509
B1830084748271N11959158WA0047500507
B1830094748274N11959149WA0047300505
B1830104748277N11959140WA0047100503
B1830114748280N11959131WA0047000500
B1830124748284N11959122WA0046700498
B1830134748287N11959113WA0046600496
B1830144748291N11959104WA0046400494
B1830154748294N11959095WA0046200492
B1830164748298N11959085WA0045900489
B1830174748301N11959075WA0045800488
B1830184748304N11959065WA0045600487
B1830194748305N11959055WA0045400486
B1830204748306N11959047WA0045300486
B1830214748307N11959038WA0045100485
B1830224748308N11959030WA0045000483
B1830234748308N11959021WA0044800480
B1830244748309N11959012WA0044600478
B1830254748308N11959004WA0044500476
B1830264748307N11958995WA0044300474
B1830274748307N11958987WA0044100472
B1830284748307N11958978WA0043900471
B1830294748306N11958970WA0043800469
B1830304748306N11958962WA0043600467
B1830314748305N11958954WA0043400464
B1830324748304N11958945WA0043200463
B1830334748304N11958937WA0043100461
B1830344748303N11958929WA0042900460
B1830354748302N11958921WA0042800458
B1830364748300N11958913WA0042600456
B1830364748300N11958913WA0042600456
B1830374748299N11958905WA0042400454
B1830384748298N11958897WA0042200452
B1830394748296N11958890WA0042100450
B1830404748294N11958882WA0041900449
B1830414748292N11958875WA0041800447
B1830424748290N11958868WA0041600445
B1830434748288N11958861WA0041400444
B1830444748286N11958854WA0041200443
B1830454748284N11958848WA0041100442
B1830464748282N11958843WA0040900440
B1830474748280N11958839WA0040800438
B1830484748277N11958835WA0040600436
B1830494748274N11958832WA0040500434
B1830504748270N11958831WA0040300432
B1830514748267N11958831WA0040100430
B1830524748264N11958832WA0039900429
B1830534748262N11958834WA0039800428
B1830544748260N11958837WA0039500426
B1830554748259N11958840WA0039400424
B1830564748257N11958844WA0039200422
B1830574748255N11958848WA0039000419
B1830584748254N11958852WA0038800417
B1830594748253N11958856WA0038700416
B1831004748252N11958860WA0038400415
B1831014748251N11958864WA0038300413
B1831024748250N11958869WA0038000410
B1831034748248N11958873WA0037900408
B1831044748247N11958877WA0037600406
B1831054748245N11958881WA0037400403
B1831064748243N11958884WA0037200401
B1831074748240N11958888WA0037000398
B1831084748236N11958891WA0036700396
B1831094748233N11958894WA0036500394
B1831104748228N11958894WA0036200392
B1831114748224N11958894WA0036100390
B1831124748220N11958893WA0035900388
B1831134748217N11958892WA0035700385
B1831144748213N11958890WA0035500383
B1831154748209N11958888WA0035400382
B1831164748205N11958885WA0035300380
B1831174748202N11958881WA0035200380
B1831184748199N11958877WA0035000380
B1831194748195N11958873WA0034900380
B1831204748192N11958869WA0034800379
B1831214748189N11958864WA0034700378
B1831224748186N11958859WA0034600377
B1831234748183N11958855WA0034500376
B1831244748179N11958851WA0034400375
B1831254748176N11958848WA0034300374
B1831264748172N11958846WA0034100372
B1831274748168N11958846WA0034000370
B1831284748165N11958846WA0033900369
B1831294748162N11958848WA0033800367
B1831304748159N11958850WA0033600365
B1831314748158N11958854WA0033500364
B1831324748157N11958859WA0033300362
B1831334748157N11958865WA0033200359
B1831344748157N11958870WA0033000357
B1831354748157N11958876WA0032900354
B1831364748157N11958881WA0032700353
B1831374748157N11958886WA0032600351
B1831384748157N11958893WA0032400349
B1831394748158N11958900WA0032200348
B1831394748158N11958900WA0032200348
B1831404748159N11958905WA0032100347
B1831414748160N11958910WA0032000345
B1831424748161N11958916WA0031800340
B1831434748161N11958922WA0031700339
B1831444748161N11958929WA0031500338
B1831454748161N11958936WA0031400337
B1831464748162N11958943WA0031200336
B1831474748162N11958950WA0031100335
B1831484748163N11958956WA0030900335
B1831494748164N11958963WA0030800334
B1831504748165N11958969WA0030700333
B1831514748167N11958976WA0030500331
B1831524748168N11958983WA0030300329
B1831534748167N11958990WA0030200328
B1831544748165N11958995WA0030000326
B1831554748163N11959000WA0029900324
B1831564748160N11959004WA0029700323
B1831574748157N11959007WA0029600322
B1831584748154N11959009WA0029400321
B1831594748151N11959009WA0029300319
B1832004748148N11959008WA0029200317
B1832014748145N11959006WA0029100316
B1832024748142N11959004WA0028900315
B1832034748139N11959002WA0028800313
B1832044748136N11958999WA0028600311
B1832054748133N11958996WA0028500310
B1832064748131N11958993WA0028400308
B1832074748128N11958988WA0028300307
B1832084748126N11958983WA0028100305
B1832094748124N11958977WA0028000303
B1832104748121N11958971WA0027800301
B1832114748119N11958965WA0027700300
B1832124748117N11958960WA0027600299
B1832134748115N11958957WA0027500298
B1832144748112N11958955WA0027300297
B1832154748110N11958954WA0027200297
B1832164748109N11958953WA0027100296
B1832174748108N11958952WA0027000295
B1832184748106N11958952WA0026900293
B1832194748104N11958952WA0026800292
B1832204748102N11958954WA0026600290
B1832214748099N11958955WA0026500289
B1832224748096N11958956WA0026300289
B1832234748094N11958956WA0026200289
B1832244748093N11958956WA0026100288
B1832254748091N11958957WA0026100287
B1832264748088N11958958WA0025900284
B1832274748086N11958960WA0025800282
B1832284748083N11958963WA0025700280
B1832294748081N11958965WA0025600280
B1832304748079N11958967WA0025500280
B1832314748076N11958969WA0025400279
B1832324748074N11958971WA0025200277
B1832334748072N11958972WA0025100276
B1832344748069N11958974WA0025000273
B1832354748066N11958976WA0024900272
B1832364748063N11958977WA0024700270
B1832374748060N11958977WA0024600270
B1832384748057N11958976WA0024500269
B1832394748054N11958975WA0024400269
B1832404748051N11958974WA0024200269
B1832414748048N11958972WA0024200268
B1832424748045N11958970WA0024000267
B1832424748045N11958970WA0024000267
B1832434748042N11958968WA0023900266
B1832444748038N11958966WA0023800265
B1832454748035N11958964WA0023700265
B1832464748032N11958963WA0023700264
B1832474748030N11958964WA0023600263
B1832484748028N11958966WA0023500262
B1832494748026N11958970WA0023400261
B1832504748025N11958976WA0023300259
B1832514748025N11958983WA0023200258
B1832524748026N11958989WA0023100258
B1832534748027N11958995WA0023100257
B1832544748027N11959000WA0023000256
B1832554748026N11959005WA0022900255
B1832564748024N11959010WA0022800253
B1832574748021N11959014WA0022700252
B1832584748018N11959018WA0022500250
B1832594748016N11959020WA0022500250
B1833004748013N11959022WA0022400250
B1833014748010N11959022WA0022300249
B1833024748007N11959023WA0022200249
B1833034748005N11959025WA0022100247
B1833044748002N11959028WA0022000246
B1833054747999N11959030WA0022000245
B1833064747996N11959032WA0021900245
B1833074747993N11959034WA0021800244
B1833084747992N11959037WA0021700244
B1833094747990N11959039WA0021700243
B1833104747988N11959042WA0021600242
B1833114747987N11959045WA0021500240
B1833124747984N11959049WA0021400239
B1833134747982N11959052WA0021300239
B1833144747979N11959055WA0021200238
B1833154747977N11959058WA0021200239
B1833164747975N11959061WA0021100239
B1833174747973N11959065WA0021000237
B1833184747971N11959068WA0020900236
B1833194747969N11959071WA0020800235
B1833204747966N11959073WA0020700234
B1833214747962N11959075WA0020600233
B1833224747958N11959077WA0020500232
B1833234747955N11959079WA0020400231
B1833244747952N11959081WA0020300231
B1833254747949N11959082WA0020200230
B1833264747946N11959083WA0020100229
B1833274747943N11959084WA0020000228
B1833284747940N11959086WA0019900227
B1833294747938N11959089WA0019800227
B1833304747936N11959094WA0019700228
B1833314747933N11959097WA0019600227
B1833324747930N11959100WA0019400227
B1833334747928N11959101WA0019400226
B1833344747925N11959102WA0019200225
B1833354747922N11959104WA0019100224
B1833364747920N11959105WA0018900223
B1833374747917N11959106WA0018800223
B1833384747915N11959107WA0018700223
B1833394747913N11959108WA0018600221
B1833404747912N11959109WA0018500220
B1833414747912N11959109WA0018500220
B1833424747911N11959108WA0018400219
B1833434747911N11959108WA0018300219
B1833444747911N11959108WA0018300219
B1833454747911N11959108WA0018200219
B1833454747911N11959108WA0018200219
B1833464747911N11959108WA0018200218
B1833474747911N11959108WA0018200218
B1833484747911N11959108WA0018100218
B1833494747911N11959109WA0018100218
B1833504747911N11959109WA0018100218
B1833514747911N11959109WA0018000219
B1833524747911N11959109WA0018000219
B1833534747911N11959109WA0018000219
B1833544747911N11959109WA0018000219
B1833554747911N11959109WA0018000219
B1833564747911N11959109WA0018000218
B1833574747911N11959109WA0018000218
B1833584747911N11959109WA0017900218
B1833594747911N11959109WA0017900218
B1834004747911N11959109WA0017900218
B1834014747911N11959109WA0017900218
B1834024747911N11959109WA0017900218
B1834034747911N11959109WA0017900217
B1834044747911N11959109WA0017900217
B1834054747911N11959109WA0017900217
B1834064747911N11959109WA0017900217
B1834074747911N11959109WA0017900216
B1834084747911N11959109WA0017900216
B1834094747911N11959109WA0017900216
B1834104747911N11959109WA0017900216
B1834114747910N11959109WA0017900216
B1834124747910N11959109WA0017900216
B1834134747910N11959109WA0017900216
B1834144747910N11959109WA0017900216
B1834154747910N11959109WA0017900217
B1834164747910N11959109WA0017900217
B1834174747910N11959109WA0017900217
B1834184747910N11959109WA0017900217
B1834194747910N11959109WA0017900217
B1834204747910N11959110WA0017900217
B1834214747910N11959110WA0017900217
B1834224747910N11959110WA0017900217
B1834234747910N11959110WA0017900217
B1834244747910N11959110WA0017900217
B1834254747910N11959110WA0017900217
B1834264747910N11959110WA0017900217
B1834274747910N11959110WA0017900217
B1834284747910N11959110WA0017900217
B1834294747910N11959110WA0017900217
B1834304747910N11959110WA0017900217
B1834314747910N11959110WA0017900218
B1834324747910N11959110WA0017900218
B1834334747910N11959110WA0017900218
B1834344747910N11959110WA0017900219
B1834354747910N11959110WA0017900219
B1834364747910N11959110WA0017900219
B1834374747910N11959110WA0017900219
B1834384747910N11959111WA0017900219
B1834394747911N11959111WA0017900220
B1834404747911N11959111WA0017900220
B1834414747911N11959111WA0017900220
B1834424747911N11959111WA0017900219
B1834434747911N11959111WA0017900219
B1834444747911N11959111WA0017900219
B1834454747911N11959111WA0017900219
B1834464747912N11959111WA0017900219
B1834474747912N11959111WA0017900219
B1834484747912N11959111WA0017900220
B1834494747912N11959111WA0017900219
