AXFMSFP Flymaster Live, V1.0
HFFXA010
HFPLTPILOT:Douglas Anawalt
HFGTYGLIDERTYPE:Ozone Zeno 2 / Advance Impress 4
HFGIDGLIDERID:
HFDTM100GPSDATUM:WGS-1984
HFCIDCOMPETITIONID:530
HFCCLCOMPETITIONCLASS:
HOSITSITE:LAUNCH
HFGPS:UBLOXNEO6
HFPRSPRESSALTSENSOR:NA
HFRFWFIRMWAREVERSION:202g
HFRHWHARDWAREVERSION:1.0R2
HFFTYFRTYPE:FLYMASTER,LIVE
HFDTE260625
B1816154748273N12002572WA0107001085
B1816164748274N12002573WA0107001085
B1816174748274N12002575WA0107001084
B1816184748275N12002579WA0107001083
B1816194748274N12002583WA0106901081
B1816204748273N12002587WA0106801079
B1816214748271N12002590WA0106801078
B1816224748270N12002593WA0106701080
B1819194748000N12003046WA0103301039
B1819204747996N12003037WA0103101037
B1819214747992N12003028WA0103001036
B1819224747988N12003020WA0102901036
B1819234747983N12003012WA0102801035
B1819244747979N12003005WA0102701035
B1819254747974N12002998WA0102601034
B1819264747970N12002990WA0102501033
B1819274747965N12002983WA0102401033
B1819284747960N12002977WA0102301032
B1819294747955N12002972WA0102201032
B1819304747950N12002967WA0102201031
B1819314747945N12002963WA0102101031
B1819324747940N12002958WA0102001031
B1819334747934N12002955WA0102001030
B1819344747929N12002952WA0101901029
B1819354747924N12002949WA0101901029
B1819364747919N12002947WA0101801029
B1819374747914N12002945WA0101801029
B1819384747909N12002944WA0101801030
B1819394747904N12002943WA0101701029
B1819404747899N12002943WA0101701029
B1819414747895N12002943WA0101701028
B1819424747891N12002943WA0101601027
B1819434747886N12002943WA0101601027
B1819444747882N12002942WA0101501026
B1819454747878N12002938WA0101501025
B1819464747874N12002931WA0101401022
B1819474747871N12002921WA0101301020
B1819484747869N12002910WA0101101017
B1819494747869N12002897WA0101001016
B1819504747870N12002886WA0100901015
B1819514747873N12002875WA0100801014
B1819524747876N12002865WA0100701013
B1819534747880N12002854WA0100601012
B1819544747883N12002843WA0100501010
B1819554747886N12002832WA0100401008
B1819564747888N12002820WA0100201007
B1819574747889N12002807WA0100101005
B1819584747889N12002795WA0100001004
B1819594747889N12002783WA0099901003
B1820004747889N12002771WA0099701002
B1820014747887N12002760WA0099701001
B1820024747885N12002749WA0099501000
B1820034747883N12002738WA0099400998
B1820044747881N12002727WA0099300997
B1820054747878N12002716WA0099200996
B1820064747875N12002706WA0099100996
B1820074747872N12002695WA0099000995
B1820084747869N12002685WA0098900995
B1820094747866N12002675WA0098800994
B1820104747862N12002666WA0098700994
B1820114747859N12002656WA0098700993
B1820124747855N12002647WA0098600992
B1820134747851N12002639WA0098500992
B1820144747846N12002630WA0098400991
B1820154747842N12002622WA0098400991
B1820164747837N12002615WA0098300991
B1820174747834N12002608WA0098300991
B1820184747829N12002601WA0098200990
B1820194747825N12002594WA0098100989
B1820204747820N12002587WA0098000987
B1820214747816N12002579WA0098000986
B1820224747812N12002571WA0097900986
B1820234747808N12002564WA0097800986
B1820244747804N12002557WA0097800986
B1820254747799N12002549WA0097700985
B1820264747795N12002542WA0097700984
B1820274747790N12002535WA0097600984
B1820284747785N12002529WA0097600985
B1820294747781N12002524WA0097600986
B1820304747777N12002521WA0097600987
B1820314747772N12002518WA0097600986
B1820324747766N12002516WA0097500985
B1820334747761N12002514WA0097500984
B1820344747755N12002512WA0097400983
B1820354747750N12002508WA0097400982
B1820364747745N12002503WA0097300981
B1820374747740N12002497WA0097200980
B1820384747736N12002489WA0097100979
B1820394747733N12002480WA0097100977
B1820404747730N12002469WA0097000976
B1820414747730N12002457WA0096900974
B1820424747730N12002445WA0096800973
B1820434747732N12002434WA0096700971
B1820444747735N12002423WA0096500970
B1820454747738N12002413WA0096400969
B1820464747742N12002404WA0096300968
B1820474747747N12002395WA0096200966
B1820484747752N12002387WA0096100966
B1820494747757N12002381WA0096000967
B1820504747762N12002377WA0096000969
B1820514747766N12002374WA0096000971
B1820524747771N12002373WA0096000971
B1820534747775N12002373WA0096000971
B1820544747780N12002374WA0096000971
B1820554747783N12002376WA0095900971
B1820564747785N12002380WA0095900971
B1820574747785N12002384WA0096000972
B1820584747784N12002389WA0096000973
B1820594747782N12002392WA0096000973
B1821004747780N12002395WA0096000974
B1821014747777N12002395WA0096000974
B1821014747777N12002395WA0096000974
B1821024747773N12002395WA0096000973
B1821034747768N12002392WA0096000971
B1821044747762N12002386WA0095900968
B1821054747757N12002377WA0095900966
B1821064747754N12002366WA0095800965
B1821074747753N12002355WA0095700964
B1821084747752N12002344WA0095600963
B1821094747752N12002332WA0095600963
B1821104747754N12002321WA0095500962
B1821114747755N12002310WA0095400962
B1821124747758N12002300WA0095400962
B1821134747762N12002292WA0095400962
B1821144747767N12002285WA0095300962
B1821154747772N12002280WA0095300961
B1821164747777N12002276WA0095200960
B1821174747783N12002274WA0095100959
B1821184747788N12002273WA0095100958
B1821194747793N12002274WA0095000957
B1821204747797N12002276WA0094900956
B1821214747800N12002280WA0094900955
B1821224747802N12002285WA0094800954
B1821234747803N12002290WA0094700954
B1821244747804N12002294WA0094700955
B1821254747805N12002298WA0094600955
B1821264747806N12002302WA0094600956
B1821274747806N12002305WA0094600956
B1821284747807N12002309WA0094600956
B1821294747807N12002312WA0094500955
B1821304747806N12002315WA0094500954
B1821314747805N12002318WA0094500954
B1821324747803N12002319WA0094400953
B1821334747800N12002319WA0094400952
B1821344747795N12002318WA0094200950
B1821354747790N12002315WA0094200948
B1821364747785N12002310WA0094100948
B1821374747781N12002305WA0094000947
B1821384747776N12002299WA0093900947
B1821394747772N12002294WA0093900946
B1821404747766N12002288WA0093700944
B1821414747761N12002282WA0093600941
B1821424747756N12002276WA0093500939
B1821434747750N12002270WA0093400937
B1821444747746N12002262WA0093200935
B1821454747741N12002254WA0093100933
B1821464747737N12002245WA0092900931
B1821474747734N12002236WA0092800929
B1821484747731N12002225WA0092600927
B1821494747729N12002214WA0092400925
B1821504747727N12002202WA0092200923
B1821514747726N12002191WA0092100923
B1821524747725N12002179WA0092000922
B1821534747724N12002169WA0091800920
B1821544747723N12002158WA0091700918
B1821554747721N12002147WA0091500914
B1821564747720N12002136WA0091300911
B1821574747720N12002124WA0091100909
B1821584747720N12002112WA0090900906
B1821594747721N12002101WA0090700904
B1822004747722N12002090WA0090500902
B1822014747723N12002079WA0090300899
B1822024747724N12002067WA0090000896
B1822034747725N12002055WA0089800893
B1822044747726N12002043WA0089500889
B1822044747726N12002043WA0089500889
B1822054747727N12002030WA0089300886
B1822064747727N12002018WA0089000884
B1822074747726N12002007WA0088800881
B1822084747727N12001994WA0088400877
B1822094747727N12001979WA0088200872
B1822104747728N12001965WA0087800868
B1822114747730N12001950WA0087500865
B1822124747731N12001936WA0087200864
B1822134747732N12001923WA0087000863
B1822144747733N12001911WA0086700863
B1822154747735N12001899WA0086500862
B1822164747736N12001888WA0086300861
B1822174747737N12001878WA0086100860
B1822184747738N12001867WA0085900858
B1822194747739N12001856WA0085700854
B1822204747741N12001844WA0085400851
B1822214747742N12001831WA0085200848
B1822224747743N12001818WA0084900846
B1822234747743N12001806WA0084800844
B1822244747744N12001794WA0084600844
B1822254747744N12001783WA0084400843
B1822264747745N12001772WA0084300844
B1822274747745N12001761WA0084200843
B1822284747745N12001749WA0084000842
B1822294747745N12001736WA0083900840
B1822304747744N12001724WA0083700839
B1822314747742N12001713WA0083700839
B1822324747740N12001703WA0083600841
B1822334747738N12001696WA0083500842
B1822344747735N12001690WA0083500842
B1822354747731N12001684WA0083400841
B1822364747726N12001677WA0083300839
B1822374747722N12001670WA0083300837
B1822384747717N12001664WA0083200836
B1822394747713N12001657WA0083100836
B1822404747710N12001650WA0083000836
B1822414747706N12001643WA0083000835
B1822424747703N12001634WA0082900833
B1822434747699N12001626WA0082800830
B1822444747696N12001616WA0082600829
B1822454747693N12001607WA0082600829
B1822464747692N12001599WA0082500830
B1822474747692N12001590WA0082500831
B1822484747690N12001581WA0082400830
B1822494747688N12001572WA0082400829
B1822504747685N12001562WA0082300827
B1822514747680N12001554WA0082200825
B1822524747677N12001547WA0082200826
B1822534747674N12001542WA0082200828
B1822544747672N12001537WA0082200830
B1822554747670N12001531WA0082200831
B1822564747667N12001526WA0082200830
B1822574747664N12001519WA0082200830
B1822584747659N12001514WA0082200829
B1822594747656N12001512WA0082200830
B1823004747653N12001511WA0082200832
B1823014747651N12001512WA0082300834
B1823024747649N12001513WA0082300835
B1823034747647N12001513WA0082300834
B1823044747644N12001515WA0082400834
B1823054747642N12001517WA0082400834
B1823064747639N12001518WA0082400834
B1823074747637N12001517WA0082400834
B1823074747637N12001517WA0082400834
B1823084747635N12001515WA0082400833
B1823094747631N12001510WA0082400830
B1823104747627N12001504WA0082300828
B1823114747624N12001496WA0082200825
B1823124747622N12001485WA0082100824
B1823134747621N12001474WA0082000823
B1823144747620N12001463WA0082000826
B1823154747619N12001455WA0082000829
B1823164747618N12001447WA0082100832
B1823174747619N12001438WA0082100834
B1823184747620N12001428WA0082200833
B1823194747624N12001417WA0082200831
B1823204747629N12001408WA0082200831
B1823214747636N12001404WA0082200832
B1823224747642N12001403WA0082200833
B1823234747648N12001405WA0082300833
B1823244747653N12001406WA0082300834
B1823254747658N12001408WA0082300835
B1823264747662N12001410WA0082400836
B1823274747665N12001412WA0082500838
B1823284747668N12001415WA0082500839
B1823294747669N12001418WA0082600840
B1823304747669N12001421WA0082700841
B1823314747669N12001423WA0082700842
B1823324747667N12001422WA0082800842
B1823334747665N12001421WA0082900842
B1823344747661N12001419WA0082900841
B1823354747657N12001416WA0082900840
B1823364747653N12001412WA0082900840
B1823374747649N12001405WA0083000842
B1823384747647N12001396WA0083000843
B1823394747646N12001386WA0083100844
B1823404747648N12001376WA0083200846
B1823414747651N12001366WA0083200848
B1823424747655N12001358WA0083300848
B1823434747660N12001352WA0083400849
B1823444747666N12001348WA0083400848
B1823454747673N12001347WA0083400847
B1823464747679N12001347WA0083400846
B1823474747685N12001350WA0083400846
B1823484747689N12001354WA0083400846
B1823494747691N12001358WA0083500847
B1823504747692N12001362WA0083500848
B1823514747692N12001365WA0083500850
B1823524747692N12001367WA0083600850
B1823534747691N12001369WA0083600850
B1823544747690N12001371WA0083600850
B1823554747688N12001374WA0083600849
B1823564747686N12001376WA0083600848
B1823574747682N12001378WA0083600847
B1823584747678N12001377WA0083600846
B1823594747674N12001374WA0083600845
B1824004747669N12001369WA0083500845
B1824014747666N12001361WA0083500846
B1824024747665N12001353WA0083600848
B1824034747664N12001347WA0083600851
B1824044747662N12001342WA0083800855
B1824054747660N12001337WA0083800856
B1824064747657N12001331WA0083900856
B1824074747653N12001326WA0084000855
B1824084747649N12001323WA0084100856
B1824094747645N12001322WA0084100858
B1824104747643N12001325WA0084300860
B1824104747643N12001325WA0084300860
B1824114747641N12001329WA0084300861
B1824124747639N12001333WA0084500863
B1824134747637N12001336WA0084600866
B1824144747637N12001339WA0084800869
B1824154747637N12001341WA0084900871
B1824164747639N12001345WA0085000871
B1824174747641N12001350WA0085100868
B1824184747642N12001355WA0085200867
B1824194747642N12001360WA0085200865
B1824204747639N12001363WA0085200862
B1824214747635N12001362WA0085100859
B1824224747630N12001359WA0085000854
B1824234747625N12001351WA0084800849
B1824244747623N12001341WA0084600845
B1824254747624N12001329WA0084400841
B1824264747629N12001320WA0084200837
B1824274747634N12001313WA0084000836
B1824284747638N12001308WA0083800838
B1824294747641N12001303WA0083800840
B1824304747644N12001298WA0083700843
B1824314747649N12001293WA0083700843
B1824324747654N12001287WA0083600842
B1824334747659N12001282WA0083600841
B1824344747664N12001278WA0083500843
B1824354747669N12001275WA0083500844
B1824364747673N12001275WA0083600846
B1824374747677N12001276WA0083500846
B1824384747681N12001279WA0083500845
B1824394747685N12001282WA0083500845
B1824404747687N12001287WA0083500845
B1824414747688N12001291WA0083500844
B1824424747687N12001294WA0083500842
B1824434747684N12001296WA0083400839
B1824444747680N12001295WA0083300836
B1824454747676N12001293WA0083100832
B1824464747672N12001287WA0083000829
B1824474747670N12001278WA0082800825
B1824484747669N12001267WA0082600821
B1824494747668N12001257WA0082400819
B1824504747668N12001247WA0082200819
B1824514747667N12001238WA0082100819
B1824524747666N12001228WA0082000821
B1824534747666N12001219WA0081900822
B1824544747666N12001210WA0081900824
B1824554747667N12001201WA0081800825
B1824564747670N12001193WA0081800826
B1824574747673N12001186WA0081800827
B1824584747678N12001182WA0081800828
B1824594747683N12001181WA0081800828
B1825004747688N12001184WA0081900829
B1825014747690N12001188WA0081900829
B1825024747691N12001193WA0081900830
B1825034747690N12001197WA0081900830
B1825044747688N12001200WA0082000830
B1825054747684N12001203WA0082000830
B1825064747681N12001204WA0082000831
B1825074747677N12001203WA0082000831
B1825084747672N12001200WA0082100830
B1825094747667N12001196WA0082100829
B1825104747663N12001189WA0082000829
B1825114747660N12001181WA0082000829
B1825124747658N12001173WA0082100830
B1825134747659N12001165WA0082100831
B1825134747659N12001165WA0082100831
B1825144747661N12001156WA0082100831
B1825154747664N12001148WA0082100831
B1825164747668N12001140WA0082100831
B1825174747673N12001135WA0082100831
B1825184747678N12001132WA0082200832
B1825194747683N12001130WA0082200832
B1825204747688N12001130WA0082200833
B1825214747692N12001131WA0082300834
B1825224747696N12001133WA0082300833
B1825234747699N12001136WA0082300833
B1825244747702N12001140WA0082300832
B1825254747704N12001146WA0082300831
B1825264747705N12001151WA0082300831
B1825274747706N12001154WA0082300832
B1825284747706N12001156WA0082300831
B1825294747706N12001158WA0082300829
B1825304747706N12001161WA0082200825
B1825314747705N12001164WA0082100820
B1825324747702N12001167WA0081900815
B1825334747697N12001167WA0081700811
B1825344747692N12001163WA0081400807
B1825354747687N12001155WA0081200803
B1825364747684N12001145WA0080900799
B1825374747683N12001134WA0080700795
B1825384747682N12001123WA0080400792
B1825394747682N12001113WA0080200790
B1825404747683N12001104WA0079900788
B1825414747684N12001094WA0079700786
B1825424747686N12001083WA0079400784
B1825434747688N12001073WA0079200782
B1825444747690N12001064WA0079000783
B1825454747692N12001056WA0078900787
B1825464747693N12001049WA0078900790
B1825474747695N12001041WA0078900792
B1825484747697N12001034WA0078800793
B1825494747702N12001027WA0078800793
B1825504747709N12001023WA0078800793
B1825514747715N12001022WA0078800794
B1825524747720N12001026WA0078800794
B1825534747724N12001031WA0078800796
B1825544747725N12001037WA0078800798
B1825554747725N12001041WA0078900801
B1825564747723N12001043WA0079000803
B1825574747719N12001043WA0079000802
B1825584747715N12001043WA0079000801
B1825594747709N12001041WA0079000800
B1826004747704N12001036WA0079000799
B1826014747701N12001028WA0079000799
B1826024747699N12001019WA0079100798
B1826034747698N12001010WA0079100801
B1826044747697N12001002WA0079200805
B1826054747698N12000996WA0079200808
B1826064747699N12000989WA0079400809
B1826074747701N12000982WA0079400808
B1826084747705N12000974WA0079400807
B1826094747710N12000968WA0079400806
B1826104747716N12000964WA0079400806
B1826114747722N12000963WA0079500807
B1826124747726N12000965WA0079500808
B1826134747730N12000969WA0079500809
B1826144747733N12000973WA0079600810
B1826154747735N12000978WA0079700812
B1826164747736N12000982WA0079700813
B1826164747736N12000982WA0079700813
B1826174747734N12000985WA0079800813
B1826184747731N12000987WA0079800812
B1826194747726N12000987WA0079800810
B1826204747720N12000985WA0079800807
B1826214747715N12000980WA0079800806
B1826224747711N12000975WA0079800808
B1826234747709N12000970WA0079800811
B1826244747707N12000965WA0079900812
B1826254747705N12000959WA0079900812
B1826264747701N12000953WA0079900809
B1826274747696N12000946WA0079900807
B1826284747693N12000939WA0079900808
B1826294747690N12000931WA0079900809
B1826304747687N12000924WA0079900809
B1826314747685N12000917WA0080000810
B1826324747682N12000910WA0080000809
B1826334747679N12000903WA0080000809
B1826344747677N12000896WA0080000808
B1826354747674N12000888WA0079900807
B1826364747671N12000880WA0079900805
B1826374747669N12000872WA0079900804
B1826384747667N12000863WA0079800802
B1826394747664N12000854WA0079700800
B1826404747661N12000844WA0079600798
B1826414747658N12000834WA0079500795
B1826424747656N12000825WA0079300793
B1826434747653N12000814WA0079200790
B1826444747650N12000803WA0079000786
B1826454747648N12000791WA0078900783
B1826464747645N12000778WA0078600779
B1826474747642N12000764WA0078400775
B1826484747640N12000750WA0078100772
B1826494747638N12000736WA0078000770
B1826504747636N12000724WA0077700770
B1826514747635N12000713WA0077600769
B1826524747634N12000702WA0077400768
B1826534747633N12000692WA0077300765
B1826544747633N12000680WA0077100762
B1826554747631N12000668WA0076900759
B1826564747627N12000657WA0076600756
B1826574747622N12000647WA0076500754
B1826584747616N12000640WA0076300754
B1826594747611N12000634WA0076200755
B1827004747607N12000628WA0076000756
B1827014747604N12000620WA0076000756
B1827024747601N12000611WA0075800754
B1827034747598N12000602WA0075800753
B1827044747596N12000591WA0075600752
B1827054747595N12000579WA0075600751
B1827064747594N12000567WA0075400749
B1827074747595N12000555WA0075300749
B1827084747595N12000543WA0075200747
B1827094747595N12000532WA0075100746
B1827104747595N12000521WA0075000744
B1827114747594N12000509WA0074900742
B1827124747594N12000498WA0074700741
B1827134747593N12000488WA0074600741
B1827144747592N12000478WA0074500741
B1827154747591N12000468WA0074400740
B1827164747591N12000457WA0074300738
B1827174747591N12000445WA0074200735
B1827184747590N12000433WA0074000732
B1827184747590N12000433WA0074000732
B1827194747588N12000421WA0073900730
B1827204747587N12000410WA0073700729
B1827214747587N12000400WA0073600728
B1827224747587N12000390WA0073400729
B1827234747587N12000380WA0073400729
B1827244747586N12000371WA0073300730
B1827254747585N12000363WA0073200730
B1827264747583N12000355WA0073100729
B1827274747581N12000347WA0073100728
B1827284747579N12000338WA0073000727
B1827294747576N12000330WA0073000728
B1827304747575N12000323WA0072900731
B1827314747573N12000316WA0073000733
B1827324747572N12000310WA0073000734
B1827334747570N12000304WA0073000734
B1827344747567N12000298WA0073000734
B1827354747564N12000292WA0073000733
B1827364747560N12000286WA0073000733
B1827374747557N12000279WA0073000734
B1827384747554N12000272WA0073000734
B1827394747551N12000264WA0073000734
B1827404747547N12000257WA0073000735
B1827414747544N12000250WA0073100736
B1827424747541N12000243WA0073100736
B1827434747537N12000236WA0073100736
B1827444747534N12000229WA0073200737
B1827454747531N12000224WA0073200738
B1827464747527N12000221WA0073300738
B1827474747524N12000221WA0073300737
B1827484747522N12000224WA0073300737
B1827494747521N12000228WA0073300737
B1827504747522N12000232WA0073300738
B1827514747525N12000236WA0073400739
B1827524747530N12000238WA0073400740
B1827534747536N12000239WA0073400740
B1827544747542N12000237WA0073500741
B1827554747549N12000231WA0073500742
B1827564747554N12000222WA0073600743
B1827574747557N12000211WA0073600742
B1827584747558N12000199WA0073700742
B1827594747557N12000187WA0073700743
B1828004747555N12000178WA0073800745
B1828014747552N12000172WA0073800747
B1828024747549N12000168WA0073900748
B1828034747545N12000165WA0073900748
B1828044747541N12000163WA0074000747
B1828054747538N12000163WA0074000747
B1828064747535N12000165WA0074000747
B1828074747535N12000169WA0074000747
B1828084747536N12000173WA0074100747
B1828094747539N12000178WA0074100747
B1828104747543N12000181WA0074100747
B1828114747548N12000183WA0074100748
B1828124747554N12000183WA0074100749
B1828134747560N12000181WA0074200749
B1828144747567N12000178WA0074200750
B1828154747573N12000173WA0074300751
B1828164747578N12000165WA0074300752
B1828174747581N12000155WA0074300752
B1828184747582N12000144WA0074400751
B1828194747581N12000132WA0074400751
B1828204747579N12000122WA0074400751
B1828214747576N12000115WA0074500753
B1828214747576N12000115WA0074500753
B1828224747572N12000111WA0074500754
B1828234747569N12000109WA0074600755
B1828244747566N12000110WA0074600755
B1828254747564N12000113WA0074600754
B1828264747563N12000117WA0074700754
B1828274747564N12000123WA0074700754
B1828284747567N12000127WA0074700755
B1828294747572N12000130WA0074700756
B1828304747578N12000130WA0074800756
B1828314747584N12000128WA0074800757
B1828324747591N12000123WA0074900757
B1828334747596N12000117WA0074900757
B1828344747601N12000108WA0074900758
B1828354747603N12000097WA0075000758
B1828364747603N12000087WA0075000757
B1828374747602N12000077WA0075000756
B1828384747599N12000068WA0075000756
B1828394747596N12000062WA0075000756
B1828404747593N12000058WA0075000756
B1828414747589N12000057WA0075000755
B1828424747585N12000058WA0075000755
B1828434747583N12000062WA0075000754
B1828444747583N12000066WA0075000755
B1828454747585N12000071WA0075000757
B1828464747588N12000076WA0075100758
B1828474747591N12000081WA0075100759
B1828484747595N12000084WA0075200760
B1828494747599N12000086WA0075200762
B1828504747604N12000088WA0075300763
B1828514747610N12000089WA0075400764
B1828524747616N12000086WA0075400763
B1828534747623N12000081WA0075500763
B1828544747629N12000072WA0075500763
B1828554747633N12000061WA0075500763
B1828564747635N12000049WA0075600763
B1828574747635N12000039WA0075600764
B1828584747634N12000030WA0075600764
B1828594747632N12000022WA0075600764
B1829004747628N12000016WA0075700763
B1829014747624N12000013WA0075700763
B1829024747621N12000013WA0075700764
B1829034747619N12000015WA0075700764
B1829044747619N12000019WA0075700764
B1829054747620N12000024WA0075800764
B1829064747622N12000029WA0075800766
B1829074747625N12000034WA0075900768
B1829084747629N12000037WA0075900769
B1829094747633N12000039WA0076000771
B1829104747639N12000039WA0076100772
B1829114747645N12000038WA0076200772
B1829124747651N12000034WA0076200773
B1829134747658N12000030WA0076300773
B1829144747664N12000023WA0076400774
B1829154747670N12000014WA0076400773
B1829164747673N12000002WA0076400773
B1829174747673N11959990WA0076400772
B1829184747672N11959980WA0076500772
B1829194747669N11959973WA0076500772
B1829204747665N11959969WA0076500773
B1829214747661N11959967WA0076600774
B1829224747658N11959967WA0076600775
B1829234747655N11959968WA0076700777
B1829244747654N11959970WA0076800779
B1829244747654N11959970WA0076800779
B1829254747654N11959974WA0076900781
B1829264747655N11959978WA0077000782
B1829274747657N11959982WA0077100783
B1829284747661N11959985WA0077200783
B1829294747666N11959988WA0077200784
B1829304747673N11959987WA0077300784
B1829314747680N11959984WA0077400784
B1829324747687N11959977WA0077400783
B1829334747692N11959967WA0077500784
B1829344747694N11959956WA0077500784
B1829354747694N11959945WA0077600784
B1829364747692N11959934WA0077600784
B1829374747690N11959924WA0077700786
B1829384747687N11959917WA0077800788
B1829394747683N11959913WA0077800790
B1829404747680N11959911WA0077900790
B1829414747676N11959912WA0077900790
B1829424747674N11959915WA0078000790
B1829434747674N11959918WA0078100792
B1829444747675N11959922WA0078200795
B1829454747678N11959926WA0078300796
B1829464747681N11959930WA0078400797
B1829474747687N11959932WA0078500797
B1829484747694N11959931WA0078600797
B1829494747701N11959925WA0078600797
B1829504747707N11959915WA0078600796
B1829514747710N11959903WA0078700796
B1829524747711N11959891WA0078700797
B1829534747710N11959881WA0078800799
B1829544747707N11959873WA0078900802
B1829554747703N11959869WA0079000803
B1829564747700N11959869WA0079100804
B1829574747697N11959871WA0079200805
B1829584747696N11959875WA0079300806
B1829594747697N11959879WA0079300809
B1830004747699N11959883WA0079500811
B1830014747703N11959884WA0079600811
B1830024747709N11959885WA0079600810
B1830034747717N11959883WA0079700809
B1830044747724N11959878WA0079800809
B1830054747730N11959870WA0079800810
B1830064747734N11959859WA0079900811
B1830074747736N11959847WA0079900811
B1830084747737N11959835WA0080000811
B1830094747737N11959824WA0080000811
B1830104747736N11959814WA0080100814
B1830114747735N11959805WA0080200815
B1830124747734N11959797WA0080300816
B1830134747731N11959791WA0080300815
B1830144747727N11959788WA0080300813
B1830154747723N11959787WA0080300811
B1830164747721N11959789WA0080300809
B1830174747721N11959793WA0080300809
B1830184747723N11959797WA0080200809
B1830194747726N11959802WA0080200808
B1830204747730N11959806WA0080200808
B1830214747735N11959808WA0080200810
B1830224747741N11959808WA0080200812
B1830234747746N11959806WA0080300813
B1830244747752N11959801WA0080300814
B1830254747758N11959794WA0080300814
B1830264747764N11959786WA0080400814
B1830274747768N11959776WA0080400815
B1830274747768N11959776WA0080400815
B1830284747772N11959765WA0080400816
B1830294747775N11959754WA0080500816
B1830304747775N11959742WA0080500817
B1830314747774N11959732WA0080600817
B1830324747772N11959723WA0080600815
B1830334747769N11959715WA0080600814
B1830344747766N11959710WA0080600812
B1830354747762N11959706WA0080500811
B1830364747758N11959703WA0080400809
B1830374747755N11959701WA0080400808
B1830384747752N11959698WA0080300806
B1830394747749N11959695WA0080200803
B1830404747745N11959690WA0080100799
B1830414747741N11959684WA0079900795
B1830424747737N11959678WA0079700793
B1830434747734N11959674WA0079600794
B1830444747732N11959670WA0079500794
B1830454747730N11959666WA0079400793
B1830464747727N11959661WA0079200790
B1830474747723N11959656WA0079000785
B1830484747719N11959650WA0078800780
B1830494747715N11959645WA0078600777
B1830504747713N11959640WA0078300775
B1830514747710N11959635WA0078200773
B1830524747707N11959629WA0077900769
B1830534747703N11959623WA0077700765
B1830544747700N11959617WA0077400761
B1830554747695N11959610WA0077100758
B1830564747691N11959603WA0076800755
B1830574747687N11959596WA0076600753
B1830584747684N11959590WA0076300752
B1830594747681N11959583WA0076200751
B1831004747678N11959577WA0076000749
B1831014747675N11959571WA0075700747
B1831024747671N11959564WA0075500745
B1831034747668N11959557WA0075300744
B1831044747664N11959549WA0075100742
B1831054747660N11959541WA0075000740
B1831064747657N11959533WA0074800740
B1831074747653N11959525WA0074600739
B1831084747650N11959517WA0074500739
B1831094747647N11959508WA0074400739
B1831104747643N11959499WA0074300738
B1831114747640N11959491WA0074200738
B1831124747638N11959483WA0074100738
B1831134747636N11959475WA0074000738
B1831144747634N11959468WA0073900737
B1831154747631N11959460WA0073800736
B1831164747628N11959453WA0073700733
B1831174747625N11959445WA0073600731
B1831184747621N11959437WA0073400729
B1831194747618N11959429WA0073400729
B1831204747615N11959421WA0073200728
B1831214747612N11959413WA0073200728
B1831224747609N11959406WA0073100728
B1831234747605N11959399WA0073000727
B1831244747602N11959392WA0072900726
B1831254747598N11959385WA0072800725
B1831264747595N11959377WA0072700723
B1831274747592N11959370WA0072600723
B1831284747589N11959363WA0072500722
B1831294747586N11959356WA0072400721
B1831304747583N11959348WA0072300719
B1831304747583N11959348WA0072300719
B1831314747580N11959341WA0072200717
B1831324747577N11959333WA0072100715
B1831334747574N11959326WA0072000713
B1831344747571N11959318WA0071900711
B1831354747568N11959310WA0071700709
B1831364747564N11959302WA0071600706
B1831374747561N11959293WA0071300704
B1831384747557N11959285WA0071100701
B1831394747553N11959277WA0071000699
B1831404747549N11959270WA0070900698
B1831414747545N11959262WA0070600696
B1831424747541N11959254WA0070500694
B1831434747537N11959245WA0070300692
B1831444747533N11959237WA0070100690
B1831454747529N11959229WA0069900688
B1831464747525N11959219WA0069800685
B1831474747521N11959209WA0069500682
B1831484747517N11959197WA0069300679
B1831494747514N11959185WA0069100676
B1831504747511N11959172WA0068900673
B1831514747508N11959159WA0068600670
B1831524747506N11959146WA0068400668
B1831534747504N11959134WA0068100666
B1831544747503N11959122WA0067900665
B1831554747502N11959110WA0067700663
B1831564747500N11959098WA0067500662
B1831574747499N11959086WA0067300660
B1831584747497N11959073WA0067100658
B1831594747495N11959061WA0066900656
B1832004747493N11959049WA0066700654
B1832014747491N11959037WA0066500653
B1832024747489N11959026WA0066400652
B1832034747487N11959015WA0066200652
B1832044747485N11959004WA0066100651
B1832054747484N11958993WA0065900650
B1832064747483N11958982WA0065800650
B1832074747481N11958972WA0065700649
B1832084747480N11958962WA0065600648
B1832094747478N11958952WA0065500647
B1832104747475N11958941WA0065400645
B1832114747472N11958931WA0065200643
B1832124747468N11958922WA0065100643
B1832134747465N11958913WA0065000642
B1832144747462N11958905WA0064900642
B1832154747460N11958897WA0064800641
B1832164747457N11958888WA0064700639
B1832174747454N11958879WA0064500636
B1832184747450N11958869WA0064400634
B1832194747447N11958859WA0064200632
B1832204747443N11958849WA0064100631
B1832214747440N11958840WA0064000631
B1832224747437N11958831WA0063800631
B1832234747434N11958822WA0063700630
B1832244747431N11958813WA0063700629
B1832254747427N11958805WA0063500628
B1832264747424N11958796WA0063500627
B1832274747420N11958788WA0063300626
B1832284747416N11958780WA0063300626
B1832294747412N11958773WA0063200626
B1832304747409N11958765WA0063100625
B1832314747405N11958757WA0063000624
B1832324747400N11958749WA0062900622
B1832334747396N11958742WA0062800621
B1832334747396N11958742WA0062800621
B1832344747391N11958735WA0062700619
B1832354747387N11958728WA0062600618
B1832364747383N11958720WA0062500617
B1832374747379N11958712WA0062400615
B1832384747374N11958705WA0062300614
B1832394747370N11958699WA0062100612
B1832404747365N11958693WA0062000610
B1832414747361N11958687WA0061900609
B1832424747357N11958680WA0061800607
B1832434747352N11958673WA0061600606
B1832444747348N11958666WA0061500604
B1832454747344N11958659WA0061300603
B1832464747341N11958652WA0061200602
B1832474747337N11958644WA0061100601
B1832484747334N11958635WA0061000599
B1832494747332N11958626WA0060800598
B1832504747331N11958616WA0060700597
B1832514747331N11958606WA0060500595
B1832524747333N11958596WA0060400593
B1832534747336N11958586WA0060200591
B1832544747340N11958577WA0060100590
B1832554747344N11958570WA0060000589
B1832564747349N11958563WA0059900589
B1832574747353N11958558WA0059700588
B1832584747359N11958553WA0059600586
B1832594747365N11958549WA0059400583
B1833004747371N11958545WA0059300581
B1833014747377N11958541WA0059100580
B1833024747382N11958538WA0059000580
B1833034747388N11958536WA0058800579
B1833044747393N11958534WA0058700577
B1833054747400N11958531WA0058600575
B1833064747406N11958528WA0058500574
B1833074747413N11958524WA0058300572
B1833084747419N11958520WA0058200573
B1833094747425N11958515WA0058100573
B1833104747430N11958510WA0058000574
B1833114747435N11958505WA0058000574
B1833124747440N11958499WA0057900572
B1833134747446N11958493WA0057800570
B1833144747451N11958488WA0057700569
B1833154747457N11958484WA0057600568
B1833164747463N11958480WA0057500567
B1833174747468N11958476WA0057400566
B1833184747474N11958472WA0057300564
B1833194747480N11958469WA0057100563
B1833204747486N11958466WA0057000562
B1833214747492N11958462WA0056900560
B1833224747498N11958458WA0056800559
B1833234747504N11958454WA0056600558
B1833244747509N11958449WA0056600557
B1833254747515N11958444WA0056400556
B1833264747520N11958440WA0056300555
B1833274747526N11958435WA0056200554
B1833284747531N11958431WA0056100553
B1833294747536N11958426WA0056000552
B1833304747542N11958423WA0055900551
B1833314747547N11958420WA0055700549
B1833324747554N11958419WA0055600547
B1833334747560N11958418WA0055500546
B1833344747566N11958418WA0055400545
B1833354747571N11958418WA0055200544
B1833354747571N11958418WA0055200544
B1833364747576N11958419WA0055100544
B1833374747581N11958420WA0055000543
B1833384747586N11958424WA0054900542
B1833394747589N11958428WA0054800540
B1833404747593N11958434WA0054700539
B1833414747596N11958439WA0054600538
B1833424747598N11958444WA0054500538
B1833434747600N11958449WA0054400537
B1833444747602N11958454WA0054300537
B1833454747604N11958460WA0054200536
B1833464747606N11958466WA0054100534
B1833474747609N11958472WA0054000533
B1833484747612N11958477WA0053900532
B1833494747616N11958483WA0053800531
B1833504747619N11958488WA0053700531
B1833514747622N11958492WA0053600530
B1833524747627N11958495WA0053500530
B1833534747632N11958496WA0053400529
B1833544747638N11958493WA0053300527
B1833554747643N11958489WA0053200526
B1833564747649N11958484WA0053100524
B1833574747654N11958478WA0053000523
B1833584747659N11958473WA0052900523
B1833594747664N11958467WA0052800522
B1834004747669N11958462WA0052700523
B1834014747675N11958457WA0052700525
B1834024747680N11958454WA0052700527
B1834034747685N11958452WA0052700528
B1834044747690N11958450WA0052700530
B1834054747696N11958448WA0052700531
B1834064747700N11958448WA0052800531
B1834074747705N11958449WA0052800531
B1834084747707N11958452WA0052800529
B1834094747708N11958457WA0052800527
B1834104747707N11958462WA0052700526
B1834114747703N11958465WA0052600525
B1834124747698N11958464WA0052600526
B1834134747694N11958459WA0052500525
B1834144747690N11958452WA0052400525
B1834154747688N11958445WA0052300526
B1834164747686N11958438WA0052300527
B1834174747683N11958433WA0052300528
B1834184747680N11958430WA0052300528
B1834194747676N11958428WA0052300528
B1834204747672N11958428WA0052300529
B1834214747669N11958429WA0052300529
B1834224747667N11958433WA0052300529
B1834234747667N11958437WA0052300528
B1834244747668N11958443WA0052300525
B1834254747672N11958448WA0052200522
B1834264747678N11958450WA0052100521
B1834274747684N11958449WA0052000519
B1834284747690N11958446WA0052000519
B1834294747696N11958443WA0051900520
B1834304747700N11958440WA0051900521
B1834314747705N11958438WA0051900521
B1834324747710N11958435WA0051900520
B1834334747716N11958431WA0051800518
B1834344747721N11958427WA0051800517
B1834354747727N11958423WA0051700516
B1834364747733N11958419WA0051600516
B1834374747739N11958415WA0051600515
B1834384747744N11958411WA0051500515
B1834384747744N11958411WA0051500515
B1834394747750N11958407WA0051500515
B1834404747756N11958403WA0051400514
B1834414747762N11958400WA0051400514
B1834424747767N11958397WA0051400514
B1834434747772N11958393WA0051300514
B1834444747778N11958390WA0051300513
B1834454747783N11958386WA0051200511
B1834464747789N11958382WA0051200510
B1834474747795N11958378WA0051100510
B1834484747801N11958375WA0051000509
B1834494747807N11958372WA0051000509
B1834504747813N11958369WA0050900508
B1834514747820N11958366WA0050900508
B1834524747826N11958362WA0050800507
B1834534747833N11958358WA0050800507
B1834544747839N11958354WA0050700507
B1834554747845N11958349WA0050700507
B1834564747850N11958345WA0050700507
B1834574747856N11958340WA0050600506
B1834584747861N11958336WA0050600505
B1834594747867N11958332WA0050500504
B1835004747873N11958328WA0050500502
B1835014747880N11958324WA0050300500
B1835024747887N11958319WA0050300498
B1835034747894N11958315WA0050100497
B1835044747901N11958310WA0050000496
B1835054747908N11958306WA0049900497
B1835064747913N11958302WA0049900497
B1835074747919N11958297WA0049800497
B1835084747924N11958291WA0049700496
B1835094747930N11958285WA0049600494
B1835104747936N11958280WA0049600493
B1835114747942N11958274WA0049500491
B1835124747948N11958269WA0049400490
B1835134747954N11958264WA0049300489
B1835144747960N11958259WA0049200488
B1835154747967N11958255WA0049100487
B1835164747974N11958250WA0049000486
B1835174747980N11958245WA0048900485
B1835184747987N11958240WA0048800484
B1835194747994N11958236WA0048700483
B1835204748000N11958232WA0048600482
B1835214748007N11958227WA0048500481
B1835224748014N11958223WA0048400480
B1835234748021N11958219WA0048300479
B1835244748028N11958215WA0048200479
B1835254748035N11958212WA0048200479
B1835264748041N11958209WA0048100478
B1835274748048N11958206WA0048000478
B1835284748054N11958203WA0048000477
B1835294748061N11958200WA0047900476
B1835304748068N11958196WA0047800475
B1835314748074N11958192WA0047800475
B1835324748081N11958188WA0047700474
B1835334748087N11958185WA0047700474
B1835344748092N11958182WA0047600473
B1835354748099N11958179WA0047600472
B1835364748106N11958175WA0047500470
B1835374748113N11958171WA0047400466
B1835384748121N11958167WA0047300464
B1835394748128N11958164WA0047200463
B1835404748135N11958160WA0047100463
B1835414748141N11958157WA0047000463
B1835414748141N11958157WA0047000463
B1835424748147N11958153WA0046900463
B1835434748153N11958150WA0046900463
B1835444748159N11958146WA0046800463
B1835454748165N11958143WA0046800464
B1835464748171N11958140WA0046800465
B1835474748177N11958138WA0046800465
B1835484748183N11958134WA0046800465
B1835494748189N11958130WA0046800467
B1835504748194N11958127WA0046800468
B1835514748200N11958126WA0046900470
B1835524748205N11958127WA0047000472
B1835534748210N11958129WA0047100473
B1835544748215N11958132WA0047100473
B1835554748219N11958136WA0047200473
B1835564748221N11958141WA0047300473
B1835574748220N11958146WA0047300473
B1835584748217N11958148WA0047300473
B1835594748213N11958147WA0047300473
B1836004748209N11958146WA0047400473
B1836014748207N11958144WA0047400474
B1836024748206N11958144WA0047500475
B1836034748204N11958144WA0047500475
B1836044748202N11958145WA0047600475
B1836054748200N11958145WA0047600474
B1836064748197N11958144WA0047600473
B1836074748195N11958144WA0047500472
B1836084748193N11958143WA0047500472
B1836094748191N11958142WA0047400472
B1836104748189N11958144WA0047300472
B1836114748188N11958148WA0047200471
B1836124748190N11958156WA0047100470
B1836134748195N11958163WA0046900468
B1836144748203N11958167WA0046800466
B1836154748212N11958166WA0046600465
B1836164748220N11958163WA0046500465
B1836174748227N11958161WA0046400466
B1836184748234N11958159WA0046300466
B1836194748241N11958158WA0046200465
B1836204748248N11958156WA0046100463
B1836214748256N11958154WA0046000461
B1836224748264N11958151WA0045900460
B1836234748271N11958148WA0045800459
B1836244748278N11958144WA0045700458
B1836254748284N11958139WA0045600457
B1836264748290N11958132WA0045500456
B1836274748296N11958124WA0045400455
B1836284748302N11958115WA0045300454
B1836294748306N11958107WA0045200456
B1836304748310N11958099WA0045200458
B1836314748314N11958093WA0045300459
B1836324748317N11958087WA0045300460
B1836334748322N11958081WA0045300460
B1836344748327N11958075WA0045300458
B1836354748332N11958069WA0045300458
B1836364748337N11958062WA0045300457
B1836374748342N11958055WA0045300457
B1836384748348N11958049WA0045300457
B1836394748353N11958043WA0045200457
B1836404748358N11958036WA0045200457
B1836414748362N11958030WA0045200457
B1836424748367N11958024WA0045200456
B1836434748372N11958019WA0045200455
B1836444748377N11958014WA0045200454
B1836444748377N11958014WA0045200454
B1836454748382N11958009WA0045100453
B1836464748387N11958005WA0045100452
B1836474748393N11958003WA0045000451
B1836484748398N11958001WA0045000451
B1836494748404N11958000WA0044900449
B1836504748410N11957999WA0044900448
B1836514748416N11957998WA0044700446
B1836524748422N11957997WA0044700444
B1836534748428N11957997WA0044600443
B1836544748433N11957997WA0044500443
B1836554748438N11957998WA0044400442
B1836564748443N11957998WA0044300441
B1836574748448N11957998WA0044200440
B1836584748453N11957997WA0044100439
B1836594748459N11957996WA0044000437
B1837004748464N11957995WA0043900436
B1837014748470N11957996WA0043800435
B1837024748476N11957997WA0043800434
B1837034748481N11958000WA0043600432
B1837044748486N11958002WA0043600431
B1837054748491N11958006WA0043500430
B1837064748495N11958009WA0043400429
B1837074748501N11958012WA0043300427
B1837084748506N11958015WA0043200426
B1837094748511N11958018WA0043000424
B1837104748517N11958021WA0042900423
B1837114748523N11958024WA0042800422
B1837124748528N11958027WA0042700421
B1837134748533N11958030WA0042600419
B1837144748538N11958033WA0042500418
B1837154748542N11958038WA0042300416
B1837164748547N11958042WA0042200415
B1837174748551N11958047WA0042100414
B1837184748555N11958052WA0042000413
B1837194748558N11958058WA0041900412
B1837204748561N11958064WA0041800411
B1837214748563N11958069WA0041600410
B1837224748565N11958075WA0041600408
B1837234748567N11958081WA0041400407
B1837244748569N11958087WA0041300406
B1837254748570N11958093WA0041100404
B1837264748571N11958099WA0041000403
B1837274748572N11958106WA0040800402
B1837284748573N11958112WA0040700401
B1837294748573N11958118WA0040500401
B1837304748573N11958123WA0040400400
B1837314748572N11958128WA0040300399
B1837324748571N11958134WA0040200397
B1837334748568N11958139WA0040100396
B1837344748566N11958145WA0040000394
B1837354748564N11958151WA0039800394
B1837364748562N11958157WA0039700394
B1837374748561N11958163WA0039600396
B1837384748561N11958169WA0039600396
B1837394748561N11958175WA0039600398
B1837404748561N11958182WA0039500400
B1837414748562N11958188WA0039500400
B1837424748562N11958192WA0039600402
B1837434748562N11958196WA0039600402
B1837444748561N11958200WA0039600402
B1837454748559N11958203WA0039600402
B1837464748557N11958207WA0039700403
B1837474748555N11958209WA0039700404
B1837474748555N11958209WA0039700404
B1837484748553N11958211WA0039700405
B1837494748550N11958212WA0039800406
B1837504748547N11958211WA0039800406
B1837514748544N11958207WA0039900406
B1837524748541N11958201WA0039900405
B1837534748540N11958194WA0039900405
B1837544748540N11958186WA0039900405
B1837554748541N11958178WA0039900405
B1837564748545N11958170WA0039900405
B1837574748550N11958163WA0039900403
B1837584748557N11958156WA0039900403
B1837594748564N11958153WA0039900404
B1838004748572N11958152WA0039900406
B1838014748578N11958153WA0039900408
B1838024748584N11958156WA0040000409
B1838034748589N11958161WA0040000410
B1838044748593N11958166WA0040100411
B1838054748596N11958173WA0040200412
B1838064748597N11958180WA0040200413
B1838074748597N11958187WA0040300413
B1838084748595N11958192WA0040300414
B1838094748592N11958195WA0040400416
B1838104748590N11958196WA0040500417
B1838114748587N11958195WA0040600418
B1838124748584N11958192WA0040600418
B1838134748582N11958187WA0040700418
B1838144748581N11958180WA0040700418
B1838154748581N11958171WA0040700418
B1838164748584N11958163WA0040700418
B1838174748588N11958155WA0040800418
B1838184748593N11958149WA0040800418
B1838194748600N11958144WA0040800418
B1838204748607N11958141WA0040800419
B1838214748613N11958140WA0040800420
B1838224748620N11958142WA0040900420
B1838234748626N11958145WA0040900421
B1838244748630N11958151WA0041000422
B1838254748634N11958157WA0041100423
B1838264748636N11958164WA0041100423
B1838274748636N11958171WA0041200424
B1838284748636N11958178WA0041200425
B1838294748634N11958184WA0041300426
B1838304748632N11958188WA0041400427
B1838314748629N11958190WA0041400428
B1838324748626N11958190WA0041500428
B1838334748624N11958188WA0041600428
B1838344748621N11958184WA0041600428
B1838354748619N11958178WA0041600428
B1838364748618N11958170WA0041600427
B1838374748619N11958162WA0041600428
B1838384748622N11958154WA0041600427
B1838394748627N11958146WA0041600425
B1838404748633N11958140WA0041600425
B1838414748640N11958136WA0041600425
B1838424748646N11958132WA0041600426
B1838434748652N11958127WA0041600426
B1838444748658N11958122WA0041600426
B1838454748663N11958115WA0041600427
B1838464748666N11958107WA0041600428
B1838474748667N11958099WA0041600430
B1838484748666N11958092WA0041700429
B1838494748664N11958087WA0041700430
B1838504748661N11958085WA0041700431
B1838504748661N11958085WA0041700431
B1838514748658N11958087WA0041800432
B1838524748656N11958092WA0041800432
B1838534748655N11958098WA0041900433
B1838544748656N11958104WA0041900433
B1838554748658N11958110WA0042000434
B1838564748661N11958115WA0042000435
B1838574748666N11958120WA0042100435
B1838584748671N11958124WA0042100434
B1838594748677N11958128WA0042100434
B1839004748683N11958129WA0042100433
B1839014748691N11958126WA0042100433
B1839024748698N11958121WA0042100432
B1839034748703N11958112WA0042100432
B1839044748705N11958103WA0042100433
B1839054748705N11958095WA0042100434
B1839064748703N11958089WA0042200434
B1839074748700N11958086WA0042200435
B1839084748697N11958085WA0042200436
B1839094748694N11958085WA0042300437
B1839104748692N11958085WA0042300437
B1839114748690N11958086WA0042400437
B1839124748687N11958087WA0042400436
B1839134748684N11958089WA0042400435
B1839144748681N11958093WA0042400435
B1839154748679N11958097WA0042400434
B1839164748677N11958101WA0042400435
B1839174748675N11958104WA0042400435
B1839184748674N11958107WA0042400435
B1839194748672N11958110WA0042400433
B1839204748670N11958115WA0042400431
B1839214748668N11958121WA0042300429
B1839224748666N11958126WA0042200428
B1839234748663N11958130WA0042100427
B1839244748660N11958133WA0042100426
B1839254748658N11958135WA0042000425
B1839264748655N11958137WA0041900423
B1839274748651N11958139WA0041800422
B1839284748648N11958141WA0041700421
B1839294748646N11958142WA0041600420
B1839304748643N11958144WA0041500419
B1839314748640N11958145WA0041400417
B1839324748637N11958148WA0041300415
B1839334748634N11958150WA0041200413
B1839344748630N11958153WA0041100411
B1839354748627N11958156WA0040900410
B1839364748624N11958159WA0040800409
B1839374748621N11958162WA0040700408
B1839384748618N11958166WA0040600407
B1839394748615N11958169WA0040400405
B1839404748612N11958173WA0040300403
B1839414748609N11958176WA0040100401
B1839424748606N11958180WA0040000400
B1839434748603N11958184WA0039900400
B1839444748601N11958187WA0039800399
B1839454748599N11958190WA0039700398
B1839464748597N11958193WA0039600396
B1839474748594N11958196WA0039500395
B1839484748591N11958199WA0039400394
B1839494748588N11958201WA0039300393
B1839504748585N11958202WA0039200392
B1839514748582N11958202WA0039100392
B1839524748578N11958202WA0039000391
B1839534748575N11958200WA0038900391
B1839534748575N11958200WA0038900391
B1839544748571N11958198WA0038900391
B1839554748568N11958196WA0038800390
B1839564748565N11958195WA0038700390
B1839574748563N11958195WA0038700390
B1839584748560N11958196WA0038700389
B1839594748557N11958198WA0038600388
B1840004748554N11958201WA0038600387
B1840014748552N11958204WA0038500386
B1840024748550N11958208WA0038500385
B1840034748547N11958212WA0038400384
B1840044748545N11958217WA0038400384
B1840054748543N11958221WA0038300384
B1840064748541N11958225WA0038300383
B1840074748539N11958229WA0038300383
B1840084748537N11958234WA0038200381
B1840094748535N11958239WA0038200380
B1840104748533N11958243WA0038100381
B1840114748531N11958247WA0038100382
B1840124748530N11958249WA0038100382
B1840134748529N11958252WA0038100382
B1840144748528N11958256WA0038100379
B1840154748526N11958260WA0038000376
B1840164748523N11958265WA0037900373
B1840174748520N11958267WA0037800372
B1840184748517N11958268WA0037700372
B1840194748515N11958267WA0037600371
B1840204748512N11958265WA0037500370
B1840214748509N11958261WA0037400369
B1840224748507N11958256WA0037400369
B1840234748506N11958250WA0037300368
B1840244748506N11958243WA0037200366
B1840254748506N11958235WA0037100365
B1840264748506N11958227WA0037000364
B1840274748506N11958219WA0036900364
B1840284748506N11958212WA0036900363
B1840294748506N11958204WA0036800363
B1840304748506N11958196WA0036700361
B1840314748505N11958187WA0036600360
B1840324748504N11958178WA0036500359
B1840334748502N11958170WA0036400359
B1840344748500N11958163WA0036300358
B1840354748498N11958157WA0036200357
B1840364748496N11958152WA0036200356
B1840374748493N11958146WA0036100355
B1840384748491N11958140WA0036000354
B1840394748488N11958134WA0035900353
B1840404748485N11958128WA0035800353
B1840414748483N11958122WA0035700353
B1840424748481N11958117WA0035700353
B1840434748479N11958112WA0035600353
B1840444748476N11958109WA0035600352
B1840454748473N11958109WA0035500351
B1840464748471N11958112WA0035400350
B1840474748471N11958118WA0035300349
B1840484748474N11958125WA0035200346
B1840494748479N11958131WA0035000344
B1840504748486N11958134WA0034900343
B1840514748493N11958136WA0034700342
B1840524748499N11958136WA0034600343
B1840534748505N11958137WA0034500342
B1840544748510N11958140WA0034400341
B1840554748515N11958144WA0034300339
B1840564748520N11958150WA0034200338
B1840564748520N11958150WA0034200338
B1840574748523N11958155WA0034100337
B1840584748524N11958161WA0034000336
B1840594748525N11958167WA0033900335
B1841004748524N11958173WA0033800334
B1841014748523N11958177WA0033700333
B1841024748521N11958179WA0033600332
B1841034748519N11958180WA0033500330
B1841044748516N11958179WA0033400329
B1841054748513N11958178WA0033200327
B1841064748510N11958178WA0033100326
B1841074748507N11958178WA0033000325
B1841084748504N11958179WA0032900324
B1841094748501N11958179WA0032800323
B1841104748499N11958178WA0032700322
B1841114748497N11958175WA0032600320
B1841124748494N11958171WA0032500319
B1841134748491N11958167WA0032300317
B1841144748488N11958165WA0032200316
B1841154748486N11958167WA0032100315
B1841164748484N11958171WA0031900312
B1841174748483N11958177WA0031800310
B1841184748481N11958182WA0031700309
B1841194748479N11958185WA0031500308
B1841204748476N11958185WA0031400306
B1841214748473N11958182WA0031200303
B1841224748470N11958178WA0031100301
B1841234748467N11958175WA0030900301
B1841244748464N11958173WA0030800300
B1841254748461N11958172WA0030700298
B1841264748458N11958171WA0030600296
B1841274748454N11958171WA0030400294
B1841284748451N11958171WA0030300293
B1841294748448N11958171WA0030200292
B1841304748444N11958171WA0030100290
B1841314748441N11958170WA0029900289
B1841324748438N11958172WA0029800287
B1841334748436N11958175WA0029700285
B1841344748435N11958181WA0029500283
B1841354748435N11958187WA0029400281
B1841364748435N11958194WA0029300279
B1841374748435N11958200WA0029100278
B1841384748434N11958205WA0029000277
B1841394748433N11958210WA0028900276
B1841404748431N11958215WA0028800274
B1841414748429N11958219WA0028600272
B1841424748426N11958221WA0028500270
B1841434748423N11958221WA0028400268
B1841444748419N11958219WA0028200265
B1841454748416N11958218WA0028100264
B1841464748414N11958219WA0028000262
B1841474748411N11958221WA0027800260
B1841484748409N11958223WA0027700259
B1841494748407N11958223WA0027600258
B1841504748406N11958224WA0027500257
B1841514748405N11958224WA0027400257
B1841524748405N11958224WA0027300257
B1841534748405N11958223WA0027200257
B1841544748405N11958222WA0027200257
B1841554748405N11958222WA0027100257
B1841564748404N11958222WA0027100256
B1841574748404N11958223WA0027000255
B1841584748404N11958223WA0027000255
B1841594748404N11958223WA0027000255
B1842004748404N11958223WA0027000254
B1842004748404N11958223WA0027000254
B1842014748404N11958223WA0026900254
B1842024748404N11958223WA0026900254
B1842034748404N11958223WA0026900254
B1842044748404N11958223WA0026900253
B1842054748404N11958223WA0026900253
B1842064748404N11958223WA0026900253
B1842074748404N11958223WA0026800253
B1842084748404N11958223WA0026800253
B1842094748404N11958223WA0026800253
B1842104748404N11958223WA0026800253
B1842114748404N11958223WA0026800253
B1842124748404N11958223WA0026800252
B1842134748404N11958223WA0026800252
B1842144748404N11958223WA0026800252
B1842154748404N11958223WA0026800253
B1842164748404N11958223WA0026800252
B1842174748404N11958223WA0026800252
B1842184748404N11958223WA0026800252
B1842194748404N11958223WA0026800252
B1842204748404N11958223WA0026800252
B1842214748404N11958223WA0026800252
B1842224748404N11958224WA0026800252
B1842234748404N11958224WA0026800252
B1842244748405N11958224WA0026800252
B1842254748405N11958225WA0026800252
B1842264748405N11958225WA0026800252
B1842274748405N11958225WA0026800252
B1842284748405N11958226WA0026800251
B1842294748405N11958226WA0026800251
B1842304748405N11958226WA0026800251
B1842314748405N11958226WA0026800251
B1842324748405N11958227WA0026800251
B1842334748406N11958227WA0026800251
B1842344748406N11958227WA0026800251
B1842354748406N11958227WA0026800251
B1842364748405N11958227WA0026800251
B1842374748405N11958227WA0026800251
B1842384748405N11958227WA0026800251
B1842394748405N11958227WA0026800251
B1842404748405N11958227WA0026800250
B1842414748405N11958227WA0026800251
B1842424748405N11958227WA0026800251
B1842434748405N11958227WA0026800251
B1842444748405N11958227WA0026800251
B1842454748405N11958227WA0026800251
B1842464748405N11958227WA0026800251
B1842474748405N11958227WA0026700251
B1842484748405N11958227WA0026700251
B1842494748405N11958227WA0026700251
B1842504748405N11958227WA0026800251
B1842514748406N11958227WA0026700250
B1842524748406N11958227WA0026700250
B1842534748406N11958227WA0026700250
B1842544748406N11958227WA0026700251
B1842554748406N11958227WA0026700250
B1842564748406N11958227WA0026700250
B1842574748406N11958227WA0026700250
B1842584748406N11958226WA0026700250
B1842594748405N11958226WA0026700250
B1843004748406N11958226WA0026700250
B1843014748406N11958226WA0026700250
B1843024748405N11958226WA0026700250
B1843034748405N11958226WA0026800250
