AXFMSFP Flymaster Live, V1.0
HFFXA010
HFPLTPILOT:Eric Bader
HFGTYGLIDERTYPE:Ozone Zeno 2 / Advance Impress 4
HFGIDGLIDERID:
HFDTM100GPSDATUM:WGS-1984
HFCIDCOMPETITIONID:2424
HFCCLCOMPETITIONCLASS:
HOSITSITE:LAUNCH
HFGPS:UBLOXNEO6
HFPRSPRESSALTSENSOR:NA
HFRFWFIRMWAREVERSION:202g
HFRHWHARDWAREVERSION:1.0R2
HFFTYFRTYPE:FLYMASTER,LIVE
HFDTE260625
B1819004748244N12002363WA0111001125
B1819014748243N12002365WA0111001124
B1819024748242N12002367WA0111001124
B1819034748241N12002369WA0111001123
B1819044748240N12002371WA0111001123
B1819054748239N12002373WA0110901122
B1819064748237N12002376WA0110901121
B1819074748236N12002378WA0110901121
B1819084748235N12002380WA0110801119
B1819094748233N12002384WA0110801118
B1819104748231N12002387WA0110701117
B1819114748230N12002391WA0110701116
B1819124748228N12002395WA0110601114
B1819134748226N12002400WA0110601113
B1819144748223N12002403WA0110501113
B1819154748221N12002407WA0110401110
B1819164748218N12002411WA0110301110
B1819174748215N12002415WA0110301109
B1819184748211N12002420WA0110201107
B1819194748208N12002426WA0110101105
B1819204748205N12002433WA0110001106
B1819214748205N12002439WA0109901109
B1819224748205N12002445WA0109901112
B1819234748205N12002449WA0109901116
B1819244748205N12002452WA0109901119
B1819254748203N12002454WA0109901121
B1819264748202N12002456WA0110001123
B1819274748201N12002459WA0110101124
B1819284748200N12002463WA0110201126
B1819294748199N12002465WA0110201128
B1819304748197N12002467WA0110401132
B1819314748196N12002466WA0110501135
B1819324748193N12002465WA0110701138
B1819334748191N12002463WA0110801140
B1819344748188N12002462WA0111001141
B1819354748185N12002461WA0111101141
B1819364748182N12002460WA0111301141
B1819374748178N12002459WA0111401141
B1819384748174N12002457WA0111501141
B1819394748171N12002456WA0111601142
B1819404748167N12002455WA0111701142
B1819414748163N12002455WA0111701143
B1819424748160N12002455WA0111801143
B1819434748156N12002455WA0111901143
B1819444748153N12002456WA0112001144
B1819454748150N12002456WA0112001145
B1819464748147N12002456WA0112101145
B1819474748143N12002456WA0112101146
B1819484748140N12002456WA0112201146
B1819494748136N12002455WA0112201146
B1819504748132N12002454WA0112301146
B1819514748129N12002452WA0112401146
B1819524748125N12002447WA0112401146
B1819534748121N12002440WA0112401145
B1819544748118N12002431WA0112501145
B1819554748116N12002421WA0112501144
B1819564748116N12002409WA0112501144
B1819574748118N12002397WA0112501144
B1819584748123N12002387WA0112501143
B1819594748129N12002378WA0112501142
B1819594748129N12002378WA0112501142
B1820004748136N12002371WA0112501143
B1820014748143N12002368WA0112501144
B1820024748150N12002367WA0112501146
B1820034748155N12002369WA0112501147
B1820044748160N12002371WA0112601148
B1820054748164N12002374WA0112601149
B1820064748168N12002376WA0112701150
B1820074748173N12002378WA0112701150
B1820084748177N12002381WA0112801150
B1820094748180N12002385WA0112801150
B1820104748184N12002389WA0112801150
B1820114748188N12002392WA0112901151
B1820124748192N12002396WA0112901151
B1820134748195N12002400WA0113001151
B1820144748199N12002403WA0113001151
B1820154748202N12002408WA0113001150
B1820164748204N12002412WA0113001150
B1820174748206N12002416WA0113101150
B1820184748207N12002420WA0113101150
B1820194748209N12002424WA0113101149
B1820204748211N12002428WA0113101148
B1820214748212N12002433WA0113101146
B1820224748212N12002438WA0113001145
B1820234748213N12002444WA0113001144
B1820244748213N12002449WA0112901143
B1820254748212N12002455WA0112901143
B1820264748213N12002461WA0112801144
B1820274748213N12002467WA0112801145
B1820284748213N12002472WA0112801147
B1820294748214N12002477WA0112801148
B1820304748216N12002482WA0112801150
B1820314748217N12002488WA0112801151
B1820324748218N12002493WA0112901152
B1820334748217N12002499WA0112901154
B1820344748216N12002503WA0113001155
B1820354748214N12002506WA0113001157
B1820364748213N12002510WA0113101160
B1820374748212N12002514WA0113201162
B1820384748212N12002519WA0113301163
B1820394748213N12002525WA0113401165
B1820404748215N12002530WA0113501165
B1820414748216N12002536WA0113601166
B1820424748216N12002541WA0113701168
B1820434748215N12002546WA0113801169
B1820444748214N12002550WA0114001171
B1820454748213N12002552WA0114101172
B1820464748211N12002554WA0114201172
B1820474748207N12002554WA0114301172
B1820484748203N12002553WA0114501171
B1820494748198N12002548WA0114501171
B1820504748195N12002540WA0114601170
B1820514748193N12002530WA0114701170
B1820524748192N12002518WA0114701170
B1820534748192N12002506WA0114801170
B1820544748194N12002493WA0114801170
B1820554748197N12002482WA0114801171
B1820564748203N12002471WA0114901170
B1820574748210N12002463WA0114901169
B1820584748218N12002457WA0114901168
B1820594748226N12002455WA0114901169
B1821004748233N12002456WA0114901169
B1821014748237N12002460WA0114901170
B1821014748237N12002460WA0114901170
B1821024748240N12002464WA0115001170
B1821034748240N12002468WA0115001171
B1821044748240N12002472WA0115001170
B1821054748239N12002475WA0115001170
B1821064748237N12002478WA0115001169
B1821074748236N12002481WA0115001169
B1821084748234N12002482WA0115001169
B1821094748232N12002483WA0115001169
B1821104748230N12002483WA0115001169
B1821114748227N12002482WA0115001167
B1821124748223N12002481WA0115001166
B1821134748219N12002479WA0115001165
B1821144748216N12002475WA0114901164
B1821154748212N12002470WA0114901164
B1821164748209N12002464WA0114801164
B1821174748205N12002460WA0114801164
B1821184748202N12002456WA0114801163
B1821194748198N12002454WA0114701162
B1821204748196N12002455WA0114701160
B1821214748194N12002458WA0114701159
B1821224748193N12002462WA0114601158
B1821234748192N12002466WA0114501157
B1821244748191N12002470WA0114501157
B1821254748190N12002473WA0114401158
B1821264748189N12002477WA0114401158
B1821274748188N12002481WA0114301157
B1821284748188N12002486WA0114301157
B1821294748188N12002491WA0114201156
B1821304748188N12002496WA0114201156
B1821314748187N12002500WA0114101156
B1821324748187N12002504WA0114101157
B1821334748188N12002508WA0114101157
B1821344748188N12002512WA0114001157
B1821354748188N12002517WA0114001157
B1821364748188N12002522WA0114001156
B1821374748189N12002528WA0114001158
B1821384748190N12002533WA0114001160
B1821394748192N12002538WA0114001162
B1821404748194N12002543WA0114001164
B1821414748195N12002548WA0114101168
B1821424748195N12002553WA0114201171
B1821434748194N12002555WA0114301173
B1821444748192N12002557WA0114401174
B1821454748190N12002559WA0114501173
B1821464748189N12002562WA0114601172
B1821474748188N12002566WA0114701170
B1821484748187N12002570WA0114701169
B1821494748184N12002572WA0114801168
B1821504748179N12002572WA0114801166
B1821514748174N12002570WA0114801164
B1821524748169N12002566WA0114701162
B1821534748164N12002561WA0114701161
B1821544748160N12002555WA0114701161
B1821554748157N12002547WA0114601160
B1821564748154N12002538WA0114601159
B1821574748153N12002526WA0114501158
B1821584748153N12002512WA0114401155
B1821594748156N12002499WA0114401155
B1822004748161N12002488WA0114301154
B1822014748167N12002481WA0114201153
B1822024748175N12002477WA0114101151
B1822034748182N12002476WA0114001150
B1822044748187N12002478WA0113901149
B1822044748187N12002478WA0113901149
B1822054748191N12002482WA0113901148
B1822064748194N12002485WA0113801148
B1822074748197N12002489WA0113701147
B1822084748200N12002493WA0113601147
B1822094748203N12002497WA0113501146
B1822104748205N12002502WA0113401145
B1822114748208N12002506WA0113301145
B1822124748211N12002511WA0113201144
B1822134748213N12002516WA0113201143
B1822144748216N12002520WA0113101143
B1822154748217N12002525WA0113001143
B1822164748217N12002529WA0112901142
B1822174748217N12002534WA0112901141
B1822184748217N12002538WA0112801140
B1822194748217N12002543WA0112701139
B1822204748217N12002547WA0112701139
B1822214748217N12002552WA0112601139
B1822224748217N12002556WA0112501138
B1822234748216N12002561WA0112501139
B1822244748216N12002565WA0112401138
B1822254748215N12002570WA0112401138
B1822264748214N12002575WA0112301137
B1822274748214N12002580WA0112201136
B1822284748214N12002586WA0112201135
B1822294748214N12002592WA0112101135
B1822304748215N12002597WA0112101134
B1822314748214N12002602WA0112001134
B1822324748214N12002606WA0111901134
B1822334748213N12002610WA0111901133
B1822344748211N12002614WA0111801133
B1822354748210N12002617WA0111801132
B1822364748208N12002621WA0111701131
B1822374748206N12002625WA0111701130
B1822384748204N12002628WA0111601129
B1822394748202N12002632WA0111501129
B1822404748201N12002635WA0111501128
B1822414748199N12002638WA0111401127
B1822424748197N12002640WA0111301126
B1822434748195N12002643WA0111301124
B1822444748193N12002646WA0111201123
B1822454748191N12002649WA0111101121
B1822464748188N12002653WA0111001120
B1822474748186N12002656WA0110901119
B1822484748183N12002660WA0110801119
B1822494748181N12002665WA0110701119
B1822504748179N12002669WA0110601119
B1822514748178N12002673WA0110601120
B1822524748178N12002678WA0110501120
B1822534748179N12002683WA0110501121
B1822544748181N12002688WA0110401120
B1822554748184N12002694WA0110401119
B1822564748186N12002700WA0110301119
B1822574748187N12002706WA0110301118
B1822584748188N12002712WA0110301119
B1822594748187N12002717WA0110201119
B1823004748187N12002722WA0110201119
B1823014748185N12002728WA0110201119
B1823024748184N12002733WA0110101118
B1823034748182N12002737WA0110101118
B1823044748180N12002741WA0110101118
B1823054748177N12002743WA0110101119
B1823064748174N12002744WA0110101119
B1823074748169N12002743WA0110101119
B1823074748169N12002743WA0110101119
B1823084748165N12002739WA0110001118
B1823094748160N12002735WA0110001116
B1823104748155N12002729WA0110001115
B1823114748152N12002721WA0110001115
B1823124748149N12002712WA0109901114
B1823134748148N12002701WA0109901114
B1823144748148N12002689WA0109801112
B1823154748148N12002677WA0109801111
B1823164748149N12002666WA0109701112
B1823174748148N12002656WA0109701111
B1823184748146N12002648WA0109601109
B1823194748142N12002641WA0109601106
B1823204748137N12002636WA0109501102
B1823214748132N12002634WA0109401098
B1823224748128N12002635WA0109201096
B1823234748126N12002639WA0109101094
B1823244748125N12002643WA0108901092
B1823254748125N12002648WA0108801091
B1823264748126N12002653WA0108601090
B1823274748127N12002658WA0108501088
B1823284748127N12002663WA0108301086
B1823294748128N12002669WA0108201084
B1823304748128N12002675WA0108001082
B1823314748128N12002681WA0107901081
B1823324748129N12002687WA0107701079
B1823334748129N12002693WA0107601078
B1823344748128N12002699WA0107401077
B1823354748128N12002705WA0107201076
B1823364748127N12002710WA0107101076
B1823374748126N12002716WA0107001076
B1823384748125N12002722WA0106801076
B1823394748125N12002728WA0106701077
B1823404748124N12002733WA0106601077
B1823414748123N12002738WA0106601078
B1823424748123N12002744WA0106501078
B1823434748122N12002749WA0106401079
B1823444748122N12002755WA0106401081
B1823454748123N12002759WA0106401085
B1823464748125N12002762WA0106401089
B1823474748127N12002766WA0106501093
B1823484748129N12002770WA0106601095
B1823494748131N12002774WA0106701097
B1823504748133N12002779WA0106801099
B1823514748134N12002784WA0107001102
B1823524748134N12002788WA0107101105
B1823534748133N12002790WA0107301108
B1823544748131N12002791WA0107501109
B1823554748127N12002791WA0107601110
B1823564748123N12002790WA0107801111
B1823574748119N12002786WA0107901113
B1823584748115N12002779WA0108101116
B1823594748113N12002769WA0108301117
B1824004748113N12002757WA0108501117
B1824014748115N12002745WA0108601118
B1824024748120N12002734WA0108801118
B1824034748127N12002726WA0108901120
B1824044748135N12002722WA0109101122
B1824054748142N12002720WA0109201125
B1824064748149N12002720WA0109401128
B1824074748156N12002722WA0109501131
B1824084748161N12002724WA0109801135
B1824094748167N12002727WA0109901139
B1824104748170N12002731WA0110201143
B1824104748170N12002731WA0110201143
B1824114748173N12002734WA0110401146
B1824124748174N12002739WA0110701149
B1824134748173N12002743WA0110901150
B1824144748172N12002748WA0111201151
B1824154748170N12002752WA0111401153
B1824164748168N12002755WA0111601155
B1824174748165N12002755WA0111801158
B1824184748162N12002754WA0112101159
B1824194748158N12002751WA0112201158
B1824204748154N12002746WA0112501156
B1824214748149N12002740WA0112601156
B1824224748144N12002734WA0112801156
B1824234748141N12002726WA0112901158
B1824244748138N12002717WA0113001160
B1824254748137N12002707WA0113101162
B1824264748137N12002697WA0113301164
B1824274748137N12002686WA0113401165
B1824284748138N12002675WA0113601167
B1824294748139N12002665WA0113701170
B1824304748141N12002654WA0113901173
B1824314748145N12002646WA0114001177
B1824324748150N12002640WA0114301181
B1824334748157N12002637WA0114401182
B1824344748164N12002636WA0114701184
B1824354748172N12002636WA0114801186
B1824364748178N12002637WA0115101190
B1824374748184N12002639WA0115301195
B1824384748188N12002643WA0115601198
B1824394748192N12002647WA0115801202
B1824404748196N12002653WA0116101204
B1824414748199N12002658WA0116301208
B1824424748201N12002662WA0116601213
B1824434748202N12002666WA0116801217
B1824444748201N12002669WA0117201220
B1824454748200N12002670WA0117401222
B1824464748197N12002670WA0117801224
B1824474748193N12002668WA0118001224
B1824484748189N12002664WA0118301224
B1824494748185N12002659WA0118501223
B1824504748182N12002652WA0118701224
B1824514748180N12002643WA0118901226
B1824524748179N12002634WA0119101227
B1824534748177N12002624WA0119301228
B1824544748176N12002614WA0119501229
B1824554748175N12002604WA0119601230
B1824564748176N12002592WA0119801232
B1824574748179N12002581WA0119901234
B1824584748185N12002573WA0120101236
B1824594748192N12002569WA0120201238
B1825004748200N12002568WA0120401240
B1825014748207N12002568WA0120501242
B1825024748213N12002570WA0120701245
B1825034748220N12002571WA0120901247
B1825044748226N12002573WA0121101250
B1825054748232N12002576WA0121301254
B1825064748237N12002582WA0121501257
B1825074748240N12002589WA0121701260
B1825084748243N12002594WA0122001264
B1825094748244N12002599WA0122201270
B1825104748244N12002602WA0122501274
B1825114748244N12002605WA0122701276
B1825124748242N12002606WA0123101276
B1825134748240N12002607WA0123301275
B1825134748240N12002607WA0123301275
B1825144748237N12002607WA0123501275
B1825154748235N12002607WA0123701273
B1825164748231N12002606WA0123901272
B1825174748228N12002605WA0124001271
B1825184748223N12002605WA0124101269
B1825194748219N12002603WA0124201267
B1825204748214N12002600WA0124301266
B1825214748210N12002596WA0124301265
B1825224748206N12002589WA0124301263
B1825234748202N12002582WA0124301261
B1825244748198N12002575WA0124301259
B1825254748194N12002567WA0124301256
B1825264748191N12002559WA0124201254
B1825274748188N12002550WA0124101252
B1825284748185N12002540WA0124001250
B1825294748183N12002530WA0123901249
B1825304748181N12002519WA0123801248
B1825314748180N12002508WA0123701248
B1825324748180N12002498WA0123601248
B1825334748179N12002487WA0123501248
B1825344748178N12002475WA0123401247
B1825354748176N12002463WA0123301247
B1825364748176N12002451WA0123201248
B1825374748177N12002439WA0123201248
B1825384748180N12002427WA0123101249
B1825394748185N12002415WA0123101249
B1825404748193N12002407WA0123001250
B1825414748201N12002402WA0123001253
B1825424748208N12002400WA0123001258
B1825434748214N12002400WA0123101262
B1825444748220N12002400WA0123201267
B1825454748226N12002400WA0123301270
B1825464748233N12002400WA0123501273
B1825474748241N12002399WA0123601275
B1825484748248N12002399WA0123801277
B1825494748255N12002399WA0124001281
B1825504748261N12002400WA0124201285
B1825514748266N12002403WA0124401288
B1825524748270N12002407WA0124701290
B1825534748272N12002412WA0124901293
B1825544748273N12002416WA0125101296
B1825554748272N12002419WA0125301299
B1825564748269N12002420WA0125601301
B1825574748266N12002419WA0125801303
B1825584748262N12002417WA0126101305
B1825594748259N12002413WA0126301307
B1826004748255N12002406WA0126601309
B1826014748253N12002397WA0126801311
B1826024748252N12002386WA0127001313
B1826034748253N12002374WA0127201315
B1826044748256N12002362WA0127501317
B1826054748261N12002351WA0127701319
B1826064748268N12002343WA0127901322
B1826074748276N12002339WA0128101324
B1826084748284N12002339WA0128401326
B1826094748290N12002344WA0128501329
B1826104748294N12002350WA0128801332
B1826114748296N12002356WA0129001335
B1826124748296N12002360WA0129301339
B1826134748295N12002363WA0129501343
B1826144748294N12002366WA0129801346
B1826154748292N12002367WA0130001349
B1826164748289N12002368WA0130401351
B1826164748289N12002368WA0130401351
B1826174748286N12002368WA0130601352
B1826184748282N12002366WA0130901354
B1826194748279N12002361WA0131101354
B1826204748275N12002355WA0131401355
B1826214748273N12002349WA0131501356
B1826224748270N12002341WA0131801356
B1826234748268N12002333WA0131901357
B1826244748268N12002323WA0132101357
B1826254748269N12002312WA0132201357
B1826264748273N12002301WA0132401357
B1826274748279N12002291WA0132501358
B1826284748286N12002284WA0132701360
B1826294748293N12002280WA0132801363
B1826304748299N12002280WA0132901366
B1826314748304N12002283WA0133001367
B1826324748308N12002288WA0133201369
B1826334748308N12002293WA0133301371
B1826344748307N12002297WA0133501374
B1826354748305N12002298WA0133701376
B1826364748302N12002296WA0133901377
B1826374748299N12002292WA0134001377
B1826384748296N12002286WA0134201377
B1826394748293N12002280WA0134301377
B1826404748291N12002273WA0134501376
B1826414748288N12002266WA0134601376
B1826424748286N12002259WA0134701375
B1826434748283N12002251WA0134701375
B1826444748281N12002244WA0134801376
B1826454748279N12002237WA0134901378
B1826464748276N12002232WA0135001380
B1826474748274N12002228WA0135101381
B1826484748270N12002223WA0135201382
B1826494748267N12002217WA0135301380
B1826504748263N12002208WA0135301378
B1826514748260N12002197WA0135401375
B1826524748259N12002186WA0135401375
B1826534748260N12002174WA0135401375
B1826544748263N12002162WA0135401374
B1826554748269N12002151WA0135401374
B1826564748276N12002143WA0135401374
B1826574748284N12002138WA0135401377
B1826584748291N12002138WA0135401379
B1826594748297N12002141WA0135401380
B1827004748301N12002146WA0135501382
B1827014748304N12002152WA0135501384
B1827024748305N12002158WA0135601386
B1827034748306N12002164WA0135701388
B1827044748305N12002169WA0135801391
B1827054748304N12002171WA0135901395
B1827064748303N12002171WA0136001398
B1827074748300N12002168WA0136201399
B1827084748297N12002162WA0136301397
B1827094748292N12002155WA0136401394
B1827104748288N12002146WA0136501392
B1827114748285N12002137WA0136601392
B1827124748283N12002128WA0136701392
B1827134748282N12002119WA0136701393
B1827144748281N12002112WA0136801393
B1827154748279N12002105WA0136801392
B1827164748275N12002098WA0136801389
B1827174748271N12002089WA0136801387
B1827184748268N12002079WA0136801385
B1827184748268N12002079WA0136801385
B1827194748265N12002070WA0136801384
B1827204748262N12002060WA0136701384
B1827214748260N12002050WA0136701384
B1827224748258N12002038WA0136601383
B1827234748256N12002026WA0136601383
B1827244748254N12002013WA0136501382
B1827254748253N12001998WA0136501383
B1827264748255N12001984WA0136501383
B1827274748258N12001971WA0136401385
B1827284748264N12001961WA0136401386
B1827294748270N12001954WA0136401387
B1827304748277N12001950WA0136401390
B1827314748281N12001949WA0136501393
B1827324748285N12001949WA0136501394
B1827334748289N12001950WA0136601394
B1827344748293N12001954WA0136701393
B1827354748298N12001958WA0136701393
B1827364748301N12001962WA0136801394
B1827374748305N12001967WA0136801397
B1827384748306N12001971WA0136901400
B1827394748307N12001976WA0137001402
B1827404748307N12001981WA0137101403
B1827414748305N12001986WA0137201405
B1827424748302N12001989WA0137301406
B1827434748298N12001989WA0137401408
B1827444748294N12001986WA0137601408
B1827454748289N12001980WA0137601408
B1827464748285N12001974WA0137801407
B1827474748282N12001966WA0137801407
B1827484748279N12001959WA0137901407
B1827494748277N12001949WA0138001407
B1827504748275N12001939WA0138001406
B1827514748275N12001927WA0138101404
B1827524748275N12001914WA0138101402
B1827534748278N12001901WA0138101401
B1827544748282N12001891WA0138101400
B1827554748288N12001884WA0138101400
B1827564748294N12001884WA0138001398
B1827574748300N12001888WA0138001396
B1827584748303N12001894WA0137901396
B1827594748304N12001900WA0137901397
B1828004748304N12001904WA0137901400
B1828014748303N12001907WA0137901403
B1828024748303N12001909WA0137901406
B1828034748302N12001911WA0137901406
B1828044748302N12001915WA0138001405
B1828054748301N12001920WA0138001402
B1828064748300N12001925WA0138001400
B1828074748299N12001930WA0138001399
B1828084748299N12001935WA0138001398
B1828094748299N12001940WA0137901398
B1828104748300N12001944WA0137901398
B1828114748300N12001948WA0137901397
B1828124748300N12001952WA0137801396
B1828134748300N12001957WA0137801394
B1828144748299N12001961WA0137701392
B1828154748298N12001965WA0137601391
B1828164748297N12001969WA0137501390
B1828174748296N12001974WA0137501389
B1828184748296N12001978WA0137301387
B1828194748294N12001982WA0137301386
B1828204748293N12001986WA0137101384
B1828214748293N12001991WA0137101383
B1828214748293N12001991WA0137101383
B1828224748292N12001995WA0136901382
B1828234748292N12002000WA0136801381
B1828244748291N12002004WA0136701380
B1828254748290N12002008WA0136601379
B1828264748289N12002012WA0136501377
B1828274748288N12002017WA0136401376
B1828284748286N12002021WA0136201374
B1828294748285N12002026WA0136101372
B1828304748283N12002031WA0136001370
B1828314748282N12002036WA0135801368
B1828324748281N12002041WA0135701367
B1828334748280N12002047WA0135501365
B1828344748279N12002052WA0135401364
B1828354748278N12002058WA0135201362
B1828364748277N12002063WA0135101361
B1828374748276N12002068WA0134901359
B1828384748276N12002074WA0134701358
B1828394748275N12002078WA0134601357
B1828404748275N12002083WA0134501355
B1828414748275N12002089WA0134301354
B1828424748275N12002094WA0134201352
B1828434748275N12002099WA0134001350
B1828444748276N12002105WA0133901348
B1828454748276N12002111WA0133701347
B1828464748277N12002116WA0133601346
B1828474748277N12002120WA0133401346
B1828484748276N12002124WA0133301345
B1828494748276N12002129WA0133201344
B1828504748276N12002133WA0133001343
B1828514748276N12002138WA0132901341
B1828524748276N12002144WA0132801339
B1828534748275N12002149WA0132601338
B1828544748275N12002155WA0132501337
B1828554748276N12002160WA0132401337
B1828564748276N12002165WA0132201336
B1828574748277N12002170WA0132201336
B1828584748278N12002175WA0132001336
B1828594748279N12002180WA0132001335
B1829004748279N12002184WA0131801335
B1829014748279N12002189WA0131801336
B1829024748279N12002192WA0131701336
B1829034748278N12002196WA0131701336
B1829044748277N12002200WA0131601335
B1829054748276N12002205WA0131501334
B1829064748275N12002211WA0131501333
B1829074748274N12002217WA0131401333
B1829084748274N12002222WA0131301333
B1829094748274N12002227WA0131301334
B1829104748273N12002232WA0131201334
B1829114748272N12002237WA0131201334
B1829124748271N12002242WA0131201333
B1829134748271N12002247WA0131101332
B1829144748270N12002253WA0131101332
B1829154748269N12002257WA0131101332
B1829164748268N12002262WA0131001332
B1829174748267N12002266WA0131001332
B1829184748265N12002270WA0131001331
B1829194748264N12002275WA0130901331
B1829204748262N12002280WA0130901330
B1829214748261N12002285WA0130901329
B1829224748260N12002289WA0130801329
B1829234748259N12002294WA0130801328
B1829244748258N12002298WA0130701327
B1829244748258N12002298WA0130701327
B1829254748256N12002302WA0130701325
B1829264748254N12002307WA0130601323
B1829274748252N12002311WA0130501322
B1829284748250N12002314WA0130401321
B1829294748248N12002318WA0130301320
B1829304748246N12002321WA0130201319
B1829314748244N12002325WA0130201317
B1829324748241N12002328WA0130001316
B1829334748239N12002331WA0130001314
B1829344748236N12002335WA0129801312
B1829354748232N12002338WA0129701311
B1829364748229N12002341WA0129601309
B1829374748226N12002344WA0129501309
B1829384748224N12002348WA0129301308
B1829394748221N12002351WA0129201306
B1829404748219N12002355WA0129101304
B1829414748216N12002359WA0129001302
B1829424748213N12002362WA0128801300
B1829434748209N12002365WA0128701298
B1829444748206N12002368WA0128501296
B1829454748203N12002370WA0128401295
B1829464748200N12002372WA0128201294
B1829474748196N12002373WA0128101293
B1829484748192N12002375WA0128001291
B1829494748187N12002376WA0127801289
B1829504748183N12002376WA0127701288
B1829514748180N12002377WA0127501287
B1829524748176N12002378WA0127401286
B1829534748172N12002379WA0127301285
B1829544748168N12002380WA0127101284
B1829554748164N12002381WA0127001282
B1829564748159N12002383WA0126801280
B1829574748154N12002385WA0126701279
B1829584748150N12002387WA0126601278
B1829594748145N12002389WA0126401277
B1830004748141N12002391WA0126301277
B1830014748137N12002391WA0126201278
B1830024748133N12002390WA0126101279
B1830034748130N12002390WA0126001279
B1830044748126N12002390WA0126001278
B1830054748121N12002391WA0125901277
B1830064748117N12002392WA0125801275
B1830074748114N12002393WA0125801275
B1830084748111N12002394WA0125701276
B1830094748108N12002394WA0125601276
B1830104748103N12002394WA0125601275
B1830114748098N12002394WA0125501273
B1830124748093N12002394WA0125401272
B1830134748089N12002393WA0125401272
B1830144748085N12002393WA0125301272
B1830154748082N12002393WA0125301272
B1830164748080N12002394WA0125201272
B1830174748077N12002396WA0125201271
B1830184748074N12002399WA0125101269
B1830194748072N12002404WA0125101267
B1830204748072N12002410WA0125001266
B1830214748073N12002416WA0124901265
B1830224748075N12002422WA0124801264
B1830234748077N12002427WA0124801264
B1830244748079N12002431WA0124701263
B1830254748082N12002435WA0124601263
B1830264748085N12002439WA0124501262
B1830274748087N12002443WA0124501261
B1830274748087N12002443WA0124501261
B1830284748090N12002448WA0124401260
B1830294748091N12002453WA0124301259
B1830304748092N12002457WA0124201258
B1830314748093N12002461WA0124101258
B1830324748094N12002464WA0124001256
B1830334748094N12002468WA0124001255
B1830344748095N12002473WA0123901253
B1830354748096N12002477WA0123801252
B1830364748100N12002481WA0123701251
B1830374748105N12002484WA0123601249
B1830384748112N12002485WA0123501248
B1830394748119N12002484WA0123401248
B1830404748126N12002481WA0123301248
B1830414748133N12002477WA0123201249
B1830424748139N12002473WA0123101249
B1830434748146N12002468WA0123001249
B1830444748152N12002462WA0123001247
B1830454748158N12002455WA0122901245
B1830464748165N12002448WA0122801242
B1830474748171N12002439WA0122701240
B1830484748177N12002430WA0122601238
B1830494748183N12002422WA0122501237
B1830504748189N12002413WA0122401236
B1830514748194N12002406WA0122301236
B1830524748200N12002399WA0122201238
B1830534748205N12002392WA0122101240
B1830544748210N12002387WA0122101242
B1830554748216N12002381WA0122101244
B1830564748222N12002375WA0122101245
B1830574748229N12002370WA0122101247
B1830584748236N12002366WA0122101249
B1830594748242N12002365WA0122201251
B1831004748247N12002366WA0122301253
B1831014748250N12002369WA0122301253
B1831024748252N12002372WA0122401252
B1831034748251N12002376WA0122401251
B1831044748249N12002378WA0122501249
B1831054748246N12002378WA0122501247
B1831064748242N12002377WA0122501246
B1831074748238N12002373WA0122501245
B1831084748235N12002368WA0122501244
B1831094748232N12002363WA0122501243
B1831104748229N12002355WA0122401243
B1831114748227N12002346WA0122401242
B1831124748225N12002336WA0122401241
B1831134748223N12002326WA0122301240
B1831144748220N12002316WA0122301242
B1831154748218N12002308WA0122301245
B1831164748217N12002301WA0122301247
B1831174748216N12002294WA0122301249
B1831184748215N12002285WA0122401250
B1831194748215N12002274WA0122401248
B1831204748215N12002263WA0122501248
B1831214748217N12002252WA0122501247
B1831224748222N12002242WA0122501248
B1831234748227N12002234WA0122601249
B1831244748234N12002229WA0122601250
B1831254748241N12002227WA0122601251
B1831264748247N12002228WA0122701253
B1831274748252N12002229WA0122801255
B1831284748257N12002231WA0122801258
B1831294748261N12002234WA0122901260
B1831304748265N12002237WA0123001261
B1831304748265N12002237WA0123001261
B1831314748268N12002240WA0123101263
B1831324748272N12002244WA0123301266
B1831334748275N12002247WA0123401269
B1831344748278N12002251WA0123501271
B1831354748280N12002254WA0123601273
B1831364748280N12002258WA0123801275
B1831374748279N12002261WA0124001276
B1831384748277N12002263WA0124101276
B1831394748273N12002263WA0124301277
B1831404748269N12002258WA0124401278
B1831414748266N12002251WA0124501277
B1831424748263N12002240WA0124701277
B1831434748260N12002230WA0124801278
B1831444748258N12002220WA0124901280
B1831454748257N12002211WA0125001283
B1831464748257N12002201WA0125201286
B1831474748259N12002190WA0125301286
B1831484748263N12002181WA0125401286
B1831494748269N12002173WA0125501287
B1831504748276N12002168WA0125701288
B1831514748283N12002166WA0125701291
B1831524748290N12002166WA0125901292
B1831534748296N12002167WA0126001294
B1831544748302N12002170WA0126201297
B1831554748307N12002172WA0126301300
B1831564748312N12002175WA0126501303
B1831574748315N12002179WA0126601307
B1831584748317N12002183WA0126901310
B1831594748319N12002186WA0127001312
B1832004748319N12002190WA0127301314
B1832014748318N12002193WA0127401316
B1832024748315N12002195WA0127701317
B1832034748311N12002195WA0127801318
B1832044748307N12002193WA0128101320
B1832054748302N12002187WA0128201322
B1832064748299N12002179WA0128401324
B1832074748297N12002170WA0128601327
B1832084748296N12002162WA0128801330
B1832094748296N12002154WA0129001333
B1832104748296N12002145WA0129301335
B1832114748297N12002135WA0129401336
B1832124748300N12002125WA0129701336
B1832134748305N12002114WA0129801336
B1832144748311N12002105WA0130001336
B1832154748319N12002099WA0130201338
B1832164748326N12002098WA0130301340
B1832174748332N12002101WA0130501343
B1832184748337N12002105WA0130701345
B1832194748341N12002111WA0130801348
B1832204748345N12002116WA0131001353
B1832214748348N12002121WA0131201357
B1832224748350N12002126WA0131501361
B1832234748351N12002129WA0131701364
B1832244748351N12002132WA0132001367
B1832254748350N12002133WA0132201369
B1832264748347N12002133WA0132501369
B1832274748343N12002129WA0132701369
B1832284748339N12002123WA0132901368
B1832294748336N12002115WA0133101369
B1832304748334N12002105WA0133301371
B1832314748334N12002094WA0133401374
B1832324748335N12002083WA0133701376
B1832334748337N12002072WA0133801377
B1832334748337N12002072WA0133801377
B1832344748341N12002062WA0134001379
B1832354748346N12002055WA0134201383
B1832364748353N12002052WA0134401385
B1832374748359N12002052WA0134601386
B1832384748365N12002056WA0134801389
B1832394748369N12002061WA0135001391
B1832404748372N12002067WA0135201395
B1832414748373N12002073WA0135401400
B1832424748373N12002077WA0135701404
B1832434748373N12002080WA0135901409
B1832444748374N12002082WA0136201412
B1832454748374N12002085WA0136401413
B1832464748374N12002088WA0136701414
B1832474748374N12002092WA0137001414
B1832484748374N12002096WA0137201413
B1832494748373N12002101WA0137401411
B1832504748373N12002106WA0137601410
B1832514748372N12002112WA0137701409
B1832524748372N12002117WA0137801408
B1832534748372N12002123WA0137901408
B1832544748371N12002129WA0137901407
B1832554748371N12002136WA0138001406
B1832564748372N12002143WA0138001405
B1832574748372N12002150WA0138001404
B1832584748373N12002157WA0138001403
B1832594748374N12002163WA0138001403
B1833004748373N12002168WA0138001403
B1833014748372N12002173WA0138001401
B1833024748370N12002177WA0138001400
B1833034748368N12002182WA0137901398
B1833044748366N12002187WA0137901397
B1833054748364N12002191WA0137801396
B1833064748362N12002196WA0137801395
B1833074748359N12002200WA0137701396
B1833084748358N12002204WA0137601396
B1833094748356N12002208WA0137601396
B1833104748354N12002212WA0137501395
B1833114748352N12002217WA0137501392
B1833124748351N12002224WA0137401389
B1833134748349N12002231WA0137301387
B1833144748348N12002238WA0137201386
B1833154748347N12002245WA0137101386
B1833164748346N12002251WA0137001387
B1833174748344N12002256WA0136901387
B1833184748342N12002261WA0136801386
B1833194748340N12002268WA0136801384
B1833204748339N12002275WA0136701383
B1833214748338N12002283WA0136601383
B1833224748337N12002290WA0136501383
B1833234748335N12002296WA0136401384
B1833244748334N12002302WA0136401384
B1833254748333N12002307WA0136301385
B1833264748332N12002313WA0136301384
B1833274748330N12002319WA0136201383
B1833284748329N12002326WA0136201382
B1833294748328N12002332WA0136101381
B1833304748327N12002338WA0136101380
B1833314748326N12002344WA0136001379
B1833324748324N12002350WA0136001378
B1833334748322N12002355WA0135901377
B1833344748319N12002361WA0135801376
B1833354748317N12002365WA0135801376
B1833354748317N12002365WA0135801376
B1833364748315N12002370WA0135701376
B1833374748313N12002374WA0135601375
B1833384748311N12002379WA0135601374
B1833394748309N12002384WA0135501373
B1833404748306N12002388WA0135401372
B1833414748304N12002393WA0135401372
B1833424748302N12002397WA0135301372
B1833434748300N12002400WA0135301373
B1833444748299N12002404WA0135201372
B1833454748297N12002409WA0135101370
B1833464748296N12002414WA0135101368
B1833474748293N12002420WA0135001365
B1833484748291N12002425WA0134901364
B1833494748290N12002431WA0134801364
B1833504748289N12002436WA0134701364
B1833514748288N12002441WA0134701365
B1833524748286N12002446WA0134601364
B1833534748284N12002453WA0134501362
B1833544748282N12002459WA0134401361
B1833554748280N12002465WA0134401362
B1833564748278N12002471WA0134301363
B1833574748278N12002476WA0134301364
B1833584748278N12002482WA0134201364
B1833594748278N12002488WA0134201362
B1834004748277N12002495WA0134101361
B1834014748276N12002502WA0134101359
B1834024748274N12002508WA0134001359
B1834034748273N12002514WA0134001359
B1834044748273N12002520WA0133901360
B1834054748272N12002526WA0133901359
B1834064748272N12002532WA0133801358
B1834074748270N12002538WA0133801356
B1834084748269N12002545WA0133701355
B1834094748268N12002552WA0133601354
B1834104748267N12002559WA0133601354
B1834114748266N12002566WA0133501355
B1834124748266N12002572WA0133501356
B1834134748265N12002578WA0133401358
B1834144748263N12002584WA0133401360
B1834154748261N12002589WA0133401363
B1834164748260N12002595WA0133501366
B1834174748259N12002600WA0133501369
B1834184748260N12002605WA0133601372
B1834194748262N12002610WA0133701375
B1834204748263N12002615WA0133901378
B1834214748263N12002621WA0134001381
B1834224748262N12002626WA0134201384
B1834234748258N12002628WA0134401387
B1834244748254N12002627WA0134601390
B1834254748249N12002621WA0134801393
B1834264748246N12002612WA0135001396
B1834274748245N12002602WA0135201400
B1834284748247N12002591WA0135501403
B1834294748252N12002582WA0135701407
B1834304748258N12002575WA0136001409
B1834314748265N12002572WA0136201411
B1834324748272N12002571WA0136501413
B1834334748278N12002574WA0136701416
B1834344748283N12002577WA0137001420
B1834354748286N12002583WA0137301423
B1834364748288N12002588WA0137601427
B1834374748290N12002593WA0137801430
B1834384748290N12002598WA0138101433
B1834384748290N12002598WA0138101433
B1834394748290N12002602WA0138401436
B1834404748288N12002605WA0138701439
B1834414748285N12002607WA0138901440
B1834424748281N12002608WA0139301441
B1834434748276N12002606WA0139501443
B1834444748271N12002602WA0139801444
B1834454748266N12002595WA0140001446
B1834464748263N12002586WA0140201448
B1834474748262N12002576WA0140401450
B1834484748263N12002564WA0140701452
B1834494748267N12002553WA0140901454
B1834504748272N12002543WA0141101455
B1834514748279N12002537WA0141301457
B1834524748287N12002535WA0141601460
B1834534748294N12002537WA0141701463
B1834544748300N12002540WA0142001467
B1834554748303N12002545WA0142201471
B1834564748305N12002550WA0142501475
B1834574748306N12002555WA0142701478
B1834584748305N12002559WA0143001480
B1834594748303N12002563WA0143301481
B1835004748299N12002565WA0143601483
B1835014748295N12002564WA0143801484
B1835024748290N12002559WA0144001486
B1835034748286N12002551WA0144201487
B1835044748284N12002540WA0144501489
B1835054748284N12002528WA0144601490
B1835064748286N12002516WA0144901492
B1835074748290N12002506WA0145001493
B1835084748296N12002498WA0145301494
B1835094748304N12002493WA0145401496
B1835104748311N12002492WA0145601499
B1835114748317N12002493WA0145801501
B1835124748323N12002495WA0146001505
B1835134748327N12002497WA0146201508
B1835144748331N12002499WA0146401512
B1835154748334N12002504WA0146601514
B1835164748336N12002510WA0146801514
B1835174748335N12002516WA0147001514
B1835184748333N12002521WA0147201515
B1835194748330N12002524WA0147401517
B1835204748326N12002525WA0147601520
B1835214748322N12002524WA0147801523
B1835224748318N12002521WA0148001526
B1835234748314N12002516WA0148201528
B1835244748310N12002510WA0148401531
B1835254748307N12002502WA0148601533
B1835264748305N12002493WA0148901535
B1835274748305N12002483WA0149001537
B1835284748307N12002472WA0149301538
B1835294748311N12002461WA0149501540
B1835304748316N12002452WA0149701541
B1835314748323N12002445WA0149801542
B1835324748331N12002442WA0150101544
B1835334748337N12002441WA0150201546
B1835344748343N12002441WA0150401548
B1835354748347N12002444WA0150601549
B1835364748351N12002448WA0150801550
B1835374748353N12002453WA0150901550
B1835384748354N12002458WA0151101550
B1835394748354N12002463WA0151201552
B1835404748354N12002467WA0151401555
B1835414748353N12002471WA0151501558
B1835414748353N12002471WA0151501558
B1835424748350N12002473WA0151701562
B1835434748347N12002474WA0151901564
B1835444748343N12002474WA0152101566
B1835454748338N12002470WA0152201568
B1835464748334N12002464WA0152501570
B1835474748330N12002455WA0152601570
B1835484748327N12002443WA0152801571
B1835494748325N12002431WA0152901573
B1835504748324N12002421WA0153101576
B1835514748324N12002410WA0153301580
B1835524748324N12002400WA0153501582
B1835534748326N12002388WA0153701583
B1835544748330N12002377WA0153901582
B1835554748336N12002368WA0154001582
B1835564748344N12002362WA0154201581
B1835574748351N12002360WA0154301582
B1835584748358N12002360WA0154501584
B1835594748363N12002363WA0154601586
B1836004748368N12002365WA0154801589
B1836014748372N12002368WA0154901591
B1836024748376N12002371WA0155001593
B1836034748379N12002376WA0155201594
B1836044748382N12002382WA0155301595
B1836054748382N12002388WA0155501596
B1836064748380N12002394WA0155601599
B1836074748377N12002397WA0155801602
B1836084748373N12002397WA0156001606
B1836094748368N12002394WA0156101610
B1836104748364N12002390WA0156401612
B1836114748360N12002384WA0156501615
B1836124748357N12002376WA0156801617
B1836134748354N12002367WA0157001618
B1836144748352N12002356WA0157201619
B1836154748351N12002344WA0157401620
B1836164748351N12002332WA0157601622
B1836174748351N12002320WA0157801624
B1836184748354N12002308WA0158001626
B1836194748358N12002298WA0158201627
B1836204748364N12002288WA0158401627
B1836214748371N12002282WA0158501627
B1836224748377N12002278WA0158701628
B1836234748383N12002277WA0158801630
B1836244748389N12002278WA0158901631
B1836254748394N12002279WA0159101633
B1836264748399N12002281WA0159201633
B1836274748403N12002285WA0159301634
B1836284748406N12002291WA0159501635
B1836294748409N12002297WA0159601637
B1836304748411N12002302WA0159701640
B1836314748413N12002307WA0159801642
B1836324748414N12002313WA0160001644
B1836334748415N12002319WA0160201646
B1836344748414N12002324WA0160301649
B1836354748412N12002328WA0160501652
B1836364748408N12002329WA0160701654
B1836374748403N12002326WA0160801654
B1836384748399N12002319WA0161001654
B1836394748396N12002309WA0161201655
B1836404748395N12002297WA0161401656
B1836414748396N12002285WA0161501657
B1836424748398N12002274WA0161601659
B1836434748401N12002264WA0161801661
B1836444748405N12002255WA0161901664
B1836444748405N12002255WA0161901664
B1836454748410N12002247WA0162101665
B1836464748417N12002243WA0162301665
B1836474748425N12002242WA0162401666
B1836484748432N12002242WA0162501667
B1836494748437N12002243WA0162601670
B1836504748442N12002245WA0162801674
B1836514748445N12002248WA0163001676
B1836524748447N12002253WA0163201677
B1836534748448N12002259WA0163301677
B1836544748447N12002265WA0163501677
B1836554748445N12002270WA0163601678
B1836564748441N12002271WA0163801680
B1836574748436N12002269WA0163901681
B1836584748432N12002264WA0164001681
B1836594748428N12002256WA0164101681
B1837004748425N12002247WA0164201682
B1837014748423N12002236WA0164301683
B1837024748423N12002225WA0164501683
B1837034748424N12002213WA0164501683
B1837044748427N12002201WA0164601683
B1837054748432N12002191WA0164701684
B1837064748437N12002183WA0164801686
B1837074748443N12002177WA0164901688
B1837084748449N12002172WA0165001689
B1837094748455N12002168WA0165101690
B1837104748462N12002165WA0165201690
B1837114748469N12002163WA0165301691
B1837124748476N12002162WA0165401693
B1837134748483N12002162WA0165501695
B1837144748489N12002162WA0165601697
B1837154748495N12002163WA0165701699
B1837164748501N12002166WA0165801702
B1837174748506N12002169WA0166001703
B1837184748510N12002174WA0166101705
B1837194748512N12002179WA0166201708
B1837204748513N12002183WA0166401711
B1837214748514N12002188WA0166601714
B1837224748515N12002192WA0166801717
B1837234748515N12002197WA0167001720
B1837244748513N12002202WA0167201723
B1837254748510N12002206WA0167401726
B1837264748507N12002207WA0167601729
B1837274748502N12002206WA0167801732
B1837284748498N12002201WA0168101734
B1837294748494N12002194WA0168301736
B1837304748492N12002184WA0168601737
B1837314748492N12002174WA0168701738
B1837324748494N12002164WA0169001739
B1837334748497N12002154WA0169201740
B1837344748502N12002145WA0169401739
B1837354748507N12002137WA0169501740
B1837364748513N12002128WA0169701742
B1837374748519N12002121WA0169801744
B1837384748525N12002113WA0170001746
B1837394748531N12002106WA0170101749
B1837404748537N12002099WA0170301751
B1837414748544N12002093WA0170501753
B1837424748551N12002087WA0170701755
B1837434748558N12002081WA0170801755
B1837444748565N12002076WA0171001757
B1837454748572N12002070WA0171101758
B1837464748580N12002066WA0171301760
B1837474748587N12002062WA0171401762
B1837474748587N12002062WA0171401762
B1837484748594N12002058WA0171601763
B1837494748603N12002056WA0171701765
B1837504748611N12002055WA0171901767
B1837514748619N12002057WA0172101769
B1837524748625N12002060WA0172301772
B1837534748631N12002066WA0172401775
B1837544748635N12002072WA0172601778
B1837554748638N12002078WA0172801782
B1837564748640N12002084WA0173101786
B1837574748641N12002089WA0173301789
B1837584748641N12002094WA0173501792
B1837594748641N12002100WA0173701793
B1838004748639N12002104WA0174001794
B1838014748636N12002108WA0174201796
B1838024748633N12002111WA0174501798
B1838034748631N12002113WA0174701802
B1838044748629N12002114WA0174901805
B1838054748627N12002115WA0175101807
B1838064748623N12002115WA0175401807
B1838074748619N12002113WA0175601807
B1838084748614N12002109WA0175801807
B1838094748609N12002103WA0176001809
B1838104748606N12002095WA0176201811
B1838114748605N12002087WA0176301813
B1838124748604N12002079WA0176601816
B1838134748604N12002070WA0176701816
B1838144748605N12002060WA0176901817
B1838154748607N12002050WA0177001816
B1838164748611N12002039WA0177201816
B1838174748616N12002030WA0177301817
B1838184748621N12002020WA0177501819
B1838194748626N12002011WA0177601821
B1838204748631N12002003WA0177701824
B1838214748636N12001995WA0177901825
B1838224748642N12001987WA0178001826
B1838234748650N12001981WA0178101827
B1838244748658N12001976WA0178301828
B1838254748666N12001972WA0178401829
B1838264748674N12001969WA0178601831
B1838274748681N12001967WA0178701832
B1838284748689N12001966WA0178801833
B1838294748697N12001968WA0178901834
B1838304748704N12001971WA0179101834
B1838314748711N12001976WA0179201835
B1838324748717N12001981WA0179301836
B1838334748723N12001986WA0179401838
B1838344748729N12001991WA0179501841
B1838354748734N12001995WA0179601843
B1838364748738N12002000WA0179801845
B1838374748741N12002006WA0179901846
B1838384748743N12002013WA0180101847
B1838394748746N12002020WA0180201848
B1838404748749N12002027WA0180301849
B1838414748753N12002034WA0180401852
B1838424748756N12002041WA0180601854
B1838434748758N12002047WA0180801858
B1838444748760N12002053WA0181001860
B1838454748762N12002060WA0181101863
B1838464748764N12002067WA0181301865
B1838474748767N12002074WA0181501867
B1838484748769N12002081WA0181701870
B1838494748770N12002086WA0181901872
B1838504748768N12002090WA0182101873
B1838504748768N12002090WA0182101873
B1838514748765N12002090WA0182301874
B1838524748761N12002087WA0182501874
B1838534748758N12002082WA0182601875
B1838544748757N12002078WA0182801876
B1838554748756N12002073WA0183001876
B1838564748754N12002066WA0183101875
B1838574748752N12002058WA0183201874
B1838584748751N12002048WA0183301872
B1838594748750N12002037WA0183401872
B1839004748750N12002025WA0183401872
B1839014748750N12002014WA0183501873
B1839024748750N12002003WA0183601875
B1839034748751N12001991WA0183601876
B1839044748753N12001979WA0183701876
B1839054748756N12001966WA0183701876
B1839064748759N12001954WA0183801876
B1839074748763N12001943WA0183801878
B1839084748767N12001932WA0183901879
B1839094748773N12001922WA0183901880
B1839104748780N12001914WA0184001882
B1839114748788N12001908WA0184101886
B1839124748795N12001904WA0184201890
B1839134748802N12001903WA0184301892
B1839144748809N12001902WA0184501894
B1839154748816N12001904WA0184601896
B1839164748823N12001907WA0184801896
B1839174748829N12001913WA0184901896
B1839184748834N12001918WA0185001897
B1839194748838N12001924WA0185101898
B1839204748842N12001930WA0185301899
B1839214748845N12001937WA0185401899
B1839224748846N12001944WA0185501900
B1839234748847N12001950WA0185601902
B1839244748848N12001956WA0185701904
B1839254748849N12001960WA0185801907
B1839264748848N12001964WA0186001908
B1839274748847N12001966WA0186101908
B1839284748846N12001967WA0186201907
B1839294748844N12001968WA0186301906
B1839304748842N12001969WA0186401906
B1839314748840N12001970WA0186401907
B1839324748837N12001969WA0186501908
B1839334748834N12001967WA0186601910
B1839344748832N12001963WA0186701911
B1839354748830N12001957WA0186801912
B1839364748828N12001951WA0186901911
B1839374748827N12001944WA0186901910
B1839384748826N12001935WA0187001909
B1839394748826N12001925WA0187001907
B1839404748827N12001915WA0187001905
B1839414748827N12001903WA0187001903
B1839424748827N12001891WA0187001902
B1839434748828N12001879WA0187001902
B1839444748828N12001868WA0187001903
B1839454748829N12001857WA0186901904
B1839464748831N12001846WA0186901905
B1839474748833N12001836WA0186901904
B1839484748837N12001825WA0186901904
B1839494748842N12001815WA0186901902
B1839504748848N12001805WA0186901900
B1839514748856N12001795WA0186801898
B1839524748863N12001784WA0186801897
B1839534748869N12001774WA0186701897
B1839534748869N12001774WA0186701897
B1839544748875N12001763WA0186701898
B1839554748882N12001754WA0186601900
B1839564748888N12001745WA0186601902
B1839574748896N12001737WA0186601904
B1839584748904N12001729WA0186601905
B1839594748912N12001723WA0186601908
B1840004748920N12001721WA0186701910
B1840014748927N12001722WA0186701911
B1840024748932N12001725WA0186801911
B1840034748936N12001729WA0186901911
B1840044748940N12001733WA0187001911
B1840054748943N12001739WA0187001911
B1840064748944N12001744WA0187101911
B1840074748945N12001751WA0187101910
B1840084748944N12001756WA0187201911
B1840094748942N12001758WA0187201913
B1840104748940N12001758WA0187301916
B1840114748938N12001755WA0187401917
B1840124748936N12001750WA0187501918
B1840134748934N12001744WA0187501919
B1840144748933N12001736WA0187601920
B1840154748933N12001727WA0187701921
B1840164748934N12001717WA0187801921
B1840174748936N12001705WA0187901921
B1840184748939N12001693WA0188001921
B1840194748943N12001682WA0188001922
B1840204748947N12001671WA0188101924
B1840214748950N12001661WA0188201927
B1840224748952N12001651WA0188301930
B1840234748954N12001641WA0188401931
B1840244748956N12001631WA0188501933
B1840254748959N12001621WA0188601934
B1840264748964N12001612WA0188701934
B1840274748970N12001604WA0188801934
B1840284748979N12001601WA0188901934
B1840294748987N12001600WA0189001934
B1840304748993N12001601WA0189101935
B1840314748999N12001603WA0189201937
B1840324749003N12001607WA0189301937
B1840334749005N12001612WA0189401937
B1840344749006N12001618WA0189501936
B1840354749006N12001624WA0189501936
B1840364749004N12001627WA0189601936
B1840374749001N12001629WA0189601937
B1840384748998N12001628WA0189701938
B1840394748995N12001625WA0189701939
B1840404748992N12001620WA0189801939
B1840414748989N12001615WA0189901939
B1840424748986N12001609WA0189901939
B1840434748984N12001603WA0190001939
B1840444748982N12001597WA0190001941
B1840454748981N12001589WA0190101942
B1840464748980N12001581WA0190101944
B1840474748979N12001573WA0190201945
B1840484748979N12001564WA0190301945
B1840494748979N12001556WA0190301945
B1840504748979N12001547WA0190401944
B1840514748979N12001537WA0190401942
B1840524748979N12001526WA0190501940
B1840534748980N12001514WA0190501939
B1840544748982N12001501WA0190401939
B1840554748984N12001489WA0190401940
B1840564748986N12001477WA0190401941
B1840564748986N12001477WA0190401941
B1840574748989N12001466WA0190401942
B1840584748992N12001455WA0190501942
B1840594748995N12001443WA0190501943
B1841004748998N12001431WA0190501944
B1841014749001N12001420WA0190501944
B1841024749004N12001408WA0190501946
B1841034749008N12001397WA0190601947
B1841044749012N12001387WA0190601948
B1841054749018N12001377WA0190701950
B1841064749024N12001370WA0190701953
B1841074749031N12001364WA0190801955
B1841084749039N12001359WA0190901957
B1841094749047N12001354WA0191001959
B1841104749055N12001350WA0191201962
B1841114749062N12001346WA0191301965
B1841124749069N12001345WA0191501969
B1841134749076N12001347WA0191601972
B1841144749081N12001351WA0191901974
B1841154749085N12001356WA0192001975
B1841164749088N12001361WA0192201978
B1841174749090N12001366WA0192401980
B1841184749091N12001371WA0192601983
B1841194749091N12001374WA0192801986
B1841204749091N12001376WA0193101989
B1841214749089N12001376WA0193201991
B1841224749087N12001373WA0193501992
B1841234749085N12001368WA0193701991
B1841244749084N12001361WA0193901991
B1841254749083N12001351WA0194001991
B1841264749084N12001340WA0194201992
B1841274749085N12001329WA0194301993
B1841284749086N12001319WA0194501995
B1841294749087N12001308WA0194601998
B1841304749089N12001298WA0194802001
B1841314749093N12001287WA0194902002
B1841324749099N12001277WA0195102003
B1841334749107N12001268WA0195202003
B1841344749115N12001260WA0195402004
B1841354749123N12001254WA0195502006
B1841364749132N12001250WA0195702010
B1841374749139N12001247WA0195802013
B1841384749145N12001247WA0196002015
B1841394749151N12001249WA0196202015
B1841404749156N12001253WA0196302014
B1841414749160N12001258WA0196502013
B1841424749163N12001264WA0196602014
B1841434749164N12001268WA0196702014
B1841444749164N12001273WA0196802015
B1841454749165N12001277WA0196902016
B1841464749165N12001280WA0197002017
B1841474749164N12001284WA0197102018
B1841484749163N12001287WA0197202018
B1841494749162N12001289WA0197302019
B1841504749159N12001288WA0197402019
B1841514749156N12001285WA0197402018
B1841524749153N12001278WA0197502017
B1841534749151N12001271WA0197502018
B1841544749150N12001264WA0197602019
B1841554749149N12001257WA0197602019
B1841564749148N12001249WA0197702018
B1841574749148N12001239WA0197702016
B1841584749147N12001228WA0197702013
B1841594749146N12001217WA0197702012
B1842004749146N12001206WA0197702012
B1842004749146N12001206WA0197702012
B1842014749146N12001196WA0197702012
B1842024749148N12001185WA0197702013
B1842034749152N12001173WA0197602011
B1842044749158N12001161WA0197602009
B1842054749166N12001150WA0197602008
B1842064749175N12001142WA0197502007
B1842074749184N12001137WA0197502008
B1842084749193N12001135WA0197402009
B1842094749201N12001135WA0197402010
B1842104749208N12001136WA0197402012
B1842114749214N12001139WA0197402012
B1842124749219N12001143WA0197402012
B1842134749224N12001148WA0197402011
B1842144749228N12001153WA0197402012
B1842154749230N12001158WA0197402012
B1842164749232N12001163WA0197402011
B1842174749232N12001167WA0197402011
B1842184749232N12001172WA0197402011
B1842194749231N12001176WA0197402011
B1842204749229N12001181WA0197402010
B1842214749228N12001185WA0197402011
B1842224749227N12001188WA0197402011
B1842234749225N12001190WA0197402011
B1842244749224N12001192WA0197402011
B1842254749221N12001194WA0197402010
B1842264749218N12001196WA0197402009
B1842274749215N12001198WA0197402009
B1842284749212N12001199WA0197302009
B1842294749209N12001200WA0197302010
B1842304749206N12001200WA0197302011
B1842314749203N12001201WA0197302011
B1842324749201N12001202WA0197302011
B1842334749198N12001204WA0197302011
B1842344749196N12001206WA0197302012
B1842354749193N12001207WA0197302012
B1842364749190N12001208WA0197302013
B1842374749187N12001210WA0197302014
B1842384749184N12001211WA0197302014
B1842394749181N12001214WA0197302014
B1842404749178N12001217WA0197402014
B1842414749175N12001221WA0197402015
B1842424749172N12001225WA0197402017
B1842434749169N12001229WA0197502018
B1842444749167N12001232WA0197502019
B1842454749164N12001235WA0197502019
B1842464749162N12001239WA0197602019
B1842474749158N12001244WA0197602019
B1842484749156N12001250WA0197702019
B1842494749153N12001255WA0197702021
B1842504749151N12001260WA0197802024
B1842514749149N12001265WA0197902026
B1842524749147N12001269WA0198002029
B1842534749144N12001271WA0198102030
B1842544749140N12001272WA0198202032
B1842554749136N12001270WA0198302033
B1842564749131N12001265WA0198402033
B1842574749128N12001257WA0198502034
B1842584749125N12001248WA0198602035
B1842594749124N12001238WA0198702037
B1843004749124N12001228WA0198802039
B1843014749124N12001219WA0199002042
B1843024749125N12001210WA0199102045
B1843034749127N12001199WA0199302046
B1843034749127N12001199WA0199302046
B1843044749132N12001188WA0199402046
B1843054749138N12001180WA0199502046
B1843064749145N12001174WA0199702047
B1843074749152N12001172WA0199802049
B1843084749158N12001172WA0200002051
B1843094749163N12001172WA0200102054
B1843104749169N12001174WA0200302055
B1843114749175N12001176WA0200402056
B1843124749181N12001179WA0200502057
B1843134749187N12001181WA0200702059
B1843144749194N12001183WA0200802060
B1843154749200N12001185WA0200902061
B1843164749206N12001188WA0201102062
B1843174749212N12001191WA0201202062
B1843184749218N12001195WA0201302064
B1843194749223N12001198WA0201402066
B1843204749229N12001201WA0201602068
B1843214749235N12001203WA0201702070
B1843224749241N12001205WA0201802072
B1843234749246N12001209WA0202002073
B1843244749250N12001213WA0202102076
B1843254749252N12001219WA0202202077
B1843264749252N12001224WA0202402078
B1843274749251N12001228WA0202502079
B1843284749250N12001229WA0202702081
B1843294749248N12001230WA0202802083
B1843304749246N12001229WA0203002083
B1843314749244N12001227WA0203102082
B1843324749242N12001227WA0203302080
B1843334749239N12001227WA0203302077
B1843344749236N12001227WA0203402075
B1843354749232N12001226WA0203402074
B1843364749229N12001224WA0203402073
B1843374749226N12001221WA0203402073
B1843384749224N12001218WA0203402072
B1843394749220N12001216WA0203402071
B1843404749216N12001215WA0203402070
B1843414749212N12001216WA0203402068
B1843424749206N12001217WA0203302067
B1843434749200N12001217WA0203302068
B1843444749196N12001216WA0203202071
B1843454749192N12001214WA0203202074
B1843464749188N12001212WA0203302076
B1843474749184N12001210WA0203302077
B1843484749181N12001208WA0203302078
B1843494749177N12001206WA0203402077
B1843504749172N12001203WA0203402078
B1843514749168N12001199WA0203502078
B1843524749164N12001194WA0203502078
B1843534749161N12001188WA0203602079
B1843544749159N12001180WA0203602079
B1843554749158N12001170WA0203702079
B1843564749159N12001160WA0203702078
B1843574749161N12001149WA0203702077
B1843584749166N12001139WA0203702075
B1843594749173N12001132WA0203702074
B1844004749180N12001129WA0203702075
B1844014749187N12001128WA0203702076
B1844024749194N12001131WA0203702077
B1844034749200N12001134WA0203702078
B1844044749205N12001139WA0203802079
B1844054749209N12001145WA0203802080
B1844064749211N12001151WA0203802081
B1844064749211N12001151WA0203802081
B1844074749211N12001157WA0203902082
B1844084749210N12001163WA0203902081
B1844094749207N12001168WA0203902082
B1844104749203N12001171WA0204002083
B1844114749199N12001172WA0204002083
B1844124749195N12001172WA0204102084
B1844134749191N12001170WA0204102084
B1844144749188N12001166WA0204202084
B1844154749184N12001161WA0204202084
B1844164749181N12001155WA0204202084
B1844174749179N12001147WA0204302083
B1844184749178N12001138WA0204302083
B1844194749178N12001128WA0204302082
B1844204749180N12001118WA0204302082
B1844214749182N12001108WA0204302082
B1844224749184N12001098WA0204302082
B1844234749189N12001089WA0204302082
B1844244749194N12001081WA0204302082
B1844254749199N12001074WA0204302080
B1844264749206N12001067WA0204302079
B1844274749212N12001059WA0204302079
B1844284749218N12001053WA0204302079
B1844294749225N12001049WA0204302081
B1844304749231N12001048WA0204302082
B1844314749237N12001048WA0204302082
B1844324749243N12001049WA0204302082
B1844334749248N12001051WA0204302082
B1844344749254N12001055WA0204302083
B1844354749258N12001059WA0204302084
B1844364749262N12001065WA0204302084
B1844374749264N12001072WA0204402085
B1844384749265N12001078WA0204402085
B1844394749264N12001083WA0204402085
B1844404749263N12001088WA0204402085
B1844414749259N12001092WA0204402084
B1844424749255N12001094WA0204402083
B1844434749252N12001096WA0204402084
B1844444749250N12001099WA0204502086
B1844454749249N12001100WA0204502088
B1844464749247N12001103WA0204602089
B1844474749245N12001105WA0204602088
B1844484749241N12001107WA0204602086
B1844494749237N12001107WA0204602084
B1844504749233N12001106WA0204602084
B1844514749229N12001105WA0204602084
B1844524749225N12001104WA0204602085
B1844534749222N12001103WA0204602086
B1844544749218N12001102WA0204602085
B1844554749214N12001101WA0204602085
B1844564749210N12001099WA0204602084
B1844574749207N12001095WA0204602084
B1844584749203N12001090WA0204602083
B1844594749200N12001083WA0204602082
B1845004749197N12001075WA0204602081
B1845014749195N12001067WA0204602081
B1845024749193N12001059WA0204502081
B1845034749191N12001051WA0204502082
B1845044749189N12001044WA0204502081
B1845054749186N12001037WA0204502080
B1845064749184N12001030WA0204402078
B1845074749180N12001024WA0204402077
B1845084749177N12001018WA0204302075
B1845094749173N12001013WA0204302074
B1845094749173N12001013WA0204302074
B1845104749168N12001008WA0204202073
B1845114749164N12001003WA0204202072
B1845124749160N12000997WA0204102071
B1845134749156N12000991WA0204002070
B1845144749152N12000985WA0203902069
B1845154749147N12000980WA0203802068
B1845164749143N12000976WA0203702067
B1845174749138N12000971WA0203702066
B1845184749134N12000965WA0203602065
B1845194749130N12000960WA0203502065
B1845204749125N12000955WA0203402064
B1845214749121N12000950WA0203302063
B1845224749117N12000946WA0203202062
B1845234749112N12000942WA0203202061
B1845244749108N12000938WA0203102061
B1845254749103N12000933WA0203002060
B1845264749099N12000928WA0202902059
B1845274749095N12000923WA0202802058
B1845284749090N12000918WA0202702057
B1845294749086N12000913WA0202702056
B1845304749081N12000909WA0202602056
B1845314749077N12000905WA0202502056
B1845324749072N12000901WA0202402055
B1845334749068N12000897WA0202402055
B1845344749063N12000893WA0202302054
B1845354749059N12000889WA0202202053
B1845364749054N12000885WA0202102053
B1845374749049N12000881WA0202102052
B1845384749044N12000876WA0202002051
B1845394749038N12000871WA0201902050
B1845404749033N12000866WA0201802050
B1845414749029N12000860WA0201802050
B1845424749024N12000856WA0201702050
B1845434749020N12000851WA0201702049
B1845444749015N12000847WA0201602048
B1845454749011N12000842WA0201502046
B1845464749006N12000836WA0201402044
B1845474749001N12000830WA0201402042
B1845484748996N12000823WA0201302041
B1845494748991N12000816WA0201202040
B1845504748987N12000808WA0201102040
B1845514748983N12000800WA0201002040
B1845524748979N12000792WA0200902040
B1845534748975N12000784WA0200902040
B1845544748972N12000776WA0200802040
B1845554748968N12000769WA0200702039
B1845564748964N12000760WA0200702038
B1845574748961N12000752WA0200602037
B1845584748958N12000743WA0200502037
B1845594748955N12000735WA0200502037
B1846004748952N12000728WA0200402038
B1846014748949N12000722WA0200402038
B1846024748946N12000715WA0200402036
B1846034748943N12000707WA0200302034
B1846044748939N12000697WA0200302032
B1846054748936N12000689WA0200202030
B1846064748932N12000681WA0200102030
B1846074748928N12000674WA0200102030
B1846084748925N12000667WA0200002030
B1846094748923N12000659WA0199902030
B1846104748921N12000651WA0199902029
B1846114748918N12000641WA0199802027
B1846124748915N12000633WA0199702025
B1846124748915N12000633WA0199702025
B1846134748912N12000624WA0199602023
B1846144748910N12000616WA0199502022
B1846154748907N12000606WA0199502021
B1846164748905N12000595WA0199302019
B1846174748903N12000585WA0199202017
B1846184748900N12000576WA0199102016
B1846194748898N12000568WA0199002016
B1846204748895N12000560WA0198902015
B1846214748893N12000551WA0198802015
B1846224748891N12000541WA0198702014
B1846234748890N12000532WA0198602014
B1846244748888N12000523WA0198502013
B1846254748886N12000514WA0198402011
B1846264748884N12000504WA0198302009
B1846274748883N12000494WA0198302007
B1846284748880N12000484WA0198102005
B1846294748878N12000475WA0198002003
B1846304748875N12000467WA0197902001
B1846314748872N12000458WA0197802000
B1846324748870N12000449WA0197601999
B1846334748868N12000439WA0197501998
B1846344748867N12000429WA0197301997
B1846354748865N12000420WA0197201995
B1846364748863N12000412WA0197101994
B1846374748860N12000403WA0197001992
B1846384748858N12000395WA0196801991
B1846394748856N12000386WA0196701990
B1846404748855N12000376WA0196601989
B1846414748854N12000367WA0196501988
B1846424748852N12000359WA0196301987
B1846434748849N12000351WA0196201985
B1846444748846N12000343WA0196101983
B1846454748844N12000334WA0196001981
B1846464748841N12000326WA0195801980
B1846474748839N12000318WA0195701979
B1846484748836N12000311WA0195501978
B1846494748833N12000304WA0195401976
B1846504748830N12000297WA0195301973
B1846514748826N12000288WA0195101971
B1846524748824N12000280WA0195001970
B1846534748821N12000271WA0194801970
B1846544748819N12000264WA0194701970
B1846554748817N12000256WA0194601970
B1846564748815N12000248WA0194401968
B1846574748813N12000239WA0194301967
B1846584748811N12000230WA0194201965
B1846594748809N12000220WA0194101964
B1847004748807N12000212WA0193901963
B1847014748805N12000204WA0193801963
B1847024748803N12000196WA0193701962
B1847034748802N12000187WA0193601961
B1847044748800N12000178WA0193501959
B1847054748798N12000168WA0193401958
B1847064748796N12000159WA0193201957
B1847074748794N12000151WA0193101956
B1847084748792N12000143WA0193001956
B1847094748791N12000134WA0192901955
B1847104748789N12000125WA0192801954
B1847114748788N12000116WA0192701953
B1847124748785N12000107WA0192601951
B1847134748783N12000098WA0192501949
B1847144748780N12000090WA0192401948
B1847154748778N12000081WA0192301948
B1847164748776N12000072WA0192201948
B1847164748776N12000072WA0192201948
B1847174748774N12000063WA0192101948
B1847184748772N12000055WA0192001947
B1847194748770N12000047WA0191901946
B1847204748767N12000039WA0191801945
B1847214748764N12000030WA0191801944
B1847224748762N12000021WA0191701943
B1847234748759N12000012WA0191601943
B1847244748757N12000003WA0191501942
B1847254748755N11959995WA0191401941
B1847264748753N11959987WA0191301940
B1847274748750N11959979WA0191301939
B1847284748747N11959970WA0191201937
B1847294748745N11959961WA0191101936
B1847304748743N11959952WA0191001935
B1847314748741N11959944WA0190901935
B1847324748738N11959935WA0190801934
B1847334748736N11959926WA0190701933
B1847344748734N11959917WA0190601932
B1847354748733N11959908WA0190501932
B1847364748731N11959898WA0190401931
B1847374748729N11959889WA0190401930
B1847384748727N11959880WA0190201929
B1847394748726N11959871WA0190201929
B1847404748724N11959861WA0190101929
B1847414748722N11959852WA0190001929
B1847424748721N11959843WA0190001929
B1847434748719N11959834WA0189901929
B1847444748716N11959825WA0189801929
B1847454748714N11959816WA0189801928
B1847464748711N11959807WA0189701928
B1847474748709N11959798WA0189701927
B1847484748706N11959789WA0189601927
B1847494748703N11959780WA0189601926
B1847504748700N11959771WA0189601925
B1847514748697N11959763WA0189501925
B1847524748694N11959753WA0189401924
B1847534748692N11959744WA0189401923
B1847544748689N11959734WA0189301922
B1847554748687N11959725WA0189301922
B1847564748684N11959716WA0189201920
B1847574748681N11959707WA0189101919
B1847584748679N11959698WA0189101918
B1847594748677N11959688WA0189001917
B1848004748675N11959678WA0188901915
B1848014748674N11959669WA0188801913
B1848024748671N11959659WA0188701911
B1848034748669N11959649WA0188601909
B1848044748668N11959640WA0188501908
B1848054748666N11959629WA0188401907
B1848064748665N11959619WA0188201906
B1848074748664N11959609WA0188101905
B1848084748662N11959599WA0188001905
B1848094748661N11959590WA0187901904
B1848104748659N11959580WA0187801903
B1848114748657N11959570WA0187701902
B1848124748656N11959559WA0187601900
B1848134748654N11959549WA0187501900
B1848144748653N11959539WA0187401900
B1848154748651N11959530WA0187301899
B1848164748649N11959522WA0187201899
B1848174748647N11959513WA0187101898
B1848184748645N11959503WA0187001897
B1848194748643N11959494WA0187001896
B1848204748641N11959485WA0186901896
B1848204748641N11959485WA0186901896
B1848214748638N11959477WA0186801895
B1848224748636N11959469WA0186701895
B1848234748633N11959461WA0186701895
B1848244748631N11959454WA0186601894
B1848254748629N11959446WA0186501893
B1848264748626N11959439WA0186501892
B1848274748624N11959431WA0186401890
B1848284748621N11959424WA0186301888
B1848294748617N11959417WA0186201885
B1848304748614N11959409WA0186101883
B1848314748611N11959402WA0186001881
B1848324748609N11959395WA0185801879
B1848334748606N11959387WA0185701876
B1848344748603N11959378WA0185601874
B1848354748600N11959369WA0185401871
B1848364748596N11959360WA0185201869
B1848374748593N11959351WA0185101869
B1848384748591N11959342WA0184901869
B1848394748590N11959332WA0184801870
B1848404748589N11959323WA0184601869
B1848414748588N11959313WA0184501868
B1848424748586N11959302WA0184401866
B1848434748584N11959292WA0184301864
B1848444748582N11959283WA0184101863
B1848454748580N11959274WA0184001863
B1848464748578N11959265WA0183901862
B1848474748576N11959257WA0183801861
B1848484748574N11959249WA0183701860
B1848494748571N11959240WA0183601858
B1848504748568N11959232WA0183401857
B1848514748566N11959224WA0183401856
B1848524748563N11959216WA0183201855
B1848534748559N11959209WA0183101853
B1848544748555N11959200WA0183001850
B1848554748551N11959190WA0182901848
B1848564748548N11959180WA0182701846
B1848574748544N11959170WA0182601845
B1848584748541N11959161WA0182401845
B1848594748538N11959151WA0182301845
B1849004748535N11959142WA0182201845
B1849014748533N11959132WA0182101845
B1849024748530N11959123WA0182001844
B1849034748527N11959114WA0181901843
B1849044748524N11959105WA0181801842
B1849054748521N11959096WA0181701840
B1849064748519N11959086WA0181601839
B1849074748516N11959076WA0181501839
B1849084748513N11959068WA0181401838
B1849094748510N11959060WA0181301838
B1849104748507N11959052WA0181201837
B1849114748504N11959044WA0181201835
B1849124748500N11959036WA0181001833
B1849134748497N11959028WA0181001832
B1849144748493N11959019WA0180801831
B1849154748490N11959011WA0180801830
B1849164748487N11959003WA0180601829
B1849174748483N11958995WA0180501828
B1849184748480N11958987WA0180401827
B1849194748476N11958978WA0180301825
B1849204748473N11958969WA0180201824
B1849214748470N11958960WA0180101822
B1849224748466N11958952WA0180001822
B1849234748463N11958943WA0179901820
B1849234748463N11958943WA0179901820
B1849244748460N11958934WA0179701819
B1849254748456N11958925WA0179601818
B1849264748453N11958915WA0179501816
B1849274748451N11958905WA0179401815
B1849284748448N11958895WA0179301813
B1849294748444N11958885WA0179201811
B1849304748441N11958875WA0179001809
B1849314748437N11958865WA0178901806
B1849324748433N11958854WA0178701804
B1849334748430N11958844WA0178601802
B1849344748427N11958833WA0178401800
B1849354748424N11958822WA0178201799
B1849364748422N11958812WA0178001797
B1849374748419N11958802WA0177901795
B1849384748416N11958791WA0177701793
B1849394748412N11958780WA0177601790
B1849404748409N11958769WA0177401787
B1849414748406N11958758WA0177201785
B1849424748403N11958747WA0177001783
B1849434748400N11958736WA0176801782
B1849444748397N11958726WA0176601782
B1849454748395N11958716WA0176501781
B1849464748393N11958705WA0176301779
B1849474748390N11958694WA0176101776
B1849484748388N11958682WA0175901773
B1849494748385N11958670WA0175801770
B1849504748383N11958658WA0175501768
B1849514748380N11958646WA0175401766
B1849524748378N11958634WA0175201765
B1849534748376N11958623WA0175001764
B1849544748374N11958612WA0174801763
B1849554748372N11958601WA0174701761
B1849564748369N11958590WA0174401759
B1849574748366N11958579WA0174301756
B1849584748362N11958569WA0174101754
B1849594748359N11958559WA0173901751
B1850004748355N11958549WA0173701749
B1850014748352N11958540WA0173501748
B1850024748349N11958530WA0173301746
B1850034748346N11958522WA0173101744
B1850044748342N11958513WA0172901741
B1850054748339N11958504WA0172801738
B1850064748336N11958494WA0172501735
B1850074748332N11958483WA0172301731
B1850084748328N11958471WA0172001726
B1850094748324N11958460WA0171801721
B1850104748318N11958448WA0171501716
B1850114748313N11958438WA0171201711
B1850124748308N11958427WA0170801708
B1850134748303N11958416WA0170601705
B1850144748298N11958406WA0170201703
B1850154748293N11958396WA0169901700
B1850164748288N11958387WA0169501696
B1850174748283N11958377WA0169301693
B1850184748277N11958367WA0168901689
B1850194748273N11958358WA0168601686
B1850204748269N11958349WA0168301685
B1850214748265N11958341WA0168001684
B1850224748261N11958334WA0167701683
B1850234748258N11958328WA0167501681
B1850244748254N11958320WA0167201678
B1850254748249N11958312WA0167001673
B1850264748244N11958302WA0166601667
B1850274748239N11958291WA0166401662
B1850274748239N11958291WA0166401662
B1850284748233N11958281WA0166001658
B1850294748227N11958273WA0165701655
B1850304748221N11958265WA0165301653
B1850314748216N11958257WA0165101652
B1850324748212N11958248WA0164701651
B1850334748208N11958239WA0164501649
B1850344748204N11958229WA0164101647
B1850354748200N11958219WA0163901645
B1850364748195N11958210WA0163601642
B1850374748190N11958201WA0163401639
B1850384748186N11958191WA0163101636
B1850394748181N11958181WA0162801633
B1850404748177N11958171WA0162501630
B1850414748172N11958161WA0162301627
B1850424748167N11958152WA0162001625
B1850434748162N11958143WA0161801623
B1850444748158N11958133WA0161501621
B1850454748154N11958124WA0161301620
B1850464748150N11958115WA0161001619
B1850474748146N11958106WA0160801618
B1850484748142N11958097WA0160601616
B1850494748138N11958087WA0160401614
B1850504748135N11958076WA0160201612
B1850514748132N11958065WA0160001609
B1850524748129N11958053WA0159701605
B1850534748125N11958042WA0159501602
B1850544748121N11958031WA0159301600
B1850554748118N11958019WA0159101597
B1850564748115N11958008WA0158801595
B1850574748112N11957996WA0158601592
B1850584748109N11957984WA0158301589
B1850594748106N11957974WA0158101586
B1851004748102N11957963WA0157801583
B1851014748099N11957952WA0157601580
B1851024748096N11957941WA0157301576
B1851034748093N11957929WA0157101572
B1851044748090N11957916WA0156701569
B1851054748086N11957905WA0156501566
B1851064748083N11957893WA0156201563
B1851074748079N11957882WA0155901561
B1851084748076N11957871WA0155601558
B1851094748073N11957859WA0155401556
B1851104748070N11957848WA0155001554
B1851114748067N11957836WA0154801551
B1851124748064N11957825WA0154501548
B1851134748061N11957813WA0154301546
B1851144748057N11957801WA0154001543
B1851154748054N11957788WA0153801541
B1851164748052N11957775WA0153501539
B1851174748049N11957763WA0153301537
B1851184748046N11957751WA0153001535
B1851194748043N11957740WA0152801533
B1851204748041N11957728WA0152501532
B1851214748039N11957717WA0152301530
B1851224748036N11957705WA0152101528
B1851234748034N11957694WA0151901527
B1851244748031N11957683WA0151601524
B1851254748027N11957672WA0151501522
B1851264748024N11957661WA0151201520
B1851274748020N11957650WA0151101518
B1851284748017N11957639WA0150801516
B1851294748014N11957628WA0150701515
B1851304748011N11957617WA0150401514
B1851304748011N11957617WA0150401514
B1851314748009N11957608WA0150301515
B1851324748006N11957599WA0150101515
B1851334748004N11957591WA0150001514
B1851344748001N11957583WA0149801512
B1851354747999N11957575WA0149701510
B1851364747996N11957565WA0149601507
B1851374747993N11957556WA0149401504
B1851384747989N11957547WA0149201502
B1851394747986N11957539WA0149101501
B1851404747982N11957532WA0148901501
B1851414747979N11957523WA0148801499
B1851424747975N11957514WA0148601496
B1851434747971N11957505WA0148501492
B1851444747966N11957496WA0148201489
B1851454747960N11957487WA0148101486
B1851464747955N11957479WA0147801485
B1851474747951N11957472WA0147701484
B1851484747946N11957466WA0147401483
B1851494747941N11957459WA0147301482
B1851504747937N11957452WA0147101481
B1851514747932N11957444WA0146901478
B1851524747927N11957437WA0146701476
B1851534747921N11957430WA0146601474
B1851544747916N11957424WA0146301473
B1851554747910N11957419WA0146201472
B1851564747905N11957414WA0146001470
B1851574747899N11957409WA0145801469
B1851584747894N11957404WA0145701467
B1851594747889N11957399WA0145501465
B1852004747884N11957395WA0145401465
B1852014747880N11957393WA0145301465
B1852024747876N11957391WA0145101465
B1852034747873N11957388WA0145001465
B1852044747869N11957384WA0144901464
B1852054747867N11957379WA0144801463
B1852064747865N11957372WA0144701462
B1852074747864N11957365WA0144601462
B1852084747864N11957357WA0144501461
B1852094747864N11957349WA0144501461
B1852104747863N11957342WA0144401459
B1852114747861N11957334WA0144301457
B1852124747858N11957326WA0144101453
B1852134747854N11957317WA0144001449
B1852144747851N11957308WA0143901446
B1852154747848N11957300WA0143701445
B1852164747845N11957293WA0143501445
B1852174747841N11957288WA0143401444
B1852184747838N11957282WA0143201443
B1852194747834N11957276WA0143101442
B1852204747830N11957270WA0142901440
B1852214747826N11957263WA0142801437
B1852224747822N11957257WA0142601435
B1852234747818N11957250WA0142501434
B1852244747814N11957244WA0142301433
B1852254747811N11957237WA0142201432
B1852264747807N11957230WA0142001430
B1852274747804N11957221WA0141901428
B1852284747801N11957211WA0141701426
B1852294747799N11957202WA0141601424
B1852304747796N11957193WA0141401424
B1852314747794N11957184WA0141301423
B1852324747791N11957175WA0141101422
B1852334747789N11957166WA0141001421
B1852344747786N11957158WA0140901420
B1852344747786N11957158WA0140901420
B1852354747784N11957149WA0140801419
B1852364747782N11957141WA0140601418
B1852374747781N11957132WA0140501418
B1852384747779N11957124WA0140401417
B1852394747778N11957115WA0140301416
B1852404747776N11957106WA0140201414
B1852414747774N11957097WA0140101413
B1852424747772N11957088WA0140001412
B1852434747771N11957078WA0139901410
B1852444747769N11957067WA0139701408
B1852454747768N11957055WA0139601406
B1852464747767N11957043WA0139501404
B1852474747765N11957031WA0139301402
B1852484747764N11957020WA0139201402
B1852494747763N11957010WA0139101402
B1852504747762N11957000WA0138901401
B1852514747761N11956990WA0138801399
B1852524747760N11956979WA0138701396
B1852534747758N11956968WA0138601392
B1852544747756N11956956WA0138401389
B1852554747753N11956945WA0138201386
B1852564747750N11956934WA0138001384
B1852574747748N11956921WA0137901383
B1852584747748N11956908WA0137601382
B1852594747748N11956896WA0137501383
B1853004747749N11956885WA0137301384
B1853014747749N11956874WA0137201385
B1853024747750N11956865WA0137101385
B1853034747750N11956855WA0137001385
B1853044747750N11956846WA0136901384
B1853054747750N11956835WA0136801382
B1853064747750N11956825WA0136701381
B1853074747751N11956814WA0136601381
B1853084747751N11956804WA0136501381
B1853094747751N11956794WA0136401381
B1853104747752N11956784WA0136401381
B1853114747753N11956774WA0136301380
B1853124747755N11956763WA0136201379
B1853134747757N11956752WA0136201378
B1853144747758N11956741WA0136101377
B1853154747759N11956731WA0136001377
B1853164747760N11956721WA0136001376
B1853174747761N11956710WA0135901375
B1853184747763N11956700WA0135801373
B1853194747765N11956689WA0135701371
B1853204747766N11956679WA0135601368
B1853214747767N11956667WA0135501365
B1853224747768N11956655WA0135301360
B1853234747770N11956641WA0135201357
B1853244747772N11956628WA0135001354
B1853254747774N11956615WA0134801352
B1853264747776N11956602WA0134601350
B1853274747777N11956589WA0134401348
B1853284747777N11956577WA0134201345
B1853294747777N11956564WA0134001343
B1853304747779N11956551WA0133701341
B1853314747781N11956539WA0133601340
B1853324747783N11956527WA0133301339
B1853334747785N11956514WA0133201337
B1853344747787N11956502WA0132901335
B1853354747788N11956489WA0132801332
B1853364747790N11956476WA0132501329
B1853374747791N11956462WA0132401326
B1853374747791N11956462WA0132401326
B1853384747793N11956449WA0132101324
B1853394747795N11956436WA0131901322
B1853404747796N11956424WA0131701320
B1853414747797N11956411WA0131501319
B1853424747798N11956398WA0131201318
B1853434747799N11956385WA0131101316
B1853444747800N11956372WA0130801314
B1853454747801N11956359WA0130701313
B1853464747803N11956347WA0130501312
B1853474747803N11956334WA0130301310
B1853484747804N11956321WA0130101308
B1853494747805N11956307WA0129901305
B1853504747806N11956293WA0129701302
B1853514747808N11956279WA0129601300
B1853524747810N11956265WA0129301298
B1853534747812N11956251WA0129201297
B1853544747814N11956238WA0128901295
B1853554747816N11956225WA0128801294
B1853564747817N11956212WA0128501292
B1853574747819N11956198WA0128401289
B1853584747821N11956185WA0128201287
B1853594747823N11956171WA0128001285
B1854004747825N11956159WA0127801284
B1854014747826N11956147WA0127601282
B1854024747828N11956134WA0127401280
B1854034747830N11956122WA0127201278
B1854044747831N11956109WA0127001276
B1854054747833N11956097WA0126901273
B1854064747834N11956084WA0126601271
B1854074747835N11956070WA0126501269
B1854084747836N11956057WA0126201268
B1854094747838N11956044WA0126101266
B1854104747839N11956031WA0125901264
B1854114747840N11956018WA0125701263
B1854124747841N11956005WA0125501261
B1854134747842N11955992WA0125301259
B1854144747842N11955979WA0125101257
B1854154747843N11955965WA0125001256
B1854164747844N11955952WA0124801254
B1854174747844N11955938WA0124601253
B1854184747844N11955926WA0124401252
B1854194747844N11955913WA0124301250
B1854204747844N11955900WA0124101248
B1854214747844N11955887WA0123901246
B1854224747844N11955874WA0123701244
B1854234747843N11955860WA0123601242
B1854244747843N11955847WA0123401240
B1854254747841N11955835WA0123301240
B1854264747840N11955823WA0123101239
B1854274747839N11955811WA0123001238
B1854284747838N11955799WA0122801236
B1854294747836N11955786WA0122701234
B1854304747835N11955774WA0122501231
B1854314747834N11955761WA0122301228
B1854324747832N11955748WA0122101226
B1854334747830N11955736WA0122001224
B1854344747829N11955723WA0121801222
B1854354747827N11955711WA0121601221
B1854364747826N11955699WA0121401218
B1854374747824N11955686WA0121301216
B1854384747823N11955674WA0121001215
B1854394747821N11955662WA0120901213
B1854404747819N11955649WA0120701211
B1854414747817N11955637WA0120501210
B1854414747817N11955637WA0120501210
B1854424747815N11955625WA0120301208
B1854434747814N11955613WA0120201207
B1854444747813N11955600WA0120001206
B1854454747812N11955588WA0119901205
B1854464747810N11955577WA0119701204
B1854474747809N11955565WA0119601203
B1854484747807N11955554WA0119401201
B1854494747806N11955542WA0119301199
B1854504747804N11955530WA0119101197
B1854514747802N11955518WA0119001195
B1854524747800N11955506WA0118801193
B1854534747798N11955494WA0118701192
B1854544747796N11955482WA0118501191
B1854554747794N11955470WA0118401190
B1854564747791N11955458WA0118201188
B1854574747789N11955446WA0118101187
B1854584747787N11955434WA0117901185
B1854594747784N11955422WA0117801184
B1855004747782N11955410WA0117701183
B1855014747780N11955398WA0117501182
B1855024747778N11955386WA0117401181
B1855034747777N11955374WA0117301180
B1855044747775N11955362WA0117101178
B1855054747773N11955349WA0117001176
B1855064747772N11955337WA0116901174
B1855074747770N11955325WA0116701173
B1855084747769N11955314WA0116601172
B1855094747767N11955303WA0116501170
B1855104747766N11955292WA0116301167
B1855114747764N11955281WA0116201163
B1855124747762N11955269WA0116001160
B1855134747760N11955257WA0115801158
B1855144747758N11955246WA0115601156
B1855154747757N11955235WA0115401155
B1855164747755N11955224WA0115201153
B1855174747753N11955213WA0115101151
B1855184747751N11955201WA0114901148
B1855194747748N11955189WA0114701146
B1855204747746N11955177WA0114501145
B1855214747744N11955165WA0114301144
B1855224747741N11955152WA0114101144
B1855234747739N11955140WA0114001144
B1855244747736N11955129WA0113801144
B1855254747734N11955119WA0113701145
B1855264747731N11955109WA0113601146
B1855274747729N11955099WA0113601145
B1855284747728N11955088WA0113501143
B1855294747728N11955076WA0113401140
B1855304747727N11955064WA0113301137
B1855314747725N11955052WA0113201135
B1855324747723N11955040WA0113001133
B1855334747721N11955028WA0112901130
B1855344747718N11955015WA0112701126
B1855354747716N11955001WA0112601122
B1855364747714N11954987WA0112301120
B1855374747713N11954975WA0112201118
B1855384747712N11954962WA0111901117
B1855394747710N11954950WA0111801115
B1855404747709N11954938WA0111501112
B1855414747708N11954925WA0111401109
B1855424747706N11954911WA0111101105
B1855434747704N11954897WA0110901102
B1855444747702N11954884WA0110601099
B1855454747700N11954872WA0110401098
B1855454747700N11954872WA0110401098
B1855464747699N11954860WA0110201096
B1855474747697N11954848WA0110001094
B1855484747696N11954836WA0109701092
B1855494747694N11954823WA0109501089
B1855504747692N11954811WA0109301087
B1855514747690N11954799WA0109101084
B1855524747688N11954787WA0108801082
B1855534747686N11954775WA0108601080
B1855544747685N11954763WA0108401078
B1855554747683N11954752WA0108201076
B1855564747681N11954741WA0107901073
B1855574747680N11954730WA0107801070
B1855584747678N11954718WA0107501066
B1855594747677N11954705WA0107301062
B1856004747675N11954691WA0107001058
B1856014747674N11954677WA0106701055
B1856024747673N11954663WA0106401052
B1856034747673N11954650WA0106201051
B1856044747672N11954638WA0105901052
B1856054747671N11954627WA0105701052
B1856064747671N11954617WA0105501053
B1856074747671N11954607WA0105301055
B1856084747671N11954598WA0105201055
B1856094747671N11954589WA0105101054
B1856104747671N11954579WA0104901052
B1856114747670N11954568WA0104801049
B1856124747669N11954558WA0104701047
B1856134747667N11954548WA0104601046
B1856144747667N11954539WA0104401046
B1856154747666N11954530WA0104301046
B1856164747665N11954521WA0104201045
B1856174747663N11954511WA0104101043
B1856184747661N11954500WA0103901041
B1856194747659N11954489WA0103801039
B1856204747657N11954479WA0103701038
B1856214747655N11954469WA0103601038
B1856224747654N11954460WA0103401038
B1856234747653N11954452WA0103301037
B1856244747652N11954443WA0103201036
B1856254747651N11954433WA0103101033
B1856264747650N11954423WA0103001030
B1856274747649N11954412WA0102801027
B1856284747648N11954402WA0102701026
B1856294747647N11954392WA0102601025
B1856304747646N11954382WA0102401025
B1856314747646N11954371WA0102301024
B1856324747647N11954359WA0102101024
B1856334747647N11954348WA0102001023
B1856344747648N11954337WA0101901021
B1856354747649N11954326WA0101801019
B1856364747649N11954316WA0101701018
B1856374747649N11954306WA0101601017
B1856384747650N11954296WA0101401014
B1856394747652N11954286WA0101301012
B1856404747653N11954275WA0101101009
B1856414747653N11954263WA0101001005
B1856424747654N11954251WA0100801002
B1856434747654N11954238WA0100600999
B1856444747654N11954226WA0100400999
B1856454747653N11954214WA0100201000
B1856464747653N11954203WA0100001000
B1856474747653N11954192WA0099901000
B1856484747654N11954180WA0099700999
B1856494747654N11954168WA0099600997
B1856494747654N11954168WA0099600997
B1856504747654N11954156WA0099400995
B1856514747653N11954144WA0099300993
B1856524747651N11954132WA0099100991
B1856534747650N11954119WA0099000990
B1856544747650N11954107WA0098900987
B1856554747651N11954094WA0098700985
B1856564747652N11954083WA0098600984
B1856574747652N11954071WA0098400982
B1856584747652N11954059WA0098300979
B1856594747653N11954046WA0098100976
B1857004747653N11954032WA0097900973
B1857014747653N11954019WA0097700970
B1857024747654N11954006WA0097500968
B1857034747655N11953994WA0097400966
B1857044747655N11953982WA0097100964
B1857054747655N11953970WA0096900961
B1857064747655N11953957WA0096700957
B1857074747654N11953945WA0096500955
B1857084747651N11953935WA0096200952
B1857094747646N11953927WA0096100949
B1857104747641N11953922WA0095800945
B1857114747635N11953920WA0095600942
B1857124747631N11953920WA0095300939
B1857134747628N11953923WA0095100937
B1857144747626N11953927WA0094800936
B1857154747627N11953931WA0094600935
B1857164747629N11953934WA0094300934
B1857174747631N11953936WA0094200932
B1857184747633N11953938WA0093900931
B1857194747633N11953940WA0093800930
B1857204747633N11953944WA0093600927
B1857214747632N11953948WA0093400924
B1857224747631N11953951WA0093200923
B1857234747630N11953954WA0093100922
B1857244747630N11953956WA0092900922
B1857254747629N11953958WA0092700921
B1857264747627N11953959WA0092600919
B1857274747625N11953960WA0092400918
B1857284747623N11953961WA0092300916
B1857294747623N11953961WA0092100916
B1857304747622N11953961WA0092000916
B1857314747622N11953961WA0091900916
B1857324747622N11953960WA0091800915
B1857334747622N11953961WA0091700915
B1857344747622N11953961WA0091600915
B1857354747623N11953961WA0091500915
B1857364747623N11953961WA0091400915
B1857374747623N11953961WA0091400916
B1857384747623N11953961WA0091300916
B1857394747623N11953961WA0091300916
B1857404747623N11953961WA0091200916
B1857414747623N11953961WA0091200916
B1857424747623N11953961WA0091200916
B1857434747623N11953962WA0091100916
B1857444747623N11953962WA0091100916
B1857454747624N11953962WA0091100916
B1857464747624N11953962WA0091100917
B1857474747624N11953962WA0091100917
B1857484747624N11953962WA0091000917
B1857494747624N11953962WA0091000917
B1857504747624N11953962WA0091000917
B1857514747624N11953962WA0091000917
B1857524747624N11953962WA0091000917
B1857524747624N11953962WA0091000917
B1857534747624N11953962WA0091000917
B1857544747624N11953962WA0091000917
B1857554747624N11953962WA0091000917
B1857564747624N11953962WA0091000916
B1857574747624N11953962WA0091000916
B1857584747624N11953962WA0091000916
B1857594747624N11953962WA0091000916
B1858004747624N11953962WA0091000916
B1858014747624N11953962WA0091000916
B1858024747624N11953962WA0091000916
B1858034747624N11953961WA0091000916
B1858044747624N11953961WA0091000917
B1858054747624N11953961WA0091000916
B1858064747625N11953961WA0091000916
B1858074747625N11953961WA0091000917
B1858084747625N11953960WA0091000917
B1858094747625N11953960WA0091000917
B1858104747625N11953960WA0091000917
B1858114747626N11953960WA0091000917
B1858124747626N11953960WA0091000917
B1858134747626N11953960WA0091000917
B1858144747626N11953960WA0091000917
B1858154747626N11953959WA0091000917
B1858164747626N11953959WA0091000916
B1858174747626N11953959WA0091000916
B1858184747626N11953959WA0091000916
B1858194747626N11953959WA0091000916
B1858204747626N11953959WA0091000916
B1858214747626N11953959WA0091000916
B1858224747626N11953959WA0091000916
B1858234747626N11953959WA0091000916
B1858244747626N11953959WA0091000916
B1858254747626N11953959WA0091000916
B1858264747626N11953959WA0091000916
B1858274747626N11953959WA0091000916
B1858284747626N11953959WA0091100916
B1858294747626N11953959WA0091100916
B1858304747627N11953959WA0091100916
B1858314747627N11953959WA0091100916
B1858324747627N11953959WA0091100916
B1858334747627N11953959WA0091100917
B1858344747627N11953959WA0091100917
B1858354747627N11953959WA0091100917
B1858364747627N11953959WA0091100917
B1858374747627N11953959WA0091100917
B1858384747626N11953960WA0091100917
B1858394747626N11953960WA0091100917
B1858404747626N11953961WA0091100917
B1858414747626N11953961WA0091100917
B1858424747626N11953961WA0091100917
B1858434747626N11953962WA0091100917
B1858444747626N11953962WA0091100917
B1858454747626N11953963WA0091100917
B1858464747626N11953963WA0091100917
B1858474747626N11953963WA0091100917
B1858484747626N11953964WA0091100917
B1858494747626N11953964WA0091100917
B1858504747626N11953964WA0091100917
B1858514747626N11953965WA0091100917
B1858524747626N11953965WA0091100917
B1858534747625N11953966WA0091100917
B1858544747626N11953966WA0091100917
B1858554747626N11953966WA0091100917
