AXFMSFP Flymaster Live, V1.0
HFFXA010
HFPLTPILOT:John Cassidy
HFGTYGLIDERTYPE:Advance  Sigma Dls / Advance Lightness 4
HFGIDGLIDERID:
HFDTM100GPSDATUM:WGS-1984
HFCIDCOMPETITIONID:911
HFCCLCOMPETITIONCLASS:
HOSITSITE:LAUNCH
HFGPS:UBLOXNEO6
HFPRSPRESSALTSENSOR:NA
HFRFWFIRMWAREVERSION:202g
HFRHWHARDWAREVERSION:1.0R2
HFFTYFRTYPE:FLYMASTER,LIVE
HFDTE260625
B1849314748242N12002358WA0111101121
B1849324748241N12002360WA0111101120
B1849334748240N12002362WA0111101119
B1849344748238N12002366WA0111101118
B1849354748237N12002370WA0111001117
B1849364748236N12002375WA0111001116
B1849374748235N12002380WA0110901116
B1849384748233N12002385WA0110901115
B1849394748232N12002389WA0110801113
B1849404748231N12002394WA0110701112
B1849414748228N12002398WA0110601111
B1849424748226N12002402WA0110601109
B1849434748223N12002405WA0110501107
B1849444748221N12002407WA0110501110
B1849454748220N12002408WA0110401114
B1849464748219N12002409WA0110501115
B1849474748218N12002410WA0110501115
B1849484748216N12002412WA0110501115
B1849494748214N12002414WA0110501114
B1849504748211N12002416WA0110501113
B1849514748209N12002416WA0110501114
B1849524748207N12002417WA0110501114
B1849534748205N12002418WA0110501114
B1849544748202N12002419WA0110601112
B1849554748199N12002419WA0110601112
B1849564748196N12002418WA0110601111
B1849574748193N12002415WA0110701112
B1849584748190N12002413WA0110701114
B1849594748188N12002412WA0110801115
B1850004748186N12002409WA0110801115
B1850014748183N12002407WA0110901117
B1850024748181N12002404WA0110901119
B1850034748179N12002401WA0111101122
B1850044748177N12002397WA0111101123
B1850054748175N12002393WA0111201125
B1850064748173N12002389WA0111301127
B1850074748172N12002386WA0111601129
B1850084748170N12002385WA0111801130
B1850094748167N12002384WA0112001128
B1850104748163N12002383WA0112101131
B1850114748161N12002382WA0112201135
B1850124748159N12002381WA0112401140
B1850134748157N12002380WA0112601145
B1850144748155N12002378WA0112801147
B1850154748152N12002375WA0113001148
B1850164748148N12002371WA0113101149
B1850174748145N12002367WA0113301151
B1850184748142N12002366WA0113501154
B1850194748141N12002366WA0113701159
B1850204748141N12002367WA0113901162
B1850214748142N12002370WA0114101163
B1850224748142N12002373WA0114301163
B1850234748142N12002376WA0114501165
B1850244748143N12002379WA0114701167
B1850254748143N12002381WA0114901168
B1850264748144N12002384WA0115001169
B1850274748144N12002387WA0115201170
B1850274748144N12002387WA0115201170
B1850284748145N12002391WA0115301170
B1850294748146N12002396WA0115501170
B1850304748146N12002401WA0115601170
B1850314748147N12002405WA0115701171
B1850324748147N12002408WA0115801173
B1850334748147N12002410WA0116001176
B1850344748149N12002412WA0116101179
B1850354748152N12002415WA0116201179
B1850364748155N12002418WA0116301180
B1850374748158N12002420WA0116501182
B1850384748161N12002422WA0116601183
B1850394748164N12002424WA0116801185
B1850404748166N12002424WA0116901186
B1850414748169N12002424WA0117101188
B1850424748171N12002424WA0117201190
B1850434748174N12002424WA0117301190
B1850444748177N12002425WA0117401190
B1850454748179N12002427WA0117601189
B1850464748182N12002431WA0117601188
B1850474748185N12002436WA0117701190
B1850484748187N12002439WA0117801192
B1850494748188N12002442WA0117901194
B1850504748190N12002443WA0118001196
B1850514748192N12002444WA0118201197
B1850524748196N12002445WA0118201198
B1850534748202N12002446WA0118301197
B1850544748207N12002449WA0118401196
B1850554748210N12002452WA0118401198
B1850564748212N12002454WA0118501199
B1850574748213N12002455WA0118601200
B1850584748214N12002455WA0118601201
B1850594748214N12002457WA0118701200
B1851004748213N12002460WA0118701198
B1851014748213N12002463WA0118701197
B1851024748211N12002465WA0118701196
B1851034748208N12002464WA0118701196
B1851044748206N12002461WA0118701198
B1851054748204N12002456WA0118701200
B1851064748203N12002450WA0118701200
B1851074748201N12002445WA0118701201
B1851084748199N12002441WA0118801201
B1851094748197N12002437WA0118801199
B1851104748194N12002432WA0118701198
B1851114748190N12002426WA0118701197
B1851124748187N12002420WA0118701196
B1851134748185N12002413WA0118701196
B1851144748182N12002407WA0118601196
B1851154748180N12002402WA0118601194
B1851164748177N12002397WA0118501192
B1851174748173N12002393WA0118401189
B1851184748169N12002389WA0118401186
B1851194748164N12002384WA0118201183
B1851204748160N12002380WA0118101182
B1851214748156N12002377WA0117901182
B1851224748153N12002375WA0117901182
B1851234748151N12002374WA0117701181
B1851244748149N12002376WA0117701180
B1851254748148N12002379WA0117501179
B1851264748148N12002383WA0117401177
B1851274748147N12002387WA0117301177
B1851284748147N12002390WA0117201177
B1851294748146N12002393WA0117101176
B1851304748145N12002396WA0117001175
B1851304748145N12002396WA0117001175
B1851314748144N12002399WA0116801174
B1851324748144N12002403WA0116701173
B1851334748143N12002407WA0116601171
B1851344748142N12002411WA0116501171
B1851354748141N12002414WA0116401170
B1851364748141N12002418WA0116301168
B1851374748140N12002422WA0116101167
B1851384748140N12002426WA0116001165
B1851394748139N12002431WA0115901164
B1851404748138N12002435WA0115801163
B1851414748137N12002439WA0115701162
B1851424748137N12002443WA0115601162
B1851434748136N12002446WA0115501161
B1851444748137N12002450WA0115401160
B1851454748137N12002454WA0115301159
B1851464748139N12002458WA0115201158
B1851474748140N12002463WA0115101156
B1851484748142N12002468WA0115001155
B1851494748144N12002473WA0114901155
B1851504748145N12002479WA0114801153
B1851514748147N12002485WA0114601152
B1851524748149N12002491WA0114601152
B1851534748151N12002496WA0114401151
B1851544748152N12002501WA0114401151
B1851554748154N12002505WA0114301152
B1851564748156N12002509WA0114201152
B1851574748158N12002513WA0114201151
B1851584748161N12002517WA0114101150
B1851594748164N12002521WA0114001150
B1852004748167N12002524WA0113901150
B1852014748170N12002527WA0113901150
B1852024748173N12002529WA0113801150
B1852034748177N12002532WA0113701149
B1852044748181N12002535WA0113701147
B1852054748184N12002540WA0113601145
B1852064748188N12002544WA0113501143
B1852074748192N12002548WA0113401143
B1852084748195N12002551WA0113301143
B1852094748198N12002555WA0113201142
B1852104748200N12002559WA0113101139
B1852114748202N12002565WA0113001137
B1852124748206N12002570WA0112901136
B1852134748209N12002574WA0112801135
B1852144748213N12002577WA0112701135
B1852154748217N12002578WA0112601134
B1852164748223N12002579WA0112501133
B1852174748229N12002581WA0112401130
B1852184748234N12002586WA0112201125
B1852194748240N12002592WA0112001123
B1852204748245N12002598WA0112001125
B1852214748251N12002602WA0111901128
B1852224748255N12002604WA0111901133
B1852234748258N12002604WA0111901135
B1852244748261N12002604WA0111901135
B1852254748263N12002606WA0111901133
B1852264748266N12002611WA0111901130
B1852274748268N12002618WA0111801127
B1852284748269N12002624WA0111801125
B1852294748268N12002628WA0111701124
B1852304748267N12002631WA0111601124
B1852314748267N12002632WA0111601125
B1852324748267N12002633WA0111601126
B1852334748267N12002633WA0111601127
B1852344748268N12002633WA0111601128
B1852344748268N12002633WA0111601128
B1852354748268N12002634WA0111601128
B1852364748267N12002635WA0111601126
B1852374748265N12002636WA0111601124
B1852384748263N12002636WA0111601124
B1852394748261N12002635WA0111501124
B1852404748259N12002634WA0111501124
B1852414748258N12002631WA0111501127
B1852424748258N12002630WA0111501128
B1852434748257N12002629WA0111601127
B1852444748256N12002630WA0111501126
B1852454748253N12002633WA0111501123
B1852464748250N12002636WA0111401121
B1852474748248N12002638WA0111301120
B1852484748246N12002640WA0111301121
B1852494748244N12002642WA0111201124
B1852504748243N12002643WA0111201125
B1852514748242N12002643WA0111101124
B1852524748240N12002644WA0111101123
B1852534748239N12002646WA0111001121
B1852544748238N12002650WA0110901119
B1852554748236N12002654WA0110801119
B1852564748235N12002658WA0110801121
B1852574748233N12002661WA0110801123
B1852584748232N12002664WA0110801124
B1852594748231N12002666WA0110801126
B1853004748231N12002668WA0110801127
B1853014748231N12002670WA0110801127
B1853024748230N12002672WA0110801127
B1853034748229N12002674WA0110801125
B1853044748227N12002677WA0110701124
B1853054748225N12002680WA0110701123
B1853064748223N12002682WA0110601122
B1853074748222N12002684WA0110601123
B1853084748221N12002686WA0110501123
B1853094748220N12002687WA0110501122
B1853104748219N12002690WA0110401121
B1853114748217N12002693WA0110401121
B1853124748216N12002696WA0110301120
B1853134748215N12002699WA0110301120
B1853144748214N12002701WA0110201119
B1853154748213N12002703WA0110201119
B1853164748213N12002706WA0110101118
B1853174748212N12002709WA0110001116
B1853184748211N12002713WA0110001116
B1853194748211N12002718WA0109901116
B1853204748212N12002722WA0109901116
B1853214748213N12002725WA0109801116
B1853224748214N12002727WA0109801116
B1853234748216N12002729WA0109701116
B1853244748219N12002731WA0109701116
B1853254748222N12002734WA0109701117
B1853264748224N12002737WA0109701117
B1853274748225N12002740WA0109701118
B1853284748226N12002743WA0109701120
B1853294748225N12002745WA0109801121
B1853304748224N12002745WA0109801123
B1853314748223N12002744WA0109901124
B1853324748221N12002741WA0110001126
B1853334748219N12002738WA0110101128
B1853344748217N12002736WA0110201128
B1853354748215N12002735WA0110301129
B1853364748213N12002735WA0110301129
B1853374748213N12002737WA0110401130
B1853374748213N12002737WA0110401130
B1853384748213N12002740WA0110501131
B1853394748214N12002743WA0110601132
B1853404748215N12002746WA0110701134
B1853414748215N12002748WA0110801136
B1853424748216N12002750WA0110901137
B1853434748217N12002753WA0111001138
B1853444748219N12002756WA0111101141
B1853454748222N12002758WA0111201142
B1853464748225N12002760WA0111301143
B1853474748229N12002762WA0111401142
B1853484748233N12002763WA0111501141
B1853494748236N12002766WA0111601140
B1853504748238N12002769WA0111601138
B1853514748238N12002772WA0111601136
B1853524748238N12002775WA0111601135
B1853534748237N12002777WA0111501134
B1853544748236N12002779WA0111501133
B1853554748235N12002779WA0111401132
B1853564748233N12002779WA0111401131
B1853574748231N12002778WA0111301129
B1853584748228N12002776WA0111301127
B1853594748225N12002774WA0111201126
B1854004748222N12002771WA0111101125
B1854014748219N12002769WA0111001124
B1854024748215N12002767WA0111001124
B1854034748212N12002765WA0110901124
B1854044748209N12002762WA0110801123
B1854054748206N12002760WA0110701122
B1854064748203N12002757WA0110701122
B1854074748199N12002754WA0110601122
B1854084748196N12002751WA0110501122
B1854094748193N12002748WA0110501122
B1854104748189N12002744WA0110401122
B1854114748185N12002740WA0110301121
B1854124748181N12002736WA0110301122
B1854134748177N12002731WA0110301122
B1854144748174N12002727WA0110201124
B1854154748171N12002722WA0110201124
B1854164748168N12002718WA0110201125
B1854174748166N12002715WA0110201126
B1854184748163N12002712WA0110201125
B1854194748161N12002711WA0110201124
B1854204748158N12002711WA0110201124
B1854214748156N12002712WA0110201123
B1854224748155N12002715WA0110101123
B1854234748153N12002717WA0110101124
B1854244748152N12002719WA0110101125
B1854254748150N12002721WA0110101125
B1854264748149N12002722WA0110101125
B1854274748148N12002724WA0110101125
B1854284748149N12002726WA0110101126
B1854294748150N12002729WA0110101125
B1854304748154N12002732WA0110101124
B1854314748160N12002734WA0110101123
B1854324748168N12002732WA0110101122
B1854334748176N12002724WA0110101122
B1854344748182N12002713WA0110001121
B1854354748184N12002699WA0110001119
B1854364748184N12002688WA0110001117
B1854374748183N12002678WA0109901117
B1854384748181N12002669WA0109901118
B1854394748180N12002660WA0109901118
B1854404748180N12002652WA0109901119
B1854414748179N12002643WA0109901119
B1854414748179N12002643WA0109901119
B1854424748177N12002634WA0109901118
B1854434748174N12002625WA0109901117
B1854444748171N12002617WA0109901116
B1854454748168N12002609WA0109901117
B1854464748166N12002601WA0109901117
B1854474748163N12002594WA0109901118
B1854484748161N12002586WA0109901118
B1854494748158N12002579WA0109901118
B1854504748155N12002573WA0109901119
B1854514748152N12002568WA0109901119
B1854524748149N12002563WA0109901118
B1854534748146N12002559WA0109801118
B1854544748142N12002555WA0109801118
B1854554748139N12002550WA0109801118
B1854564748136N12002545WA0109801118
B1854574748133N12002540WA0109801118
B1854584748130N12002535WA0109801118
B1854594748126N12002530WA0109801117
B1855004748122N12002524WA0109801117
B1855014748119N12002519WA0109801116
B1855024748115N12002513WA0109801116
B1855034748112N12002508WA0109801116
B1855044748108N12002502WA0109801116
B1855054748104N12002497WA0109701115
B1855064748100N12002491WA0109701114
B1855074748095N12002484WA0109701113
B1855084748091N12002478WA0109701113
B1855094748088N12002472WA0109601113
B1855104748084N12002466WA0109601113
B1855114748081N12002460WA0109601114
B1855124748077N12002454WA0109601113
B1855134748073N12002448WA0109501112
B1855144748069N12002442WA0109501111
B1855154748064N12002436WA0109501110
B1855164748060N12002429WA0109401109
B1855174748056N12002422WA0109401108
B1855184748052N12002415WA0109301107
B1855194748048N12002409WA0109201106
B1855204748044N12002403WA0109201105
B1855214748039N12002398WA0109101104
B1855224748034N12002393WA0109001103
B1855234748030N12002389WA0108901102
B1855244748026N12002384WA0108801102
B1855254748022N12002379WA0108701102
B1855264748018N12002375WA0108701101
B1855274748013N12002372WA0108601100
B1855284748009N12002369WA0108501098
B1855294748004N12002366WA0108401097
B1855304747999N12002363WA0108301097
B1855314747995N12002361WA0108201097
B1855324747991N12002358WA0108101097
B1855334747987N12002355WA0108101096
B1855344747984N12002352WA0108001096
B1855354747980N12002350WA0107901095
B1855364747975N12002347WA0107801094
B1855374747970N12002344WA0107801093
B1855384747965N12002341WA0107701094
B1855394747961N12002337WA0107701096
B1855404747958N12002333WA0107701098
B1855414747956N12002331WA0107701099
B1855424747953N12002330WA0107701098
B1855434747951N12002331WA0107601096
B1855444747950N12002334WA0107601095
B1855454747948N12002336WA0107501094
B1855454747948N12002336WA0107501094
B1855464747946N12002336WA0107501095
B1855474747944N12002335WA0107501096
B1855484747941N12002333WA0107501095
B1855494747937N12002331WA0107401094
B1855504747933N12002329WA0107401093
B1855514747928N12002326WA0107301092
B1855524747924N12002322WA0107301092
B1855534747919N12002317WA0107201092
B1855544747915N12002311WA0107201092
B1855554747910N12002305WA0107201091
B1855564747906N12002299WA0107201090
B1855574747901N12002292WA0107101089
B1855584747896N12002285WA0107101087
B1855594747891N12002278WA0107001086
B1856004747885N12002269WA0107001085
B1856014747880N12002261WA0107001084
B1856024747875N12002252WA0106901083
B1856034747870N12002243WA0106901082
B1856044747865N12002233WA0106901081
B1856054747862N12002222WA0106801080
B1856064747859N12002209WA0106801079
B1856074747857N12002195WA0106701078
B1856084747857N12002182WA0106701078
B1856094747856N12002170WA0106701079
B1856104747854N12002159WA0106701081
B1856114747852N12002148WA0106701082
B1856124747850N12002138WA0106701081
B1856134747849N12002127WA0106701080
B1856144747847N12002116WA0106701078
B1856154747845N12002106WA0106601076
B1856164747842N12002097WA0106601074
B1856174747838N12002090WA0106501072
B1856184747833N12002086WA0106401070
B1856194747829N12002082WA0106201068
B1856204747825N12002080WA0106101066
B1856214747821N12002079WA0106001064
B1856224747817N12002079WA0105801062
B1856234747815N12002079WA0105701060
B1856244747812N12002080WA0105601059
B1856254747811N12002081WA0105401057
B1856264747809N12002083WA0105201055
B1856274747809N12002086WA0105001053
B1856284747810N12002090WA0104901051
B1856294747811N12002093WA0104701050
B1856304747812N12002095WA0104501049
B1856314747812N12002098WA0104301047
B1856324747813N12002101WA0104201045
B1856334747814N12002103WA0104001044
B1856344747815N12002106WA0103801041
B1856354747817N12002109WA0103601039
B1856364747818N12002111WA0103501037
B1856374747819N12002113WA0103301035
B1856384747821N12002116WA0103101032
B1856394747822N12002118WA0102901029
B1856404747824N12002120WA0102701026
B1856414747825N12002123WA0102501023
B1856424747826N12002126WA0102301020
B1856434747827N12002129WA0102001017
B1856444747828N12002131WA0101801015
B1856454747829N12002132WA0101601012
B1856464747829N12002134WA0101401010
B1856474747828N12002135WA0101101007
B1856484747826N12002136WA0100901004
B1856494747824N12002138WA0100701000
B1856494747824N12002138WA0100701000
B1856504747822N12002139WA0100500997
B1856514747820N12002140WA0100200995
B1856524747817N12002141WA0100000993
B1856534747815N12002141WA0099700990
B1856544747811N12002141WA0099500988
B1856554747808N12002141WA0099200985
B1856564747805N12002142WA0099000983
B1856574747801N12002142WA0098800981
B1856584747798N12002142WA0098600978
B1856594747794N12002141WA0098300976
B1857004747791N12002140WA0098100974
B1857014747788N12002140WA0097800971
B1857024747784N12002139WA0097700969
B1857034747780N12002138WA0097400966
B1857044747776N12002137WA0097200964
B1857054747772N12002136WA0096900962
B1857064747769N12002136WA0096700961
B1857074747766N12002136WA0096500959
B1857084747764N12002137WA0096300956
B1857094747760N12002138WA0096000952
B1857104747757N12002140WA0095800950
B1857114747754N12002141WA0095600949
B1857124747751N12002141WA0095400948
B1857134747748N12002141WA0095100947
B1857144747745N12002141WA0095000944
B1857154747741N12002141WA0094700942
B1857164747738N12002140WA0094500939
B1857174747734N12002140WA0094200937
B1857184747730N12002139WA0094100934
B1857194747726N12002137WA0093800932
B1857204747723N12002137WA0093600929
B1857214747719N12002136WA0093300926
B1857224747715N12002135WA0093100923
B1857234747711N12002135WA0092800920
B1857244747707N12002134WA0092600918
B1857254747704N12002133WA0092300919
B1857264747702N12002131WA0092100920
B1857274747701N12002130WA0091900919
B1857284747701N12002131WA0091800916
B1857294747701N12002134WA0091600912
B1857304747701N12002138WA0091400910
B1857314747701N12002142WA0091200910
B1857324747700N12002144WA0091100911
B1857334747699N12002146WA0090900913
B1857344747699N12002146WA0090900914
B1857354747699N12002146WA0090800914
B1857364747700N12002146WA0090800913
B1857374747700N12002147WA0090700911
B1857384747700N12002150WA0090600909
B1857394747699N12002153WA0090500907
B1857404747699N12002155WA0090400906
B1857414747698N12002156WA0090300906
B1857424747698N12002157WA0090200905
B1857434747698N12002158WA0090100906
B1857444747698N12002159WA0090000905
B1857454747699N12002161WA0089900902
B1857464747699N12002165WA0089800898
B1857474747698N12002169WA0089600895
B1857484747698N12002172WA0089500894
B1857494747698N12002174WA0089400893
B1857504747698N12002176WA0089300892
B1857514747698N12002178WA0089100890
B1857524747697N12002179WA0089000888
B1857524747697N12002179WA0089000888
B1857534747697N12002181WA0088900885
B1857544747695N12002183WA0088800884
B1857554747694N12002184WA0088600881
B1857564747693N12002187WA0088500879
B1857574747693N12002190WA0088300877
B1857584747694N12002193WA0088100877
B1857594747696N12002195WA0087900876
B1858004747697N12002196WA0087800876
B1858014747698N12002196WA0087700875
B1858024747699N12002197WA0087600873
B1858034747702N12002197WA0087500870
B1858044747705N12002198WA0087300867
B1858054747709N12002199WA0087200864
B1858064747715N12002196WA0087000862
B1858074747721N12002189WA0086800858
B1858084747727N12002179WA0086600853
B1858094747731N12002166WA0086400850
B1858104747731N12002153WA0086200847
B1858114747730N12002141WA0085900843
B1858124747728N12002130WA0085700841
B1858134747727N12002119WA0085400839
B1858144747725N12002108WA0085200837
B1858154747723N12002098WA0084900834
B1858164747721N12002087WA0084700832
B1858174747718N12002077WA0084400830
B1858184747714N12002068WA0084300829
B1858194747711N12002059WA0084100829
B1858204747706N12002051WA0084000830
B1858214747702N12002042WA0083800829
B1858224747697N12002033WA0083700828
B1858234747693N12002023WA0083600824
B1858244747689N12002014WA0083500821
B1858254747686N12002004WA0083200817
B1858264747682N12001996WA0083000814
B1858274747678N12001988WA0082800810
B1858284747674N12001981WA0082600808
B1858294747670N12001973WA0082300807
B1858304747666N12001966WA0082200805
B1858314747661N12001958WA0081900804
B1858324747658N12001951WA0081800804
B1858334747654N12001944WA0081600803
B1858344747651N12001938WA0081500803
B1858354747647N12001932WA0081300801
B1858364747644N12001926WA0081200799
B1858374747640N12001918WA0081000796
B1858384747636N12001910WA0080800794
B1858394747633N12001902WA0080600792
B1858404747630N12001895WA0080500790
B1858414747626N12001889WA0080300789
B1858424747623N12001883WA0080200786
B1858434747620N12001876WA0079900783
B1858444747617N12001867WA0079800779
B1858454747614N12001857WA0079500776
B1858464747611N12001846WA0079300772
B1858474747608N12001837WA0079000770
B1858484747605N12001828WA0078800767
B1858494747602N12001819WA0078500764
B1858504747598N12001810WA0078200760
B1858514747595N12001801WA0077900756
B1858524747592N12001791WA0077700753
B1858534747588N12001782WA0077300749
B1858544747585N12001773WA0077100746
B1858554747582N12001764WA0076700742
B1858554747582N12001764WA0076700742
B1858564747578N12001754WA0076500739
B1858574747575N12001745WA0076100735
B1858584747571N12001735WA0075800731
B1858594747568N12001726WA0075400727
B1859004747564N12001716WA0075100724
B1859014747561N12001707WA0074700720
B1859024747558N12001698WA0074500717
B1859034747555N12001689WA0074100713
B1859044747552N12001681WA0073800709
B1859054747548N12001672WA0073400705
B1859064747544N12001663WA0073100701
B1859074747540N12001653WA0072700697
B1859084747536N12001644WA0072400694
B1859094747532N12001635WA0072000692
B1859104747529N12001626WA0071800690
B1859114747525N12001617WA0071400686
B1859124747521N12001608WA0071200683
B1859134747517N12001599WA0070800680
B1859144747514N12001588WA0070500677
B1859154747512N12001577WA0070200675
B1859164747510N12001566WA0069900672
B1859174747509N12001555WA0069600669
B1859184747507N12001542WA0069300666
B1859194747506N12001529WA0069000663
B1859204747505N12001517WA0068800661
B1859214747504N12001505WA0068400660
B1859224747503N12001493WA0068200658
B1859234747503N12001481WA0067900656
B1859244747502N12001469WA0067800655
B1859254747501N12001456WA0067500653
B1859264747500N12001443WA0067300651
B1859274747500N12001430WA0067100651
B1859284747500N12001416WA0066900650
B1859294747500N12001403WA0066700650
B1859304747500N12001392WA0066600649
B1859314747500N12001381WA0066400647
B1859324747500N12001369WA0066200645
B1859334747499N12001356WA0066000642
B1859344747498N12001343WA0065800639
B1859354747497N12001329WA0065600639
B1859364747496N12001317WA0065500639
B1859374747495N12001306WA0065300639
B1859384747493N12001296WA0065200640
B1859394747491N12001288WA0065100641
B1859404747489N12001280WA0065000642
B1859414747487N12001271WA0064900642
B1859424747485N12001262WA0064900641
B1859434747483N12001252WA0064800639
B1859444747480N12001242WA0064700637
B1859454747477N12001230WA0064500636
B1859464747473N12001219WA0064400635
B1859474747469N12001208WA0064300635
B1859484747466N12001197WA0064300636
B1859494747463N12001187WA0064200638
B1859504747459N12001178WA0064200640
B1859514747455N12001170WA0064300643
B1859524747451N12001164WA0064300645
B1859534747446N12001159WA0064400647
B1859544747440N12001153WA0064400647
B1859554747434N12001146WA0064500646
B1859564747428N12001139WA0064500646
B1859574747423N12001132WA0064600647
B1859584747418N12001125WA0064600647
B1859594747415N12001118WA0064700647
B1859594747415N12001118WA0064700647
B1900004747413N12001108WA0064700646
B1900014747411N12001098WA0064700645
B1900024747408N12001087WA0064700642
B1900034747406N12001076WA0064600640
B1900044747403N12001065WA0064600639
B1900054747400N12001054WA0064500638
B1900064747398N12001043WA0064500637
B1900074747395N12001032WA0064400636
B1900084747391N12001021WA0064300635
B1900094747388N12001012WA0064200635
B1900104747385N12001003WA0064200634
B1900114747383N12000994WA0064100633
B1900124747381N12000984WA0064000630
B1900134747378N12000974WA0063900628
B1900144747376N12000964WA0063800626
B1900154747373N12000955WA0063600625
B1900164747371N12000946WA0063500625
B1900174747368N12000938WA0063400625
B1900184747366N12000930WA0063400624
B1900194747363N12000921WA0063200623
B1900204747361N12000911WA0063200621
B1900214747358N12000902WA0063000620
B1900224747354N12000893WA0062900618
B1900234747351N12000885WA0062800615
B1900244747347N12000876WA0062600612
B1900254747345N12000866WA0062400609
B1900264747342N12000856WA0062300607
B1900274747340N12000846WA0062100605
B1900284747337N12000836WA0061900603
B1900294747334N12000827WA0061700601
B1900304747331N12000818WA0061500601
B1900314747328N12000809WA0061300600
B1900324747325N12000800WA0061200601
B1900334747323N12000793WA0061100602
B1900344747322N12000787WA0061000603
B1900354747319N12000784WA0060900603
B1900364747317N12000781WA0060800602
B1900374747313N12000778WA0060700600
B1900384747310N12000776WA0060600598
B1900394747306N12000773WA0060500596
B1900404747302N12000770WA0060400596
B1900414747299N12000766WA0060200595
B1900424747295N12000762WA0060200594
B1900434747292N12000756WA0060000593
B1900444747290N12000749WA0060000592
B1900454747288N12000742WA0059800590
B1900464747285N12000735WA0059700587
B1900474747282N12000728WA0059500584
B1900484747278N12000722WA0059400581
B1900494747274N12000715WA0059200578
B1900504747271N12000707WA0059000576
B1900514747268N12000700WA0058800574
B1900524747265N12000694WA0058600571
B1900534747261N12000687WA0058400568
B1900544747257N12000681WA0058200565
B1900554747252N12000675WA0057900561
B1900564747247N12000670WA0057700559
B1900574747242N12000663WA0057500557
B1900584747237N12000657WA0057300557
B1900594747233N12000651WA0057200558
B1901004747228N12000647WA0057100559
B1901014747225N12000644WA0057000560
B1901024747222N12000640WA0056900562
B1901034747221N12000637WA0056900563
B1901034747221N12000637WA0056900563
B1901044747219N12000634WA0056800562
B1901054747217N12000633WA0056700557
B1901064747213N12000633WA0056600552
B1901074747209N12000633WA0056500550
B1901084747205N12000630WA0056400549
B1901094747202N12000626WA0056200548
B1901104747199N12000620WA0056100549
B1901114747197N12000614WA0056000550
B1901124747195N12000608WA0055900550
B1901134747192N12000604WA0055900550
B1901144747188N12000601WA0055800549
B1901154747185N12000599WA0055700549
B1901164747181N12000597WA0055700549
B1901174747178N12000595WA0055600548
B1901184747175N12000593WA0055600547
B1901194747172N12000589WA0055500546
B1901204747169N12000585WA0055500545
B1901214747165N12000580WA0055400543
B1901224747162N12000573WA0055300541
B1901234747159N12000566WA0055200540
B1901244747156N12000558WA0055100538
B1901254747153N12000551WA0055000537
B1901264747149N12000543WA0054900535
B1901274747145N12000536WA0054800533
B1901284747141N12000528WA0054700531
B1901294747137N12000519WA0054500529
B1901304747133N12000509WA0054400528
B1901314747129N12000500WA0054200526
B1901324747126N12000490WA0054100526
B1901334747123N12000481WA0054000525
B1901344747121N12000471WA0053900524
B1901354747118N12000462WA0053800523
B1901364747116N12000452WA0053700520
B1901374747113N12000442WA0053600518
B1901384747110N12000432WA0053400516
B1901394747107N12000422WA0053300514
B1901404747105N12000411WA0053100511
B1901414747101N12000400WA0053000509
B1901424747099N12000388WA0052800507
B1901434747097N12000377WA0052600505
B1901444747095N12000365WA0052500503
B1901454747093N12000353WA0052300502
B1901464747091N12000342WA0052100501
B1901474747090N12000330WA0052000500
B1901484747090N12000319WA0051900499
B1901494747089N12000308WA0051700499
B1901504747088N12000297WA0051600498
B1901514747088N12000287WA0051500497
B1901524747088N12000276WA0051500496
B1901534747088N12000264WA0051300495
B1901544747088N12000253WA0051300495
B1901554747088N12000242WA0051200495
B1901564747088N12000232WA0051200495
B1901574747087N12000222WA0051100496
B1901584747086N12000213WA0051100496
B1901594747085N12000206WA0051100496
B1902004747084N12000200WA0051000496
B1902014747082N12000194WA0051000492
B1902024747080N12000188WA0050900489
B1902034747077N12000181WA0050700485
B1902044747073N12000173WA0050600481
B1902054747070N12000164WA0050400478
B1902064747068N12000154WA0050200477
B1902074747067N12000143WA0050000477
B1902074747067N12000143WA0050000477
B1902084747067N12000133WA0049900477
B1902094747068N12000123WA0049800476
B1902104747070N12000113WA0049700475
B1902114747072N12000103WA0049500472
B1902124747074N12000091WA0049300468
B1902134747076N12000079WA0049100464
B1902144747079N12000067WA0048900462
B1902154747082N12000056WA0048600461
B1902164747086N12000046WA0048500459
B1902174747089N12000036WA0048200456
B1902184747094N12000026WA0048100454
B1902194747098N12000016WA0047800451
B1902204747103N12000007WA0047700450
B1902214747108N11959997WA0047400449
B1902224747113N11959989WA0047300449
B1902234747117N11959980WA0047100448
B1902244747122N11959971WA0046900446
B1902254747127N11959961WA0046800445
B1902264747132N11959952WA0046600443
B1902274747137N11959943WA0046500443
B1902284747142N11959935WA0046300442
B1902294747147N11959927WA0046200442
B1902304747152N11959920WA0046100441
B1902314747157N11959913WA0045900440
B1902324747162N11959905WA0045800439
B1902334747167N11959897WA0045700437
B1902344747173N11959889WA0045600436
B1902354747178N11959882WA0045400435
B1902364747184N11959875WA0045300435
B1902374747190N11959869WA0045200435
B1902384747195N11959863WA0045100435
B1902394747200N11959858WA0045000436
B1902404747206N11959852WA0044900435
B1902414747211N11959846WA0044800434
B1902424747217N11959840WA0044800433
B1902434747223N11959833WA0044700431
B1902444747230N11959827WA0044600430
B1902454747236N11959821WA0044400429
B1902464747241N11959814WA0044400429
B1902474747247N11959808WA0044300428
B1902484747252N11959802WA0044200428
B1902494747258N11959797WA0044100427
B1902504747265N11959791WA0044000426
B1902514747271N11959786WA0043900425
B1902524747277N11959780WA0043800425
B1902534747283N11959774WA0043700424
B1902544747289N11959767WA0043700424
B1902554747294N11959760WA0043600423
B1902564747300N11959753WA0043500421
B1902574747306N11959746WA0043300419
B1902584747312N11959738WA0043200416
B1902594747318N11959730WA0043000413
B1903004747324N11959722WA0042900412
B1903014747330N11959715WA0042700410
B1903024747336N11959707WA0042600409
B1903034747341N11959701WA0042400408
B1903044747347N11959694WA0042300406
B1903054747353N11959687WA0042100404
B1903064747359N11959681WA0042000402
B1903074747365N11959674WA0041800400
B1903084747372N11959668WA0041700398
B1903094747378N11959661WA0041500396
B1903104747384N11959654WA0041300395
B1903114747390N11959648WA0041100393
B1903114747390N11959648WA0041100393
B1903124747396N11959641WA0041000392
B1903134747402N11959635WA0040800390
B1903144747409N11959628WA0040700388
B1903154747416N11959622WA0040500386
B1903164747423N11959616WA0040300385
B1903174747430N11959611WA0040100383
B1903184747438N11959607WA0040000382
B1903194747445N11959602WA0039900382
B1903204747451N11959598WA0039800382
B1903214747457N11959593WA0039600382
B1903224747462N11959588WA0039600381
B1903234747468N11959582WA0039400379
B1903244747474N11959577WA0039300376
B1903254747481N11959571WA0039100373
B1903264747488N11959565WA0039000371
B1903274747495N11959558WA0038800369
B1903284747501N11959552WA0038700368
B1903294747507N11959547WA0038500367
B1903304747513N11959542WA0038400368
B1903314747518N11959537WA0038300367
B1903324747524N11959532WA0038200366
B1903334747530N11959527WA0038000364
B1903344747537N11959521WA0037900362
B1903354747544N11959516WA0037800362
B1903364747550N11959512WA0037700363
B1903374747555N11959508WA0037600363
B1903384747561N11959503WA0037500363
B1903394747567N11959497WA0037500363
B1903404747572N11959491WA0037400361
B1903414747578N11959484WA0037300360
B1903424747584N11959477WA0037200359
B1903434747590N11959470WA0037100358
B1903444747596N11959463WA0037100356
B1903454747602N11959456WA0037000355
B1903464747608N11959449WA0036900354
B1903474747614N11959442WA0036800354
B1903484747620N11959436WA0036700353
B1903494747626N11959429WA0036600352
B1903504747632N11959422WA0036500350
B1903514747639N11959415WA0036400349
B1903524747645N11959408WA0036300349
B1903534747650N11959401WA0036200349
B1903544747656N11959395WA0036200348
B1903554747662N11959388WA0036100347
B1903564747668N11959381WA0036000346
B1903574747673N11959374WA0035900345
B1903584747679N11959367WA0035800343
B1903594747685N11959360WA0035700342
B1904004747691N11959355WA0035600340
B1904014747697N11959349WA0035500339
B1904024747702N11959342WA0035400337
B1904034747708N11959335WA0035200335
B1904044747714N11959328WA0035100334
B1904054747719N11959321WA0034900332
B1904064747725N11959313WA0034800331
B1904074747731N11959305WA0034700331
B1904084747736N11959297WA0034600331
B1904094747742N11959290WA0034500331
B1904104747747N11959283WA0034500332
B1904114747751N11959277WA0034400332
B1904124747756N11959270WA0034400333
B1904134747760N11959263WA0034300333
B1904144747765N11959256WA0034300332
B1904154747770N11959249WA0034300332
B1904164747775N11959241WA0034300333
B1904164747775N11959241WA0034300333
B1904174747780N11959233WA0034300333
B1904184747784N11959226WA0034300335
B1904194747788N11959219WA0034300336
B1904204747792N11959212WA0034300337
B1904214747797N11959204WA0034300337
B1904224747803N11959196WA0034300336
B1904234747809N11959188WA0034300336
B1904244747815N11959180WA0034300338
B1904254747820N11959172WA0034300339
B1904264747824N11959166WA0034300339
B1904274747829N11959158WA0034300340
B1904284747833N11959151WA0034300339
B1904294747838N11959143WA0034300338
B1904304747843N11959135WA0034300338
B1904314747847N11959128WA0034300338
B1904324747852N11959121WA0034300338
B1904334747857N11959114WA0034200337
B1904344747862N11959106WA0034200336
B1904354747867N11959098WA0034200335
B1904364747871N11959089WA0034100334
B1904374747875N11959081WA0034100333
B1904384747879N11959073WA0034000332
B1904394747884N11959065WA0034000331
B1904404747889N11959057WA0033900330
B1904414747893N11959048WA0033800328
B1904424747897N11959039WA0033800327
B1904434747902N11959031WA0033700326
B1904444747907N11959023WA0033600325
B1904454747911N11959016WA0033500324
B1904464747917N11959009WA0033500323
B1904474747922N11959001WA0033400321
B1904484747928N11958994WA0033300319
B1904494747934N11958987WA0033200318
B1904504747941N11958981WA0033100317
B1904514747947N11958976WA0033000316
B1904524747954N11958971WA0032900315
B1904534747961N11958968WA0032800314
B1904544747968N11958965WA0032800312
B1904554747974N11958965WA0032600311
B1904564747980N11958966WA0032600309
B1904574747985N11958970WA0032400306
B1904584747989N11958975WA0032300303
B1904594747992N11958980WA0032200301
B1905004747994N11958986WA0032100300
B1905014747995N11958990WA0031900299
B1905024747996N11958995WA0031800298
B1905034747995N11958999WA0031600296
B1905044747994N11959004WA0031500294
B1905054747993N11959008WA0031400293
B1905064747991N11959012WA0031300294
B1905074747991N11959014WA0031300296
B1905084747990N11959015WA0031200296
B1905094747989N11959016WA0031200296
B1905104747987N11959018WA0031200295
B1905114747985N11959019WA0031100296
B1905124747984N11959020WA0031100297
B1905134747985N11959022WA0031100297
B1905144747986N11959025WA0031100295
B1905154747988N11959030WA0031100293
B1905164747989N11959034WA0031000292
B1905174747990N11959037WA0031000292
B1905184747991N11959041WA0030900291
B1905194747992N11959044WA0030800288
B1905204747992N11959049WA0030800286
B1905204747992N11959049WA0030800286
B1905214747994N11959053WA0030600284
B1905224747995N11959056WA0030600283
B1905234747996N11959059WA0030400281
B1905244747997N11959062WA0030300279
B1905254747996N11959064WA0030200276
B1905264747994N11959066WA0030100273
B1905274747991N11959066WA0029900270
B1905284747988N11959063WA0029800268
B1905294747985N11959058WA0029600266
B1905304747984N11959051WA0029500264
B1905314747983N11959043WA0029300264
B1905324747981N11959037WA0029200264
B1905334747979N11959032WA0029100265
B1905344747976N11959031WA0029000264
B1905354747973N11959033WA0028800261
B1905364747972N11959038WA0028700258
B1905374747974N11959046WA0028600255
B1905384747977N11959052WA0028500255
B1905394747980N11959056WA0028300257
B1905404747982N11959059WA0028300258
B1905414747982N11959062WA0028200257
B1905424747981N11959064WA0028100255
B1905434747979N11959066WA0028000253
B1905444747976N11959065WA0027900250
B1905454747972N11959062WA0027800247
B1905464747968N11959058WA0027700246
B1905474747965N11959053WA0027500246
B1905484747962N11959048WA0027500247
B1905494747961N11959044WA0027400248
B1905504747959N11959042WA0027300248
B1905514747957N11959043WA0027200247
B1905524747956N11959046WA0027100244
B1905534747956N11959052WA0027000241
B1905544747957N11959058WA0026900239
B1905554747960N11959063WA0026800239
B1905564747962N11959065WA0026700240
B1905574747963N11959068WA0026600239
B1905584747962N11959072WA0026500236
B1905594747960N11959076WA0026400234
B1906004747955N11959078WA0026300234
B1906014747951N11959078WA0026100234
B1906024747947N11959075WA0026100233
B1906034747945N11959071WA0025900234
B1906044747942N11959069WA0025900233
B1906054747939N11959068WA0025700231
B1906064747935N11959070WA0025600227
B1906074747932N11959073WA0025500223
B1906084747930N11959078WA0025300222
B1906094747929N11959083WA0025200222
B1906104747927N11959087WA0025100222
B1906114747925N11959091WA0025000222
B1906124747923N11959095WA0024900222
B1906134747921N11959098WA0024700221
B1906144747919N11959101WA0024600221
B1906154747919N11959102WA0024500221
B1906164747918N11959103WA0024500222
B1906174747918N11959103WA0024500220
B1906184747918N11959104WA0024400220
B1906194747918N11959104WA0024400220
B1906204747918N11959104WA0024300220
B1906214747918N11959104WA0024300220
B1906224747917N11959104WA0024200220
B1906234747917N11959104WA0024200220
B1906244747917N11959104WA0024200220
B1906244747917N11959104WA0024200220
B1906254747917N11959105WA0024200220
B1906264747917N11959105WA0024100220
B1906274747917N11959106WA0024100219
B1906284747917N11959106WA0024100219
B1906294747917N11959106WA0024100219
B1906304747917N11959106WA0024100218
B1906314747917N11959106WA0024100218
B1906324747917N11959106WA0024000218
B1906334747917N11959106WA0024000218
B1906344747917N11959106WA0024000218
B1906354747917N11959106WA0024000217
B1906364747917N11959106WA0024000218
B1906374747917N11959106WA0024000217
B1906384747917N11959106WA0024000217
B1906394747917N11959106WA0024000216
B1906404747917N11959106WA0024000216
B1906414747917N11959106WA0024000216
B1906424747917N11959106WA0024000216
B1906434747917N11959106WA0024000216
B1906444747917N11959107WA0024000216
B1906454747917N11959107WA0024000216
B1906464747917N11959107WA0024000217
B1906474747917N11959107WA0024000216
B1906484747917N11959107WA0024000216
B1906494747918N11959107WA0024000215
B1906504747918N11959107WA0024000215
B1906514747918N11959108WA0024000215
B1906524747918N11959108WA0024000215
B1906534747918N11959108WA0024000216
B1906544747919N11959108WA0024000215
B1906554747919N11959108WA0024000215
B1906564747919N11959109WA0024000215
B1906574747919N11959109WA0024000215
B1906584747919N11959109WA0024000215
B1906594747919N11959109WA0024000215
B1907004747919N11959109WA0024000216
B1907014747919N11959110WA0024000214
B1907024747919N11959110WA0024000214
B1907034747919N11959110WA0024000214
B1907044747919N11959110WA0024000215
B1907054747919N11959110WA0024000214
B1907064747919N11959110WA0024000214
B1907074747919N11959111WA0024000214
B1907084747919N11959111WA0024000215
B1907094747919N11959111WA0024000215
B1907104747919N11959111WA0024000215
B1907114747919N11959111WA0024000215
B1907124747919N11959111WA0024000216
B1907134747919N11959110WA0024000215
B1907144747919N11959110WA0024000216
B1907154747919N11959109WA0024000215
B1907164747919N11959108WA0024000215
B1907174747919N11959107WA0024000215
B1907184747919N11959106WA0024000214
B1907194747919N11959105WA0024000213
B1907204747919N11959105WA0024000212
B1907214747919N11959104WA0024000212
B1907224747919N11959103WA0024000211
B1907234747919N11959102WA0024000211
B1907244747919N11959101WA0024000210
B1907254747919N11959099WA0024000211
B1907264747919N11959098WA0024000210
B1907274747919N11959097WA0024000209
B1907284747919N11959097WA0024000210
