AXFMSFP Flymaster Live, V1.0
HFFXA010
HFPLTPILOT:Kazuyuki Kitamura
HFGTYGLIDERTYPE:Ozone Zeno 2 / Gin Genie Race 5
HFGIDGLIDERID:
HFDTM100GPSDATUM:WGS-1984
HFCIDCOMPETITIONID:451
HFCCLCOMPETITIONCLASS:
HOSITSITE:LAUNCH
HFGPS:UBLOXNEO6
HFPRSPRESSALTSENSOR:NA
HFRFWFIRMWAREVERSION:202g
HFRHWHARDWAREVERSION:1.0R2
HFFTYFRTYPE:FLYMASTER,LIVE
HFDTE260625
B1924284748296N12002307WA0111401127
B1924294748296N12002306WA0111401126
B1924304748296N12002305WA0111401125
B1924314748296N12002305WA0111301125
B1924324748296N12002305WA0111301124
B1924334748296N12002304WA0111301123
B1924344748296N12002304WA0111301122
B1924354748296N12002304WA0111301122
B1924364748296N12002304WA0111301122
B1924374748296N12002304WA0111301122
B1924384748296N12002304WA0111301122
B1924394748296N12002304WA0111301122
B1924404748296N12002304WA0111301122
B1924414748296N12002304WA0111201122
B1924424748296N12002304WA0111201122
B1924434748296N12002304WA0111201122
B1924444748296N12002304WA0111201121
B1924454748296N12002304WA0111201121
B1924464748296N12002304WA0111201121
B1924474748296N12002304WA0111201121
B1924484748296N12002304WA0111201121
B1924494748296N12002304WA0111201122
B1924504748296N12002303WA0111201121
B1924514748297N12002302WA0111201121
B1924524748298N12002301WA0111201121
B1924534748298N12002300WA0111201121
B1924544748299N12002299WA0111201121
B1924554748300N12002297WA0111201121
B1924564748301N12002296WA0111201121
B1924574748303N12002294WA0111201121
B1924584748304N12002292WA0111201121
B1924594748305N12002290WA0111201121
B1925004748307N12002287WA0111201121
B1925014748309N12002285WA0111201121
B1925024748310N12002282WA0111201121
B1925034748312N12002280WA0111101121
B1925044748314N12002277WA0111101121
B1925054748316N12002275WA0111101121
B1925064748318N12002273WA0111101121
B1925074748320N12002270WA0111101121
B1925084748322N12002268WA0111101121
B1925094748323N12002265WA0111101121
B1925104748325N12002264WA0111101120
B1925114748326N12002262WA0111001121
B1925124748328N12002260WA0111001121
B1925134748329N12002259WA0111001121
B1925144748330N12002258WA0111001121
B1925154748331N12002257WA0111001121
B1925164748332N12002256WA0111001122
B1925174748333N12002256WA0111001121
B1925184748334N12002256WA0111001121
B1925194748335N12002256WA0111001121
B1925204748336N12002258WA0111001121
B1925214748336N12002259WA0111001122
B1925224748337N12002261WA0111001122
B1925234748338N12002263WA0111001122
B1925244748339N12002265WA0111001121
B1925254748340N12002268WA0110901121
B1925264748340N12002270WA0110901121
B1925274748341N12002273WA0110901121
B1925284748341N12002277WA0110901120
B1925294748342N12002280WA0110801119
B1925304748342N12002283WA0110801118
B1925314748343N12002287WA0110701117
B1925324748343N12002290WA0110701116
B1925324748343N12002290WA0110701116
B1925334748343N12002294WA0110601115
B1925344748343N12002299WA0110601114
B1925354748343N12002303WA0110601113
B1925364748344N12002307WA0110501113
B1925374748344N12002310WA0110501112
B1925384748344N12002314WA0110401111
B1925394748344N12002319WA0110401111
B1925404748344N12002322WA0110301109
B1925414748344N12002326WA0110301109
B1925424748343N12002330WA0110301108
B1925434748343N12002333WA0110201107
B1925444748342N12002337WA0110201107
B1925454748341N12002340WA0110101106
B1925464748340N12002344WA0110101105
B1925474748339N12002347WA0110001104
B1925484748338N12002350WA0109901103
B1925494748336N12002353WA0109701102
B1925504748335N12002357WA0109701102
B1925514748334N12002360WA0109601101
B1925524748332N12002364WA0109501100
B1925534748331N12002367WA0109401099
B1925544748329N12002370WA0109301098
B1925554748328N12002374WA0109101097
B1925564748327N12002377WA0109001097
B1925574748325N12002381WA0108801096
B1925584748324N12002385WA0108701095
B1925594748322N12002388WA0108501094
B1926004748320N12002392WA0108401093
B1926014748319N12002396WA0108301092
B1926024748318N12002400WA0108301091
B1926034748316N12002404WA0108201091
B1926044748315N12002408WA0108101090
B1926054748314N12002413WA0108101089
B1926064748313N12002417WA0108001088
B1926074748312N12002421WA0108001088
B1926084748311N12002425WA0107901087
B1926094748311N12002429WA0107901086
B1926104748311N12002434WA0107901085
B1926114748311N12002438WA0107801085
B1926124748311N12002442WA0107801084
B1926134748312N12002446WA0107701084
B1926144748312N12002451WA0107701083
B1926154748311N12002456WA0107601082
B1926164748311N12002460WA0107601081
B1926174748310N12002465WA0107601080
B1926184748309N12002469WA0107501080
B1926194748308N12002474WA0107501079
B1926204748307N12002478WA0107401077
B1926214748305N12002482WA0107401076
B1926224748304N12002486WA0107301075
B1926234748303N12002490WA0107201075
B1926244748303N12002494WA0107201074
B1926254748302N12002498WA0107101073
B1926264748302N12002503WA0107101072
B1926274748302N12002508WA0107001071
B1926284748302N12002512WA0107001070
B1926294748303N12002515WA0106901069
B1926304748304N12002518WA0106901069
B1926314748305N12002521WA0106801070
B1926324748307N12002525WA0106701070
B1926334748308N12002529WA0106601069
B1926344748309N12002533WA0106601068
B1926354748310N12002536WA0106501067
B1926364748311N12002539WA0106501068
B1926364748311N12002539WA0106501068
B1926374748311N12002543WA0106401068
B1926384748311N12002547WA0106301067
B1926394748310N12002551WA0106301067
B1926404748309N12002556WA0106201065
B1926414748308N12002560WA0106101064
B1926424748306N12002564WA0106101063
B1926434748305N12002568WA0106001061
B1926444748304N12002572WA0105901061
B1926454748302N12002576WA0105801059
B1926464748301N12002581WA0105801058
B1926474748300N12002585WA0105701057
B1926484748300N12002589WA0105601056
B1926494748300N12002594WA0105501055
B1926504748300N12002598WA0105501055
B1926514748301N12002603WA0105401055
B1926524748301N12002607WA0105301053
B1926534748302N12002611WA0105201052
B1926544748303N12002615WA0105101051
B1926554748304N12002620WA0105101050
B1926564748304N12002624WA0105001049
B1926574748304N12002629WA0104901048
B1926584748303N12002633WA0104801047
B1926594748303N12002637WA0104701046
B1927004748301N12002641WA0104701044
B1927014748300N12002645WA0104601043
B1927024748298N12002650WA0104501042
B1927034748296N12002655WA0104401040
B1927044748294N12002660WA0104301039
B1927054748292N12002665WA0104201037
B1927064748290N12002671WA0104201036
B1927074748289N12002677WA0104101035
B1927084748288N12002683WA0104001033
B1927094748288N12002690WA0103901032
B1927104748288N12002696WA0103801030
B1927114748289N12002702WA0103701029
B1927124748289N12002707WA0103601028
B1927134748288N12002712WA0103501027
B1927144748287N12002717WA0103401026
B1927154748285N12002722WA0103301025
B1927164748283N12002727WA0103201024
B1927174748281N12002732WA0103101023
B1927184748278N12002736WA0103101023
B1927194748276N12002741WA0102901022
B1927204748274N12002746WA0102901021
B1927214748271N12002751WA0102801021
B1927224748269N12002756WA0102701020
B1927234748268N12002761WA0102601019
B1927244748266N12002766WA0102501018
B1927254748265N12002770WA0102401018
B1927264748263N12002774WA0102401017
B1927274748262N12002777WA0102301017
B1927284748261N12002780WA0102301016
B1927294748260N12002782WA0102201016
B1927304748258N12002783WA0102101016
B1927314748256N12002784WA0102101016
B1927324748255N12002785WA0102001016
B1927334748254N12002786WA0102001016
B1927344748253N12002787WA0101901016
B1927354748252N12002788WA0101801015
B1927364748251N12002789WA0101801015
B1927374748250N12002791WA0101801015
B1927384748250N12002794WA0101701015
B1927394748250N12002796WA0101701015
B1927404748251N12002799WA0101601016
B1927404748251N12002799WA0101601016
B1927414748252N12002801WA0101601015
B1927424748254N12002802WA0101501015
B1927434748255N12002803WA0101501015
B1927444748256N12002804WA0101401015
B1927454748257N12002804WA0101401015
B1927464748258N12002804WA0101301015
B1927474748260N12002804WA0101301014
B1927484748261N12002804WA0101201013
B1927494748262N12002804WA0101101012
B1927504748264N12002803WA0101101011
B1927514748266N12002802WA0101001011
B1927524748267N12002801WA0101001011
B1927534748269N12002799WA0100901010
B1927544748270N12002797WA0100801009
B1927554748271N12002794WA0100801009
B1927564748273N12002792WA0100701008
B1927574748274N12002790WA0100701008
B1927584748275N12002787WA0100601007
B1927594748277N12002784WA0100601007
B1928004748278N12002782WA0100501006
B1928014748279N12002779WA0100501006
B1928024748281N12002776WA0100401005
B1928034748283N12002773WA0100401004
B1928044748284N12002770WA0100301004
B1928054748287N12002768WA0100301003
B1928064748289N12002766WA0100201002
B1928074748292N12002764WA0100101001
B1928084748296N12002762WA0100101001
B1928094748300N12002761WA0100001000
B1928104748304N12002759WA0100000999
B1928114748307N12002757WA0099900998
B1928124748311N12002755WA0099800997
B1928134748314N12002752WA0099700996
B1928144748317N12002748WA0099700995
B1928154748319N12002744WA0099600994
B1928164748321N12002741WA0099500993
B1928174748322N12002737WA0099400992
B1928184748324N12002733WA0099300991
B1928194748326N12002730WA0099300990
B1928204748328N12002726WA0099200989
B1928214748330N12002723WA0099100988
B1928224748333N12002720WA0099100987
B1928234748336N12002719WA0099000986
B1928244748340N12002717WA0098900985
B1928254748344N12002716WA0098800984
B1928264748347N12002716WA0098700983
B1928274748351N12002715WA0098600982
B1928284748355N12002714WA0098600981
B1928294748358N12002713WA0098500980
B1928304748361N12002712WA0098400979
B1928314748363N12002710WA0098300978
B1928324748366N12002707WA0098200977
B1928334748369N12002705WA0098100976
B1928344748371N12002702WA0098000976
B1928354748374N12002699WA0097900975
B1928364748377N12002696WA0097900974
B1928374748380N12002693WA0097800973
B1928384748382N12002690WA0097700972
B1928394748384N12002687WA0097600971
B1928404748386N12002683WA0097500970
B1928414748388N12002680WA0097400969
B1928424748390N12002678WA0097400968
B1928434748392N12002677WA0097300968
B1928444748395N12002676WA0097200967
B1928444748395N12002676WA0097200967
B1928454748399N12002677WA0097200966
B1928464748402N12002677WA0097100966
B1928474748405N12002678WA0097000965
B1928484748408N12002679WA0096900964
B1928494748411N12002680WA0096900963
B1928504748414N12002681WA0096800963
B1928514748417N12002682WA0096700963
B1928524748419N12002682WA0096600962
B1928534748421N12002681WA0096600962
B1928544748423N12002681WA0096500961
B1928554748425N12002681WA0096400960
B1928564748427N12002682WA0096400960
B1928574748429N12002684WA0096300959
B1928584748431N12002686WA0096200958
B1928594748432N12002690WA0096200957
B1929004748432N12002693WA0096100957
B1929014748431N12002696WA0096000956
B1929024748429N12002699WA0096000955
B1929034748427N12002701WA0095900955
B1929044748424N12002702WA0095900954
B1929054748421N12002702WA0095800954
B1929064748418N12002702WA0095800954
B1929074748415N12002701WA0095700955
B1929084748413N12002700WA0095700956
B1929094748410N12002699WA0095600955
B1929104748408N12002698WA0095600955
B1929114748405N12002697WA0095500954
B1929124748403N12002697WA0095500954
B1929134748400N12002699WA0095400953
B1929144748399N12002702WA0095400953
B1929154748397N12002706WA0095300952
B1929164748396N12002710WA0095300952
B1929174748396N12002715WA0095200951
B1929184748395N12002720WA0095200949
B1929194748393N12002726WA0095100948
B1929204748392N12002731WA0095000948
B1929214748391N12002736WA0095000946
B1929224748391N12002741WA0094900945
B1929234748389N12002746WA0094800944
B1929244748387N12002751WA0094800943
B1929254748385N12002754WA0094700942
B1929264748383N12002757WA0094700941
B1929274748380N12002760WA0094600939
B1929284748377N12002763WA0094500938
B1929294748375N12002766WA0094400938
B1929304748373N12002770WA0094400937
B1929314748371N12002775WA0094300936
B1929324748371N12002780WA0094200935
B1929334748370N12002785WA0094200934
B1929344748370N12002789WA0094100933
B1929354748368N12002794WA0094000933
B1929364748366N12002798WA0094000932
B1929374748364N12002802WA0093900931
B1929384748363N12002806WA0093800931
B1929394748363N12002811WA0093700931
B1929404748363N12002815WA0093700930
B1929414748363N12002819WA0093600930
B1929424748363N12002822WA0093600930
B1929434748363N12002826WA0093500929
B1929444748364N12002831WA0093400928
B1929454748364N12002834WA0093300927
B1929464748364N12002838WA0093300926
B1929474748365N12002842WA0093200926
B1929484748366N12002846WA0093100925
B1929484748366N12002846WA0093100925
B1929494748367N12002850WA0093000924
B1929504748369N12002853WA0093000924
B1929514748370N12002857WA0092900924
B1929524748371N12002860WA0092900923
B1929534748372N12002864WA0092800922
B1929544748373N12002868WA0092700921
B1929554748374N12002871WA0092600920
B1929564748375N12002874WA0092600919
B1929574748377N12002878WA0092500918
B1929584748378N12002882WA0092500918
B1929594748379N12002886WA0092400917
B1930004748381N12002889WA0092300916
B1930014748383N12002893WA0092300916
B1930024748385N12002897WA0092200916
B1930034748386N12002900WA0092100916
B1930044748388N12002903WA0092100915
B1930054748390N12002907WA0092000915
B1930064748392N12002910WA0092000915
B1930074748393N12002914WA0091900914
B1930084748395N12002918WA0091800914
B1930094748397N12002922WA0091700913
B1930104748398N12002925WA0091700912
B1930114748399N12002929WA0091600911
B1930124748401N12002933WA0091600910
B1930134748402N12002937WA0091500910
B1930144748404N12002941WA0091400909
B1930154748405N12002946WA0091400908
B1930164748406N12002951WA0091300906
B1930174748408N12002957WA0091200905
B1930184748412N12002963WA0091200903
B1930194748414N12002968WA0091100904
B1930204748416N12002973WA0091000904
B1930214748417N12002979WA0090900903
B1930224748417N12002985WA0090900901
B1930234748417N12002991WA0090800900
B1930244748417N12002998WA0090700898
B1930254748417N12003004WA0090600897
B1930264748418N12003010WA0090500896
B1930274748419N12003016WA0090400895
B1930284748421N12003021WA0090300894
B1930294748425N12003024WA0090200893
B1930304748428N12003028WA0090100893
B1930314748432N12003032WA0089900892
B1930324748435N12003036WA0089800890
B1930334748439N12003041WA0089700890
B1930344748442N12003047WA0089600889
B1930354748445N12003051WA0089500888
B1930364748449N12003055WA0089400887
B1930374748453N12003058WA0089300886
B1930384748458N12003060WA0089200884
B1930394748462N12003062WA0089100883
B1930404748466N12003064WA0089000881
B1930414748471N12003066WA0088800880
B1930424748475N12003069WA0088700879
B1930434748478N12003071WA0088600878
B1930444748482N12003074WA0088500877
B1930454748487N12003077WA0088400877
B1930464748491N12003081WA0088300876
B1930474748495N12003085WA0088200876
B1930484748498N12003089WA0088100875
B1930494748502N12003094WA0088000874
B1930504748505N12003099WA0088000873
B1930514748508N12003103WA0087800873
B1930524748511N12003108WA0087800871
B1930524748511N12003108WA0087800871
B1930534748514N12003113WA0087600870
B1930544748517N12003118WA0087600869
B1930554748520N12003123WA0087400867
B1930564748523N12003129WA0087300865
B1930574748526N12003134WA0087200864
B1930584748530N12003140WA0087100863
B1930594748533N12003146WA0087000860
B1931004748536N12003152WA0087000858
B1931014748539N12003159WA0086800857
B1931024748543N12003165WA0086800855
B1931034748547N12003170WA0086700854
B1931044748552N12003173WA0086600853
B1931054748556N12003175WA0086500852
B1931064748561N12003176WA0086400851
B1931074748565N12003177WA0086300851
B1931084748570N12003177WA0086200850
B1931094748574N12003178WA0086100850
B1931104748578N12003178WA0086000849
B1931114748582N12003179WA0085900849
B1931124748586N12003180WA0085800849
B1931134748590N12003181WA0085700849
B1931144748594N12003184WA0085700848
B1931154748597N12003187WA0085600848
B1931164748601N12003191WA0085500847
B1931174748604N12003194WA0085400847
B1931184748608N12003196WA0085400846
B1931194748612N12003198WA0085300846
B1931204748616N12003200WA0085200845
B1931214748620N12003200WA0085200844
B1931224748625N12003200WA0085100843
B1931234748629N12003201WA0085000843
B1931244748633N12003202WA0085000842
B1931254748638N12003204WA0085000842
B1931264748642N12003205WA0085000842
B1931274748646N12003207WA0085000841
B1931284748650N12003209WA0084900840
B1931294748654N12003211WA0084900840
B1931304748658N12003215WA0084800839
B1931314748662N12003218WA0084800838
B1931324748666N12003221WA0084700837
B1931334748670N12003224WA0084600836
B1931344748674N12003227WA0084600836
B1931354748678N12003229WA0084500835
B1931364748683N12003231WA0084400834
B1931374748687N12003233WA0084400833
B1931384748691N12003234WA0084300832
B1931394748696N12003235WA0084200832
B1931404748700N12003235WA0084100831
B1931414748705N12003235WA0084000829
B1931424748710N12003235WA0084000828
B1931434748715N12003235WA0083900827
B1931444748719N12003235WA0083800827
B1931454748724N12003235WA0083700826
B1931464748729N12003235WA0083600825
B1931474748734N12003234WA0083500824
B1931484748738N12003234WA0083400823
B1931494748743N12003234WA0083300822
B1931504748747N12003233WA0083300821
B1931514748752N12003233WA0083200821
B1931524748756N12003232WA0083100820
B1931534748761N12003232WA0083000819
B1931544748766N12003232WA0083000818
B1931554748770N12003232WA0082900816
B1931564748775N12003232WA0082800815
B1931564748775N12003232WA0082800815
B1931574748780N12003233WA0082700814
B1931584748785N12003233WA0082600813
B1931594748789N12003234WA0082500812
B1932004748794N12003234WA0082500811
B1932014748797N12003233WA0082300811
B1932024748801N12003232WA0082300810
B1932034748804N12003230WA0082200810
B1932044748807N12003227WA0082100809
B1932054748809N12003224WA0082000808
B1932064748811N12003219WA0081900808
B1932074748812N12003215WA0081900807
B1932084748813N12003210WA0081800806
B1932094748814N12003205WA0081700805
B1932104748814N12003200WA0081700804
B1932114748814N12003195WA0081600804
B1932124748812N12003191WA0081500803
B1932134748810N12003187WA0081500803
B1932144748807N12003183WA0081400803
B1932154748804N12003179WA0081300803
B1932164748801N12003176WA0081300803
B1932174748798N12003173WA0081200803
B1932184748795N12003170WA0081200803
B1932194748791N12003168WA0081100803
B1932204748788N12003166WA0081100802
B1932214748785N12003164WA0081000802
B1932224748782N12003161WA0081000801
B1932234748779N12003157WA0080900801
B1932244748777N12003153WA0080900801
B1932254748775N12003149WA0080800802
B1932264748773N12003145WA0080800803
B1932274748772N12003141WA0080700804
B1932284748772N12003137WA0080700804
B1932294748772N12003132WA0080600806
B1932304748773N12003128WA0080600807
B1932314748773N12003123WA0080500809
B1932324748774N12003118WA0080400808
B1932334748773N12003113WA0080400808
B1932344748772N12003108WA0080300808
B1932354748771N12003104WA0080200808
B1932364748768N12003100WA0080200808
B1932374748765N12003097WA0080100807
B1932384748762N12003095WA0080100807
B1932394748758N12003093WA0080000806
B1932404748755N12003092WA0080000806
B1932414748751N12003091WA0079900806
B1932424748747N12003090WA0079800805
B1932434748743N12003090WA0079800804
B1932444748739N12003090WA0079700803
B1932454748735N12003090WA0079600803
B1932464748731N12003090WA0079600802
B1932474748727N12003089WA0079500801
B1932484748723N12003088WA0079500801
B1932494748719N12003087WA0079400801
B1932504748715N12003086WA0079400800
B1932514748710N12003087WA0079300799
B1932524748706N12003087WA0079300798
B1932534748702N12003088WA0079200797
B1932544748697N12003087WA0079200796
B1932554748694N12003086WA0079100796
B1932564748690N12003086WA0079100796
B1932574748686N12003086WA0079000795
B1932584748683N12003086WA0079000795
B1932594748679N12003086WA0078900794
B1933004748676N12003086WA0078900793
B1933004748676N12003086WA0078900793
B1933014748673N12003086WA0078800792
B1933024748669N12003085WA0078800791
B1933034748666N12003085WA0078600790
B1933044748663N12003085WA0078500789
B1933054748659N12003085WA0078300788
B1933064748656N12003085WA0078200787
B1933074748653N12003085WA0078000786
B1933084748650N12003084WA0078000785
B1933094748648N12003083WA0077900784
B1933104748645N12003081WA0077800783
B1933114748643N12003078WA0077700782
B1933124748641N12003075WA0077700781
B1933134748639N12003071WA0077600780
B1933144748638N12003067WA0077600779
B1933154748637N12003063WA0077500779
B1933164748636N12003059WA0077500778
B1933174748635N12003055WA0077400777
B1933184748635N12003051WA0077400776
B1933194748634N12003047WA0077300775
B1933204748633N12003043WA0077200774
B1933214748632N12003039WA0077100773
B1933224748631N12003035WA0077100772
B1933234748629N12003032WA0076900771
B1933244748628N12003028WA0076900770
B1933254748626N12003024WA0076800769
B1933264748625N12003021WA0076700769
B1933274748624N12003018WA0076600769
B1933284748622N12003015WA0076500769
B1933294748621N12003012WA0076400770
B1933304748621N12003010WA0076400771
B1933314748621N12003007WA0076300772
B1933324748623N12003004WA0076300771
B1933334748625N12003003WA0076200771
B1933344748627N12003003WA0076200771
B1933354748630N12003004WA0076200770
B1933364748632N12003005WA0076100770
B1933374748635N12003006WA0076000771
B1933384748638N12003008WA0076000772
B1933394748641N12003010WA0075900771
B1933404748645N12003009WA0075800771
B1933414748649N12003008WA0075700769
B1933424748652N12003006WA0075600768
B1933434748656N12003004WA0075500767
B1933444748659N12003003WA0075500766
B1933454748663N12003001WA0075300764
B1933464748666N12003000WA0075300763
B1933474748670N12002998WA0075200761
B1933484748674N12002996WA0075100760
B1933494748677N12002993WA0075000758
B1933504748681N12002990WA0074900757
B1933514748685N12002986WA0074800756
B1933524748689N12002982WA0074700754
B1933534748693N12002978WA0074600751
B1933544748696N12002975WA0074500749
B1933554748700N12002972WA0074300747
B1933564748704N12002969WA0074200745
B1933574748707N12002966WA0074100742
B1933584748711N12002964WA0074000740
B1933594748715N12002961WA0073900738
B1934004748718N12002958WA0073900736
B1934014748722N12002956WA0073700734
B1934024748725N12002954WA0073600732
B1934034748728N12002952WA0073500730
B1934034748728N12002952WA0073500730
B1934044748732N12002951WA0073400729
B1934054748736N12002949WA0073300727
B1934064748740N12002948WA0073200725
B1934074748744N12002946WA0073000723
B1934084748748N12002945WA0072900722
B1934094748753N12002944WA0072800720
B1934104748757N12002943WA0072700718
B1934114748761N12002942WA0072500717
B1934124748765N12002941WA0072400716
B1934134748769N12002939WA0072200715
B1934144748772N12002937WA0072000714
B1934154748775N12002935WA0071900712
B1934164748778N12002933WA0071700711
B1934174748781N12002933WA0071600710
B1934184748784N12002933WA0071500709
B1934194748786N12002935WA0071400708
B1934204748789N12002937WA0071300707
B1934214748791N12002939WA0071300705
B1934224748793N12002942WA0071200704
B1934234748796N12002944WA0071100703
B1934244748799N12002946WA0071000701
B1934254748802N12002948WA0070800699
B1934264748805N12002948WA0070800699
B1934274748809N12002948WA0070600698
B1934284748812N12002948WA0070500697
B1934294748815N12002948WA0070400697
B1934304748818N12002947WA0070300696
B1934314748821N12002947WA0070200694
B1934324748824N12002946WA0070100693
B1934334748827N12002945WA0070000692
B1934344748830N12002944WA0069900690
B1934354748834N12002943WA0069800689
B1934364748839N12002942WA0069700687
B1934374748843N12002942WA0069600685
B1934384748848N12002941WA0069500684
B1934394748853N12002940WA0069400682
B1934404748858N12002939WA0069300681
B1934414748862N12002937WA0069200679
B1934424748867N12002936WA0069100678
B1934434748872N12002934WA0068900676
B1934444748877N12002933WA0068800674
B1934454748881N12002931WA0068700673
B1934464748886N12002930WA0068600671
B1934474748891N12002929WA0068500669
B1934484748895N12002929WA0068400668
B1934494748899N12002929WA0068200667
B1934504748904N12002930WA0068100666
B1934514748907N12002930WA0068000665
B1934524748911N12002931WA0067900664
B1934534748914N12002932WA0067800663
B1934544748917N12002933WA0067700663
B1934554748919N12002935WA0067600662
B1934564748921N12002937WA0067500662
B1934574748924N12002940WA0067400660
B1934584748926N12002943WA0067300659
B1934594748929N12002946WA0067200659
B1935004748931N12002949WA0067100658
B1935014748934N12002951WA0067000657
B1935024748938N12002953WA0067000656
B1935034748941N12002955WA0066900656
B1935044748944N12002956WA0066800655
B1935054748948N12002957WA0066700654
B1935064748951N12002958WA0066600653
B1935074748954N12002960WA0066500652
B1935074748954N12002960WA0066500652
B1935084748957N12002963WA0066500650
B1935094748960N12002966WA0066400649
B1935104748963N12002969WA0066300648
B1935114748966N12002972WA0066200646
B1935124748970N12002974WA0066100645
B1935134748973N12002975WA0066000644
B1935144748977N12002976WA0065900644
B1935154748981N12002975WA0065800643
B1935164748985N12002976WA0065700643
B1935174748988N12002977WA0065600642
B1935184748991N12002979WA0065500641
B1935194748994N12002981WA0065400641
B1935204748998N12002982WA0065300641
B1935214749001N12002984WA0065200640
B1935224749004N12002986WA0065100641
B1935234749007N12002988WA0065000641
B1935244749010N12002991WA0065000640
B1935254749013N12002993WA0064900639
B1935264749017N12002995WA0064800639
B1935274749020N12002996WA0064700638
B1935284749023N12002997WA0064600638
B1935294749026N12002997WA0064500638
B1935304749030N12002997WA0064400638
B1935314749033N12002998WA0064400638
B1935324749037N12002998WA0064300637
B1935334749040N12003000WA0064200637
B1935344749044N12003002WA0064200636
B1935354749047N12003004WA0064100635
B1935364749051N12003006WA0064000634
B1935374749055N12003008WA0063900633
B1935384749060N12003009WA0063800631
B1935394749064N12003011WA0063700629
B1935404749069N12003012WA0063600627
B1935414749073N12003014WA0063500625
B1935424749078N12003016WA0063400623
B1935434749083N12003018WA0063200620
B1935444749088N12003021WA0063100619
B1935454749092N12003024WA0063000617
B1935464749097N12003027WA0062900616
B1935474749102N12003029WA0062700615
B1935484749106N12003029WA0062700613
B1935494749111N12003029WA0062500613
B1935504749116N12003028WA0062400613
B1935514749121N12003028WA0062300612
B1935524749127N12003027WA0062200612
B1935534749132N12003028WA0062100612
B1935544749137N12003029WA0062000610
B1935554749143N12003031WA0061900609
B1935564749148N12003033WA0061800608
B1935574749153N12003034WA0061700607
B1935584749159N12003034WA0061600606
B1935594749164N12003034WA0061400605
B1936004749170N12003032WA0061300603
B1936014749175N12003032WA0061200602
B1936024749180N12003032WA0061100600
B1936034749185N12003032WA0061000600
B1936044749190N12003033WA0060900600
B1936054749194N12003034WA0060800600
B1936064749199N12003035WA0060700600
B1936074749205N12003035WA0060600600
B1936084749210N12003035WA0060500597
B1936094749216N12003035WA0060400596
B1936104749221N12003036WA0060400597
B1936114749225N12003038WA0060300596
B1936114749225N12003038WA0060300596
B1936124749229N12003040WA0060300597
B1936134749234N12003042WA0060200596
B1936144749238N12003044WA0060100596
B1936154749242N12003045WA0060100595
B1936164749247N12003046WA0060000594
B1936174749251N12003047WA0060000594
B1936184749256N12003048WA0059900593
B1936194749260N12003048WA0059900593
B1936204749265N12003049WA0059800592
B1936214749270N12003050WA0059700591
B1936224749275N12003051WA0059700590
B1936234749281N12003052WA0059600589
B1936244749286N12003054WA0059500589
B1936254749291N12003055WA0059500588
B1936264749295N12003057WA0059400587
B1936274749300N12003059WA0059300586
B1936284749305N12003060WA0059300585
B1936294749309N12003062WA0059200585
B1936304749314N12003064WA0059200583
B1936314749319N12003066WA0059100582
B1936324749324N12003067WA0059000581
B1936334749329N12003069WA0058900579
B1936344749334N12003069WA0058900578
B1936354749339N12003070WA0058800578
B1936364749344N12003069WA0058700577
B1936374749350N12003069WA0058700576
B1936384749355N12003069WA0058600575
B1936394749360N12003069WA0058500574
B1936404749366N12003068WA0058500573
B1936414749372N12003067WA0058400572
B1936424749378N12003066WA0058400570
B1936434749384N12003065WA0058300568
B1936444749390N12003064WA0058200565
B1936454749395N12003063WA0058200564
B1936464749400N12003061WA0058100563
B1936474749406N12003060WA0058100563
B1936484749411N12003059WA0058000562
B1936494749416N12003059WA0058000561
B1936504749422N12003059WA0057900560
B1936514749427N12003059WA0057900558
B1936524749432N12003059WA0057800557
B1936534749438N12003058WA0057700556
B1936544749443N12003058WA0057700555
B1936554749448N12003057WA0057600553
B1936564749453N12003057WA0057600552
B1936574749459N12003056WA0057500550
B1936584749464N12003056WA0057400549
B1936594749470N12003055WA0057300549
B1937004749475N12003054WA0057300548
B1937014749480N12003053WA0057200547
B1937024749486N12003052WA0057100546
B1937034749491N12003051WA0057000545
B1937044749496N12003050WA0057000544
B1937054749501N12003051WA0056900543
B1937064749506N12003052WA0056800542
B1937074749511N12003053WA0056700541
B1937084749515N12003055WA0056700540
B1937094749520N12003057WA0056600540
B1937104749525N12003059WA0056500539
B1937114749530N12003061WA0056500538
B1937124749535N12003063WA0056400537
B1937134749540N12003064WA0056300535
B1937144749545N12003066WA0056300534
B1937154749551N12003068WA0056200533
B1937154749551N12003068WA0056200533
B1937164749556N12003071WA0056100532
B1937174749562N12003072WA0056000531
B1937184749567N12003073WA0055900530
B1937194749573N12003074WA0055800529
B1937204749578N12003075WA0055800529
B1937214749582N12003077WA0055700529
B1937224749587N12003079WA0055600528
B1937234749591N12003081WA0055500528
B1937244749595N12003085WA0055500527
B1937254749598N12003089WA0055400527
B1937264749602N12003093WA0055400527
B1937274749605N12003097WA0055300527
B1937284749608N12003101WA0055300527
B1937294749611N12003106WA0055200527
B1937304749612N12003111WA0055200527
B1937314749614N12003117WA0055100528
B1937324749615N12003122WA0055100528
B1937334749616N12003128WA0055100528
B1937344749617N12003134WA0055100529
B1937354749617N12003139WA0055100530
B1937364749618N12003145WA0055100530
B1937374749618N12003151WA0055100531
B1937384749619N12003157WA0055100531
B1937394749619N12003163WA0055100532
B1937404749620N12003168WA0055100532
B1937414749621N12003173WA0055100533
B1937424749622N12003177WA0055100533
B1937434749622N12003180WA0055100533
B1937444749623N12003181WA0055100533
B1937454749623N12003181WA0055100533
B1937464749623N12003181WA0055100534
B1937474749623N12003181WA0055100534
B1937484749623N12003181WA0055100534
B1937494749623N12003181WA0055100534
B1937504749623N12003181WA0055100533
B1937514749623N12003181WA0055100534
B1937524749623N12003181WA0055100534
B1937534749623N12003181WA0055100534
B1937544749623N12003181WA0055000534
B1937554749623N12003183WA0055000534
B1937564749623N12003186WA0055000534
B1937574749623N12003189WA0055000534
B1937584749623N12003193WA0055100535
B1937594749623N12003197WA0055100535
B1938004749624N12003203WA0055100535
B1938014749625N12003209WA0055000534
B1938024749626N12003216WA0055000533
B1938034749628N12003222WA0055000533
B1938044749629N12003230WA0055000533
B1938054749631N12003237WA0055000532
B1938064749632N12003245WA0055000532
B1938074749632N12003252WA0055000532
B1938084749631N12003258WA0055000532
B1938094749629N12003265WA0054900533
B1938104749628N12003270WA0054900533
B1938114749628N12003277WA0054900533
B1938124749630N12003282WA0054900532
B1938134749633N12003286WA0054900532
B1938144749637N12003290WA0054900532
B1938154749641N12003293WA0054900531
B1938164749646N12003296WA0054900531
B1938174749652N12003298WA0054800530
B1938184749658N12003298WA0054800529
B1938194749664N12003296WA0054800529
B1938204749669N12003293WA0054800528
B1938214749675N12003292WA0054700527
B1938214749675N12003292WA0054700527
B1938224749681N12003292WA0054700527
B1938234749686N12003293WA0054600527
B1938244749691N12003294WA0054600526
B1938254749696N12003298WA0054600524
B1938264749701N12003302WA0054500523
B1938274749705N12003308WA0054500522
B1938284749708N12003314WA0054400522
B1938294749712N12003321WA0054300521
B1938304749715N12003328WA0054300521
B1938314749719N12003335WA0054200520
B1938324749722N12003340WA0054200520
B1938334749727N12003345WA0054100519
B1938344749732N12003349WA0054000518
B1938354749737N12003353WA0054000516
B1938364749742N12003355WA0053900515
B1938374749748N12003358WA0053800513
B1938384749753N12003361WA0053700511
B1938394749759N12003363WA0053600510
B1938404749765N12003366WA0053500509
B1938414749770N12003368WA0053400508
B1938424749776N12003371WA0053300507
B1938434749782N12003373WA0053200505
B1938444749787N12003376WA0053200504
B1938454749793N12003379WA0053000503
B1938464749798N12003381WA0052900502
B1938474749803N12003384WA0052800501
B1938484749807N12003388WA0052700500
B1938494749811N12003393WA0052600500
B1938504749815N12003399WA0052500499
B1938514749819N12003406WA0052400498
B1938524749822N12003413WA0052300497
B1938534749825N12003420WA0052200496
B1938544749827N12003427WA0052100494
B1938554749830N12003435WA0052000494
B1938564749831N12003444WA0051900492
B1938574749832N12003453WA0051800491
B1938584749834N12003462WA0051700490
B1938594749837N12003471WA0051600489
B1939004749839N12003480WA0051500487
B1939014749842N12003488WA0051400486
B1939024749845N12003496WA0051200485
B1939034749848N12003504WA0051100483
B1939044749851N12003511WA0051000482
B1939054749853N12003517WA0050900481
B1939064749855N12003523WA0050800480
B1939074749858N12003526WA0050600479
B1939084749861N12003529WA0050500478
B1939094749865N12003529WA0050400477
B1939104749868N12003526WA0050300476
B1939114749871N12003521WA0050200475
B1939124749872N12003515WA0050100474
B1939134749874N12003507WA0050000473
B1939144749875N12003499WA0049900472
B1939154749877N12003490WA0049800471
B1939164749878N12003480WA0049700469
B1939174749880N12003470WA0049600468
B1939184749882N12003460WA0049500467
B1939194749884N12003450WA0049400465
B1939204749885N12003439WA0049300463
B1939214749887N12003429WA0049200462
B1939224749889N12003419WA0049100461
B1939234749892N12003409WA0049000459
B1939244749895N12003400WA0048800457
B1939254749898N12003391WA0048700456
B1939254749898N12003391WA0048700456
B1939264749901N12003382WA0048600454
B1939274749903N12003373WA0048500452
B1939284749905N12003365WA0048300451
B1939294749906N12003356WA0048200450
B1939304749906N12003347WA0048000449
B1939314749906N12003337WA0047900448
B1939324749905N12003328WA0047800447
B1939334749904N12003319WA0047600446
B1939344749903N12003310WA0047500445
B1939354749900N12003301WA0047400444
B1939364749897N12003292WA0047300442
B1939374749893N12003284WA0047100442
B1939384749889N12003276WA0047000441
B1939394749885N12003269WA0046900440
B1939404749881N12003262WA0046800439
B1939414749877N12003254WA0046700438
B1939424749873N12003246WA0046500436
B1939434749870N12003237WA0046400435
B1939444749867N12003229WA0046200433
B1939454749864N12003221WA0046100431
B1939464749861N12003212WA0046000430
B1939474749858N12003204WA0045900429
B1939484749855N12003196WA0045700427
B1939494749851N12003190WA0045500425
B1939504749846N12003185WA0045400424
B1939514749840N12003183WA0045300423
B1939524749835N12003182WA0045100421
B1939534749830N12003181WA0045000420
B1939544749826N12003180WA0044800418
B1939554749822N12003179WA0044700418
B1939564749819N12003178WA0044600417
B1939574749817N12003176WA0044500417
B1939584749816N12003172WA0044300417
B1939594749816N12003167WA0044200416
B1940004749818N12003163WA0044100415
B1940014749821N12003159WA0044000415
B1940024749825N12003158WA0043900415
B1940034749830N12003157WA0043800415
B1940044749835N12003158WA0043700415
B1940054749841N12003159WA0043600414
B1940064749846N12003160WA0043500413
B1940074749851N12003162WA0043400413
B1940084749856N12003164WA0043300413
B1940094749860N12003167WA0043200413
B1940104749865N12003170WA0043100411
B1940114749869N12003173WA0043000410
B1940124749873N12003176WA0042900410
B1940134749877N12003180WA0042800410
B1940144749881N12003184WA0042700409
B1940154749886N12003189WA0042600406
B1940164749891N12003194WA0042500405
B1940174749896N12003197WA0042400403
B1940184749901N12003201WA0042300402
B1940194749906N12003205WA0042200401
B1940204749912N12003209WA0042100399
B1940214749918N12003212WA0042000397
B1940224749923N12003215WA0041900396
B1940234749929N12003217WA0041800395
B1940244749936N12003219WA0041600394
B1940254749942N12003220WA0041600392
B1940264749949N12003222WA0041400390
B1940274749955N12003223WA0041300388
B1940284749962N12003225WA0041200386
B1940284749962N12003225WA0041200386
B1940294749968N12003227WA0041100384
B1940304749975N12003230WA0040900383
B1940314749981N12003232WA0040800382
B1940324749987N12003234WA0040700381
B1940334749993N12003237WA0040600381
B1940344749998N12003240WA0040400380
B1940354750003N12003242WA0040400379
B1940364750008N12003245WA0040200379
B1940374750013N12003247WA0040100379
B1940384750018N12003250WA0040000380
B1940394750023N12003253WA0039900378
B1940404750027N12003255WA0039700378
B1940414750032N12003258WA0039600378
B1940424750037N12003261WA0039500377
B1940434750043N12003263WA0039400376
B1940444750048N12003265WA0039300374
B1940454750054N12003266WA0039200373
B1940464750060N12003265WA0039000372
B1940474750067N12003265WA0038900372
B1940484750073N12003264WA0038800371
B1940494750078N12003264WA0038700370
B1940504750084N12003262WA0038600369
B1940514750089N12003261WA0038500367
B1940524750094N12003260WA0038400367
B1940534750100N12003259WA0038300368
B1940544750106N12003258WA0038200367
B1940554750111N12003256WA0038100366
B1940564750116N12003255WA0038000367
B1940574750121N12003253WA0038000367
B1940584750126N12003252WA0037800366
B1940594750130N12003250WA0037800366
B1941004750135N12003249WA0037700365
B1941014750139N12003248WA0037600364
B1941024750142N12003247WA0037500364
B1941034750146N12003246WA0037400362
B1941044750148N12003245WA0037300361
B1941054750150N12003244WA0037200360
B1941064750151N12003244WA0037100358
B1941074750152N12003243WA0037000358
B1941084750154N12003241WA0037000357
B1941094750155N12003239WA0036900357
B1941104750156N12003235WA0036900355
B1941114750156N12003229WA0036900355
B1941124750155N12003222WA0036800355
B1941134750154N12003214WA0036800355
B1941144750153N12003205WA0036800355
B1941154750153N12003196WA0036700355
B1941164750152N12003186WA0036700355
B1941174750151N12003176WA0036700355
B1941184750150N12003166WA0036700355
B1941194750149N12003156WA0036700355
B1941204750148N12003146WA0036700355
B1941214750147N12003136WA0036700355
B1941224750146N12003125WA0036700354
B1941234750145N12003114WA0036700354
B1941244750143N12003103WA0036700354
B1941254750142N12003092WA0036700353
B1941264750141N12003080WA0036700353
B1941274750140N12003068WA0036700353
B1941284750139N12003056WA0036600352
B1941294750137N12003044WA0036600352
B1941304750136N12003032WA0036600351
B1941314750135N12003020WA0036600351
B1941324750134N12003007WA0036600350
B1941334750132N12002995WA0036600350
B1941334750132N12002995WA0036600350
B1941344750131N12002983WA0036600350
B1941354750130N12002971WA0036500349
B1941364750129N12002959WA0036500349
B1941374750127N12002946WA0036500348
B1941384750126N12002934WA0036500348
B1941394750124N12002922WA0036400348
B1941404750123N12002909WA0036400347
B1941414750122N12002896WA0036300346
B1941424750120N12002883WA0036300346
B1941434750119N12002870WA0036300345
B1941444750118N12002857WA0036200345
B1941454750117N12002845WA0036200344
B1941464750115N12002832WA0036100344
B1941474750114N12002819WA0036100344
B1941484750113N12002805WA0036000344
B1941494750111N12002792WA0036000343
B1941504750109N12002779WA0035900343
B1941514750106N12002766WA0035900343
B1941524750104N12002753WA0035800343
B1941534750101N12002740WA0035800343
B1941544750098N12002727WA0035800343
B1941554750096N12002714WA0035800343
B1941564750093N12002700WA0035700343
B1941574750090N12002687WA0035700343
B1941584750087N12002674WA0035700343
B1941594750085N12002661WA0035700343
B1942004750082N12002647WA0035700343
B1942014750080N12002634WA0035600343
B1942024750078N12002621WA0035600343
B1942034750077N12002608WA0035600343
B1942044750075N12002595WA0035600343
B1942054750073N12002582WA0035600343
B1942064750072N12002569WA0035600343
B1942074750070N12002556WA0035600344
B1942084750069N12002544WA0035600344
B1942094750067N12002531WA0035600344
B1942104750065N12002518WA0035600344
B1942114750064N12002505WA0035600344
B1942124750062N12002492WA0035600344
B1942134750061N12002479WA0035600344
B1942144750059N12002466WA0035600345
B1942154750058N12002452WA0035600345
B1942164750057N12002439WA0035600345
B1942174750055N12002426WA0035600345
B1942184750054N12002413WA0035600345
B1942194750054N12002402WA0035600345
B1942204750053N12002390WA0035600345
B1942214750054N12002380WA0035600345
B1942224750055N12002370WA0035600345
B1942234750057N12002359WA0035600345
B1942244750060N12002350WA0035600345
B1942254750063N12002341WA0035600345
B1942264750068N12002332WA0035500345
B1942274750072N12002325WA0035500346
B1942284750078N12002318WA0035500347
B1942294750084N12002313WA0035500346
B1942304750090N12002308WA0035500346
B1942314750097N12002303WA0035500346
B1942324750104N12002299WA0035500345
B1942334750110N12002294WA0035500345
B1942344750117N12002290WA0035500344
B1942354750124N12002285WA0035500343
B1942364750130N12002279WA0035500343
B1942364750130N12002279WA0035500343
B1942374750136N12002272WA0035500343
B1942384750142N12002264WA0035500342
B1942394750147N12002255WA0035500342
B1942404750151N12002245WA0035500342
B1942414750154N12002235WA0035500341
B1942424750156N12002224WA0035500341
B1942434750158N12002213WA0035500340
B1942444750158N12002201WA0035500341
B1942454750158N12002190WA0035500341
B1942464750157N12002178WA0035500341
B1942474750156N12002166WA0035500341
B1942484750155N12002155WA0035500341
B1942494750154N12002144WA0035500341
B1942504750153N12002132WA0035500341
B1942514750152N12002121WA0035500341
B1942524750151N12002110WA0035500341
B1942534750150N12002099WA0035500341
B1942544750150N12002088WA0035500341
B1942554750149N12002077WA0035500341
B1942564750149N12002067WA0035500341
B1942574750149N12002056WA0035500341
B1942584750150N12002046WA0035500342
B1942594750151N12002035WA0035500342
B1943004750153N12002025WA0035500342
B1943014750155N12002014WA0035500342
B1943024750158N12002004WA0035500343
B1943034750161N12001994WA0035500343
B1943044750164N12001983WA0035500344
B1943054750168N12001973WA0035500344
B1943064750171N12001963WA0035500344
B1943074750175N12001952WA0035500344
B1943084750178N12001941WA0035600345
B1943094750181N12001930WA0035600344
B1943104750184N12001918WA0035600345
B1943114750186N12001906WA0035600344
B1943124750187N12001894WA0035600344
B1943134750187N12001881WA0035600344
B1943144750187N12001869WA0035700344
B1943154750186N12001856WA0035700344
B1943164750186N12001844WA0035700345
B1943174750185N12001831WA0035700345
B1943184750184N12001819WA0035800346
B1943194750184N12001807WA0035800347
B1943204750183N12001795WA0035800347
B1943214750182N12001783WA0035800348
B1943224750182N12001772WA0035800348
B1943234750181N12001760WA0035900349
B1943244750180N12001749WA0035900350
B1943254750179N12001737WA0035900350
B1943264750179N12001726WA0035900350
B1943274750178N12001715WA0035900350
B1943284750177N12001704WA0035900350
B1943294750177N12001693WA0035900350
B1943304750176N12001683WA0035900350
B1943314750175N12001672WA0035900350
B1943324750175N12001661WA0035900349
B1943334750174N12001651WA0035900349
B1943344750173N12001640WA0035900348
B1943354750173N12001629WA0035900348
B1943364750172N12001618WA0035900347
B1943374750171N12001606WA0035900347
B1943384750171N12001595WA0035900347
B1943394750170N12001583WA0035900346
B1943404750170N12001571WA0035800346
B1943414750169N12001560WA0035800345
B1943414750169N12001560WA0035800345
B1943424750169N12001548WA0035800345
B1943434750168N12001536WA0035800345
B1943444750167N12001525WA0035800345
B1943454750167N12001514WA0035800345
B1943464750167N12001503WA0035800346
B1943474750167N12001492WA0035800347
B1943484750166N12001481WA0035800348
B1943494750166N12001470WA0035800348
B1943504750165N12001459WA0035800349
B1943514750165N12001448WA0035800349
B1943524750164N12001438WA0035800350
B1943534750164N12001428WA0035900351
B1943544750163N12001418WA0035900352
B1943554750163N12001407WA0035900352
B1943564750162N12001397WA0035900352
B1943574750162N12001387WA0036000352
B1943584750161N12001376WA0036000353
B1943594750160N12001365WA0036000353
B1944004750159N12001354WA0036100353
B1944014750159N12001343WA0036100353
B1944024750158N12001333WA0036100353
B1944034750157N12001322WA0036100354
B1944044750156N12001311WA0036200354
B1944054750156N12001300WA0036200354
B1944064750155N12001289WA0036200355
B1944074750154N12001278WA0036200355
B1944084750154N12001268WA0036300355
B1944094750153N12001257WA0036300356
B1944104750152N12001246WA0036300356
B1944114750152N12001235WA0036300357
B1944124750151N12001224WA0036400357
B1944134750151N12001213WA0036400357
B1944144750150N12001202WA0036400358
B1944154750149N12001191WA0036400358
B1944164750149N12001179WA0036400358
B1944174750148N12001167WA0036400358
B1944184750147N12001156WA0036400358
B1944194750146N12001145WA0036400357
B1944204750146N12001133WA0036500358
B1944214750145N12001122WA0036500358
B1944224750144N12001111WA0036400357
B1944234750144N12001100WA0036400357
B1944244750143N12001090WA0036400357
B1944254750144N12001079WA0036400356
B1944264750145N12001069WA0036400356
B1944274750147N12001059WA0036400356
B1944284750150N12001049WA0036400356
B1944294750153N12001039WA0036400356
B1944304750157N12001029WA0036400356
B1944314750160N12001019WA0036400355
B1944324750164N12001009WA0036300354
B1944334750167N12000999WA0036300354
B1944344750170N12000989WA0036300353
B1944354750174N12000979WA0036300352
B1944364750177N12000970WA0036300351
B1944374750181N12000960WA0036300351
B1944384750184N12000950WA0036200350
B1944394750187N12000941WA0036200349
B1944404750190N12000931WA0036200349
B1944414750194N12000923WA0036200349
B1944424750199N12000916WA0036100348
B1944434750204N12000910WA0036100349
B1944444750209N12000905WA0036100349
B1944444750209N12000905WA0036100349
B1944454750216N12000903WA0036100349
B1944464750222N12000901WA0036100349
B1944474750229N12000900WA0036100348
B1944484750236N12000899WA0036100348
B1944494750243N12000898WA0036100347
B1944504750250N12000897WA0036000347
B1944514750258N12000896WA0036000346
B1944524750265N12000895WA0036000346
B1944534750272N12000895WA0036000346
B1944544750279N12000894WA0036000346
B1944554750287N12000894WA0036000345
B1944564750294N12000893WA0036000345
B1944574750301N12000892WA0036000345
B1944584750308N12000892WA0036000345
B1944594750315N12000891WA0036000345
B1945004750322N12000891WA0036000344
B1945014750329N12000890WA0036000344
B1945024750335N12000890WA0036000344
B1945034750341N12000889WA0036000344
B1945044750346N12000889WA0036000344
B1945054750350N12000888WA0036000344
B1945064750354N12000888WA0036000343
B1945074750356N12000888WA0036000343
B1945084750359N12000887WA0036000343
B1945094750360N12000887WA0035900344
B1945104750361N12000887WA0035900345
B1945114750361N12000886WA0035900345
B1945124750361N12000886WA0035900345
B1945134750362N12000886WA0035900345
B1945144750362N12000886WA0035900346
B1945154750362N12000886WA0035900346
B1945164750363N12000885WA0035900346
B1945174750364N12000885WA0035900347
B1945184750365N12000885WA0035900348
B1945194750367N12000885WA0035900349
B1945204750369N12000884WA0035900349
B1945214750371N12000884WA0035900350
B1945224750373N12000883WA0035900351
B1945234750375N12000883WA0035900352
B1945244750377N12000883WA0035900352
B1945254750380N12000882WA0035900353
B1945264750382N12000881WA0035900353
B1945274750385N12000880WA0035900354
B1945284750386N12000877WA0035900355
B1945294750387N12000873WA0035900355
B1945304750387N12000867WA0036000357
B1945314750387N12000861WA0036000356
B1945324750387N12000853WA0036000356
B1945334750388N12000845WA0036000355
B1945344750388N12000836WA0036000355
B1945354750388N12000827WA0036000355
B1945364750388N12000817WA0036000354
B1945374750388N12000807WA0036000354
B1945384750388N12000797WA0036000354
B1945394750388N12000787WA0036000354
B1945404750388N12000776WA0036000354
B1945414750388N12000766WA0036000353
B1945424750388N12000755WA0036000353
B1945434750388N12000745WA0036000354
B1945444750387N12000734WA0036000354
B1945454750387N12000724WA0036100354
B1945464750387N12000713WA0036100354
B1945474750387N12000701WA0036100354
B1945474750387N12000701WA0036100354
B1945484750387N12000690WA0036100354
B1945494750387N12000679WA0036100354
B1945504750387N12000668WA0036200354
B1945514750387N12000657WA0036200354
B1945524750386N12000646WA0036200353
B1945534750386N12000636WA0036300353
B1945544750386N12000625WA0036300354
B1945554750386N12000614WA0036300354
B1945564750386N12000603WA0036400355
B1945574750386N12000592WA0036400355
B1945584750385N12000581WA0036400355
B1945594750385N12000570WA0036500356
B1946004750385N12000559WA0036500356
B1946014750385N12000549WA0036600357
B1946024750384N12000538WA0036600359
B1946034750384N12000526WA0036700359
B1946044750384N12000515WA0036700360
B1946054750384N12000504WA0036800361
B1946064750384N12000492WA0036800361
B1946074750383N12000480WA0036900362
B1946084750383N12000468WA0036900362
B1946094750383N12000456WA0036900363
B1946104750383N12000444WA0037000363
B1946114750382N12000432WA0037000363
B1946124750382N12000421WA0037100363
B1946134750382N12000409WA0037100364
B1946144750382N12000397WA0037200364
B1946154750382N12000386WA0037200364
B1946164750381N12000375WA0037300364
B1946174750381N12000364WA0037300364
B1946184750381N12000352WA0037300364
B1946194750381N12000341WA0037400365
B1946204750381N12000329WA0037400365
B1946214750380N12000318WA0037500365
B1946224750380N12000307WA0037500365
B1946234750380N12000296WA0037600365
B1946244750380N12000285WA0037600365
B1946254750379N12000274WA0037600365
B1946264750379N12000262WA0037700365
B1946274750379N12000250WA0037700365
B1946284750379N12000239WA0037700365
B1946294750379N12000227WA0037800365
B1946304750378N12000215WA0037800365
B1946314750378N12000203WA0037800365
B1946324750378N12000191WA0037800365
B1946334750377N12000178WA0037800364
B1946344750377N12000165WA0037900364
B1946354750377N12000153WA0037900364
B1946364750376N12000140WA0037900364
B1946374750376N12000128WA0037900364
B1946384750376N12000117WA0037900364
B1946394750375N12000105WA0037900364
B1946404750375N12000094WA0037900364
B1946414750375N12000084WA0037900364
B1946424750375N12000073WA0038000364
B1946434750374N12000063WA0038000365
B1946444750374N12000052WA0038000365
B1946454750374N12000041WA0038000365
B1946464750374N12000031WA0038000365
B1946474750373N12000019WA0038000365
B1946484750373N12000008WA0038000365
B1946494750373N11959996WA0038100365
B1946504750372N11959984WA0038100365
B1946504750372N11959984WA0038100365
B1946514750372N11959972WA0038100365
B1946524750371N11959959WA0038100365
B1946534750370N11959946WA0038100365
B1946544750369N11959934WA0038200365
B1946554750367N11959921WA0038200365
B1946564750366N11959909WA0038200366
B1946574750365N11959896WA0038200366
B1946584750363N11959885WA0038200366
B1946594750362N11959873WA0038300367
B1947004750361N11959861WA0038300367
B1947014750360N11959849WA0038300368
B1947024750359N11959837WA0038300368
B1947034750358N11959824WA0038400369
B1947044750357N11959812WA0038400369
B1947054750356N11959800WA0038400369
B1947064750355N11959787WA0038500370
B1947074750354N11959775WA0038500371
B1947084750353N11959762WA0038500371
B1947094750352N11959750WA0038600372
B1947104750351N11959737WA0038600372
B1947114750351N11959724WA0038700373
B1947124750350N11959711WA0038800373
B1947134750349N11959698WA0038800373
B1947144750348N11959684WA0038900374
B1947154750347N11959670WA0038900375
B1947164750346N11959657WA0039000376
B1947174750345N11959643WA0039000377
B1947184750344N11959629WA0039100378
B1947194750343N11959615WA0039100379
B1947204750343N11959601WA0039200380
B1947214750343N11959588WA0039300380
B1947224750344N11959575WA0039400381
B1947234750345N11959562WA0039400382
B1947244750346N11959549WA0039500383
B1947254750348N11959536WA0039500384
B1947264750351N11959524WA0039600385
B1947274750354N11959511WA0039700385
B1947284750357N11959500WA0039800386
B1947294750360N11959488WA0039800387
B1947304750364N11959477WA0039900387
B1947314750368N11959466WA0039900388
B1947324750372N11959456WA0040000388
B1947334750377N11959445WA0040000388
B1947344750382N11959435WA0040100388
B1947354750387N11959426WA0040100388
B1947364750393N11959416WA0040200388
B1947374750399N11959407WA0040200388
B1947384750405N11959398WA0040200388
B1947394750411N11959389WA0040300388
B1947404750417N11959380WA0040300388
B1947414750422N11959371WA0040300388
B1947424750428N11959361WA0040400388
B1947434750434N11959351WA0040400388
B1947444750439N11959340WA0040400389
B1947454750443N11959329WA0040500389
B1947464750448N11959317WA0040500389
B1947474750452N11959306WA0040500389
B1947484750456N11959294WA0040600389
B1947494750460N11959282WA0040600389
B1947504750464N11959270WA0040600389
B1947514750467N11959258WA0040600389
B1947524750471N11959247WA0040600389
B1947534750474N11959236WA0040700389
B1947534750474N11959236WA0040700389
B1947544750477N11959224WA0040700389
B1947554750480N11959214WA0040700389
B1947564750482N11959204WA0040700389
B1947574750485N11959196WA0040700389
B1947584750486N11959188WA0040700389
B1947594750487N11959182WA0040700389
B1948004750486N11959176WA0040700388
B1948014750485N11959170WA0040700388
B1948024750481N11959166WA0040700388
B1948034750477N11959164WA0040700388
B1948044750472N11959163WA0040700388
B1948054750467N11959163WA0040700389
B1948064750462N11959163WA0040700389
B1948074750458N11959162WA0040700390
B1948084750453N11959160WA0040700390
B1948094750449N11959158WA0040700390
B1948104750445N11959154WA0040700390
B1948114750441N11959149WA0040700391
B1948124750438N11959143WA0040700391
B1948134750436N11959136WA0040700392
B1948144750435N11959128WA0040700393
B1948154750434N11959119WA0040700393
B1948164750433N11959110WA0040700394
B1948174750430N11959101WA0040800394
B1948184750427N11959093WA0040800394
B1948194750424N11959085WA0040800395
B1948204750419N11959079WA0040800396
B1948214750414N11959074WA0040900396
B1948224750408N11959069WA0040900396
B1948234750402N11959065WA0040900397
B1948244750396N11959062WA0041000397
B1948254750390N11959058WA0041000398
B1948264750384N11959055WA0041000398
B1948274750378N11959052WA0041100399
B1948284750372N11959049WA0041100398
B1948294750366N11959045WA0041100398
B1948304750361N11959040WA0041100399
B1948314750355N11959036WA0041200399
B1948324750350N11959031WA0041200399
B1948334750344N11959027WA0041200398
B1948344750339N11959022WA0041200397
B1948354750333N11959017WA0041200397
B1948364750328N11959011WA0041200397
B1948374750323N11959005WA0041200397
B1948384750318N11958999WA0041200397
B1948394750313N11958992WA0041200397
B1948404750308N11958986WA0041200397
B1948414750303N11958979WA0041200397
B1948424750299N11958972WA0041200396
B1948434750295N11958965WA0041200396
B1948444750291N11958958WA0041200396
B1948454750287N11958952WA0041200396
B1948464750283N11958947WA0041200396
B1948474750278N11958945WA0041200396
B1948484750273N11958945WA0041200396
B1948494750268N11958946WA0041200396
B1948504750263N11958949WA0041200396
B1948514750258N11958953WA0041200396
B1948524750253N11958957WA0041200395
B1948534750249N11958962WA0041200394
B1948544750245N11958965WA0041200393
B1948554750241N11958968WA0041200392
B1948564750237N11958971WA0041200391
B1948574750233N11958972WA0041200391
B1948584750230N11958972WA0041100389
B1948584750230N11958972WA0041100389
B1948594750226N11958971WA0041100389
B1949004750224N11958968WA0041000388
B1949014750222N11958963WA0041000387
B1949024750222N11958957WA0040900388
B1949034750222N11958951WA0040900388
B1949044750222N11958945WA0040800388
B1949054750222N11958940WA0040800388
B1949064750221N11958935WA0040700388
B1949074750220N11958931WA0040700388
B1949084750218N11958928WA0040700387
B1949094750217N11958926WA0040700388
B1949104750215N11958924WA0040600388
B1949114750213N11958922WA0040600388
B1949124750211N11958921WA0040600387
B1949134750210N11958919WA0040600387
B1949144750208N11958918WA0040500387
B1949154750208N11958918WA0040500387
B1949164750207N11958917WA0040500387
B1949174750206N11958917WA0040500387
B1949184750206N11958917WA0040500388
B1949194750206N11958917WA0040500388
B1949204750206N11958917WA0040500388
B1949214750206N11958917WA0040500388
B1949224750206N11958917WA0040500388
B1949234750206N11958916WA0040500388
B1949244750206N11958916WA0040500388
B1949254750206N11958916WA0040400388
B1949264750206N11958916WA0040400388
B1949274750206N11958916WA0040400388
B1949284750206N11958916WA0040400388
B1949294750206N11958916WA0040400388
B1949304750206N11958916WA0040400388
B1949314750206N11958916WA0040400389
B1949324750206N11958916WA0040400389
B1949334750206N11958916WA0040400389
B1949344750206N11958916WA0040400389
B1949354750206N11958916WA0040400389
B1949364750206N11958916WA0040400389
B1949374750206N11958916WA0040400389
B1949384750206N11958916WA0040400389
B1949394750206N11958916WA0040400389
B1949404750206N11958916WA0040400389
B1949414750206N11958916WA0040400390
B1949424750206N11958916WA0040400390
B1949434750206N11958916WA0040400390
B1949444750206N11958916WA0040400390
B1949454750206N11958916WA0040400390
B1949464750206N11958916WA0040400390
B1949474750206N11958916WA0040400390
B1949484750206N11958916WA0040400390
B1949494750206N11958916WA0040400390
B1949504750206N11958916WA0040400390
B1949514750206N11958916WA0040400390
B1949524750206N11958916WA0040400390
B1949534750206N11958916WA0040400390
B1949544750206N11958916WA0040400391
B1949554750206N11958916WA0040400391
B1949564750206N11958916WA0040400391
B1949574750206N11958916WA0040400391
B1949584750206N11958916WA0040400391
B1949594750206N11958917WA0040400391
B1950004750206N11958917WA0040400391
B1950014750206N11958917WA0040400391
