AXFMSFP Flymaster Live, V1.0
HFFXA010
HFPLTPILOT:Michael Graef
HFGTYGLIDERTYPE:Sky Zeno 2 / Gin Genie Lite
HFGIDGLIDERID:
HFDTM100GPSDATUM:WGS-1984
HFCIDCOMPETITIONID:7
HFCCLCOMPETITIONCLASS:
HOSITSITE:LAUNCH
HFGPS:UBLOXNEO6
HFPRSPRESSALTSENSOR:NA
HFRFWFIRMWAREVERSION:202g
HFRHWHARDWAREVERSION:1.0R2
HFFTYFRTYPE:FLYMASTER,LIVE
HFDTE260625
B1854414748245N12002360WA0110901129
B1854424748245N12002360WA0110901129
B1854434748244N12002360WA0110901129
B1854444748244N12002360WA0110901129
B1854454748244N12002360WA0110901129
B1854464748244N12002360WA0110901129
B1854474748244N12002360WA0110901129
B1854484748244N12002360WA0110901130
B1854494748244N12002360WA0110901130
B1854504748244N12002360WA0110901130
B1854514748244N12002361WA0110901130
B1854524748244N12002360WA0110901129
B1854534748244N12002360WA0110901129
B1854544748244N12002360WA0110901129
B1854554748243N12002361WA0110901129
B1854564748242N12002362WA0110901129
B1854574748241N12002364WA0110901128
B1854584748241N12002367WA0110901128
B1854594748240N12002370WA0110901128
B1855004748240N12002372WA0110901129
B1855014748239N12002375WA0111001129
B1855024748239N12002377WA0111001130
B1855034748240N12002379WA0111001130
B1855044748240N12002381WA0111001130
B1855054748239N12002383WA0111101130
B1855064748238N12002384WA0111101129
B1855074748236N12002385WA0111001129
B1855084748234N12002387WA0111001128
B1855094748233N12002389WA0111001128
B1855104748231N12002392WA0111001128
B1855114748230N12002394WA0111101130
B1855124748229N12002396WA0111101132
B1855134748229N12002397WA0111201135
B1855144748229N12002398WA0111201136
B1855154748228N12002399WA0111301136
B1855164748227N12002401WA0111301136
B1855174748226N12002403WA0111401135
B1855184748224N12002404WA0111401136
B1855194748222N12002406WA0111501136
B1855204748221N12002408WA0111501136
B1855214748220N12002410WA0111601136
B1855224748218N12002412WA0111601137
B1855234748217N12002414WA0111601137
B1855244748216N12002417WA0111601137
B1855254748217N12002421WA0111601137
B1855264748217N12002424WA0111701137
B1855274748217N12002428WA0111701138
B1855284748216N12002430WA0111701138
B1855294748215N12002432WA0111701138
B1855304748214N12002434WA0111801138
B1855314748212N12002436WA0111801137
B1855324748210N12002438WA0111801136
B1855334748208N12002441WA0111801136
B1855344748206N12002442WA0111801136
B1855354748204N12002444WA0111801136
B1855364748202N12002446WA0111801136
B1855374748200N12002448WA0111801136
B1855384748199N12002450WA0111801136
B1855394748197N12002451WA0111801136
B1855404748195N12002453WA0111801136
B1855414748193N12002455WA0111801137
B1855424748191N12002458WA0111801137
B1855434748189N12002461WA0111801138
B1855444748187N12002465WA0111801139
B1855454748185N12002468WA0111801141
B1855454748185N12002468WA0111801141
B1855464748183N12002471WA0111901143
B1855474748181N12002473WA0112001145
B1855484748178N12002475WA0112101146
B1855494748175N12002477WA0112101147
B1855504748173N12002479WA0112201147
B1855514748171N12002481WA0112301148
B1855524748168N12002481WA0112401149
B1855534748165N12002480WA0112401148
B1855544748160N12002476WA0112401147
B1855554748155N12002470WA0112401145
B1855564748150N12002463WA0112401144
B1855574748145N12002458WA0112401144
B1855584748141N12002452WA0112401143
B1855594748137N12002447WA0112401143
B1856004748132N12002442WA0112401142
B1856014748128N12002437WA0112301140
B1856024748123N12002431WA0112301140
B1856034748118N12002426WA0112301139
B1856044748112N12002420WA0112201138
B1856054748107N12002414WA0112201137
B1856064748101N12002406WA0112101135
B1856074748094N12002397WA0112101133
B1856084748088N12002388WA0112001130
B1856094748081N12002378WA0111901127
B1856104748073N12002369WA0111801124
B1856114748066N12002359WA0111701122
B1856124748058N12002349WA0111501120
B1856134748051N12002341WA0111401118
B1856144748044N12002332WA0111301117
B1856154748038N12002324WA0111201116
B1856164748031N12002316WA0111001114
B1856174748025N12002307WA0110901112
B1856184748019N12002298WA0110801111
B1856194748012N12002288WA0110701111
B1856204748005N12002279WA0110501110
B1856214747999N12002270WA0110401108
B1856224747992N12002262WA0110301107
B1856234747984N12002255WA0110201107
B1856244747977N12002249WA0110101106
B1856254747970N12002243WA0110001105
B1856264747963N12002237WA0109901105
B1856274747956N12002229WA0109801103
B1856284747949N12002220WA0109601101
B1856294747942N12002211WA0109501099
B1856304747934N12002200WA0109301097
B1856314747927N12002190WA0109201095
B1856324747920N12002179WA0109101094
B1856334747913N12002168WA0109001093
B1856344747906N12002157WA0108801091
B1856354747900N12002147WA0108701090
B1856364747895N12002136WA0108501089
B1856374747890N12002126WA0108401088
B1856384747885N12002115WA0108301087
B1856394747880N12002103WA0108201085
B1856404747876N12002091WA0108001083
B1856414747872N12002077WA0107801081
B1856424747869N12002063WA0107701080
B1856434747867N12002049WA0107601079
B1856444747868N12002034WA0107401078
B1856454747869N12002020WA0107301077
B1856464747873N12002005WA0107101075
B1856474747878N12001991WA0106901073
B1856484747883N12001978WA0106701069
B1856494747890N12001968WA0106601067
B1856494747890N12001968WA0106601067
B1856504747898N12001960WA0106401066
B1856514747905N12001956WA0106201064
B1856524747912N12001955WA0106001063
B1856534747919N12001957WA0105901061
B1856544747925N12001960WA0105701060
B1856554747931N12001963WA0105601059
B1856564747936N12001967WA0105501059
B1856574747939N12001972WA0105401059
B1856584747942N12001979WA0105301057
B1856594747945N12001985WA0105201056
B1857004747947N12001992WA0105001054
B1857014747947N12001999WA0104901053
B1857024747946N12002005WA0104801052
B1857034747944N12002010WA0104701051
B1857044747942N12002016WA0104601050
B1857054747940N12002021WA0104501048
B1857064747938N12002025WA0104301045
B1857074747936N12002030WA0104201042
B1857084747934N12002035WA0103901038
B1857094747933N12002040WA0103701034
B1857104747931N12002045WA0103401030
B1857114747929N12002050WA0103201026
B1857124747927N12002055WA0102901020
B1857134747924N12002061WA0102601015
B1857144747921N12002067WA0102201010
B1857154747918N12002073WA0101901004
B1857164747915N12002078WA0101401000
B1857174747911N12002083WA0101100996
B1857184747907N12002088WA0100700992
B1857194747903N12002092WA0100300988
B1857204747900N12002098WA0099900986
B1857214747897N12002103WA0099600984
B1857224747894N12002108WA0099200982
B1857234747891N12002113WA0099000979
B1857244747889N12002118WA0098600975
B1857254747887N12002124WA0098300972
B1857264747885N12002129WA0097900968
B1857274747882N12002134WA0097700964
B1857284747878N12002139WA0097200960
B1857294747874N12002143WA0096900956
B1857304747870N12002149WA0096500952
B1857314747867N12002155WA0096200949
B1857324747864N12002160WA0095800948
B1857334747861N12002165WA0095600947
B1857344747858N12002169WA0095300947
B1857354747856N12002173WA0095100945
B1857364747853N12002177WA0094800945
B1857374747851N12002181WA0094700945
B1857384747849N12002185WA0094500944
B1857394747847N12002190WA0094300942
B1857404747844N12002194WA0094100938
B1857414747841N12002199WA0093900934
B1857424747837N12002203WA0093600930
B1857434747833N12002208WA0093400925
B1857444747828N12002213WA0093000921
B1857454747824N12002219WA0092800918
B1857464747819N12002224WA0092400915
B1857474747815N12002230WA0092200913
B1857484747812N12002236WA0091900911
B1857494747808N12002241WA0091700910
B1857504747805N12002247WA0091500910
B1857514747801N12002251WA0091300911
B1857524747799N12002254WA0091200913
B1857524747799N12002254WA0091200913
B1857534747796N12002257WA0091100914
B1857544747794N12002259WA0091000914
B1857554747792N12002261WA0090900914
B1857564747790N12002263WA0090800913
B1857574747788N12002266WA0090700911
B1857584747786N12002270WA0090600909
B1857594747783N12002274WA0090500906
B1858004747781N12002278WA0090300904
B1858014747778N12002282WA0090200903
B1858024747775N12002284WA0090000902
B1858034747772N12002287WA0089900902
B1858044747770N12002289WA0089800902
B1858054747768N12002292WA0089700901
B1858064747766N12002296WA0089600900
B1858074747763N12002299WA0089500899
B1858084747761N12002303WA0089400898
B1858094747759N12002308WA0089300896
B1858104747758N12002313WA0089200895
B1858114747756N12002318WA0089100894
B1858124747754N12002323WA0089000894
B1858134747752N12002328WA0089000893
B1858144747750N12002333WA0088800893
B1858154747748N12002337WA0088800893
B1858164747746N12002342WA0088700894
B1858174747744N12002347WA0088700895
B1858184747743N12002350WA0088700897
B1858194747741N12002354WA0088700899
B1858204747740N12002358WA0088700901
B1858214747740N12002362WA0088800902
B1858224747740N12002366WA0088900904
B1858234747739N12002370WA0088900907
B1858244747739N12002374WA0089100910
B1858254747739N12002378WA0089200912
B1858264747739N12002381WA0089300915
B1858274747739N12002383WA0089500918
B1858284747738N12002385WA0089600920
B1858294747736N12002385WA0089800922
B1858304747734N12002384WA0089900922
B1858314747730N12002379WA0090000923
B1858324747728N12002370WA0090100923
B1858334747727N12002357WA0090200923
B1858344747729N12002344WA0090300924
B1858354747734N12002333WA0090400928
B1858364747740N12002325WA0090600931
B1858374747747N12002321WA0090700932
B1858384747754N12002320WA0090900932
B1858394747759N12002321WA0091000934
B1858404747763N12002325WA0091200936
B1858414747764N12002329WA0091300937
B1858424747762N12002333WA0091400937
B1858434747760N12002335WA0091500939
B1858444747757N12002333WA0091700941
B1858454747754N12002329WA0091800943
B1858464747752N12002322WA0092000943
B1858474747750N12002312WA0092000942
B1858484747751N12002299WA0092100941
B1858494747754N12002285WA0092200941
B1858504747760N12002274WA0092300942
B1858514747766N12002266WA0092400945
B1858524747773N12002261WA0092500948
B1858534747779N12002258WA0092600949
B1858544747785N12002257WA0092800951
B1858554747790N12002258WA0092900952
B1858554747790N12002258WA0092900952
B1858564747794N12002261WA0093100954
B1858574747795N12002264WA0093200954
B1858584747795N12002268WA0093300954
B1858594747792N12002270WA0093400954
B1859004747789N12002269WA0093500954
B1859014747785N12002265WA0093600954
B1859024747781N12002258WA0093700954
B1859034747779N12002247WA0093700954
B1859044747779N12002234WA0093800952
B1859054747781N12002221WA0093800951
B1859064747785N12002208WA0093800950
B1859074747791N12002197WA0093800950
B1859084747799N12002189WA0093800951
B1859094747806N12002185WA0093800951
B1859104747814N12002183WA0093900952
B1859114747820N12002184WA0093900953
B1859124747824N12002186WA0093900954
B1859134747828N12002189WA0094000954
B1859144747831N12002193WA0094000954
B1859154747833N12002198WA0094100954
B1859164747834N12002203WA0094100953
B1859174747834N12002207WA0094100952
B1859184747834N12002213WA0094100950
B1859194747833N12002218WA0094000949
B1859204747833N12002222WA0094000950
B1859214747832N12002225WA0094000951
B1859224747831N12002228WA0094000950
B1859234747829N12002230WA0094000950
B1859244747827N12002234WA0094000949
B1859254747825N12002238WA0093900947
B1859264747824N12002243WA0093900947
B1859274747823N12002247WA0093900947
B1859284747822N12002250WA0093900947
B1859294747822N12002253WA0093900948
B1859304747821N12002256WA0093900948
B1859314747820N12002259WA0093900948
B1859324747819N12002262WA0093900947
B1859334747819N12002266WA0093800947
B1859344747818N12002270WA0093800946
B1859354747817N12002274WA0093800945
B1859364747816N12002278WA0093700944
B1859374747815N12002281WA0093700943
B1859384747815N12002286WA0093600942
B1859394747815N12002290WA0093600941
B1859404747814N12002294WA0093500939
B1859414747812N12002298WA0093400938
B1859424747810N12002302WA0093300936
B1859434747808N12002305WA0093300936
B1859444747806N12002307WA0093200936
B1859454747803N12002310WA0093100935
B1859464747801N12002312WA0093000935
B1859474747798N12002314WA0092900933
B1859484747794N12002316WA0092900932
B1859494747791N12002318WA0092800932
B1859504747788N12002320WA0092700931
B1859514747785N12002322WA0092600931
B1859524747783N12002324WA0092600930
B1859534747781N12002328WA0092500929
B1859544747780N12002333WA0092400928
B1859554747780N12002339WA0092400927
B1859564747779N12002344WA0092300926
B1859574747778N12002349WA0092200926
B1859584747777N12002353WA0092200926
B1859594747776N12002358WA0092100926
B1859594747776N12002358WA0092100926
B1900004747777N12002364WA0092100926
B1900014747777N12002370WA0092000926
B1900024747777N12002376WA0092000926
B1900034747778N12002381WA0092000925
B1900044747778N12002386WA0091900924
B1900054747778N12002391WA0091800923
B1900064747778N12002397WA0091700922
B1900074747777N12002402WA0091700921
B1900084747775N12002407WA0091600920
B1900094747773N12002411WA0091500919
B1900104747772N12002416WA0091400918
B1900114747770N12002420WA0091400918
B1900124747769N12002424WA0091300918
B1900134747768N12002429WA0091200917
B1900144747766N12002433WA0091200917
B1900154747766N12002439WA0091100916
B1900164747766N12002444WA0091000915
B1900174747767N12002450WA0091000915
B1900184747768N12002456WA0090900914
B1900194747769N12002462WA0090900914
B1900204747771N12002468WA0090800913
B1900214747773N12002473WA0090700911
B1900224747775N12002480WA0090600910
B1900234747777N12002486WA0090600908
B1900244747778N12002492WA0090400906
B1900254747778N12002498WA0090300904
B1900264747779N12002504WA0090200903
B1900274747780N12002511WA0090100901
B1900284747781N12002517WA0090000901
B1900294747781N12002522WA0089900902
B1900304747781N12002526WA0089900904
B1900314747781N12002529WA0089900906
B1900324747782N12002531WA0089900907
B1900334747783N12002533WA0089900907
B1900344747785N12002536WA0089900908
B1900354747786N12002539WA0089900908
B1900364747787N12002544WA0089900908
B1900374747788N12002548WA0089900910
B1900384747789N12002551WA0090000912
B1900394747790N12002554WA0090000915
B1900404747790N12002556WA0090100916
B1900414747789N12002557WA0090200917
B1900424747786N12002558WA0090200916
B1900434747782N12002556WA0090300915
B1900444747777N12002550WA0090300915
B1900454747774N12002541WA0090300914
B1900464747774N12002530WA0090300914
B1900474747775N12002519WA0090300913
B1900484747779N12002510WA0090200911
B1900494747784N12002502WA0090200910
B1900504747790N12002495WA0090100907
B1900514747797N12002489WA0090100905
B1900524747805N12002484WA0090000905
B1900534747813N12002482WA0090000906
B1900544747819N12002482WA0090000909
B1900554747825N12002484WA0090000912
B1900564747831N12002486WA0090100915
B1900574747836N12002488WA0090200919
B1900584747841N12002490WA0090300922
B1900594747845N12002492WA0090400925
B1901004747850N12002495WA0090600929
B1901014747853N12002498WA0090800932
B1901024747854N12002502WA0091000934
B1901034747852N12002505WA0091200934
B1901034747852N12002505WA0091200934
B1901044747848N12002504WA0091300933
B1901054747844N12002499WA0091400931
B1901064747840N12002491WA0091400929
B1901074747837N12002480WA0091500928
B1901084747836N12002468WA0091500927
B1901094747838N12002456WA0091500926
B1901104747841N12002444WA0091500926
B1901114747848N12002433WA0091500926
B1901124747855N12002424WA0091500927
B1901134747863N12002417WA0091600930
B1901144747870N12002413WA0091700935
B1901154747876N12002410WA0091800938
B1901164747882N12002408WA0092000942
B1901174747887N12002405WA0092200945
B1901184747893N12002403WA0092400948
B1901194747898N12002402WA0092600950
B1901204747902N12002402WA0092800952
B1901214747906N12002404WA0093000953
B1901224747910N12002408WA0093200953
B1901234747913N12002413WA0093300954
B1901244747915N12002417WA0093400956
B1901254747917N12002419WA0093600958
B1901264747918N12002421WA0093800960
B1901274747918N12002421WA0093900961
B1901284747917N12002422WA0094000959
B1901294747915N12002423WA0094000956
B1901304747911N12002423WA0094100954
B1901314747907N12002421WA0094100953
B1901324747904N12002418WA0094100952
B1901334747900N12002415WA0094100951
B1901344747896N12002414WA0094100950
B1901354747893N12002414WA0094100949
B1901364747890N12002414WA0094100948
B1901374747886N12002415WA0094000948
B1901384747883N12002415WA0094000947
B1901394747879N12002414WA0094000947
B1901404747876N12002414WA0094000947
B1901414747873N12002413WA0094000947
B1901424747870N12002414WA0094000948
B1901434747867N12002414WA0094000948
B1901444747864N12002415WA0094100948
B1901454747861N12002415WA0094100949
B1901464747858N12002416WA0094100949
B1901474747855N12002416WA0094100949
B1901484747852N12002417WA0094200949
B1901494747850N12002419WA0094200949
B1901504747848N12002421WA0094200949
B1901514747847N12002424WA0094200949
B1901524747846N12002427WA0094200949
B1901534747844N12002430WA0094200950
B1901544747843N12002433WA0094200950
B1901554747840N12002436WA0094200950
B1901564747838N12002437WA0094200950
B1901574747835N12002437WA0094200950
B1901584747832N12002436WA0094200949
B1901594747829N12002431WA0094200948
B1902004747825N12002425WA0094100946
B1902014747822N12002417WA0094100945
B1902024747820N12002407WA0094000944
B1902034747819N12002396WA0094000943
B1902044747819N12002384WA0093900942
B1902054747817N12002374WA0093900942
B1902064747814N12002366WA0093800941
B1902074747810N12002361WA0093800940
B1902074747810N12002361WA0093800940
B1902084747805N12002358WA0093700938
B1902094747801N12002358WA0093600937
B1902104747799N12002359WA0093600937
B1902114747798N12002362WA0093500937
B1902124747797N12002365WA0093400936
B1902134747798N12002368WA0093400935
B1902144747800N12002371WA0093200934
B1902154747803N12002375WA0093200932
B1902164747806N12002379WA0093000930
B1902174747808N12002383WA0093000929
B1902184747809N12002387WA0092800927
B1902194747809N12002391WA0092700926
B1902204747808N12002394WA0092600925
B1902214747807N12002397WA0092500924
B1902224747806N12002400WA0092300923
B1902234747807N12002404WA0092300923
B1902244747808N12002407WA0092100922
B1902254747810N12002412WA0092100921
B1902264747812N12002417WA0091900918
B1902274747815N12002423WA0091800916
B1902284747818N12002430WA0091600913
B1902294747821N12002437WA0091500912
B1902304747823N12002443WA0091400910
B1902314747826N12002450WA0091300909
B1902324747828N12002457WA0091100909
B1902334747829N12002463WA0091000908
B1902344747830N12002470WA0090800907
B1902354747831N12002477WA0090700905
B1902364747832N12002484WA0090600904
B1902374747834N12002491WA0090500902
B1902384747835N12002498WA0090300901
B1902394747837N12002505WA0090200899
B1902404747839N12002511WA0090000898
B1902414747841N12002518WA0089900896
B1902424747843N12002525WA0089800895
B1902434747845N12002531WA0089600892
B1902444747847N12002538WA0089500890
B1902454747849N12002546WA0089300888
B1902464747851N12002553WA0089100886
B1902474747853N12002560WA0089000884
B1902484747854N12002567WA0088800881
B1902494747856N12002575WA0088600879
B1902504747857N12002582WA0088400877
B1902514747858N12002590WA0088200875
B1902524747859N12002597WA0088000873
B1902534747861N12002605WA0087800871
B1902544747862N12002612WA0087600869
B1902554747863N12002620WA0087500867
B1902564747865N12002628WA0087300866
B1902574747866N12002635WA0087100864
B1902584747867N12002642WA0086900863
B1902594747868N12002648WA0086800861
B1903004747869N12002656WA0086600858
B1903014747869N12002664WA0086400855
B1903024747870N12002672WA0086100851
B1903034747870N12002680WA0086000849
B1903044747870N12002688WA0085700847
B1903054747870N12002695WA0085500845
B1903064747870N12002702WA0085300842
B1903074747870N12002710WA0085100840
B1903084747870N12002717WA0084800837
B1903094747869N12002725WA0084600835
B1903104747869N12002732WA0084400832
B1903114747868N12002739WA0084200830
B1903114747868N12002739WA0084200830
B1903124747868N12002746WA0083900828
B1903134747867N12002753WA0083700826
B1903144747866N12002760WA0083500824
B1903154747864N12002767WA0083300822
B1903164747863N12002774WA0083100821
B1903174747862N12002781WA0082900820
B1903184747861N12002789WA0082800821
B1903194747860N12002796WA0082600820
B1903204747859N12002804WA0082500820
B1903214747858N12002811WA0082400818
B1903224747858N12002819WA0082200815
B1903234747857N12002827WA0082000812
B1903244747856N12002836WA0081800809
B1903254747855N12002844WA0081700806
B1903264747854N12002852WA0081400805
B1903274747853N12002859WA0081300804
B1903284747852N12002865WA0081100804
B1903294747852N12002871WA0081000802
B1903304747851N12002876WA0080800801
B1903314747850N12002883WA0080700799
B1903324747849N12002889WA0080500797
B1903334747848N12002895WA0080400796
B1903344747846N12002901WA0080200795
B1903354747844N12002907WA0080100794
B1903364747842N12002913WA0079900792
B1903374747840N12002918WA0079800790
B1903384747837N12002923WA0079600787
B1903394747834N12002928WA0079400784
B1903404747831N12002934WA0079100780
B1903414747828N12002941WA0079000777
B1903424747825N12002947WA0078700774
B1903434747821N12002954WA0078500772
B1903444747818N12002960WA0078200770
B1903454747814N12002966WA0078100769
B1903464747812N12002973WA0077900770
B1903474747810N12002980WA0077800773
B1903484747809N12002986WA0077700775
B1903494747807N12002992WA0077700776
B1903504747806N12002997WA0077700778
B1903514747806N12003002WA0077700780
B1903524747808N12003005WA0077700783
B1903534747809N12003009WA0077700784
B1903544747811N12003013WA0077700784
B1903554747811N12003019WA0077800785
B1903564747812N12003023WA0077800787
B1903574747813N12003028WA0077900789
B1903584747814N12003031WA0078000790
B1903594747816N12003035WA0078000792
B1904004747817N12003038WA0078100792
B1904014747817N12003040WA0078200793
B1904024747817N12003043WA0078300794
B1904034747817N12003046WA0078300794
B1904044747817N12003048WA0078400795
B1904054747817N12003051WA0078500795
B1904064747816N12003054WA0078500795
B1904074747817N12003057WA0078600796
B1904084747817N12003060WA0078700797
B1904094747817N12003063WA0078700797
B1904104747817N12003067WA0078800797
B1904114747817N12003070WA0078800797
B1904124747817N12003073WA0078900797
B1904134747816N12003075WA0078900798
B1904144747816N12003076WA0078900798
B1904154747815N12003077WA0078900797
B1904164747814N12003079WA0079000797
B1904164747814N12003079WA0079000797
B1904174747814N12003082WA0079000796
B1904184747813N12003086WA0079000795
B1904194747811N12003090WA0079000793
B1904204747810N12003094WA0078900792
B1904214747809N12003099WA0078900791
B1904224747809N12003105WA0078900790
B1904234747808N12003110WA0078900789
B1904244747807N12003115WA0078800790
B1904254747807N12003120WA0078800790
B1904264747806N12003124WA0078700790
B1904274747805N12003129WA0078700789
B1904284747805N12003134WA0078700788
B1904294747804N12003140WA0078600786
B1904304747803N12003146WA0078600785
B1904314747802N12003151WA0078500785
B1904324747801N12003156WA0078400784
B1904334747800N12003160WA0078400784
B1904344747799N12003164WA0078300783
B1904354747798N12003169WA0078200781
B1904364747797N12003175WA0078100779
B1904374747795N12003181WA0078000776
B1904384747793N12003188WA0077900775
B1904394747792N12003193WA0077800775
B1904404747791N12003198WA0077700775
B1904414747790N12003202WA0077600774
B1904424747789N12003207WA0077500773
B1904434747788N12003211WA0077400771
B1904444747786N12003217WA0077200768
B1904454747785N12003222WA0077100766
B1904464747783N12003228WA0076900764
B1904474747781N12003233WA0076800763
B1904484747779N12003238WA0076700763
B1904494747778N12003244WA0076600763
B1904504747776N12003250WA0076500764
B1904514747776N12003255WA0076500766
B1904524747775N12003259WA0076500769
B1904534747775N12003262WA0076500772
B1904544747775N12003264WA0076500774
B1904554747775N12003265WA0076600775
B1904564747775N12003267WA0076600775
B1904574747774N12003268WA0076600774
B1904584747773N12003270WA0076600773
B1904594747772N12003274WA0076600771
B1905004747771N12003277WA0076500770
B1905014747770N12003280WA0076500769
B1905024747770N12003283WA0076500769
B1905034747769N12003287WA0076500768
B1905044747768N12003292WA0076400765
B1905054747768N12003297WA0076300763
B1905064747767N12003303WA0076200761
B1905074747767N12003308WA0076200760
B1905084747766N12003314WA0076000758
B1905094747765N12003319WA0075900757
B1905104747765N12003324WA0075800755
B1905114747764N12003329WA0075700755
B1905124747762N12003333WA0075600755
B1905134747761N12003338WA0075600756
B1905144747761N12003342WA0075500755
B1905154747761N12003346WA0075500755
B1905164747760N12003351WA0075400754
B1905174747759N12003355WA0075300752
B1905184747758N12003361WA0075200751
B1905194747756N12003366WA0075200751
B1905204747755N12003371WA0075100752
B1905204747755N12003371WA0075100752
B1905214747754N12003375WA0075100754
B1905224747753N12003378WA0075100754
B1905234747752N12003382WA0075100754
B1905244747750N12003386WA0075000754
B1905254747749N12003391WA0075000754
B1905264747748N12003395WA0075100756
B1905274747747N12003399WA0075100758
B1905284747746N12003402WA0075200760
B1905294747746N12003405WA0075200762
B1905304747745N12003407WA0075200763
B1905314747744N12003409WA0075300765
B1905324747743N12003410WA0075400766
B1905334747741N12003408WA0075400766
B1905344747738N12003403WA0075400767
B1905354747735N12003393WA0075500766
B1905364747736N12003380WA0075500765
B1905374747740N12003367WA0075500765
B1905384747747N12003358WA0075600767
B1905394747755N12003353WA0075600767
B1905404747763N12003355WA0075600766
B1905414747768N12003360WA0075600766
B1905424747771N12003366WA0075700767
B1905434747772N12003371WA0075700769
B1905444747773N12003374WA0075800773
B1905454747773N12003378WA0075900775
B1905464747774N12003381WA0076100776
B1905474747774N12003385WA0076200776
B1905484747774N12003389WA0076300776
B1905494747774N12003393WA0076400776
B1905504747773N12003395WA0076500776
B1905514747771N12003396WA0076500776
B1905524747769N12003393WA0076500775
B1905534747767N12003386WA0076500773
B1905544747765N12003376WA0076500771
B1905554747767N12003363WA0076400769
B1905564747771N12003352WA0076400769
B1905574747778N12003343WA0076300769
B1905584747786N12003336WA0076300769
B1905594747794N12003333WA0076300771
B1906004747800N12003333WA0076300772
B1906014747805N12003335WA0076300771
B1906024747809N12003339WA0076300769
B1906034747812N12003343WA0076300768
B1906044747813N12003348WA0076200768
B1906054747813N12003351WA0076200767
B1906064747813N12003355WA0076200767
B1906074747813N12003358WA0076200767
B1906084747812N12003361WA0076100767
B1906094747812N12003365WA0076100766
B1906104747811N12003368WA0076100765
B1906114747810N12003372WA0076000764
B1906124747809N12003375WA0076000764
B1906134747807N12003379WA0075900763
B1906144747806N12003382WA0075900763
B1906154747804N12003385WA0075800762
B1906164747802N12003388WA0075800761
B1906174747801N12003391WA0075700761
B1906184747799N12003394WA0075700761
B1906194747797N12003397WA0075600760
B1906204747794N12003400WA0075600760
B1906214747792N12003403WA0075600760
B1906224747791N12003406WA0075500759
B1906234747789N12003409WA0075500759
B1906244747787N12003412WA0075400759
B1906244747787N12003412WA0075400759
B1906254747786N12003415WA0075400759
B1906264747785N12003419WA0075400759
B1906274747784N12003422WA0075300759
B1906284747784N12003426WA0075300759
B1906294747784N12003430WA0075300758
B1906304747784N12003434WA0075200757
B1906314747782N12003437WA0075200755
B1906324747781N12003441WA0075100754
B1906334747779N12003444WA0075000753
B1906344747777N12003447WA0075000752
B1906354747776N12003449WA0074900752
B1906364747774N12003451WA0074800751
B1906374747772N12003452WA0074800750
B1906384747769N12003453WA0074700749
B1906394747766N12003455WA0074600748
B1906404747763N12003456WA0074500746
B1906414747760N12003458WA0074400746
B1906424747758N12003459WA0074400745
B1906434747755N12003461WA0074300744
B1906444747753N12003462WA0074200743
B1906454747750N12003464WA0074100742
B1906464747747N12003466WA0074000740
B1906474747744N12003467WA0073900739
B1906484747742N12003469WA0073800738
B1906494747739N12003471WA0073700737
B1906504747737N12003472WA0073600737
B1906514747734N12003474WA0073600735
B1906524747732N12003476WA0073400734
B1906534747729N12003479WA0073300732
B1906544747725N12003481WA0073200730
B1906554747722N12003484WA0073100729
B1906564747719N12003487WA0073000729
B1906574747716N12003490WA0073000730
B1906584747714N12003491WA0072900730
B1906594747712N12003492WA0072900729
B1907004747710N12003493WA0072800729
B1907014747707N12003495WA0072700727
B1907024747705N12003499WA0072600726
B1907034747702N12003502WA0072500725
B1907044747699N12003506WA0072500726
B1907054747697N12003509WA0072400726
B1907064747695N12003512WA0072400726
B1907074747693N12003516WA0072400727
B1907084747691N12003520WA0072300727
B1907094747689N12003524WA0072300726
B1907104747687N12003528WA0072300725
B1907114747685N12003532WA0072200725
B1907124747682N12003537WA0072200724
B1907134747680N12003541WA0072100723
B1907144747677N12003545WA0072000722
B1907154747675N12003550WA0072000722
B1907164747673N12003554WA0072000721
B1907174747671N12003559WA0071900720
B1907184747668N12003563WA0071800720
B1907194747665N12003566WA0071800719
B1907204747662N12003570WA0071700719
B1907214747659N12003573WA0071700718
B1907224747656N12003577WA0071600717
B1907234747653N12003580WA0071500716
B1907244747650N12003584WA0071500716
B1907254747648N12003588WA0071400715
B1907264747645N12003592WA0071400715
B1907274747642N12003595WA0071300714
B1907284747639N12003598WA0071200713
B1907284747639N12003598WA0071200713
B1907294747636N12003602WA0071200712
B1907304747633N12003605WA0071100711
B1907314747629N12003608WA0071100710
B1907324747626N12003612WA0071000709
B1907334747622N12003616WA0070900708
B1907344747619N12003619WA0070800707
B1907354747616N12003623WA0070700706
B1907364747613N12003627WA0070600705
B1907374747609N12003631WA0070600703
B1907384747606N12003634WA0070400702
B1907394747603N12003638WA0070400700
B1907404747600N12003642WA0070200699
B1907414747596N12003646WA0070100697
B1907424747592N12003649WA0070000694
B1907434747588N12003652WA0069900692
B1907444747583N12003655WA0069700690
B1907454747579N12003658WA0069600689
B1907464747575N12003660WA0069500688
B1907474747571N12003662WA0069400686
B1907484747567N12003664WA0069200684
B1907494747562N12003666WA0069100682
B1907504747556N12003668WA0068900680
B1907514747551N12003670WA0068800679
B1907524747546N12003672WA0068700680
B1907534747541N12003673WA0068600681
B1907544747536N12003674WA0068600682
B1907554747532N12003673WA0068500683
B1907564747527N12003674WA0068500682
B1907574747522N12003674WA0068400682
B1907584747517N12003676WA0068400681
B1907594747511N12003679WA0068300680
B1908004747506N12003682WA0068300681
B1908014747501N12003685WA0068300683
B1908024747496N12003686WA0068300685
B1908034747492N12003686WA0068300686
B1908044747488N12003686WA0068400687
B1908054747485N12003687WA0068400687
B1908064747482N12003691WA0068400686
B1908074747479N12003695WA0068400684
B1908084747477N12003701WA0068300682
B1908094747474N12003707WA0068300680
B1908104747471N12003712WA0068100677
B1908114747467N12003717WA0068100675
B1908124747463N12003723WA0068000673
B1908134747459N12003727WA0067900673
B1908144747455N12003730WA0067800673
B1908154747452N12003732WA0067800674
B1908164747449N12003733WA0067700675
B1908174747446N12003733WA0067700675
B1908184747443N12003734WA0067600674
B1908194747439N12003736WA0067600672
B1908204747435N12003738WA0067500670
B1908214747431N12003740WA0067500669
B1908224747427N12003742WA0067400669
B1908234747423N12003743WA0067400670
B1908244747419N12003743WA0067300671
B1908254747415N12003744WA0067300672
B1908264747412N12003746WA0067300672
B1908274747408N12003749WA0067300671
B1908284747405N12003753WA0067200669
B1908294747402N12003756WA0067200669
B1908304747400N12003758WA0067200669
B1908314747397N12003760WA0067200670
B1908324747394N12003762WA0067100670
B1908324747394N12003762WA0067100670
B1908334747392N12003764WA0067100670
B1908344747389N12003766WA0067100670
B1908354747387N12003768WA0067100670
B1908364747385N12003769WA0067100669
B1908374747383N12003770WA0067000668
B1908384747380N12003771WA0067000667
B1908394747377N12003773WA0066900665
B1908404747374N12003774WA0066800664
B1908414747371N12003775WA0066800662
B1908424747368N12003776WA0066700660
B1908434747365N12003777WA0066600658
B1908444747362N12003778WA0066400656
B1908454747358N12003779WA0066300654
B1908464747354N12003781WA0066200652
B1908474747350N12003782WA0066100651
B1908484747347N12003783WA0066000651
B1908494747343N12003783WA0065900651
B1908504747341N12003784WA0065800650
B1908514747338N12003785WA0065700648
B1908524747334N12003786WA0065500646
B1908534747330N12003788WA0065400643
B1908544747326N12003789WA0065200640
B1908554747322N12003790WA0065100638
B1908564747318N12003791WA0064900636
B1908574747315N12003793WA0064800634
B1908584747312N12003795WA0064600631
B1908594747309N12003797WA0064400629
B1909004747305N12003801WA0064200627
B1909014747302N12003804WA0064000625
B1909024747298N12003807WA0063800624
B1909034747295N12003810WA0063700623
B1909044747291N12003813WA0063600624
B1909054747288N12003816WA0063500625
B1909064747285N12003818WA0063400626
B1909074747282N12003821WA0063300626
B1909084747279N12003823WA0063200626
B1909094747276N12003825WA0063100624
B1909104747273N12003827WA0063000622
B1909114747269N12003830WA0062900620
B1909124747265N12003833WA0062800619
B1909134747260N12003836WA0062700617
B1909144747256N12003837WA0062600616
B1909154747251N12003838WA0062500616
B1909164747248N12003838WA0062400615
B1909174747245N12003837WA0062300613
B1909184747241N12003837WA0062100611
B1909194747237N12003838WA0062000606
B1909204747231N12003838WA0061800602
B1909214747226N12003839WA0061600599
B1909224747221N12003839WA0061400597
B1909234747216N12003838WA0061200595
B1909244747212N12003838WA0061000593
B1909254747207N12003837WA0060800590
B1909264747202N12003837WA0060600587
B1909274747197N12003837WA0060400584
B1909284747191N12003838WA0060100582
B1909294747185N12003839WA0060000578
B1909304747179N12003840WA0059700576
B1909314747174N12003842WA0059600575
B1909324747169N12003842WA0059400576
B1909334747165N12003842WA0059300578
B1909344747162N12003842WA0059200579
B1909354747158N12003843WA0059100579
B1909364747153N12003844WA0059000578
B1909364747153N12003844WA0059000578
B1909374747148N12003846WA0058900576
B1909384747142N12003848WA0058800575
B1909394747136N12003849WA0058700574
B1909404747130N12003850WA0058600573
B1909414747125N12003851WA0058500573
B1909424747120N12003851WA0058500574
B1909434747116N12003851WA0058400575
B1909444747113N12003851WA0058400576
B1909454747108N12003852WA0058300574
B1909464747103N12003853WA0058200572
B1909474747098N12003855WA0058200571
B1909484747093N12003856WA0058100570
B1909494747089N12003856WA0058100572
B1909504747085N12003856WA0058000573
B1909514747081N12003856WA0058000572
B1909524747076N12003855WA0058000571
B1909534747071N12003855WA0058000570
B1909544747066N12003853WA0057900569
B1909554747061N12003852WA0057900569
B1909564747056N12003851WA0057800569
B1909574747051N12003850WA0057800568
B1909584747045N12003848WA0057700568
B1909594747040N12003847WA0057700567
B1910004747035N12003845WA0057600567
B1910014747030N12003843WA0057600566
B1910024747025N12003841WA0057500565
B1910034747019N12003840WA0057500564
B1910044747013N12003839WA0057400562
B1910054747007N12003839WA0057400562
B1910064747002N12003837WA0057300563
B1910074746998N12003835WA0057300564
B1910084746994N12003831WA0057300564
B1910094746990N12003827WA0057200563
B1910104746986N12003824WA0057100562
B1910114746981N12003820WA0057100560
B1910124746976N12003816WA0057000558
B1910134746971N12003812WA0057000558
B1910144746966N12003809WA0056900559
B1910154746962N12003805WA0056900559
B1910164746958N12003803WA0056800560
B1910174746953N12003800WA0056800561
B1910184746949N12003797WA0056800561
B1910194746944N12003793WA0056800561
B1910204746939N12003789WA0056800562
B1910214746935N12003783WA0056800563
B1910224746931N12003778WA0056800565
B1910234746926N12003773WA0056900567
B1910244746922N12003769WA0057000569
B1910254746918N12003768WA0057000571
B1910264746915N12003770WA0057200573
B1910274746914N12003776WA0057200573
B1910284746916N12003782WA0057300572
B1910294746921N12003787WA0057400573
B1910304746927N12003787WA0057400573
B1910314746934N12003781WA0057500573
B1910324746939N12003770WA0057600572
B1910334746941N12003758WA0057600572
B1910344746939N12003746WA0057600572
B1910354746936N12003738WA0057700573
B1910364746931N12003732WA0057700574
B1910374746927N12003731WA0057800575
B1910384746923N12003733WA0057900578
B1910394746921N12003738WA0057900579
B1910404746921N12003745WA0058100580
B1910414746925N12003751WA0058100582
B1910414746925N12003751WA0058100582
B1910424746930N12003753WA0058300584
B1910434746937N12003751WA0058400585
B1910444746943N12003744WA0058500585
B1910454746947N12003733WA0058600584
B1910464746948N12003720WA0058700585
B1910474746945N12003710WA0058700586
B1910484746940N12003703WA0058800588
B1910494746935N12003702WA0058900591
B1910504746931N12003705WA0059100593
B1910514746929N12003710WA0059200596
B1910524746930N12003716WA0059400600
B1910534746933N12003720WA0059500604
B1910544746938N12003722WA0059800606
B1910554746944N12003721WA0059900606
B1910564746950N12003715WA0060100607
B1910574746954N12003706WA0060200606
B1910584746956N12003694WA0060300605
B1910594746955N12003682WA0060400606
B1911004746952N12003673WA0060600609
B1911014746948N12003667WA0060700613
B1911024746945N12003663WA0060900617
B1911034746941N12003661WA0061100620
B1911044746938N12003659WA0061400623
B1911054746936N12003658WA0061500625
B1911064746935N12003660WA0061700626
B1911074746935N12003665WA0061800626
B1911084746939N12003671WA0062000625
B1911094746945N12003674WA0062100625
B1911104746952N12003673WA0062300627
B1911114746958N12003669WA0062400630
B1911124746963N12003661WA0062600633
B1911134746967N12003652WA0062800635
B1911144746970N12003642WA0063000636
B1911154746972N12003632WA0063100639
B1911164746972N12003622WA0063300641
B1911174746970N12003613WA0063400643
B1911184746966N12003607WA0063600644
B1911194746961N12003605WA0063700645
B1911204746958N12003608WA0063900646
B1911214746958N12003613WA0064100648
B1911224746961N12003619WA0064300649
B1911234746967N12003621WA0064400650
B1911244746974N12003620WA0064600651
B1911254746981N12003615WA0064700653
B1911264746987N12003607WA0064800656
B1911274746990N12003597WA0065000658
B1911284746991N12003586WA0065100660
B1911294746989N12003575WA0065300661
B1911304746985N12003568WA0065500663
B1911314746981N12003565WA0065600664
B1911324746978N12003566WA0065800665
B1911334746977N12003571WA0065900666
B1911344746978N12003576WA0066100667
B1911354746983N12003580WA0066200668
B1911364746989N12003581WA0066300668
B1911374746997N12003578WA0066400669
B1911384747004N12003571WA0066600670
B1911394747009N12003560WA0066700671
B1911404747013N12003548WA0066800673
B1911414747014N12003536WA0066900674
B1911424747014N12003525WA0067000676
B1911434747012N12003515WA0067100676
B1911444747009N12003507WA0067200676
B1911444747009N12003507WA0067200676
B1911454747005N12003501WA0067300676
B1911464747000N12003498WA0067400676
B1911474746997N12003499WA0067400676
B1911484746994N12003503WA0067500677
B1911494746993N12003507WA0067600678
B1911504746994N12003511WA0067700680
B1911514746996N12003514WA0067700682
B1911524747000N12003517WA0067800683
B1911534747004N12003519WA0067900684
B1911544747010N12003520WA0068000684
B1911554747017N12003518WA0068100685
B1911564747024N12003512WA0068200686
B1911574747030N12003503WA0068200686
B1911584747033N12003491WA0068300686
B1911594747034N12003478WA0068400686
B1912004747032N12003467WA0068400686
B1912014747029N12003458WA0068500685
B1912024747025N12003451WA0068500686
B1912034747021N12003448WA0068600686
B1912044747018N12003448WA0068600686
B1912054747016N12003450WA0068600686
B1912064747016N12003454WA0068700686
B1912074747018N12003459WA0068700685
B1912084747021N12003464WA0068700684
B1912094747024N12003468WA0068700684
B1912104747027N12003473WA0068700685
B1912114747028N12003477WA0068700685
B1912124747029N12003481WA0068700686
B1912134747029N12003485WA0068700687
B1912144747030N12003490WA0068700688
B1912154747031N12003494WA0068800689
B1912164747031N12003499WA0068900691
B1912174747031N12003503WA0068900692
B1912184747032N12003507WA0069000693
B1912194747031N12003511WA0069100695
B1912204747031N12003515WA0069200696
B1912214747030N12003518WA0069300698
B1912224747031N12003522WA0069400699
B1912234747034N12003527WA0069500699
B1912244747039N12003530WA0069600699
B1912254747046N12003531WA0069600697
B1912264747054N12003527WA0069700697
B1912274747060N12003519WA0069700698
B1912284747065N12003509WA0069800699
B1912294747067N12003498WA0069800699
B1912304747067N12003487WA0069900700
B1912314747065N12003477WA0069900700
B1912324747062N12003470WA0070000701
B1912334747058N12003466WA0070000701
B1912344747054N12003465WA0070100701
B1912354747051N12003466WA0070200702
B1912364747049N12003469WA0070300705
B1912374747050N12003473WA0070300707
B1912384747053N12003477WA0070400709
B1912394747058N12003480WA0070500709
B1912404747065N12003480WA0070600708
B1912414747072N12003477WA0070600707
B1912424747079N12003469WA0070700707
B1912434747083N12003458WA0070700708
B1912444747084N12003447WA0070800708
B1912454747083N12003436WA0070800708
B1912464747081N12003427WA0070900709
B1912474747078N12003420WA0070900709
B1912484747075N12003414WA0070900709
B1912484747075N12003414WA0070900709
B1912494747071N12003408WA0071000710
B1912504747069N12003403WA0071000711
B1912514747066N12003398WA0071100713
B1912524747063N12003394WA0071200714
B1912534747060N12003394WA0071200714
B1912544747058N12003397WA0071300714
B1912554747057N12003402WA0071300713
B1912564747058N12003408WA0071400715
B1912574747061N12003413WA0071400717
B1912584747067N12003415WA0071500719
B1912594747073N12003416WA0071600720
B1913004747079N12003413WA0071700721
B1913014747086N12003406WA0071800721
B1913024747091N12003396WA0071800721
B1913034747093N12003385WA0071900721
B1913044747093N12003373WA0072000721
B1913054747091N12003364WA0072000722
B1913064747087N12003358WA0072100722
B1913074747083N12003355WA0072100723
B1913084747080N12003357WA0072200723
B1913094747078N12003360WA0072300723
B1913104747078N12003365WA0072300724
B1913114747079N12003370WA0072400726
B1913124747083N12003375WA0072400726
B1913134747089N12003378WA0072500726
B1913144747096N12003378WA0072500727
B1913154747102N12003376WA0072600729
B1913164747109N12003369WA0072700729
B1913174747113N12003360WA0072700729
B1913184747116N12003349WA0072800729
B1913194747117N12003338WA0072800729
B1913204747116N12003327WA0072900729
B1913214747113N12003317WA0073000729
B1913224747110N12003311WA0073000731
B1913234747107N12003307WA0073100732
B1913244747104N12003308WA0073100733
B1913254747102N12003311WA0073100733
B1913264747101N12003315WA0073200734
B1913274747102N12003320WA0073300735
B1913284747106N12003324WA0073300736
B1913294747112N12003327WA0073400736
B1913304747118N12003326WA0073400736
B1913314747125N12003322WA0073400736
B1913324747131N12003314WA0073500735
B1913334747136N12003305WA0073500735
B1913344747140N12003295WA0073500736
B1913354747142N12003284WA0073500737
B1913364747143N12003274WA0073600738
B1913374747143N12003264WA0073600738
B1913384747141N12003255WA0073700738
B1913394747139N12003248WA0073700738
B1913404747136N12003244WA0073700737
B1913414747132N12003244WA0073700736
B1913424747130N12003248WA0073600733
B1913434747130N12003254WA0073600733
B1913444747130N12003259WA0073600734
B1913454747131N12003262WA0073600737
B1913464747131N12003264WA0073600739
B1913474747130N12003265WA0073700740
B1913484747129N12003267WA0073700740
B1913494747128N12003268WA0073700739
B1913504747126N12003271WA0073700739
B1913514747125N12003273WA0073700739
B1913524747124N12003275WA0073700739
B1913524747124N12003275WA0073700739
B1913534747123N12003279WA0073700739
B1913544747122N12003283WA0073700740
B1913554747120N12003286WA0073700741
B1913564747119N12003289WA0073800743
B1913574747118N12003292WA0073800744
B1913584747116N12003296WA0073900746
B1913594747114N12003300WA0074000747
B1914004747112N12003303WA0074000747
B1914014747112N12003307WA0074100747
B1914024747113N12003312WA0074100746
B1914034747116N12003317WA0074100743
B1914044747122N12003321WA0074100740
B1914054747129N12003319WA0074000739
B1914064747136N12003313WA0074000738
B1914074747140N12003303WA0073900738
B1914084747142N12003293WA0073900738
B1914094747143N12003283WA0073800739
B1914104747145N12003273WA0073800739
B1914114747148N12003263WA0073800739
B1914124747151N12003253WA0073700738
B1914134747155N12003242WA0073700737
B1914144747158N12003231WA0073600737
B1914154747162N12003220WA0073600738
B1914164747167N12003211WA0073600740
B1914174747173N12003202WA0073600742
B1914184747178N12003194WA0073700744
B1914194747184N12003186WA0073800745
B1914204747189N12003177WA0073900746
B1914214747194N12003168WA0073900747
B1914224747199N12003159WA0074000748
B1914234747202N12003149WA0074100748
B1914244747202N12003138WA0074100745
B1914254747201N12003126WA0074100741
B1914264747197N12003118WA0074000738
B1914274747193N12003113WA0073900735
B1914284747189N12003112WA0073800733
B1914294747186N12003113WA0073700732
B1914304747184N12003115WA0073600732
B1914314747182N12003117WA0073600732
B1914324747180N12003120WA0073500734
B1914334747179N12003123WA0073500736
B1914344747179N12003127WA0073500737
B1914354747178N12003131WA0073500739
B1914364747176N12003133WA0073600741
B1914374747174N12003133WA0073600743
B1914384747172N12003134WA0073700744
B1914394747172N12003135WA0073800746
B1914404747174N12003138WA0073900745
B1914414747179N12003140WA0073900744
B1914424747187N12003139WA0073900743
B1914434747195N12003133WA0074000743
B1914444747201N12003124WA0074100746
B1914454747205N12003112WA0074100748
B1914464747206N12003100WA0074200748
B1914474747205N12003089WA0074300747
B1914484747203N12003080WA0074300747
B1914494747200N12003073WA0074300748
B1914504747197N12003068WA0074400749
B1914514747194N12003066WA0074400748
B1914524747192N12003066WA0074400747
B1914534747190N12003068WA0074400746
B1914544747188N12003072WA0074300745
B1914554747187N12003077WA0074300744
B1914554747187N12003077WA0074300744
B1914564747186N12003082WA0074300744
B1914574747184N12003086WA0074300747
B1914584747182N12003088WA0074400751
B1914594747180N12003090WA0074500754
B1915004747178N12003092WA0074700758
B1915014747179N12003095WA0074800760
B1915024747183N12003098WA0074900759
B1915034747189N12003099WA0075000758
B1915044747197N12003097WA0075100757
B1915054747204N12003090WA0075200757
B1915064747209N12003079WA0075300759
B1915074747211N12003067WA0075400761
B1915084747210N12003057WA0075500764
B1915094747206N12003051WA0075600765
B1915104747201N12003048WA0075700766
B1915114747197N12003048WA0075800767
B1915124747194N12003052WA0076000769
B1915134747194N12003057WA0076100771
B1915144747195N12003062WA0076300774
B1915154747200N12003065WA0076400776
B1915164747206N12003065WA0076600777
B1915174747213N12003063WA0076700776
B1915184747220N12003057WA0076800777
B1915194747226N12003049WA0076900779
B1915204747230N12003038WA0077000781
B1915214747230N12003026WA0077200782
B1915224747228N12003016WA0077300783
B1915234747223N12003009WA0077400784
B1915244747219N12003006WA0077500784
B1915254747215N12003006WA0077600785
B1915264747212N12003009WA0077800787
B1915274747211N12003014WA0077900789
B1915284747213N12003018WA0078000791
B1915294747218N12003021WA0078100792
B1915304747226N12003021WA0078300792
B1915314747233N12003016WA0078400793
B1915324747239N12003007WA0078500794
B1915334747243N12002994WA0078600794
B1915344747243N12002982WA0078700795
B1915354747240N12002971WA0078800795
B1915364747236N12002965WA0078900796
B1915374747231N12002962WA0079000797
B1915384747227N12002962WA0079100797
B1915394747223N12002964WA0079100798
B1915404747222N12002968WA0079200800
B1915414747223N12002973WA0079300802
B1915424747227N12002976WA0079500804
B1915434747232N12002977WA0079500804
B1915444747240N12002975WA0079700804
B1915454747247N12002969WA0079700804
B1915464747253N12002961WA0079800805
B1915474747256N12002950WA0079900806
B1915484747258N12002938WA0080000807
B1915494747258N12002926WA0080100808
B1915504747256N12002917WA0080200808
B1915514747252N12002910WA0080200808
B1915524747248N12002906WA0080300807
B1915534747244N12002906WA0080300806
B1915544747241N12002909WA0080300806
B1915554747239N12002913WA0080300805
B1915564747237N12002917WA0080300806
B1915574747236N12002921WA0080300808
B1915584747235N12002923WA0080400809
B1915584747235N12002923WA0080400809
B1915594747234N12002924WA0080400810
B1916004747234N12002925WA0080400810
B1916014747235N12002928WA0080400808
B1916024747238N12002931WA0080400805
B1916034747243N12002933WA0080300803
B1916044747249N12002933WA0080300801
B1916054747255N12002930WA0080200800
B1916064747261N12002927WA0080200801
B1916074747266N12002924WA0080100802
B1916084747270N12002919WA0080100804
B1916094747274N12002913WA0080100804
B1916104747278N12002904WA0080100803
B1916114747283N12002894WA0080000800
B1916124747288N12002883WA0079900799
B1916134747292N12002871WA0079900799
B1916144747296N12002860WA0079900801
B1916154747300N12002849WA0080000803
B1916164747304N12002840WA0080000805
B1916174747309N12002831WA0080000806
B1916184747314N12002823WA0080100805
B1916194747320N12002814WA0080100805
B1916204747325N12002805WA0080100804
B1916214747331N12002796WA0080100803
B1916224747336N12002788WA0080100803
B1916234747341N12002780WA0080100803
B1916244747346N12002772WA0080000802
B1916254747351N12002764WA0080000801
B1916264747356N12002755WA0079900799
B1916274747361N12002745WA0079900797
B1916284747367N12002736WA0079800795
B1916294747373N12002727WA0079700795
B1916304747378N12002718WA0079700794
B1916314747384N12002711WA0079600794
B1916324747389N12002703WA0079500793
B1916334747395N12002694WA0079500791
B1916344747401N12002685WA0079300789
B1916354747406N12002676WA0079300787
B1916364747411N12002667WA0079100785
B1916374747416N12002659WA0079000784
B1916384747420N12002651WA0078900783
B1916394747425N12002642WA0078800782
B1916404747429N12002633WA0078700782
B1916414747433N12002623WA0078600781
B1916424747437N12002614WA0078500780
B1916434747442N12002605WA0078400779
B1916444747447N12002596WA0078300778
B1916454747453N12002590WA0078200777
B1916464747459N12002585WA0078100777
B1916474747465N12002584WA0078000776
B1916484747470N12002584WA0077900776
B1916494747474N12002586WA0077800775
B1916504747476N12002589WA0077700774
B1916514747477N12002592WA0077600773
B1916524747477N12002595WA0077500771
B1916534747477N12002598WA0077400770
B1916544747476N12002601WA0077300769
B1916554747475N12002604WA0077200768
B1916564747473N12002607WA0077100767
B1916574747471N12002610WA0077100767
B1916584747469N12002613WA0077000767
B1916594747467N12002616WA0076900765
B1917004747466N12002621WA0076800764
B1917014747465N12002625WA0076800765
B1917024747463N12002629WA0076700765
B1917024747463N12002629WA0076700765
B1917034747462N12002632WA0076700766
B1917044747460N12002635WA0076700767
B1917054747459N12002639WA0076700768
B1917064747457N12002642WA0076600767
B1917074747456N12002645WA0076600767
B1917084747454N12002649WA0076600766
B1917094747453N12002653WA0076500765
B1917104747452N12002657WA0076400763
B1917114747452N12002662WA0076400761
B1917124747450N12002666WA0076300758
B1917134747448N12002670WA0076200757
B1917144747445N12002673WA0076000755
B1917154747442N12002675WA0075900753
B1917164747440N12002677WA0075800751
B1917174747437N12002679WA0075600748
B1917184747434N12002682WA0075400744
B1917194747430N12002685WA0075300741
B1917204747427N12002690WA0075000738
B1917214747424N12002694WA0074900736
B1917224747420N12002700WA0074700734
B1917234747417N12002706WA0074500732
B1917244747414N12002713WA0074300730
B1917254747411N12002720WA0074200729
B1917264747408N12002726WA0074000729
B1917274747404N12002732WA0073900730
B1917284747401N12002738WA0073800731
B1917294747398N12002743WA0073700732
B1917304747395N12002748WA0073700734
B1917314747392N12002753WA0073700737
B1917324747390N12002756WA0073700740
B1917334747388N12002760WA0073800742
B1917344747386N12002764WA0073800744
B1917354747384N12002768WA0073900745
B1917364747381N12002771WA0073900745
B1917374747379N12002773WA0074000746
B1917384747377N12002774WA0074100750
B1917394747377N12002774WA0074200753
B1917404747378N12002775WA0074300752
B1917414747378N12002775WA0074300750
B1917424747376N12002775WA0074200746
B1917434747372N12002773WA0074100742
B1917444747366N12002766WA0074000739
B1917454747362N12002757WA0074000739
B1917464747361N12002746WA0073900739
B1917474747363N12002735WA0073900737
B1917484747366N12002724WA0073800734
B1917494747369N12002712WA0073700730
B1917504747373N12002700WA0073600727
B1917514747375N12002688WA0073400726
B1917524747374N12002677WA0073300725
B1917534747371N12002667WA0073200724
B1917544747365N12002660WA0073100722
B1917554747360N12002656WA0073100722
B1917564747355N12002655WA0073000724
B1917574747352N12002655WA0073000726
B1917584747350N12002655WA0072900727
B1917594747348N12002656WA0072900726
B1918004747346N12002658WA0072800724
B1918014747343N12002660WA0072800721
B1918024747341N12002663WA0072600718
B1918034747338N12002665WA0072500716
B1918044747334N12002665WA0072400714
B1918054747330N12002665WA0072300713
B1918064747326N12002663WA0072200712
B1918064747326N12002663WA0072200712
B1918074747322N12002661WA0072100712
B1918084747318N12002659WA0072000712
B1918094747314N12002659WA0071900711
B1918104747310N12002659WA0071700708
B1918114747305N12002659WA0071600706
B1918124747299N12002659WA0071500703
B1918134747294N12002658WA0071400701
B1918144747290N12002655WA0071200701
B1918154747287N12002651WA0071100701
B1918164747284N12002648WA0070900699
B1918174747280N12002647WA0070800697
B1918184747276N12002647WA0070600693
B1918194747271N12002647WA0070500691
B1918204747267N12002648WA0070300690
B1918214747264N12002649WA0070200689
B1918224747261N12002650WA0070000688
B1918234747258N12002650WA0069900686
B1918244747254N12002651WA0069700683
B1918254747249N12002652WA0069500681
B1918264747245N12002653WA0069300680
B1918274747240N12002654WA0069200679
B1918284747236N12002654WA0069000678
B1918294747231N12002654WA0068900677
B1918304747227N12002653WA0068700676
B1918314747223N12002653WA0068600675
B1918324747218N12002654WA0068400673
B1918334747214N12002654WA0068300671
B1918344747209N12002654WA0068100668
B1918354747204N12002654WA0067900666
B1918364747200N12002655WA0067700663
B1918374747195N12002655WA0067600662
B1918384747191N12002656WA0067400660
B1918394747187N12002656WA0067300659
B1918404747182N12002656WA0067100657
B1918414747177N12002655WA0066900653
B1918424747170N12002656WA0066700649
B1918434747164N12002657WA0066500646
B1918444747158N12002658WA0066200643
B1918454747152N12002659WA0066000641
B1918464747147N12002660WA0065800640
B1918474747142N12002662WA0065600639
B1918484747138N12002663WA0065400638
B1918494747133N12002664WA0065200635
B1918504747127N12002665WA0065000632
B1918514747120N12002667WA0064800628
B1918524747113N12002668WA0064500625
B1918534747107N12002669WA0064300622
B1918544747100N12002670WA0064000621
B1918554747093N12002671WA0063800619
B1918564747085N12002671WA0063600618
B1918574747078N12002671WA0063500617
B1918584747071N12002670WA0063300618
B1918594747066N12002670WA0063200621
B1919004747063N12002671WA0063100622
B1919014747059N12002672WA0063100622
B1919024747055N12002672WA0063000620
B1919034747049N12002670WA0062900616
B1919044747042N12002669WA0062700613
B1919054747035N12002667WA0062600609
B1919064747028N12002666WA0062400606
B1919074747022N12002665WA0062200604
B1919084747015N12002663WA0062000603
B1919094747009N12002662WA0061900601
B1919104747003N12002660WA0061700599
B1919114746997N12002658WA0061500597
B1919114746997N12002658WA0061500597
B1919124746990N12002657WA0061300595
B1919134746984N12002655WA0061200592
B1919144746978N12002654WA0060900590
B1919154746972N12002652WA0060800589
B1919164746966N12002650WA0060600588
B1919174746961N12002648WA0060400587
B1919184746955N12002645WA0060200585
B1919194746949N12002641WA0060100583
B1919204746942N12002637WA0059900582
B1919214746935N12002633WA0059800582
B1919224746929N12002629WA0059700584
B1919234746924N12002624WA0059700586
B1919244746920N12002619WA0059600588
B1919254746916N12002614WA0059600589
B1919264746912N12002608WA0059600588
B1919274746906N12002602WA0059500587
B1919284746901N12002596WA0059500587
B1919294746895N12002592WA0059400587
B1919304746889N12002589WA0059400588
B1919314746883N12002587WA0059500589
B1919324746878N12002586WA0059500589
B1919334746873N12002586WA0059500589
B1919344746868N12002585WA0059500590
B1919354746863N12002584WA0059500590
B1919364746858N12002583WA0059500591
B1919374746854N12002581WA0059500590
B1919384746850N12002580WA0059500589
B1919394746846N12002578WA0059400588
B1919404746842N12002576WA0059400585
B1919414746837N12002573WA0059300582
B1919424746832N12002571WA0059100579
B1919434746827N12002568WA0059000576
B1919444746822N12002565WA0058900575
B1919454746817N12002562WA0058800573
B1919464746813N12002560WA0058600572
B1919474746808N12002557WA0058500569
B1919484746803N12002555WA0058300567
B1919494746797N12002553WA0058100564
B1919504746791N12002550WA0057900561
B1919514746786N12002547WA0057800560
B1919524746781N12002545WA0057600559
B1919534746777N12002542WA0057500558
B1919544746773N12002540WA0057300557
B1919554746768N12002538WA0057200555
B1919564746762N12002534WA0057000553
B1919574746756N12002530WA0056900552
B1919584746751N12002526WA0056700551
B1919594746746N12002521WA0056600553
B1920004746742N12002517WA0056600555
B1920014746739N12002512WA0056600557
B1920024746737N12002508WA0056500558
B1920034746733N12002505WA0056500557
B1920044746729N12002502WA0056500557
B1920054746725N12002501WA0056400556
B1920064746721N12002504WA0056400555
B1920074746718N12002508WA0056400555
B1920084746715N12002511WA0056400555
B1920094746712N12002513WA0056400557
B1920104746709N12002514WA0056400557
B1920114746706N12002514WA0056400559
B1920124746703N12002514WA0056400559
B1920134746701N12002515WA0056400560
B1920144746698N12002515WA0056400560
B1920144746698N12002515WA0056400560
B1920154746695N12002514WA0056400559
B1920164746691N12002514WA0056400558
B1920174746686N12002516WA0056400558
B1920184746682N12002519WA0056400558
B1920194746678N12002522WA0056400559
B1920204746675N12002525WA0056500562
B1920214746671N12002526WA0056600565
B1920224746668N12002526WA0056700567
B1920234746665N12002527WA0056800568
B1920244746663N12002531WA0056900567
B1920254746664N12002536WA0056900566
B1920264746669N12002539WA0057000566
B1920274746675N12002538WA0057000566
B1920284746681N12002532WA0057100566
B1920294746686N12002523WA0057100567
B1920304746689N12002512WA0057200568
B1920314746689N12002500WA0057300569
B1920324746687N12002489WA0057400570
B1920334746683N12002478WA0057400572
B1920344746678N12002471WA0057600575
B1920354746673N12002466WA0057700576
B1920364746667N12002464WA0057800577
B1920374746663N12002464WA0057800577
B1920384746659N12002467WA0057900577
B1920394746659N12002472WA0058000577
B1920404746661N12002477WA0058100576
B1920414746667N12002479WA0058100575
B1920424746673N12002476WA0058100575
B1920434746679N12002470WA0058100574
B1920444746684N12002462WA0058200573
B1920454746689N12002453WA0058200574
B1920464746692N12002443WA0058200575
B1920474746694N12002433WA0058300578
B1920484746695N12002423WA0058400581
B1920494746693N12002415WA0058400583
B1920504746688N12002408WA0058500583
B1920514746682N12002404WA0058600581
B1920524746676N12002403WA0058700580
B1920534746672N12002404WA0058700580
B1920544746670N12002407WA0058700581
B1920554746671N12002409WA0058800582
B1920564746673N12002411WA0058800582
B1920574746676N12002412WA0058800581
B1920584746680N12002413WA0058800579
B1920594746685N12002411WA0058800577
B1921004746691N12002407WA0058700575
B1921014746697N12002399WA0058700575
B1921024746701N12002388WA0058600574
B1921034746704N12002376WA0058600577
B1921044746706N12002366WA0058700579
B1921054746708N12002357WA0058700582
B1921064746710N12002348WA0058800585
B1921074746711N12002338WA0058800586
B1921084746711N12002329WA0058900587
B1921094746710N12002320WA0059000587
B1921104746705N12002313WA0059000587
B1921114746700N12002311WA0059000585
B1921124746695N12002313WA0059000583
B1921134746692N12002317WA0059100583
B1921144746690N12002320WA0059100585
B1921154746689N12002323WA0059200586
B1921164746689N12002325WA0059200588
B1921174746689N12002327WA0059200588
B1921184746690N12002328WA0059300589
B1921184746690N12002328WA0059300589
B1921194746693N12002329WA0059300588
B1921204746699N12002328WA0059300587
B1921214746705N12002325WA0059300586
B1921224746710N12002318WA0059400586
B1921234746715N12002310WA0059400587
B1921244746719N12002302WA0059400589
B1921254746722N12002294WA0059500591
B1921264746725N12002287WA0059600593
B1921274746728N12002280WA0059600594
B1921284746732N12002273WA0059700595
B1921294746737N12002266WA0059700596
B1921304746742N12002259WA0059900598
B1921314746746N12002251WA0059900600
B1921324746750N12002244WA0060100601
B1921334746753N12002236WA0060200604
B1921344746756N12002229WA0060300605
B1921354746757N12002221WA0060400606
B1921364746759N12002213WA0060500607
B1921374746763N12002205WA0060600607
B1921384746768N12002201WA0060600606
B1921394746774N12002201WA0060600604
B1921404746778N12002206WA0060600603
B1921414746779N12002212WA0060600603
B1921424746778N12002217WA0060600604
B1921434746776N12002220WA0060700607
B1921444746774N12002221WA0060800609
B1921454746773N12002223WA0060800609
B1921464746770N12002224WA0060900608
B1921474746765N12002226WA0060900607
B1921484746760N12002225WA0060900605
B1921494746754N12002221WA0060900606
B1921504746750N12002213WA0060900607
B1921514746748N12002203WA0061000608
B1921524746750N12002192WA0061100610
B1921534746753N12002184WA0061100613
B1921544746757N12002179WA0061200615
B1921554746762N12002178WA0061300616
B1921564746767N12002178WA0061400618
B1921574746769N12002181WA0061500619
B1921584746769N12002185WA0061600619
B1921594746766N12002188WA0061700619
B1922004746762N12002191WA0061700618
B1922014746757N12002191WA0061800618
B1922024746750N12002187WA0061900619
B1922034746745N12002180WA0061900619
B1922044746742N12002169WA0062000621
B1922054746742N12002158WA0062100622
B1922064746745N12002148WA0062200625
B1922074746749N12002140WA0062300628
B1922084746753N12002135WA0062500630
B1922094746758N12002133WA0062600633
B1922104746761N12002134WA0062800635
B1922114746763N12002136WA0062900636
B1922124746763N12002141WA0063000636
B1922134746759N12002144WA0063100636
B1922144746754N12002146WA0063200636
B1922154746748N12002144WA0063300637
B1922164746743N12002139WA0063400639
B1922174746739N12002132WA0063500642
B1922184746737N12002124WA0063700643
B1922194746737N12002114WA0063800643
B1922204746739N12002104WA0063900643
B1922214746743N12002096WA0064000643
B1922214746743N12002096WA0064000643
B1922224746749N12002093WA0064100643
B1922234746755N12002095WA0064200643
B1922244746758N12002100WA0064300644
B1922254746758N12002106WA0064400645
B1922264746756N12002110WA0064600649
B1922274746754N12002110WA0064700652
B1922284746751N12002109WA0064900653
B1922294746748N12002106WA0065000654
B1922304746744N12002101WA0065100653
B1922314746740N12002093WA0065100652
B1922324746737N12002083WA0065200652
B1922334746737N12002070WA0065300651
B1922344746740N12002059WA0065300651
B1922354746745N12002050WA0065400652
B1922364746750N12002044WA0065400654
B1922374746754N12002041WA0065500656
B1922384746758N12002041WA0065600659
B1922394746761N12002042WA0065700661
B1922404746761N12002044WA0065800662
B1922414746760N12002047WA0065900661
B1922424746758N12002049WA0066000661
B1922434746755N12002050WA0066100662
B1922444746750N12002048WA0066100662
B1922454746746N12002042WA0066200662
B1922464746742N12002032WA0066200662
B1922474746740N12002020WA0066300662
B1922484746740N12002008WA0066300663
B1922494746741N12001997WA0066400665
B1922504746743N12001988WA0066400666
B1922514746747N12001980WA0066500667
B1922524746751N12001975WA0066600668
B1922534746756N12001972WA0066600668
B1922544746759N12001972WA0066600668
B1922554746762N12001974WA0066700668
B1922564746764N12001976WA0066700669
B1922574746764N12001979WA0066800670
B1922584746763N12001980WA0066900671
B1922594746762N12001981WA0066900671
B1923004746759N12001982WA0067000670
B1923014746756N12001982WA0067000668
B1923024746751N12001982WA0067000665
B1923034746746N12001979WA0066900663
B1923044746741N12001973WA0066800661
B1923054746737N12001964WA0066700660
B1923064746734N12001953WA0066600658
B1923074746732N12001941WA0066600657
B1923084746732N12001929WA0066500658
B1923094746734N12001918WA0066500658
B1923104746737N12001909WA0066400658
B1923114746741N12001902WA0066400658
B1923124746745N12001895WA0066400659
B1923134746749N12001889WA0066400659
B1923144746753N12001884WA0066400659
B1923154746757N12001880WA0066300659
B1923164746761N12001879WA0066300658
B1923174746766N12001878WA0066300657
B1923184746771N12001877WA0066200656
B1923194746776N12001876WA0066200656
B1923204746781N12001872WA0066200657
B1923214746785N12001866WA0066200658
B1923224746789N12001857WA0066200658
B1923234746791N12001848WA0066200657
B1923244746792N12001836WA0066100656
B1923244746792N12001836WA0066100656
B1923254746791N12001825WA0066100655
B1923264746787N12001814WA0066100653
B1923274746782N12001806WA0066000653
B1923284746776N12001802WA0066000653
B1923294746771N12001801WA0066000653
B1923304746767N12001803WA0065900652
B1923314746765N12001806WA0065900652
B1923324746764N12001810WA0065900651
B1923334746765N12001813WA0065800651
B1923344746767N12001815WA0065800651
B1923354746768N12001816WA0065700651
B1923364746769N12001817WA0065700650
B1923374746770N12001819WA0065600649
B1923384746771N12001821WA0065600647
B1923394746773N12001824WA0065500646
B1923404746776N12001827WA0065400644
B1923414746777N12001830WA0065400643
B1923424746778N12001834WA0065300642
B1923434746779N12001839WA0065200640
B1923444746779N12001844WA0065100640
B1923454746780N12001848WA0065000640
B1923464746781N12001852WA0065000641
B1923474746781N12001855WA0064900642
B1923484746781N12001857WA0064900643
B1923494746781N12001859WA0064900642
B1923504746780N12001862WA0064800641
B1923514746779N12001865WA0064800640
B1923524746779N12001868WA0064700639
B1923534746778N12001871WA0064700637
B1923544746778N12001874WA0064600636
B1923554746777N12001877WA0064500634
B1923564746776N12001880WA0064400632
B1923574746775N12001884WA0064300628
B1923584746773N12001888WA0064100624
B1923594746772N12001893WA0063900619
B1924004746771N12001899WA0063600615
B1924014746770N12001905WA0063400610
B1924024746768N12001912WA0063100605
B1924034746767N12001919WA0062900601
B1924044746765N12001927WA0062500597
B1924054746764N12001934WA0062200593
B1924064746763N12001941WA0061900589
B1924074746762N12001948WA0061600587
B1924084746762N12001954WA0061400586
B1924094746763N12001959WA0061200588
B1924104746764N12001962WA0061000589
B1924114746764N12001965WA0060900589
B1924124746765N12001967WA0060700589
B1924134746765N12001970WA0060500586
B1924144746765N12001975WA0060300582
B1924154746764N12001981WA0060200579
B1924164746762N12001986WA0060000578
B1924174746761N12001991WA0059800578
B1924184746760N12001994WA0059700578
B1924194746759N12001996WA0059600577
B1924204746758N12001999WA0059400576
B1924214746757N12002004WA0059200574
B1924224746757N12002009WA0059100571
B1924234746757N12002015WA0059000570
B1924244746756N12002022WA0058800569
B1924254746756N12002028WA0058700569
B1924264746756N12002034WA0058600569
B1924274746756N12002041WA0058500570
B1924284746756N12002047WA0058500572
B1924284746756N12002047WA0058500572
B1924294746756N12002052WA0058500573
B1924304746756N12002058WA0058400574
B1924314746755N12002063WA0058400575
B1924324746754N12002070WA0058400575
B1924334746754N12002076WA0058400574
B1924344746753N12002084WA0058400574
B1924354746752N12002092WA0058400573
B1924364746750N12002100WA0058400574
B1924374746749N12002107WA0058400575
B1924384746748N12002113WA0058500577
B1924394746746N12002118WA0058600579
B1924404746744N12002123WA0058600579
B1924414746741N12002126WA0058700581
B1924424746737N12002129WA0058800582
B1924434746732N12002130WA0058800584
B1924444746728N12002130WA0058900586
B1924454746725N12002128WA0059000588
B1924464746722N12002128WA0059100588
B1924474746719N12002128WA0059100586
B1924484746717N12002129WA0059100582
B1924494746714N12002131WA0059000577
B1924504746711N12002133WA0058900573
B1924514746711N12002135WA0058800571
B1924524746713N12002136WA0058600569
B1924534746717N12002133WA0058500566
B1924544746723N12002127WA0058300561
B1924554746729N12002116WA0058100557
B1924564746733N12002103WA0057900557
B1924574746735N12002090WA0057800559
B1924584746735N12002080WA0057800563
B1924594746734N12002071WA0057700566
B1925004746733N12002063WA0057700567
B1925014746734N12002053WA0057600565
B1925024746735N12002040WA0057500562
B1925034746734N12002025WA0057500559
B1925044746732N12002012WA0057400558
B1925054746726N12002001WA0057300558
B1925064746721N12001995WA0057200556
B1925074746716N12001992WA0057100554
B1925084746713N12001991WA0057000552
B1925094746711N12001990WA0056800550
B1925104746709N12001990WA0056600546
B1925114746706N12001990WA0056500542
B1925124746702N12001990WA0056100536
B1925134746696N12001991WA0055900531
B1925144746691N12001992WA0055600529
B1925154746686N12001993WA0055400527
B1925164746681N12001994WA0055100526
B1925174746676N12001994WA0054900523
B1925184746672N12001994WA0054700521
B1925194746667N12001994WA0054500519
B1925204746663N12001995WA0054200518
B1925214746659N12001995WA0054000515
B1925224746654N12001996WA0053700511
B1925234746649N12001998WA0053500506
B1925244746644N12002000WA0053200501
B1925254746639N12002003WA0052900496
B1925264746633N12002006WA0052500492
B1925274746627N12002008WA0052300488
B1925284746622N12002009WA0051900485
B1925294746617N12002010WA0051600482
B1925304746612N12002011WA0051300480
B1925314746607N12002011WA0051000478
B1925324746602N12002012WA0050600474
B1925324746602N12002012WA0050600474
B1925334746597N12002013WA0050400469
B1925344746590N12002015WA0049900463
B1925354746584N12002018WA0049700457
B1925364746577N12002021WA0049200453
B1925374746572N12002023WA0048900450
B1925384746567N12002026WA0048500449
B1925394746563N12002028WA0048300447
B1925404746560N12002032WA0047900444
B1925414746557N12002036WA0047600441
B1925424746555N12002041WA0047200437
B1925434746553N12002046WA0047000434
B1925444746551N12002050WA0046600432
B1925454746549N12002055WA0046400429
B1925464746547N12002059WA0046000426
B1925474746546N12002064WA0045800423
B1925484746544N12002068WA0045400420
B1925494746543N12002072WA0045200417
B1925504746541N12002077WA0044800413
B1925514746539N12002081WA0044500410
B1925524746538N12002087WA0044200406
B1925534746537N12002093WA0043900403
B1925544746536N12002098WA0043600401
B1925554746535N12002103WA0043300398
B1925564746535N12002108WA0043000395
B1925574746534N12002114WA0042700392
B1925584746534N12002120WA0042400389
B1925594746534N12002126WA0042200387
B1926004746534N12002132WA0041900386
B1926014746534N12002138WA0041700386
B1926024746534N12002143WA0041500386
B1926034746534N12002148WA0041400386
B1926044746533N12002154WA0041200385
B1926054746533N12002159WA0041000384
B1926064746531N12002164WA0040900383
B1926074746529N12002169WA0040800382
B1926084746528N12002173WA0040600381
B1926094746526N12002177WA0040500380
B1926104746524N12002179WA0040300378
B1926114746522N12002181WA0040200376
B1926124746520N12002184WA0040000372
B1926134746518N12002189WA0039800368
B1926144746516N12002194WA0039500363
B1926154746514N12002198WA0039300359
B1926164746511N12002203WA0039000356
B1926174746508N12002207WA0038800353
B1926184746506N12002210WA0038500351
B1926194746507N12002215WA0038300349
B1926204746512N12002218WA0037900345
B1926214746520N12002217WA0037700340
B1926224746528N12002215WA0037400335
B1926234746535N12002210WA0037100333
B1926244746541N12002206WA0036800332
B1926254746546N12002204WA0036600331
B1926264746549N12002203WA0036300329
B1926274746551N12002206WA0036000327
B1926284746553N12002210WA0035600321
B1926294746553N12002215WA0035400317
B1926304746551N12002218WA0035000315
B1926314746549N12002218WA0034800314
B1926324746545N12002217WA0034500313
B1926334746541N12002213WA0034300310
B1926344746537N12002210WA0033900307
B1926354746533N12002206WA0033700304
B1926364746528N12002202WA0033400301
B1926364746528N12002202WA0033400301
B1926374746522N12002197WA0033200297
B1926384746517N12002192WA0032800295
B1926394746512N12002188WA0032600293
B1926404746508N12002185WA0032400293
B1926414746504N12002180WA0032200291
B1926424746501N12002175WA0031900290
B1926434746496N12002167WA0031700288
B1926444746490N12002159WA0031400285
B1926454746485N12002155WA0031200283
B1926464746481N12002156WA0031000282
B1926474746480N12002160WA0030800279
B1926484746483N12002164WA0030500275
B1926494746488N12002165WA0030300272
B1926504746494N12002162WA0030100271
B1926514746500N12002157WA0030000272
B1926524746504N12002153WA0029800274
B1926534746507N12002152WA0029700275
B1926544746509N12002154WA0029500272
B1926554746511N12002158WA0029300270
B1926564746511N12002161WA0029100269
B1926574746511N12002163WA0029000269
B1926584746508N12002164WA0028900269
B1926594746504N12002163WA0028800267
B1927004746499N12002161WA0028600263
B1927014746493N12002157WA0028500262
B1927024746488N12002153WA0028300261
B1927034746484N12002150WA0028300262
B1927044746480N12002148WA0028200263
B1927054746477N12002149WA0028100262
B1927064746475N12002151WA0028000260
B1927074746476N12002155WA0027900258
B1927084746478N12002159WA0027800256
B1927094746482N12002161WA0027800254
B1927104746486N12002163WA0027700253
B1927114746488N12002164WA0027600254
B1927124746489N12002165WA0027500253
B1927134746490N12002166WA0027400252
B1927144746491N12002169WA0027300249
B1927154746493N12002172WA0027200247
B1927164746494N12002175WA0027000246
B1927174746495N12002177WA0027000245
B1927184746495N12002178WA0026800245
B1927194746495N12002180WA0026700243
B1927204746493N12002183WA0026600239
B1927214746489N12002186WA0026400236
B1927224746483N12002187WA0026300233
B1927234746477N12002187WA0026200232
B1927244746472N12002186WA0026000232
B1927254746469N12002187WA0026000234
B1927264746468N12002190WA0025900232
B1927274746467N12002194WA0025800230
B1927284746468N12002198WA0025600228
B1927294746468N12002201WA0025600228
B1927304746468N12002203WA0025500228
B1927314746469N12002205WA0025400227
B1927324746470N12002207WA0025300226
B1927334746469N12002211WA0025200224
B1927344746468N12002216WA0025000221
B1927354746466N12002220WA0024900220
B1927364746464N12002224WA0024800219
B1927374746463N12002227WA0024700219
B1927384746462N12002229WA0024600219
B1927394746461N12002230WA0024500219
B1927404746460N12002230WA0024400219
B1927404746460N12002230WA0024400219
B1927414746460N12002230WA0024300219
B1927424746460N12002230WA0024200218
B1927434746459N12002230WA0024200219
B1927444746459N12002229WA0024200219
B1927454746459N12002229WA0024100220
B1927464746459N12002229WA0024100219
B1927474746459N12002229WA0024100219
B1927484746459N12002229WA0024100219
B1927494746459N12002229WA0024000219
B1927504746459N12002229WA0024000220
B1927514746458N12002229WA0024000220
B1927524746458N12002228WA0024000219
B1927534746458N12002228WA0024000219
B1927544746458N12002228WA0024000220
B1927554746458N12002228WA0024000220
B1927564746457N12002228WA0024000220
B1927574746457N12002227WA0024000220
B1927584746457N12002227WA0024000220
B1927594746457N12002227WA0023900220
B1928004746456N12002227WA0023900220
B1928014746456N12002227WA0023900220
B1928024746456N12002226WA0023900219
B1928034746456N12002226WA0023900219
B1928044746456N12002226WA0023900219
B1928054746456N12002226WA0023900219
B1928064746456N12002226WA0023900219
B1928074746456N12002226WA0023900219
B1928084746456N12002226WA0023900219
B1928094746456N12002226WA0023900219
B1928104746456N12002226WA0023900219
B1928114746456N12002226WA0023900218
B1928124746456N12002226WA0023900218
B1928134746456N12002226WA0023900218
B1928144746456N12002226WA0023900219
B1928154746456N12002226WA0023900219
B1928164746456N12002226WA0023900219
B1928174746456N12002226WA0023900219
B1928184746456N12002226WA0023900219
B1928194746456N12002226WA0023900218
B1928204746456N12002226WA0023900218
B1928214746456N12002226WA0023900218
B1928224746456N12002226WA0023900218
B1928234746455N12002226WA0023900218
B1928244746455N12002226WA0023900218
B1928254746455N12002226WA0023900218
B1928264746456N12002226WA0023900218
B1928274746456N12002226WA0023900218
B1928284746456N12002226WA0023900218
B1928294746456N12002226WA0023900218
B1928304746456N12002226WA0024000218
B1928314746456N12002226WA0024000218
B1928324746456N12002226WA0024000218
B1928334746456N12002225WA0024000218
B1928344746456N12002225WA0024000218
B1928354746455N12002224WA0024000218
B1928364746455N12002223WA0024000218
B1928374746455N12002222WA0024000218
B1928384746455N12002222WA0024000218
B1928394746455N12002220WA0024000218
B1928404746455N12002219WA0024000219
B1928414746456N12002219WA0024000219
B1928424746456N12002218WA0024000219
B1928434746456N12002217WA0024000219
B1928444746456N12002216WA0024000218
