AXFMSFP Flymaster Live, V1.0
HFFXA010
HFPLTPILOT:Brad Bass
HFGTYGLIDERTYPE:Air Design Sock / Ozone  Photon
HFGIDGLIDERID:
HFDTM100GPSDATUM:WGS-1984
HFCIDCOMPETITIONID:385
HFCCLCOMPETITIONCLASS:
HOSITSITE:LAUNCH
HFGPS:UBLOXNEO6
HFPRSPRESSALTSENSOR:NA
HFRFWFIRMWAREVERSION:202g
HFRHWHARDWAREVERSION:1.0R2
HFFTYFRTYPE:FLYMASTER,LIVE
HFDTE170625
B2031314748257N12002347WA0109701131
B2031324748257N12002347WA0109701131
B2031334748257N12002347WA0109701131
B2031344748257N12002347WA0109701131
B2031354748257N12002347WA0109701131
B2031364748257N12002347WA0109701131
B2031374748257N12002347WA0109701131
B2031384748257N12002347WA0109701131
B2031394748257N12002347WA0109701131
B2031404748257N12002347WA0109701131
B2031414748257N12002347WA0109701131
B2031424748257N12002347WA0109701131
B2031434748257N12002348WA0109701131
B2031444748257N12002348WA0109701131
B2031454748258N12002348WA0109701131
B2031464748258N12002348WA0109601131
B2031474748258N12002348WA0109601131
B2031484748258N12002348WA0109701131
B2031494748258N12002348WA0109701131
B2031504748258N12002348WA0109701131
B2031514748258N12002348WA0109701131
B2031524748258N12002348WA0109701131
B2031534748258N12002348WA0109701131
B2031544748258N12002348WA0109701132
B2031554748258N12002348WA0109701132
B2031564748258N12002348WA0109701132
B2031574748258N12002348WA0109701132
B2031584748258N12002348WA0109701132
B2031594748258N12002348WA0109701132
B2032004748258N12002348WA0109701132
B2032014748258N12002348WA0109701132
B2032024748258N12002348WA0109701132
B2032034748258N12002348WA0109701132
B2032044748258N12002348WA0109701132
B2032054748258N12002347WA0109701132
B2032064748258N12002347WA0109701132
B2032074748258N12002347WA0109701132
B2032084748258N12002347WA0109701132
B2032094748258N12002347WA0109701132
B2032104748258N12002348WA0109601132
B2032114748258N12002347WA0109601132
B2032124748257N12002347WA0109601132
B2032134748256N12002347WA0109601132
B2032144748256N12002348WA0109601132
B2032154748255N12002349WA0109601132
B2032164748255N12002351WA0109601131
B2032174748254N12002352WA0109601131
B2032184748253N12002355WA0109601130
B2032194748252N12002357WA0109701130
B2032204748250N12002360WA0109701130
B2032214748248N12002363WA0109601130
B2032224748246N12002366WA0109601129
B2032234748244N12002370WA0109601129
B2032244748243N12002375WA0109601127
B2032254748241N12002379WA0109501125
B2032264748239N12002385WA0109501123
B2032274748236N12002389WA0109401121
B2032284748233N12002392WA0109401122
B2032294748231N12002396WA0109301122
B2032304748229N12002401WA0109301121
B2032314748226N12002406WA0109201121
B2032324748223N12002412WA0109201119
B2032334748220N12002416WA0109101118
B2032344748217N12002420WA0109101118
B2032354748215N12002424WA0109101119
B2032354748215N12002424WA0109101119
B2032364748214N12002428WA0109001119
B2032374748213N12002433WA0109001119
B2032384748213N12002438WA0109001120
B2032394748211N12002443WA0109001119
B2032404748209N12002447WA0109001119
B2032414748207N12002452WA0109001118
B2032424748205N12002457WA0109001116
B2032434748204N12002462WA0108901115
B2032444748203N12002468WA0108901114
B2032454748201N12002474WA0108801112
B2032464748199N12002480WA0108701111
B2032474748197N12002485WA0108701110
B2032484748195N12002491WA0108601109
B2032494748194N12002496WA0108501108
B2032504748192N12002502WA0108501106
B2032514748190N12002508WA0108401104
B2032524748189N12002515WA0108301103
B2032534748189N12002522WA0108201102
B2032544748189N12002528WA0108101101
B2032554748188N12002535WA0108001101
B2032564748187N12002541WA0107901100
B2032574748186N12002547WA0107801099
B2032584748187N12002554WA0107801099
B2032594748188N12002561WA0107701098
B2033004748189N12002567WA0107601097
B2033014748189N12002574WA0107501097
B2033024748190N12002580WA0107401097
B2033034748190N12002587WA0107401096
B2033044748191N12002594WA0107301095
B2033054748192N12002601WA0107201094
B2033064748194N12002608WA0107101093
B2033074748195N12002616WA0107101092
B2033084748197N12002623WA0107001092
B2033094748198N12002630WA0106901091
B2033104748198N12002637WA0106801090
B2033114748199N12002644WA0106801090
B2033124748200N12002652WA0106701089
B2033134748200N12002659WA0106701088
B2033144748201N12002666WA0106601087
B2033154748201N12002673WA0106501086
B2033164748201N12002680WA0106401085
B2033174748202N12002687WA0106401084
B2033184748204N12002694WA0106301082
B2033194748207N12002701WA0106201081
B2033204748209N12002708WA0106101081
B2033214748212N12002715WA0106001080
B2033224748214N12002722WA0105901080
B2033234748216N12002728WA0105901079
B2033244748218N12002734WA0105801078
B2033254748220N12002741WA0105701076
B2033264748220N12002747WA0105601073
B2033274748218N12002755WA0105501070
B2033284748216N12002762WA0105201067
B2033294748214N12002769WA0105001066
B2033304748214N12002776WA0104901067
B2033314748213N12002781WA0104801067
B2033324748212N12002786WA0104701066
B2033334748210N12002791WA0104601064
B2033344748207N12002796WA0104401060
B2033354748203N12002801WA0104301058
B2033364748199N12002806WA0104101055
B2033374748195N12002809WA0104001054
B2033384748191N12002812WA0103801051
B2033394748185N12002812WA0103601049
B2033394748185N12002812WA0103601049
B2033404748180N12002812WA0103401046
B2033414748174N12002812WA0103301044
B2033424748169N12002812WA0103101043
B2033434748164N12002811WA0103001041
B2033444748159N12002812WA0102701038
B2033454748153N12002812WA0102601036
B2033464748147N12002813WA0102301034
B2033474748142N12002813WA0102201033
B2033484748138N12002812WA0102001033
B2033494748134N12002812WA0101901032
B2033504748130N12002812WA0101701031
B2033514748126N12002812WA0101601027
B2033524748121N12002813WA0101301024
B2033534748115N12002812WA0101201020
B2033544748110N12002811WA0100901017
B2033554748105N12002810WA0100701014
B2033564748100N12002809WA0100501012
B2033574748094N12002810WA0100301009
B2033584748089N12002809WA0100001007
B2033594748084N12002808WA0099801005
B2034004748079N12002807WA0099501003
B2034014748074N12002807WA0099401001
B2034024748068N12002808WA0099100998
B2034034748063N12002809WA0098900995
B2034044748057N12002809WA0098600992
B2034054748051N12002809WA0098400990
B2034064748045N12002809WA0098200987
B2034074748040N12002811WA0098000985
B2034084748035N12002813WA0097700982
B2034094748030N12002814WA0097500980
B2034104748025N12002816WA0097200976
B2034114748019N12002816WA0097100974
B2034124748012N12002815WA0096800970
B2034134748006N12002814WA0096600968
B2034144748001N12002814WA0096300966
B2034154747995N12002814WA0096100963
B2034164747990N12002814WA0095800959
B2034174747984N12002814WA0095600955
B2034184747977N12002811WA0095300952
B2034194747971N12002807WA0095100950
B2034204747965N12002804WA0094800950
B2034214747959N12002802WA0094600951
B2034224747953N12002801WA0094400951
B2034234747947N12002802WA0094200950
B2034244747940N12002805WA0094000950
B2034254747934N12002809WA0093900952
B2034264747928N12002812WA0093800953
B2034274747922N12002816WA0093700955
B2034284747918N12002821WA0093600956
B2034294747913N12002826WA0093600956
B2034304747907N12002831WA0093500955
B2034314747902N12002837WA0093400954
B2034324747896N12002844WA0093400954
B2034334747890N12002851WA0093300955
B2034344747885N12002857WA0093300956
B2034354747881N12002862WA0093300959
B2034364747877N12002866WA0093300961
B2034374747873N12002870WA0093300962
B2034384747869N12002876WA0093300960
B2034394747865N12002882WA0093300959
B2034404747861N12002888WA0093300959
B2034414747857N12002892WA0093400960
B2034424747853N12002895WA0093400961
B2034424747853N12002895WA0093400961
B2034434747848N12002896WA0093500961
B2034444747844N12002897WA0093500961
B2034454747840N12002896WA0093500959
B2034464747834N12002897WA0093400954
B2034474747828N12002899WA0093400950
B2034484747823N12002902WA0093300947
B2034494747817N12002906WA0093200947
B2034504747812N12002911WA0093100950
B2034514747808N12002914WA0093100953
B2034524747804N12002917WA0093100956
B2034534747800N12002919WA0093200959
B2034544747796N12002920WA0093200962
B2034554747792N12002919WA0093300964
B2034564747788N12002917WA0093300964
B2034574747783N12002911WA0093400963
B2034584747777N12002906WA0093400961
B2034594747771N12002900WA0093400964
B2035004747766N12002897WA0093500967
B2035014747761N12002894WA0093600969
B2035024747757N12002893WA0093700970
B2035034747751N12002891WA0093800970
B2035044747746N12002890WA0093800970
B2035054747740N12002888WA0093900969
B2035064747734N12002887WA0094000969
B2035074747729N12002887WA0094000971
B2035084747725N12002887WA0094100972
B2035094747721N12002888WA0094100973
B2035104747717N12002888WA0094200972
B2035114747712N12002890WA0094200971
B2035124747708N12002893WA0094300970
B2035134747703N12002896WA0094300968
B2035144747699N12002900WA0094300968
B2035154747696N12002904WA0094300968
B2035164747692N12002907WA0094300969
B2035174747688N12002911WA0094300969
B2035184747684N12002914WA0094300968
B2035194747680N12002918WA0094300967
B2035204747675N12002920WA0094300966
B2035214747669N12002920WA0094300966
B2035224747665N12002918WA0094200967
B2035234747661N12002915WA0094200967
B2035244747657N12002911WA0094200966
B2035254747653N12002907WA0094100963
B2035264747648N12002902WA0094100961
B2035274747642N12002895WA0094100959
B2035284747638N12002888WA0094000957
B2035294747634N12002879WA0093900957
B2035304747630N12002871WA0093800956
B2035314747626N12002863WA0093700955
B2035324747621N12002855WA0093600953
B2035334747616N12002848WA0093500951
B2035344747610N12002840WA0093400949
B2035354747604N12002833WA0093300948
B2035364747599N12002826WA0093200947
B2035374747594N12002819WA0093100947
B2035384747589N12002812WA0093000946
B2035394747583N12002806WA0092900945
B2035404747578N12002800WA0092800945
B2035414747574N12002793WA0092700945
B2035424747569N12002785WA0092600945
B2035434747564N12002777WA0092600946
B2035444747560N12002769WA0092500946
B2035454747557N12002760WA0092500947
B2035464747554N12002751WA0092500949
B2035464747554N12002751WA0092500949
B2035474747552N12002742WA0092400949
B2035484747549N12002734WA0092400950
B2035494747545N12002727WA0092400950
B2035504747540N12002719WA0092400949
B2035514747536N12002712WA0092400948
B2035524747532N12002704WA0092400947
B2035534747528N12002696WA0092400945
B2035544747526N12002688WA0092300944
B2035554747524N12002680WA0092200942
B2035564747523N12002671WA0092100941
B2035574747524N12002661WA0092100938
B2035584747525N12002650WA0091900935
B2035594747527N12002638WA0091800932
B2036004747528N12002627WA0091600931
B2036014747530N12002616WA0091500930
B2036024747532N12002606WA0091300929
B2036034747533N12002597WA0091200928
B2036044747535N12002587WA0091100926
B2036054747537N12002578WA0091000923
B2036064747539N12002567WA0090800920
B2036074747542N12002556WA0090700917
B2036084747543N12002545WA0090500915
B2036094747544N12002535WA0090300912
B2036104747543N12002525WA0090100911
B2036114747540N12002517WA0090000909
B2036124747537N12002510WA0089700906
B2036134747533N12002504WA0089600903
B2036144747528N12002500WA0089300900
B2036154747523N12002497WA0089200897
B2036164747519N12002496WA0088900895
B2036174747515N12002495WA0088700891
B2036184747510N12002495WA0088500888
B2036194747506N12002495WA0088300884
B2036204747502N12002495WA0088000881
B2036214747498N12002495WA0087800878
B2036224747495N12002496WA0087500876
B2036234747491N12002496WA0087300873
B2036244747487N12002496WA0087000869
B2036254747482N12002496WA0086700865
B2036264747477N12002496WA0086400861
B2036274747471N12002496WA0086200858
B2036284747466N12002496WA0085900855
B2036294747461N12002496WA0085600852
B2036304747457N12002495WA0085300850
B2036314747453N12002494WA0085100847
B2036324747448N12002492WA0084700845
B2036334747444N12002490WA0084500841
B2036344747439N12002486WA0084200839
B2036354747435N12002482WA0083900836
B2036364747431N12002475WA0083600833
B2036374747427N12002467WA0083300829
B2036384747423N12002458WA0083000825
B2036394747420N12002450WA0082700822
B2036404747417N12002442WA0082400819
B2036414747413N12002433WA0082200817
B2036424747410N12002425WA0081800815
B2036434747406N12002416WA0081600813
B2036444747401N12002408WA0081300811
B2036454747396N12002399WA0081100810
B2036464747392N12002391WA0080800810
B2036474747388N12002382WA0080600810
B2036484747385N12002374WA0080400811
B2036494747382N12002364WA0080300810
B2036504747380N12002353WA0080100810
B2036504747380N12002353WA0080100810
B2036514747378N12002342WA0080000810
B2036524747378N12002331WA0079800811
B2036534747379N12002319WA0079700812
B2036544747381N12002309WA0079600814
B2036554747385N12002300WA0079600816
B2036564747389N12002292WA0079500817
B2036574747395N12002286WA0079500817
B2036584747401N12002283WA0079500816
B2036594747408N12002281WA0079500816
B2037004747415N12002283WA0079500816
B2037014747420N12002287WA0079500817
B2037024747423N12002291WA0079500819
B2037034747424N12002295WA0079600821
B2037044747424N12002299WA0079600822
B2037054747424N12002304WA0079700822
B2037064747423N12002309WA0079800821
B2037074747421N12002315WA0079800820
B2037084747419N12002320WA0079900820
B2037094747417N12002323WA0079900822
B2037104747414N12002325WA0080000823
B2037114747411N12002325WA0080100825
B2037124747407N12002325WA0080200825
B2037134747403N12002322WA0080200825
B2037144747399N12002318WA0080300824
B2037154747394N12002311WA0080300823
B2037164747392N12002301WA0080400823
B2037174747390N12002289WA0080400823
B2037184747390N12002277WA0080500823
B2037194747392N12002266WA0080500825
B2037204747394N12002255WA0080600829
B2037214747398N12002246WA0080600830
B2037224747403N12002237WA0080700832
B2037234747409N12002230WA0080800833
B2037244747415N12002225WA0080900835
B2037254747422N12002220WA0081000836
B2037264747428N12002217WA0081100838
B2037274747435N12002216WA0081200839
B2037284747441N12002218WA0081300840
B2037294747447N12002221WA0081400842
B2037304747451N12002226WA0081600843
B2037314747454N12002231WA0081700846
B2037324747456N12002236WA0081800847
B2037334747457N12002241WA0081900848
B2037344747458N12002246WA0082100849
B2037354747457N12002251WA0082200851
B2037364747455N12002254WA0082400852
B2037374747453N12002256WA0082500854
B2037384747450N12002256WA0082600854
B2037394747447N12002255WA0082700854
B2037404747443N12002253WA0082800853
B2037414747438N12002248WA0082900851
B2037424747432N12002244WA0083000847
B2037434747427N12002239WA0083000847
B2037444747422N12002234WA0083000847
B2037454747418N12002230WA0083000849
B2037464747415N12002225WA0083000851
B2037474747412N12002220WA0083000853
B2037484747408N12002215WA0083100854
B2037494747404N12002210WA0083100856
B2037504747399N12002206WA0083200858
B2037514747395N12002204WA0083200861
B2037524747390N12002204WA0083400864
B2037534747386N12002203WA0083500868
B2037544747381N12002201WA0083700870
B2037544747381N12002201WA0083700870
B2037554747377N12002196WA0083800872
B2037564747374N12002188WA0083900873
B2037574747371N12002177WA0084000874
B2037584747371N12002166WA0084200876
B2037594747374N12002155WA0084300881
B2038004747378N12002147WA0084500885
B2038014747383N12002141WA0084700889
B2038024747388N12002138WA0084900893
B2038034747394N12002136WA0085100896
B2038044747401N12002136WA0085300898
B2038054747408N12002137WA0085500898
B2038064747415N12002139WA0085800901
B2038074747422N12002143WA0085900904
B2038084747426N12002148WA0086200908
B2038094747429N12002153WA0086400911
B2038104747432N12002158WA0086700914
B2038114747434N12002163WA0086900917
B2038124747436N12002168WA0087200919
B2038134747437N12002172WA0087400920
B2038144747438N12002176WA0087600920
B2038154747439N12002181WA0087800919
B2038164747440N12002188WA0088000919
B2038174747441N12002196WA0088200920
B2038184747442N12002202WA0088400924
B2038194747442N12002206WA0088600929
B2038204747443N12002208WA0088900933
B2038214747444N12002209WA0089100936
B2038224747445N12002211WA0089300935
B2038234747445N12002214WA0089500934
B2038244747443N12002218WA0089700932
B2038254747440N12002221WA0089800931
B2038264747435N12002223WA0089900930
B2038274747431N12002223WA0090000931
B2038284747426N12002221WA0090100932
B2038294747421N12002217WA0090200932
B2038304747416N12002211WA0090300932
B2038314747411N12002204WA0090300931
B2038324747406N12002195WA0090400931
B2038334747403N12002184WA0090400931
B2038344747401N12002173WA0090500931
B2038354747401N12002161WA0090500931
B2038364747402N12002149WA0090500930
B2038374747405N12002137WA0090500928
B2038384747408N12002126WA0090500928
B2038394747413N12002117WA0090500927
B2038404747419N12002109WA0090500929
B2038414747426N12002105WA0090500929
B2038424747432N12002101WA0090500931
B2038434747439N12002100WA0090500932
B2038444747446N12002099WA0090600933
B2038454747453N12002100WA0090600934
B2038464747459N12002102WA0090600936
B2038474747465N12002104WA0090700939
B2038484747469N12002108WA0090800941
B2038494747471N12002114WA0090900943
B2038504747471N12002119WA0091000944
B2038514747470N12002123WA0091000945
B2038524747468N12002127WA0091100947
B2038534747466N12002130WA0091200947
B2038544747463N12002133WA0091300947
B2038554747459N12002135WA0091400947
B2038564747454N12002135WA0091500946
B2038574747448N12002133WA0091600945
B2038584747443N12002131WA0091600946
B2038594747438N12002128WA0091600947
B2038594747438N12002128WA0091600947
B2039004747433N12002126WA0091700948
B2039014747428N12002123WA0091700948
B2039024747422N12002118WA0091800948
B2039034747417N12002112WA0091800949
B2039044747412N12002104WA0091900949
B2039054747408N12002094WA0091900950
B2039064747405N12002084WA0091900950
B2039074747404N12002072WA0092000950
B2039084747404N12002059WA0092000950
B2039094747407N12002047WA0092100950
B2039104747411N12002036WA0092100951
B2039114747417N12002027WA0092100953
B2039124747422N12002020WA0092200956
B2039134747428N12002015WA0092200958
B2039144747435N12002012WA0092300960
B2039154747442N12002011WA0092400961
B2039164747449N12002010WA0092500963
B2039174747455N12002012WA0092600965
B2039184747460N12002015WA0092700969
B2039194747463N12002019WA0092900972
B2039204747464N12002023WA0093100974
B2039214747465N12002027WA0093200975
B2039224747465N12002032WA0093400975
B2039234747466N12002037WA0093500975
B2039244747465N12002043WA0093700975
B2039254747464N12002048WA0093800975
B2039264747463N12002053WA0093900975
B2039274747462N12002058WA0094000975
B2039284747460N12002063WA0094100975
B2039294747457N12002068WA0094100975
B2039304747453N12002071WA0094200974
B2039314747448N12002071WA0094300975
B2039324747443N12002068WA0094400975
B2039334747438N12002062WA0094400976
B2039344747434N12002054WA0094500977
B2039354747431N12002044WA0094500978
B2039364747430N12002033WA0094600979
B2039374747431N12002022WA0094700981
B2039384747434N12002012WA0094800983
B2039394747438N12002004WA0094900985
B2039404747444N12001997WA0095000987
B2039414747451N12001993WA0095100989
B2039424747457N12001991WA0095300991
B2039434747463N12001990WA0095400992
B2039444747468N12001991WA0095500994
B2039454747473N12001993WA0095600994
B2039464747478N12001997WA0095800994
B2039474747482N12002000WA0095800994
B2039484747486N12002005WA0096000993
B2039494747490N12002011WA0096000992
B2039504747495N12002016WA0096100992
B2039514747499N12002021WA0096200992
B2039524747504N12002025WA0096300993
B2039534747509N12002030WA0096300993
B2039544747513N12002036WA0096400993
B2039554747517N12002042WA0096400994
B2039564747520N12002048WA0096500994
B2039574747523N12002052WA0096600994
B2039584747526N12002057WA0096600994
B2039594747530N12002061WA0096700993
B2040004747533N12002065WA0096700990
B2040014747538N12002071WA0096700987
B2040024747543N12002076WA0096600983
B2040034747547N12002082WA0096600981
B2040034747547N12002082WA0096600981
B2040044747552N12002088WA0096500979
B2040054747556N12002094WA0096400978
B2040064747559N12002099WA0096300977
B2040074747563N12002105WA0096200976
B2040084747566N12002112WA0096100975
B2040094747570N12002119WA0096000974
B2040104747574N12002126WA0095900974
B2040114747578N12002132WA0095800975
B2040124747583N12002137WA0095800976
B2040134747587N12002142WA0095700977
B2040144747591N12002146WA0095700976
B2040154747595N12002150WA0095700975
B2040164747599N12002156WA0095600973
B2040174747604N12002162WA0095500970
B2040184747608N12002168WA0095500969
B2040194747613N12002173WA0095400968
B2040204747618N12002177WA0095300968
B2040214747623N12002181WA0095200967
B2040224747627N12002184WA0095100967
B2040234747631N12002188WA0095100965
B2040244747636N12002192WA0094900963
B2040254747640N12002197WA0094900961
B2040264747645N12002203WA0094700960
B2040274747648N12002207WA0094700959
B2040284747652N12002212WA0094500959
B2040294747655N12002215WA0094500959
B2040304747658N12002219WA0094400959
B2040314747661N12002223WA0094300957
B2040324747664N12002229WA0094200954
B2040334747668N12002234WA0094100952
B2040344747671N12002239WA0094000952
B2040354747674N12002243WA0093900952
B2040364747677N12002246WA0093800951
B2040374747680N12002249WA0093700949
B2040384747682N12002253WA0093600945
B2040394747685N12002260WA0093400940
B2040404747685N12002267WA0093200936
B2040414747685N12002274WA0093100933
B2040424747685N12002279WA0092900933
B2040434747685N12002283WA0092700933
B2040444747686N12002286WA0092500933
B2040454747687N12002290WA0092400931
B2040464747688N12002296WA0092200927
B2040474747689N12002303WA0092100924
B2040484747690N12002309WA0091900922
B2040494747690N12002316WA0091700922
B2040504747690N12002321WA0091500923
B2040514747689N12002326WA0091400923
B2040524747688N12002331WA0091300922
B2040534747687N12002336WA0091200921
B2040544747685N12002342WA0091000920
B2040554747684N12002349WA0090900919
B2040564747682N12002355WA0090800919
B2040574747680N12002362WA0090700918
B2040584747678N12002368WA0090600918
B2040594747677N12002374WA0090500918
B2041004747676N12002380WA0090400917
B2041014747674N12002385WA0090300917
B2041024747673N12002391WA0090200915
B2041034747672N12002396WA0090200913
B2041044747670N12002402WA0090100911
B2041054747667N12002408WA0090000908
B2041064747664N12002412WA0089800907
B2041064747664N12002412WA0089800907
B2041074747660N12002414WA0089700906
B2041084747657N12002414WA0089600906
B2041094747653N12002415WA0089500905
B2041104747649N12002417WA0089300903
B2041114747645N12002420WA0089200901
B2041124747641N12002423WA0089100899
B2041134747638N12002426WA0089000899
B2041144747634N12002427WA0088900899
B2041154747630N12002428WA0088800898
B2041164747626N12002429WA0088700897
B2041174747622N12002432WA0088600895
B2041184747618N12002434WA0088400892
B2041194747613N12002436WA0088300890
B2041204747609N12002438WA0088200888
B2041214747604N12002437WA0088100887
B2041224747600N12002435WA0087900886
B2041234747595N12002431WA0087800884
B2041244747590N12002426WA0087600882
B2041254747585N12002421WA0087500880
B2041264747579N12002417WA0087300878
B2041274747574N12002412WA0087200877
B2041284747569N12002407WA0087000876
B2041294747565N12002401WA0086900875
B2041304747561N12002394WA0086700874
B2041314747557N12002388WA0086600872
B2041324747552N12002383WA0086500870
B2041334747547N12002376WA0086400869
B2041344747542N12002370WA0086200867
B2041354747538N12002362WA0086100865
B2041364747535N12002353WA0085900864
B2041374747530N12002345WA0085800862
B2041384747526N12002338WA0085600860
B2041394747521N12002331WA0085500858
B2041404747517N12002323WA0085300856
B2041414747513N12002314WA0085100855
B2041424747510N12002305WA0084900853
B2041434747506N12002296WA0084800851
B2041444747502N12002288WA0084600849
B2041454747498N12002280WA0084500848
B2041464747494N12002272WA0084300846
B2041474747490N12002265WA0084200844
B2041484747486N12002257WA0084000842
B2041494747482N12002249WA0083800839
B2041504747477N12002241WA0083600836
B2041514747472N12002233WA0083500833
B2041524747467N12002225WA0083200830
B2041534747461N12002218WA0083000828
B2041544747456N12002211WA0082800827
B2041554747452N12002204WA0082600825
B2041564747447N12002198WA0082400823
B2041574747443N12002191WA0082200821
B2041584747438N12002184WA0081900818
B2041594747433N12002176WA0081700815
B2042004747428N12002167WA0081500813
B2042014747424N12002159WA0081300811
B2042024747419N12002150WA0081100810
B2042034747416N12002142WA0080900809
B2042044747412N12002133WA0080600807
B2042054747407N12002124WA0080500805
B2042064747403N12002115WA0080200802
B2042074747398N12002105WA0080000799
B2042084747394N12002096WA0079800797
B2042094747390N12002087WA0079600795
B2042104747386N12002077WA0079300793
B2042104747386N12002077WA0079300793
B2042114747382N12002067WA0079200790
B2042124747379N12002057WA0078900787
B2042134747375N12002047WA0078700784
B2042144747371N12002037WA0078500782
B2042154747366N12002027WA0078300780
B2042164747362N12002017WA0078000777
B2042174747359N12002006WA0077800775
B2042184747356N12001996WA0077500772
B2042194747354N12001985WA0077400770
B2042204747353N12001975WA0077100767
B2042214747352N12001964WA0076900764
B2042224747352N12001952WA0076600760
B2042234747351N12001940WA0076400758
B2042244747351N12001928WA0076100755
B2042254747351N12001915WA0075900752
B2042264747350N12001902WA0075700750
B2042274747349N12001889WA0075500749
B2042284747347N12001876WA0075300749
B2042294747346N12001865WA0075100753
B2042304747345N12001855WA0075000755
B2042314747345N12001845WA0074900757
B2042324747345N12001834WA0074800758
B2042334747345N12001822WA0074700757
B2042344747345N12001809WA0074700756
B2042354747344N12001797WA0074700757
B2042364747342N12001786WA0074600759
B2042374747342N12001776WA0074600761
B2042384747343N12001766WA0074600763
B2042394747345N12001756WA0074700764
B2042404747349N12001746WA0074700763
B2042414747355N12001738WA0074700763
B2042424747361N12001732WA0074700762
B2042434747368N12001728WA0074700762
B2042444747375N12001727WA0074600762
B2042454747381N12001729WA0074600761
B2042464747386N12001733WA0074600759
B2042474747389N12001739WA0074600758
B2042484747390N12001745WA0074500756
B2042494747389N12001752WA0074500755
B2042504747386N12001756WA0074400755
B2042514747383N12001759WA0074400756
B2042524747379N12001759WA0074400756
B2042534747375N12001759WA0074400756
B2042544747370N12001758WA0074400756
B2042554747365N12001756WA0074400757
B2042564747361N12001753WA0074400757
B2042574747356N12001748WA0074400758
B2042584747352N12001742WA0074400758
B2042594747348N12001734WA0074400758
B2043004747345N12001726WA0074400759
B2043014747342N12001716WA0074400759
B2043024747340N12001707WA0074500759
B2043034747338N12001698WA0074500759
B2043044747336N12001689WA0074500758
B2043054747334N12001680WA0074500758
B2043064747333N12001671WA0074500757
B2043074747331N12001662WA0074500757
B2043084747330N12001653WA0074500757
B2043094747330N12001643WA0074500756
B2043104747330N12001633WA0074500755
B2043114747331N12001622WA0074400753
B2043124747330N12001612WA0074400752
B2043134747330N12001601WA0074300750
B2043144747330N12001591WA0074300749
B2043144747330N12001591WA0074300749
B2043154747330N12001581WA0074200748
B2043164747330N12001571WA0074100747
B2043174747331N12001561WA0074000746
B2043184747331N12001551WA0074000745
B2043194747331N12001542WA0073900744
B2043204747330N12001532WA0073800743
B2043214747329N12001523WA0073700743
B2043224747328N12001514WA0073600742
B2043234747328N12001505WA0073500741
B2043244747327N12001494WA0073400740
B2043254747326N12001484WA0073400739
B2043264747326N12001473WA0073300739
B2043274747325N12001462WA0073200739
B2043284747326N12001451WA0073100740
B2043294747327N12001439WA0073100741
B2043304747330N12001428WA0073000743
B2043314747334N12001418WA0073000745
B2043324747340N12001410WA0073000748
B2043334747347N12001404WA0073100749
B2043344747354N12001401WA0073100751
B2043354747361N12001400WA0073200754
B2043364747368N12001402WA0073300756
B2043374747373N12001407WA0073300758
B2043384747377N12001414WA0073400759
B2043394747380N12001422WA0073500760
B2043404747381N12001430WA0073700763
B2043414747381N12001437WA0073800766
B2043424747378N12001441WA0074000769
B2043434747374N12001443WA0074100771
B2043444747370N12001443WA0074300772
B2043454747365N12001439WA0074400771
B2043464747361N12001431WA0074600771
B2043474747359N12001420WA0074700771
B2043484747361N12001408WA0074800771
B2043494747364N12001397WA0074900773
B2043504747370N12001388WA0075000776
B2043514747376N12001382WA0075100779
B2043524747384N12001379WA0075300782
B2043534747390N12001380WA0075400784
B2043544747396N12001382WA0075600786
B2043554747401N12001387WA0075700787
B2043564747405N12001393WA0075800788
B2043574747407N12001400WA0076000788
B2043584747407N12001408WA0076100790
B2043594747407N12001416WA0076300792
B2044004747407N12001423WA0076400794
B2044014747407N12001428WA0076600795
B2044024747408N12001434WA0076800794
B2044034747409N12001440WA0076900793
B2044044747409N12001447WA0077000791
B2044054747409N12001454WA0077100789
B2044064747408N12001461WA0077200788
B2044074747408N12001469WA0077200787
B2044084747407N12001476WA0077200787
B2044094747405N12001482WA0077300787
B2044104747403N12001487WA0077300787
B2044114747401N12001491WA0077300786
B2044124747398N12001496WA0077300784
B2044134747395N12001499WA0077300782
B2044144747391N12001502WA0077200779
B2044154747386N12001505WA0077100777
B2044164747381N12001505WA0077000774
B2044174747376N12001505WA0076900773
B2044184747371N12001502WA0076800773
B2044194747366N12001498WA0076700773
B2044194747366N12001498WA0076700773
B2044204747360N12001492WA0076600774
B2044214747354N12001486WA0076600775
B2044224747349N12001482WA0076600779
B2044234747344N12001478WA0076600783
B2044244747340N12001475WA0076600786
B2044254747336N12001472WA0076700788
B2044264747332N12001465WA0076800789
B2044274747328N12001456WA0076800788
B2044284747324N12001443WA0076900788
B2044294747323N12001429WA0076900788
B2044304747323N12001415WA0077000789
B2044314747325N12001402WA0077000790
B2044324747329N12001393WA0077100791
B2044334747334N12001385WA0077100791
B2044344747340N12001380WA0077100791
B2044354747346N12001376WA0077100789
B2044364747354N12001375WA0077100785
B2044374747361N12001377WA0077100782
B2044384747366N12001381WA0077000779
B2044394747369N12001386WA0076900778
B2044404747370N12001393WA0076800776
B2044414747370N12001398WA0076700775
B2044424747370N12001402WA0076600776
B2044434747371N12001406WA0076500778
B2044444747371N12001410WA0076500779
B2044454747370N12001415WA0076500780
B2044464747370N12001420WA0076500781
B2044474747369N12001425WA0076500783
B2044484747369N12001430WA0076600784
B2044494747368N12001433WA0076600785
B2044504747366N12001436WA0076700784
B2044514747363N12001439WA0076700782
B2044524747360N12001442WA0076700780
B2044534747356N12001446WA0076700777
B2044544747352N12001450WA0076700775
B2044554747348N12001455WA0076700775
B2044564747345N12001459WA0076600774
B2044574747342N12001462WA0076600774
B2044584747339N12001465WA0076500773
B2044594747336N12001467WA0076400772
B2045004747333N12001470WA0076400771
B2045014747330N12001472WA0076300769
B2045024747326N12001473WA0076200766
B2045034747320N12001473WA0076100764
B2045044747315N12001471WA0075900762
B2045054747309N12001466WA0075800762
B2045064747305N12001460WA0075700763
B2045074747301N12001453WA0075600764
B2045084747298N12001445WA0075500764
B2045094747295N12001435WA0075500764
B2045104747293N12001424WA0075400764
B2045114747291N12001412WA0075300764
B2045124747289N12001400WA0075300765
B2045134747288N12001389WA0075300765
B2045144747285N12001378WA0075200765
B2045154747282N12001367WA0075200764
B2045164747280N12001356WA0075200764
B2045174747278N12001345WA0075200764
B2045184747277N12001334WA0075200765
B2045194747277N12001324WA0075200766
B2045204747276N12001313WA0075200766
B2045214747274N12001302WA0075200764
B2045224747272N12001291WA0075200763
B2045234747271N12001279WA0075100762
B2045234747271N12001279WA0075100762
B2045244747270N12001267WA0075100762
B2045254747270N12001256WA0075100762
B2045264747271N12001245WA0075100763
B2045274747272N12001235WA0075100763
B2045284747274N12001225WA0075000762
B2045294747277N12001214WA0075000761
B2045304747280N12001204WA0075000759
B2045314747284N12001192WA0074900757
B2045324747288N12001181WA0074800755
B2045334747291N12001170WA0074800753
B2045344747295N12001159WA0074700752
B2045354747298N12001148WA0074600750
B2045364747302N12001136WA0074500748
B2045374747306N12001125WA0074400746
B2045384747310N12001114WA0074200745
B2045394747314N12001102WA0074200745
B2045404747318N12001092WA0074000745
B2045414747321N12001081WA0073900746
B2045424747323N12001071WA0073800746
B2045434747326N12001060WA0073800745
B2045444747330N12001049WA0073700743
B2045454747334N12001037WA0073600740
B2045464747338N12001025WA0073500738
B2045474747342N12001013WA0073400736
B2045484747346N12001002WA0073300736
B2045494747350N12000992WA0073200736
B2045504747353N12000981WA0073000735
B2045514747356N12000971WA0072900733
B2045524747359N12000960WA0072800731
B2045534747363N12000948WA0072700729
B2045544747368N12000938WA0072600727
B2045554747374N12000929WA0072500726
B2045564747380N12000920WA0072300726
B2045574747385N12000911WA0072200725
B2045584747391N12000901WA0072100723
B2045594747396N12000892WA0072000722
B2046004747402N12000882WA0071800720
B2046014747408N12000873WA0071700718
B2046024747415N12000864WA0071500717
B2046034747421N12000856WA0071400716
B2046044747427N12000847WA0071300716
B2046054747432N12000839WA0071200715
B2046064747438N12000832WA0071000713
B2046074747445N12000824WA0070900711
B2046084747452N12000815WA0070800710
B2046094747458N12000807WA0070700708
B2046104747465N12000799WA0070600707
B2046114747472N12000792WA0070500707
B2046124747479N12000785WA0070300706
B2046134747486N12000778WA0070200706
B2046144747493N12000770WA0070100705
B2046154747499N12000762WA0070000704
B2046164747505N12000752WA0069900703
B2046174747511N12000743WA0069800701
B2046184747518N12000734WA0069700700
B2046194747524N12000725WA0069600700
B2046204747530N12000716WA0069500699
B2046214747535N12000707WA0069500698
B2046224747539N12000698WA0069300697
B2046234747544N12000688WA0069300695
B2046244747550N12000678WA0069100693
B2046254747557N12000669WA0069100691
B2046264747563N12000660WA0068900690
B2046274747569N12000652WA0068800689
B2046274747569N12000652WA0068800689
B2046284747574N12000643WA0068700689
B2046294747579N12000634WA0068600688
B2046304747584N12000623WA0068400686
B2046314747589N12000612WA0068400685
B2046324747593N12000602WA0068200684
B2046334747597N12000592WA0068100684
B2046344747600N12000582WA0068000684
B2046354747602N12000572WA0067900684
B2046364747604N12000563WA0067800683
B2046374747606N12000553WA0067800681
B2046384747608N12000542WA0067600678
B2046394747609N12000531WA0067500676
B2046404747611N12000519WA0067400672
B2046414747612N12000507WA0067300669
B2046424747614N12000495WA0067100666
B2046434747617N12000483WA0066900664
B2046444747621N12000471WA0066700663
B2046454747624N12000460WA0066600662
B2046464747626N12000449WA0066400662
B2046474747629N12000439WA0066300662
B2046484747631N12000429WA0066200662
B2046494747634N12000419WA0066100661
B2046504747636N12000408WA0066000659
B2046514747638N12000397WA0065900657
B2046524747640N12000385WA0065700656
B2046534747642N12000374WA0065700656
B2046544747644N12000363WA0065500657
B2046554747646N12000353WA0065500657
B2046564747647N12000343WA0065400657
B2046574747648N12000333WA0065300657
B2046584747649N12000322WA0065300656
B2046594747650N12000312WA0065200655
B2047004747652N12000301WA0065100655
B2047014747654N12000290WA0065100656
B2047024747656N12000280WA0065100656
B2047034747658N12000269WA0065000656
B2047044747660N12000259WA0065000657
B2047054747662N12000249WA0065000657
B2047064747663N12000238WA0064900657
B2047074747665N12000228WA0064900656
B2047084747667N12000217WA0064900655
B2047094747669N12000206WA0064900655
B2047104747671N12000195WA0064800655
B2047114747673N12000184WA0064800655
B2047124747675N12000174WA0064800656
B2047134747677N12000164WA0064800655
B2047144747679N12000154WA0064700654
B2047154747681N12000143WA0064700653
B2047164747683N12000132WA0064700652
B2047174747685N12000120WA0064700652
B2047184747688N12000109WA0064600652
B2047194747691N12000098WA0064600653
B2047204747693N12000086WA0064600655
B2047214747695N12000075WA0064600656
B2047224747697N12000064WA0064600657
B2047234747699N12000054WA0064600658
B2047244747702N12000044WA0064600658
B2047254747706N12000034WA0064700659
B2047264747711N12000025WA0064700659
B2047274747717N12000018WA0064700659
B2047284747726N12000013WA0064700659
B2047294747735N12000012WA0064700659
B2047304747743N12000014WA0064700658
B2047314747749N12000021WA0064600657
B2047314747749N12000021WA0064600657
B2047324747753N12000028WA0064600656
B2047334747754N12000035WA0064500656
B2047344747754N12000039WA0064400657
B2047354747754N12000041WA0064400657
B2047364747753N12000043WA0064400658
B2047374747752N12000046WA0064400657
B2047384747751N12000051WA0064300654
B2047394747749N12000056WA0064300650
B2047404747747N12000061WA0064300649
B2047414747746N12000066WA0064200651
B2047424747745N12000070WA0064200653
B2047434747745N12000073WA0064200654
B2047444747745N12000075WA0064200655
B2047454747745N12000078WA0064300655
B2047464747744N12000081WA0064300654
B2047474747742N12000085WA0064300651
B2047484747739N12000089WA0064300650
B2047494747736N12000091WA0064300649
B2047504747734N12000090WA0064200650
B2047514747732N12000088WA0064200650
B2047524747730N12000084WA0064200650
B2047534747729N12000079WA0064200650
B2047544747726N12000074WA0064100648
B2047554747724N12000068WA0064100645
B2047564747720N12000062WA0064100644
B2047574747717N12000056WA0064000644
B2047584747715N12000050WA0063900644
B2047594747712N12000044WA0063900644
B2048004747710N12000038WA0063900644
B2048014747707N12000032WA0063800642
B2048024747704N12000026WA0063800641
B2048034747701N12000020WA0063700639
B2048044747698N12000015WA0063700639
B2048054747696N12000010WA0063600639
B2048064747693N12000005WA0063500638
B2048074747691N12000000WA0063500636
B2048084747688N11959993WA0063400634
B2048094747685N11959986WA0063300632
B2048104747683N11959979WA0063200631
B2048114747681N11959971WA0063100631
B2048124747680N11959964WA0063000631
B2048134747679N11959957WA0063000630
B2048144747677N11959950WA0062800628
B2048154747675N11959943WA0062800626
B2048164747673N11959935WA0062600624
B2048174747671N11959927WA0062500623
B2048184747669N11959919WA0062400622
B2048194747667N11959912WA0062300621
B2048204747666N11959905WA0062200621
B2048214747664N11959897WA0062100619
B2048224747662N11959890WA0061900617
B2048234747660N11959882WA0061900615
B2048244747658N11959873WA0061700614
B2048254747656N11959865WA0061600612
B2048264747654N11959857WA0061400611
B2048274747653N11959849WA0061400610
B2048284747651N11959841WA0061200609
B2048294747650N11959833WA0061100607
B2048304747648N11959824WA0060900606
B2048314747646N11959816WA0060800604
B2048324747644N11959808WA0060700603
B2048334747643N11959799WA0060600602
B2048344747641N11959791WA0060400601
B2048344747641N11959791WA0060400601
B2048354747639N11959782WA0060300601
B2048364747637N11959774WA0060200600
B2048374747636N11959766WA0060100598
B2048384747634N11959757WA0060000597
B2048394747632N11959749WA0059900596
B2048404747629N11959740WA0059700595
B2048414747627N11959732WA0059700594
B2048424747625N11959724WA0059500593
B2048434747623N11959716WA0059400593
B2048444747621N11959708WA0059300592
B2048454747618N11959701WA0059200591
B2048464747616N11959693WA0059100589
B2048474747613N11959685WA0059000588
B2048484747610N11959678WA0058900587
B2048494747608N11959670WA0058800586
B2048504747605N11959662WA0058700585
B2048514747603N11959654WA0058600584
B2048524747601N11959646WA0058500582
B2048534747598N11959638WA0058400580
B2048544747595N11959630WA0058200578
B2048554747593N11959622WA0058100576
B2048564747591N11959613WA0058000574
B2048574747589N11959604WA0057800572
B2048584747587N11959596WA0057700571
B2048594747584N11959587WA0057600569
B2049004747582N11959579WA0057400567
B2049014747579N11959572WA0057300566
B2049024747576N11959565WA0057100564
B2049034747573N11959559WA0057000563
B2049044747569N11959554WA0056800561
B2049054747566N11959548WA0056600560
B2049064747562N11959543WA0056500559
B2049074747559N11959538WA0056400557
B2049084747555N11959532WA0056200556
B2049094747552N11959525WA0056100554
B2049104747548N11959519WA0055900551
B2049114747544N11959514WA0055700549
B2049124747540N11959509WA0055600548
B2049134747537N11959504WA0055400546
B2049144747533N11959500WA0055200545
B2049154747529N11959496WA0055100543
B2049164747525N11959492WA0054900541
B2049174747521N11959489WA0054800538
B2049184747517N11959488WA0054600535
B2049194747513N11959487WA0054400533
B2049204747510N11959487WA0054200531
B2049214747507N11959487WA0054100530
B2049224747504N11959488WA0053800527
B2049234747500N11959489WA0053700525
B2049244747497N11959489WA0053400522
B2049254747493N11959487WA0053200519
B2049264747490N11959483WA0053000517
B2049274747487N11959477WA0052800515
B2049284747485N11959468WA0052500512
B2049294747484N11959458WA0052300510
B2049304747484N11959448WA0052100508
B2049314747486N11959437WA0051900505
B2049324747488N11959426WA0051600503
B2049334747492N11959415WA0051500501
B2049344747496N11959403WA0051200498
B2049354747499N11959391WA0051000495
B2049364747503N11959379WA0050700492
B2049374747507N11959368WA0050600490
B2049384747512N11959357WA0050300488
B2049384747512N11959357WA0050300488
B2049394747517N11959347WA0050100486
B2049404747522N11959337WA0049800485
B2049414747526N11959326WA0049700483
B2049424747531N11959316WA0049400481
B2049434747536N11959305WA0049300478
B2049444747541N11959295WA0049000476
B2049454747547N11959285WA0048800473
B2049464747552N11959275WA0048600472
B2049474747558N11959265WA0048400470
B2049484747564N11959256WA0048200468
B2049494747570N11959247WA0048100467
B2049504747577N11959239WA0047800465
B2049514747584N11959230WA0047700463
B2049524747590N11959222WA0047400460
B2049534747597N11959214WA0047300459
B2049544747604N11959206WA0047100457
B2049554747611N11959198WA0046900455
B2049564747619N11959191WA0046700453
B2049574747626N11959184WA0046500451
B2049584747634N11959178WA0046300450
B2049594747642N11959171WA0046200448
B2050004747650N11959165WA0046000446
B2050014747658N11959158WA0045800444
B2050024747665N11959151WA0045600443
B2050034747673N11959144WA0045500442
B2050044747680N11959137WA0045300441
B2050054747687N11959129WA0045200439
B2050064747694N11959121WA0044900436
B2050074747702N11959114WA0044800434
B2050084747709N11959107WA0044600431
B2050094747717N11959100WA0044400429
B2050104747725N11959093WA0044200427
B2050114747732N11959087WA0044000425
B2050124747740N11959080WA0043800422
B2050134747747N11959074WA0043600419
B2050144747755N11959067WA0043400416
B2050154747763N11959062WA0043200414
B2050164747771N11959056WA0042900411
B2050174747779N11959051WA0042800409
B2050184747786N11959046WA0042500406
B2050194747793N11959040WA0042300403
B2050204747800N11959034WA0042000401
B2050214747807N11959029WA0041800399
B2050224747814N11959025WA0041500396
B2050234747821N11959021WA0041300394
B2050244747828N11959017WA0041000391
B2050254747835N11959013WA0040800388
B2050264747842N11959010WA0040600386
B2050274747850N11959008WA0040400383
B2050284747858N11959006WA0040100381
B2050294747866N11959005WA0039900378
B2050304747874N11959004WA0039600376
B2050314747882N11959002WA0039400374
B2050324747889N11958999WA0039200373
B2050334747896N11958995WA0039000370
B2050344747903N11958989WA0038700367
B2050354747911N11958982WA0038500365
B2050364747917N11958975WA0038300364
B2050374747924N11958969WA0038100363
B2050384747930N11958962WA0037900363
B2050394747936N11958957WA0037700362
B2050404747943N11958952WA0037500362
B2050414747950N11958948WA0037400361
B2050424747957N11958945WA0037200360
B2050424747957N11958945WA0037200360
B2050434747964N11958943WA0037100360
B2050444747971N11958939WA0037000359
B2050454747977N11958935WA0036900358
B2050464747984N11958929WA0036800357
B2050474747991N11958924WA0036700356
B2050484747998N11958922WA0036500355
B2050494748006N11958922WA0036500354
B2050504748013N11958924WA0036300353
B2050514748020N11958928WA0036200350
B2050524748025N11958934WA0036100349
B2050534748029N11958941WA0036000348
B2050544748032N11958948WA0035900349
B2050554748033N11958955WA0035800348
B2050564748033N11958962WA0035700346
B2050574748031N11958970WA0035600346
B2050584748028N11958976WA0035500346
B2050594748024N11958983WA0035400347
B2051004748021N11958979WA0035300348
B2051014748018N11958973WA0035200342
B2051024748016N11958968WA0035100342
B2051034748013N11958966WA0035000341
B2051044748010N11958967WA0034900340
B2051054748008N11958970WA0034800339
B2051064748006N11958973WA0034700338
B2051074748005N11958978WA0034600338
B2051084748005N11958984WA0034500337
B2051094748005N11958991WA0034400336
B2051104748007N11958999WA0034300335
B2051114748008N11959007WA0034200334
B2051124748009N11959014WA0034100334
B2051134748010N11959020WA0034000335
B2051144748010N11959026WA0033900334
B2051154748009N11959032WA0033800334
B2051164748007N11959036WA0033700332
B2051174748004N11959039WA0033600327
B2051184748000N11959040WA0033500325
B2051194747996N11959037WA0033400324
B2051204747994N11959031WA0033200323
B2051214747995N11959023WA0033100321
B2051224747997N11959015WA0032900319
B2051234748002N11959005WA0032800318
B2051244748009N11958999WA0032600317
B2051254748017N11958994WA0032500315
B2051264748024N11958989WA0032400313
B2051274748032N11958988WA0032200312
B2051284748037N11958994WA0032100311
B2051294748041N11959000WA0032000310
B2051304748043N11959008WA0031700309
B2051314748042N11959014WA0031600308
B2051324748039N11959018WA0031400305
B2051334748036N11959018WA0031300305
B2051344748033N11959016WA0031100304
B2051354748030N11959012WA0030900303
B2051364748029N11959006WA0030800301
B2051374748029N11958999WA0030600296
B2051384748027N11958992WA0030500295
B2051394748025N11958986WA0030400292
B2051404748023N11958981WA0030200291
B2051414748020N11958977WA0030100290
B2051424748018N11958972WA0030000291
B2051434748017N11958968WA0029900290
B2051444748015N11958963WA0029700288
B2051454748013N11958958WA0029600286
B2051464748011N11958954WA0029500282
B2051464748011N11958954WA0029500282
B2051474748008N11958950WA0029300280
B2051484748006N11958947WA0029200278
B2051494748003N11958946WA0029000276
B2051504748000N11958946WA0028800275
B2051514747998N11958950WA0028700273
B2051524747998N11958957WA0028500270
B2051534748000N11958963WA0028400268
B2051544748002N11958969WA0028200268
B2051554748005N11958974WA0028100266
B2051564748008N11958978WA0027900264
B2051574748011N11958983WA0027700263
B2051584748012N11958990WA0027500262
B2051594748013N11958998WA0027400261
B2052004748012N11959002WA0027100260
B2052014748012N11959006WA0027000258
B2052024748010N11959008WA0026800257
B2052034748008N11959007WA0026600255
B2052044748004N11959004WA0026400254
B2052054748001N11959002WA0026300252
B2052064747999N11959002WA0026100251
B2052074747997N11959005WA0026000249
B2052084747995N11959010WA0025800240
B2052094747993N11959018WA0025600233
B2052104747990N11959024WA0025300230
B2052114747987N11959028WA0025100229
B2052124747984N11959030WA0024900229
B2052134747981N11959033WA0024700229
B2052144747978N11959036WA0024500228
B2052154747975N11959040WA0024400226
B2052164747971N11959044WA0024200222
B2052174747968N11959047WA0024100221
B2052184747965N11959048WA0023900219
B2052194747963N11959049WA0023700218
B2052204747962N11959049WA0023600217
B2052214747962N11959050WA0023500216
B2052224747961N11959051WA0023400216
B2052234747961N11959052WA0023300216
B2052244747961N11959052WA0023200217
B2052254747961N11959052WA0023200216
B2052264747961N11959052WA0023100215
B2052274747961N11959052WA0023100214
B2052284747961N11959052WA0023000214
B2052294747961N11959052WA0023000214
B2052304747961N11959052WA0023000215
B2052314747961N11959052WA0022900214
B2052324747961N11959052WA0022900214
B2052334747961N11959052WA0022900214
B2052344747961N11959052WA0022900215
B2052354747961N11959051WA0022900214
B2052364747961N11959051WA0022800214
B2052374747961N11959051WA0022800214
B2052384747961N11959051WA0022800214
B2052394747961N11959051WA0022800214
B2052404747961N11959052WA0022800214
B2052414747961N11959052WA0022800214
B2052424747960N11959052WA0022800214
B2052434747961N11959052WA0022800214
B2052444747961N11959051WA0022800214
B2052454747961N11959051WA0022800214
B2052464747961N11959051WA0022800214
B2052474747962N11959051WA0022800214
B2052484747962N11959051WA0022800214
B2052494747962N11959051WA0022800214
B2052504747962N11959052WA0022800214
B2052504747962N11959052WA0022800214
B2052514747962N11959052WA0022800214
B2052524747962N11959052WA0022800214
B2052534747962N11959052WA0022800214
B2052544747962N11959052WA0022800214
B2052554747962N11959052WA0022800214
B2052564747962N11959052WA0022800214
B2052574747962N11959053WA0022800214
B2052584747962N11959053WA0022800214
B2052594747962N11959053WA0022800214
B2053004747961N11959052WA0022800215
B2053014747960N11959052WA0022800215
B2053024747960N11959052WA0022700215
B2053034747959N11959052WA0022700215
B2053044747959N11959052WA0022700215
B2053054747959N11959052WA0022700215
B2053064747958N11959052WA0022700215
B2053074747958N11959052WA0022700215
B2053084747957N11959053WA0022700215
B2053094747956N11959053WA0022700215
B2053104747956N11959053WA0022700215
B2053114747955N11959054WA0022700215
B2053124747955N11959055WA0022700215
B2053134747954N11959055WA0022700215
B2053144747953N11959056WA0022700215
B2053154747953N11959056WA0022700215
B2053164747952N11959056WA0022700215
B2053174747951N11959056WA0022700215
B2053184747951N11959057WA0022600215
B2053194747950N11959057WA0022600215
B2053204747949N11959057WA0022600215
B2053214747949N11959058WA0022600215
B2053224747948N11959058WA0022600215
B2053234747948N11959058WA0022600215
B2053244747947N11959058WA0022600215
B2053254747947N11959059WA0022600215
B2053264747946N11959059WA0022600216
B2053274747945N11959059WA0022600216
B2053284747945N11959060WA0022600216
B2053294747944N11959060WA0022600217
B2053304747944N11959060WA0022600217
B2053314747943N11959060WA0022600217
B2053324747943N11959060WA0022600217
B2053334747942N11959060WA0022600218
B2053344747942N11959060WA0022600218
B2053354747941N11959061WA0022600218
B2053364747940N11959061WA0022600218
B2053374747940N11959061WA0022600218
B2053384747939N11959062WA0022600219
B2053394747939N11959061WA0022600219
B2053404747938N11959061WA0022600218
B2053414747937N11959062WA0022600218
B2053424747937N11959062WA0022600218
B2053434747936N11959062WA0022600218
B2053444747935N11959063WA0022600218
B2053454747935N11959063WA0022600218
B2053464747934N11959063WA0022600218
B2053474747934N11959063WA0022600218
B2053484747933N11959064WA0022600218
B2053494747932N11959064WA0022600219
B2053504747932N11959064WA0022600219
B2053514747931N11959064WA0022600218
B2053524747930N11959065WA0022600218
B2053534747930N11959065WA0022600218
B2053544747929N11959065WA0022600218
