AXFMSFP Flymaster Live, V1.0
HFFXA010
HFPLTPILOT:Emily Reinys
HFGTYGLIDERTYPE:Niviuk Arrow / Ozone Alpina 4
HFGIDGLIDERID:
HFDTM100GPSDATUM:WGS-1984
HFCIDCOMPETITIONID:6864
HFCCLCOMPETITIONCLASS:
HOSITSITE:LAUNCH
HFGPS:UBLOXNEO6
HFPRSPRESSALTSENSOR:NA
HFRFWFIRMWAREVERSION:202g
HFRHWHARDWAREVERSION:1.0R2
HFFTYFRTYPE:FLYMASTER,LIVE
HFDTE170625
B2037544748242N12002360WA0109101126
B2037554748240N12002360WA0109101126
B2037564748238N12002361WA0109101126
B2037574748236N12002362WA0109101127
B2037584748234N12002363WA0109101126
B2037594748231N12002363WA0109101125
B2038004748228N12002363WA0109001124
B2038014748226N12002363WA0109001123
B2038024748222N12002363WA0109001123
B2038034748218N12002363WA0108901122
B2038044748215N12002363WA0108901121
B2038054748211N12002363WA0108901121
B2038064748208N12002364WA0108801120
B2038074748204N12002364WA0108801119
B2038084748201N12002365WA0108701118
B2038094748197N12002365WA0108601117
B2038104748193N12002366WA0108601116
B2038114748189N12002366WA0108501114
B2038124748185N12002366WA0108401112
B2038134748181N12002366WA0108301111
B2038144748177N12002366WA0108201112
B2038154748173N12002367WA0108101112
B2038164748169N12002368WA0108001111
B2038174748164N12002369WA0107901109
B2038184748160N12002370WA0107801107
B2038194748155N12002372WA0107701106
B2038204748151N12002374WA0107601103
B2038214748148N12002376WA0107401100
B2038224748145N12002379WA0107201097
B2038234748143N12002382WA0107101094
B2038244748140N12002386WA0106901091
B2038254748137N12002390WA0106701088
B2038264748134N12002395WA0106501086
B2038274748132N12002400WA0106301083
B2038284748129N12002405WA0106001081
B2038294748127N12002410WA0105901080
B2038304748125N12002415WA0105701079
B2038314748124N12002419WA0105501078
B2038324748123N12002422WA0105301077
B2038334748122N12002426WA0105201074
B2038344748119N12002431WA0104901071
B2038354748117N12002437WA0104801067
B2038364748114N12002443WA0104501065
B2038374748112N12002449WA0104401065
B2038384748109N12002453WA0104201065
B2038394748107N12002458WA0104101063
B2038404748104N12002463WA0103901062
B2038414748102N12002468WA0103801060
B2038424748099N12002473WA0103601058
B2038434748096N12002478WA0103401056
B2038444748092N12002482WA0103201053
B2038454748089N12002487WA0103001050
B2038464748086N12002492WA0102801047
B2038474748083N12002498WA0102601045
B2038484748079N12002504WA0102401043
B2038494748075N12002509WA0102201041
B2038504748072N12002514WA0101901039
B2038514748068N12002519WA0101801036
B2038524748064N12002525WA0101501034
B2038534748060N12002531WA0101301031
B2038544748056N12002537WA0101101028
B2038554748052N12002542WA0100901027
B2038564748048N12002547WA0100701026
B2038574748045N12002552WA0100501025
B2038584748042N12002556WA0100301023
B2038594748039N12002560WA0100201023
B2038594748039N12002560WA0100201023
B2039004748036N12002565WA0100001022
B2039014748033N12002570WA0099901022
B2039024748031N12002575WA0099801022
B2039034748030N12002581WA0099701021
B2039044748027N12002587WA0099501021
B2039054748025N12002593WA0099501020
B2039064748023N12002599WA0099401020
B2039074748020N12002605WA0099301021
B2039084748019N12002611WA0099301021
B2039094748017N12002617WA0099301023
B2039104748017N12002622WA0099301024
B2039114748018N12002627WA0099301025
B2039124748019N12002632WA0099401027
B2039134748019N12002637WA0099501029
B2039144748019N12002642WA0099601032
B2039154748019N12002647WA0099701035
B2039164748019N12002652WA0099901038
B2039174748019N12002656WA0100001041
B2039184748018N12002660WA0100201045
B2039194748016N12002663WA0100301048
B2039204748014N12002665WA0100501051
B2039214748012N12002668WA0100701054
B2039224748009N12002670WA0100901056
B2039234748006N12002673WA0101101057
B2039244748003N12002673WA0101301059
B2039254748000N12002670WA0101501062
B2039264747997N12002666WA0101701065
B2039274747995N12002661WA0101901069
B2039284747996N12002656WA0102201073
B2039294747996N12002651WA0102501082
B2039304747997N12002645WA0102801086
B2039314747999N12002639WA0103101089
B2039324748003N12002634WA0103401092
B2039334748008N12002631WA0103701094
B2039344748013N12002632WA0104101096
B2039354748019N12002635WA0104301098
B2039364748024N12002640WA0104601099
B2039374748027N12002648WA0104901101
B2039384748027N12002655WA0105201104
B2039394748025N12002662WA0105401107
B2039404748022N12002667WA0105701110
B2039414748019N12002671WA0105901114
B2039424748015N12002674WA0106301118
B2039434748012N12002675WA0106601121
B2039444748009N12002675WA0107001125
B2039454748006N12002674WA0107301128
B2039464748003N12002671WA0107701131
B2039474748001N12002665WA0107901134
B2039484748001N12002657WA0108301137
B2039494748003N12002648WA0108601138
B2039504748007N12002639WA0108901141
B2039514748012N12002632WA0109201144
B2039524748018N12002627WA0109501149
B2039534748025N12002626WA0109801152
B2039544748032N12002627WA0110201156
B2039554748038N12002632WA0110401160
B2039564748042N12002639WA0110901165
B2039574748044N12002647WA0111101170
B2039584748045N12002653WA0111601173
B2039594748045N12002660WA0111901177
B2040004748044N12002667WA0112301181
B2040014748043N12002673WA0112601185
B2040024748040N12002677WA0113001188
B2040034748036N12002677WA0113301191
B2040034748036N12002677WA0113301191
B2040044748032N12002675WA0113701195
B2040054748029N12002670WA0114001199
B2040064748029N12002664WA0114401204
B2040074748030N12002657WA0114701209
B2040084748032N12002650WA0115101212
B2040094748037N12002643WA0115401215
B2040104748042N12002636WA0115801219
B2040114748049N12002631WA0116101223
B2040124748057N12002629WA0116501226
B2040134748064N12002632WA0116801228
B2040144748071N12002639WA0117201229
B2040154748074N12002648WA0117401232
B2040164748075N12002655WA0117701236
B2040174748075N12002661WA0118001240
B2040184748075N12002666WA0118401244
B2040194748074N12002671WA0118601248
B2040204748073N12002676WA0119001251
B2040214748070N12002681WA0119301255
B2040224748067N12002684WA0119701258
B2040234748063N12002686WA0119901262
B2040244748059N12002686WA0120301266
B2040254748055N12002686WA0120601270
B2040264748052N12002684WA0121001274
B2040274748048N12002681WA0121301277
B2040284748045N12002676WA0121701280
B2040294748042N12002669WA0122001283
B2040304748039N12002660WA0122301285
B2040314748039N12002651WA0122601289
B2040324748041N12002641WA0123001293
B2040334748046N12002634WA0123201296
B2040344748052N12002630WA0123601299
B2040354748059N12002631WA0123801302
B2040364748064N12002637WA0124201306
B2040374748066N12002644WA0124501310
B2040384748065N12002649WA0124901315
B2040394748063N12002654WA0125101320
B2040404748060N12002657WA0125601324
B2040414748059N12002660WA0125901328
B2040424748056N12002662WA0126301331
B2040434748053N12002664WA0126501334
B2040444748049N12002665WA0126901336
B2040454748045N12002665WA0127101337
B2040464748041N12002665WA0127401338
B2040474748038N12002663WA0127601339
B2040484748035N12002661WA0127901340
B2040494748032N12002658WA0128001339
B2040504748028N12002653WA0128101337
B2040514748024N12002646WA0128201336
B2040524748022N12002639WA0128301336
B2040534748020N12002631WA0128401338
B2040544748019N12002623WA0128601340
B2040554748018N12002614WA0128701341
B2040564748016N12002605WA0128801340
B2040574748014N12002595WA0128901340
B2040584748011N12002586WA0129001340
B2040594748009N12002577WA0129101341
B2041004748007N12002570WA0129201343
B2041014748004N12002562WA0129301344
B2041024748001N12002555WA0129401345
B2041034747997N12002546WA0129501346
B2041044747995N12002539WA0129701348
B2041054747992N12002533WA0129801352
B2041064747991N12002528WA0130001355
B2041064747991N12002528WA0130001355
B2041074747988N12002524WA0130201357
B2041084747986N12002518WA0130401358
B2041094747983N12002511WA0130501359
B2041104747980N12002503WA0130601359
B2041114747979N12002496WA0130701360
B2041124747980N12002488WA0130801360
B2041134747980N12002480WA0130901360
B2041144747980N12002472WA0131001360
B2041154747979N12002463WA0131001359
B2041164747977N12002455WA0131101357
B2041174747974N12002447WA0131101357
B2041184747972N12002439WA0131101357
B2041194747969N12002431WA0131201358
B2041204747966N12002423WA0131201360
B2041214747963N12002416WA0131301362
B2041224747961N12002408WA0131401363
B2041234747958N12002400WA0131501364
B2041244747954N12002392WA0131601364
B2041254747949N12002386WA0131701365
B2041264747943N12002380WA0131801365
B2041274747937N12002374WA0131801367
B2041284747933N12002369WA0132001370
B2041294747929N12002365WA0132101371
B2041304747924N12002361WA0132201371
B2041314747919N12002357WA0132201370
B2041324747914N12002351WA0132301369
B2041334747910N12002345WA0132301369
B2041344747906N12002341WA0132301369
B2041354747903N12002337WA0132401369
B2041364747899N12002333WA0132401368
B2041374747896N12002327WA0132301365
B2041384747892N12002319WA0132301362
B2041394747888N12002311WA0132201360
B2041404747885N12002305WA0132101359
B2041414747882N12002300WA0132101359
B2041424747880N12002293WA0132001358
B2041434747878N12002286WA0131901355
B2041444747876N12002278WA0131701352
B2041454747873N12002270WA0131601348
B2041464747870N12002263WA0131401344
B2041474747867N12002255WA0131201340
B2041484747863N12002246WA0131001336
B2041494747861N12002239WA0130801333
B2041504747859N12002231WA0130501332
B2041514747859N12002223WA0130301330
B2041524747858N12002215WA0130101327
B2041534747858N12002207WA0129901323
B2041544747859N12002198WA0129601319
B2041554747862N12002188WA0129401315
B2041564747867N12002180WA0129001311
B2041574747872N12002174WA0128801308
B2041584747878N12002170WA0128501305
B2041594747884N12002167WA0128301303
B2042004747889N12002165WA0127901300
B2042014747895N12002164WA0127701297
B2042024747902N12002165WA0127401293
B2042034747908N12002167WA0127101290
B2042044747914N12002169WA0126801287
B2042054747920N12002172WA0126601284
B2042064747925N12002176WA0126201283
B2042074747930N12002180WA0126001281
B2042084747935N12002185WA0125801280
B2042094747939N12002188WA0125601279
B2042104747943N12002192WA0125301278
B2042104747943N12002192WA0125301278
B2042114747947N12002195WA0125201276
B2042124747952N12002200WA0124901274
B2042134747956N12002204WA0124801272
B2042144747960N12002208WA0124501271
B2042154747964N12002211WA0124401270
B2042164747968N12002214WA0124201269
B2042174747971N12002217WA0124101267
B2042184747975N12002220WA0123901264
B2042194747978N12002225WA0123701261
B2042204747982N12002229WA0123401258
B2042214747985N12002233WA0123301257
B2042224747989N12002236WA0123101256
B2042234747991N12002239WA0123001256
B2042244747994N12002242WA0122801256
B2042254747997N12002245WA0122701255
B2042264747999N12002249WA0122501252
B2042274748003N12002253WA0122401250
B2042284748007N12002257WA0122201248
B2042294748011N12002259WA0122101246
B2042304748016N12002262WA0121901244
B2042314748020N12002266WA0121701242
B2042324748024N12002271WA0121501239
B2042334748027N12002276WA0121301235
B2042344748031N12002282WA0121101232
B2042354748034N12002288WA0120901229
B2042364748037N12002293WA0120601227
B2042374748040N12002299WA0120501225
B2042384748043N12002304WA0120201224
B2042394748046N12002309WA0120101223
B2042404748050N12002314WA0119801221
B2042414748053N12002319WA0119701219
B2042424748057N12002325WA0119501218
B2042434748059N12002330WA0119301217
B2042444748062N12002335WA0119201216
B2042454748066N12002340WA0119001215
B2042464748070N12002345WA0118901214
B2042474748073N12002349WA0118801213
B2042484748076N12002354WA0118601212
B2042494748078N12002359WA0118501211
B2042504748080N12002363WA0118301209
B2042514748082N12002368WA0118201209
B2042524748084N12002372WA0118101208
B2042534748086N12002376WA0118001208
B2042544748088N12002380WA0117901208
B2042554748090N12002385WA0117801207
B2042564748092N12002390WA0117701206
B2042574748094N12002395WA0117601205
B2042584748097N12002399WA0117501204
B2042594748099N12002404WA0117501203
B2043004748102N12002409WA0117301202
B2043014748104N12002415WA0117301200
B2043024748106N12002423WA0117101199
B2043034748108N12002430WA0117101199
B2043044748109N12002437WA0117001200
B2043054748111N12002442WA0117001202
B2043064748113N12002446WA0117001205
B2043074748115N12002449WA0117001207
B2043084748117N12002452WA0117001207
B2043094748118N12002455WA0117101208
B2043104748119N12002459WA0117101208
B2043114748120N12002462WA0117101207
B2043124748121N12002466WA0117101207
B2043134748124N12002469WA0117201207
B2043144748127N12002472WA0117101206
B2043144748127N12002472WA0117101206
B2043154748130N12002476WA0117101205
B2043164748133N12002480WA0117101205
B2043174748136N12002484WA0117101205
B2043184748138N12002487WA0117101206
B2043194748139N12002489WA0117201207
B2043204748140N12002491WA0117201208
B2043214748140N12002493WA0117201208
B2043224748140N12002495WA0117301208
B2043234748139N12002498WA0117301207
B2043244748137N12002500WA0117301207
B2043254748135N12002500WA0117301207
B2043264748132N12002499WA0117301208
B2043274748129N12002496WA0117301208
B2043284748126N12002492WA0117401208
B2043294748123N12002487WA0117401209
B2043304748121N12002481WA0117401209
B2043314748119N12002475WA0117401209
B2043324748118N12002467WA0117401210
B2043334748118N12002459WA0117401210
B2043344748119N12002449WA0117501211
B2043354748121N12002440WA0117501212
B2043364748125N12002431WA0117501213
B2043374748131N12002424WA0117501213
B2043384748138N12002420WA0117501213
B2043394748145N12002418WA0117601214
B2043404748150N12002418WA0117601215
B2043414748156N12002419WA0117601215
B2043424748160N12002420WA0117701215
B2043434748165N12002423WA0117701215
B2043444748169N12002426WA0117701215
B2043454748173N12002429WA0117701215
B2043464748176N12002433WA0117801215
B2043474748178N12002437WA0117801216
B2043484748181N12002441WA0117801216
B2043494748183N12002445WA0117801217
B2043504748185N12002449WA0117901217
B2043514748187N12002454WA0117901218
B2043524748188N12002459WA0117901218
B2043534748190N12002464WA0118001219
B2043544748191N12002468WA0118001221
B2043554748193N12002472WA0118101223
B2043564748196N12002476WA0118201224
B2043574748198N12002480WA0118201224
B2043584748198N12002484WA0118301224
B2043594748199N12002488WA0118401225
B2044004748198N12002491WA0118401226
B2044014748198N12002494WA0118501226
B2044024748198N12002497WA0118601227
B2044034748198N12002500WA0118601227
B2044044748197N12002503WA0118701228
B2044054748197N12002505WA0118701229
B2044064748196N12002507WA0118801230
B2044074748195N12002509WA0118901230
B2044084748194N12002510WA0119001231
B2044094748192N12002511WA0119001232
B2044104748191N12002511WA0119201234
B2044114748191N12002511WA0119201235
B2044124748191N12002512WA0119401237
B2044134748190N12002512WA0119501238
B2044144748188N12002511WA0119601239
B2044154748186N12002509WA0119701239
B2044164748183N12002505WA0119701240
B2044174748180N12002500WA0119801240
B2044184748177N12002494WA0119901240
B2044194748174N12002487WA0119901241
B2044194748174N12002487WA0119901241
B2044204748171N12002479WA0120001241
B2044214748168N12002471WA0120001241
B2044224748166N12002464WA0120101242
B2044234748164N12002459WA0120101243
B2044244748162N12002455WA0120201243
B2044254748159N12002453WA0120201243
B2044264748156N12002451WA0120201242
B2044274748153N12002451WA0120201242
B2044284748150N12002452WA0120201242
B2044294748148N12002454WA0120201242
B2044304748147N12002458WA0120201242
B2044314748147N12002461WA0120201242
B2044324748147N12002465WA0120201242
B2044334748148N12002468WA0120201241
B2044344748148N12002472WA0120201241
B2044354748149N12002475WA0120101241
B2044364748150N12002479WA0120101241
B2044374748151N12002483WA0120101241
B2044384748153N12002486WA0120101242
B2044394748154N12002489WA0120101243
B2044404748155N12002491WA0120201246
B2044414748157N12002494WA0120201247
B2044424748159N12002497WA0120201247
B2044434748161N12002500WA0120301248
B2044444748163N12002503WA0120301248
B2044454748165N12002505WA0120401248
B2044464748168N12002508WA0120401248
B2044474748172N12002511WA0120401248
B2044484748176N12002513WA0120401248
B2044494748181N12002514WA0120401248
B2044504748188N12002513WA0120401247
B2044514748195N12002508WA0120401247
B2044524748201N12002499WA0120401248
B2044534748203N12002487WA0120501248
B2044544748203N12002477WA0120501249
B2044554748203N12002468WA0120501250
B2044564748203N12002461WA0120601252
B2044574748204N12002453WA0120701253
B2044584748204N12002445WA0120701250
B2044594748203N12002434WA0120801248
B2045004748203N12002423WA0120801247
B2045014748205N12002412WA0120801250
B2045024748209N12002402WA0120901254
B2045034748214N12002397WA0121001255
B2045044748221N12002396WA0121001253
B2045054748227N12002399WA0121001252
B2045064748233N12002402WA0121101253
B2045074748237N12002406WA0121101256
B2045084748240N12002409WA0121201258
B2045094748242N12002413WA0121301259
B2045104748243N12002418WA0121401259
B2045114748243N12002423WA0121401260
B2045124748241N12002425WA0121501261
B2045134748237N12002424WA0121601261
B2045144748234N12002421WA0121601262
B2045154748231N12002417WA0121701263
B2045164748229N12002411WA0121801265
B2045174748227N12002404WA0121901266
B2045184748226N12002395WA0122001264
B2045194748227N12002384WA0122001263
B2045204748230N12002374WA0122101263
B2045214748234N12002365WA0122101264
B2045224748240N12002359WA0122101265
B2045234748246N12002355WA0122201265
B2045234748246N12002355WA0122201265
B2045244748253N12002356WA0122201265
B2045254748258N12002358WA0122201266
B2045264748262N12002362WA0122301266
B2045274748265N12002367WA0122301267
B2045284748265N12002372WA0122301266
B2045294748265N12002376WA0122301267
B2045304748263N12002379WA0122401268
B2045314748262N12002379WA0122401269
B2045324748260N12002379WA0122501270
B2045334748257N12002378WA0122501270
B2045344748254N12002375WA0122601271
B2045354748252N12002369WA0122601270
B2045364748250N12002359WA0122701269
B2045374748250N12002348WA0122701268
B2045384748253N12002338WA0122701269
B2045394748258N12002330WA0122701271
B2045404748263N12002324WA0122801272
B2045414748269N12002319WA0122801272
B2045424748275N12002317WA0122801272
B2045434748281N12002317WA0122901272
B2045444748286N12002320WA0122901271
B2045454748291N12002323WA0122901270
B2045464748294N12002328WA0122901270
B2045474748295N12002334WA0122901270
B2045484748295N12002339WA0122901271
B2045494748294N12002342WA0122901272
B2045504748292N12002343WA0122901274
B2045514748291N12002343WA0123001276
B2045524748289N12002343WA0123001277
B2045534748286N12002344WA0123101278
B2045544748283N12002343WA0123201279
B2045554748280N12002341WA0123201281
B2045564748277N12002336WA0123301283
B2045574748274N12002329WA0123401284
B2045584748272N12002320WA0123501285
B2045594748272N12002310WA0123601285
B2046004748274N12002300WA0123701283
B2046014748277N12002290WA0123701282
B2046024748282N12002282WA0123701280
B2046034748288N12002276WA0123701279
B2046044748294N12002273WA0123701279
B2046054748300N12002272WA0123701279
B2046064748305N12002273WA0123701279
B2046074748309N12002275WA0123701278
B2046084748313N12002280WA0123701276
B2046094748315N12002285WA0123601275
B2046104748316N12002291WA0123601275
B2046114748315N12002295WA0123601275
B2046124748314N12002298WA0123601276
B2046134748314N12002300WA0123601278
B2046144748314N12002300WA0123601279
B2046154748313N12002300WA0123701279
B2046164748312N12002302WA0123701277
B2046174748310N12002306WA0123601274
B2046184748308N12002311WA0123601272
B2046194748306N12002316WA0123501272
B2046204748304N12002321WA0123501272
B2046214748303N12002326WA0123401274
B2046224748302N12002331WA0123401275
B2046234748301N12002336WA0123501277
B2046244748301N12002340WA0123501279
B2046254748300N12002344WA0123601281
B2046264748300N12002347WA0123601284
B2046274748299N12002350WA0123701286
B2046274748299N12002350WA0123701286
B2046284748299N12002352WA0123801288
B2046294748299N12002355WA0124001289
B2046304748299N12002359WA0124001290
B2046314748299N12002362WA0124201291
B2046324748298N12002364WA0124201292
B2046334748297N12002366WA0124301293
B2046344748296N12002367WA0124401293
B2046354748295N12002369WA0124501293
B2046364748294N12002372WA0124501292
B2046374748293N12002376WA0124601292
B2046384748291N12002380WA0124601293
B2046394748290N12002382WA0124701295
B2046404748288N12002384WA0124801297
B2046414748287N12002386WA0124901299
B2046424748286N12002388WA0125001300
B2046434748284N12002389WA0125101300
B2046444748281N12002390WA0125101298
B2046454748278N12002390WA0125101296
B2046464748274N12002388WA0125101295
B2046474748271N12002386WA0125101296
B2046484748269N12002381WA0125101296
B2046494748267N12002374WA0125101296
B2046504748265N12002366WA0125101294
B2046514748264N12002355WA0125101292
B2046524748264N12002344WA0125001291
B2046534748267N12002332WA0125001289
B2046544748270N12002321WA0124901287
B2046554748275N12002311WA0124801285
B2046564748280N12002303WA0124801284
B2046574748285N12002297WA0124701284
B2046584748291N12002292WA0124601283
B2046594748297N12002289WA0124601282
B2047004748304N12002288WA0124501281
B2047014748310N12002290WA0124501283
B2047024748314N12002294WA0124501286
B2047034748317N12002299WA0124501288
B2047044748318N12002304WA0124601289
B2047054748320N12002308WA0124601292
B2047064748321N12002312WA0124701294
B2047074748322N12002315WA0124801296
B2047084748321N12002317WA0124901295
B2047094748319N12002319WA0124901294
B2047104748316N12002320WA0125001293
B2047114748313N12002321WA0125001293
B2047124748310N12002320WA0125001293
B2047134748308N12002320WA0125001295
B2047144748306N12002320WA0125001296
B2047154748305N12002320WA0125101296
B2047164748303N12002321WA0125101296
B2047174748302N12002323WA0125101296
B2047184748301N12002326WA0125101294
B2047194748299N12002331WA0125101292
B2047204748297N12002336WA0125001292
B2047214748294N12002340WA0125001294
B2047224748294N12002342WA0125101298
B2047234748294N12002344WA0125201302
B2047244748294N12002346WA0125301302
B2047254748294N12002349WA0125401302
B2047264748293N12002354WA0125401299
B2047274748290N12002359WA0125401297
B2047284748288N12002365WA0125401297
B2047294748286N12002369WA0125401299
B2047304748285N12002372WA0125501300
B2047314748284N12002376WA0125501299
B2047314748284N12002376WA0125501299
B2047324748281N12002379WA0125401298
B2047334748277N12002382WA0125401295
B2047344748273N12002383WA0125301294
B2047354748269N12002383WA0125201294
B2047364748265N12002381WA0125201295
B2047374748262N12002379WA0125201295
B2047384748259N12002376WA0125101295
B2047394748257N12002372WA0125101295
B2047404748256N12002365WA0125101294
B2047414748256N12002357WA0125001292
B2047424748258N12002348WA0125001290
B2047434748260N12002340WA0124901288
B2047444748264N12002332WA0124901288
B2047454748268N12002326WA0124801288
B2047464748273N12002321WA0124801287
B2047474748279N12002316WA0124801286
B2047484748285N12002311WA0124701286
B2047494748291N12002310WA0124701287
B2047504748296N12002313WA0124701285
B2047514748299N12002320WA0124601282
B2047524748300N12002326WA0124501280
B2047534748299N12002332WA0124401280
B2047544748299N12002336WA0124301279
B2047554748299N12002340WA0124301279
B2047564748297N12002344WA0124201278
B2047574748294N12002349WA0124101275
B2047584748291N12002353WA0124001273
B2047594748289N12002357WA0123801272
B2048004748286N12002360WA0123701271
B2048014748283N12002363WA0123601271
B2048024748280N12002366WA0123501270
B2048034748277N12002369WA0123401269
B2048044748274N12002372WA0123301268
B2048054748271N12002374WA0123201267
B2048064748268N12002376WA0123101266
B2048074748265N12002379WA0123001263
B2048084748262N12002382WA0122901260
B2048094748259N12002385WA0122701257
B2048104748256N12002389WA0122601256
B2048114748254N12002391WA0122401254
B2048124748252N12002394WA0122201253
B2048134748249N12002397WA0122001251
B2048144748247N12002400WA0121901248
B2048154748246N12002404WA0121701246
B2048164748246N12002409WA0121501243
B2048174748246N12002413WA0121301241
B2048184748245N12002417WA0121101238
B2048194748242N12002420WA0120901235
B2048204748240N12002424WA0120701233
B2048214748236N12002425WA0120401232
B2048224748233N12002425WA0120301231
B2048234748229N12002423WA0120001229
B2048244748226N12002420WA0119901228
B2048254748222N12002418WA0119701227
B2048264748219N12002416WA0119501225
B2048274748215N12002414WA0119301222
B2048284748211N12002412WA0119101218
B2048294748206N12002409WA0118801214
B2048304748201N12002406WA0118601211
B2048314748196N12002403WA0118301209
B2048324748192N12002401WA0118201208
B2048334748187N12002399WA0117901206
B2048344748183N12002397WA0117701204
B2048344748183N12002397WA0117701204
B2048354748179N12002395WA0117501201
B2048364748173N12002394WA0117301199
B2048374748168N12002392WA0117001197
B2048384748164N12002390WA0116801196
B2048394748160N12002389WA0116601195
B2048404748156N12002388WA0116501194
B2048414748152N12002388WA0116201192
B2048424748148N12002388WA0116101190
B2048434748143N12002390WA0115901188
B2048444748139N12002392WA0115701187
B2048454748136N12002394WA0115501186
B2048464748133N12002397WA0115401185
B2048474748129N12002401WA0115201183
B2048484748126N12002406WA0115101180
B2048494748123N12002410WA0114801179
B2048504748120N12002415WA0114701177
B2048514748117N12002419WA0114501176
B2048524748115N12002424WA0114401174
B2048534748112N12002430WA0114101172
B2048544748110N12002436WA0114001170
B2048554748109N12002442WA0113801168
B2048564748109N12002448WA0113701168
B2048574748110N12002454WA0113501167
B2048584748111N12002460WA0113401165
B2048594748112N12002466WA0113201163
B2049004748115N12002474WA0113101160
B2049014748117N12002481WA0112901159
B2049024748120N12002488WA0112801158
B2049034748123N12002494WA0112601158
B2049044748126N12002500WA0112601159
B2049054748129N12002505WA0112501160
B2049064748132N12002511WA0112401161
B2049074748135N12002518WA0112401161
B2049084748139N12002525WA0112401161
B2049094748143N12002531WA0112301163
B2049104748146N12002536WA0112401166
B2049114748149N12002540WA0112401169
B2049124748153N12002544WA0112501170
B2049134748158N12002548WA0112501171
B2049144748164N12002553WA0112601173
B2049154748170N12002555WA0112701176
B2049164748175N12002556WA0112901181
B2049174748179N12002557WA0113101185
B2049184748183N12002559WA0113301189
B2049194748186N12002563WA0113501190
B2049204748189N12002568WA0113701192
B2049214748192N12002574WA0113901195
B2049224748193N12002580WA0114101198
B2049234748193N12002585WA0114401201
B2049244748193N12002589WA0114601204
B2049254748192N12002593WA0114901206
B2049264748190N12002597WA0115101208
B2049274748188N12002601WA0115301209
B2049284748185N12002604WA0115501210
B2049294748182N12002604WA0115701212
B2049304748178N12002601WA0115801213
B2049314748176N12002595WA0116001213
B2049324748176N12002586WA0116101214
B2049334748177N12002578WA0116201217
B2049344748180N12002570WA0116401219
B2049354748185N12002565WA0116501220
B2049364748191N12002560WA0116601221
B2049374748198N12002558WA0116801224
B2049384748204N12002559WA0117001227
B2049384748204N12002559WA0117001227
B2049394748210N12002562WA0117201230
B2049404748214N12002567WA0117301232
B2049414748218N12002572WA0117601234
B2049424748220N12002577WA0117701236
B2049434748222N12002582WA0117901238
B2049444748222N12002588WA0118101239
B2049454748222N12002595WA0118201239
B2049464748220N12002600WA0118301240
B2049474748217N12002604WA0118401241
B2049484748214N12002603WA0118501242
B2049494748210N12002600WA0118601242
B2049504748208N12002594WA0118601241
B2049514748207N12002587WA0118601240
B2049524748207N12002580WA0118601239
B2049534748207N12002573WA0118601239
B2049544748209N12002566WA0118601236
B2049554748212N12002557WA0118501235
B2049564748217N12002548WA0118501234
B2049574748224N12002541WA0118401234
B2049584748230N12002539WA0118401236
B2049594748236N12002541WA0118401238
B2050004748240N12002545WA0118401238
B2050014748243N12002549WA0118401237
B2050024748246N12002554WA0118401238
B2050034748248N12002559WA0118401239
B2050044748250N12002564WA0118401240
B2050054748251N12002568WA0118501240
B2050064748252N12002571WA0118501240
B2050074748253N12002575WA0118501240
B2050084748253N12002579WA0118501239
B2050094748253N12002583WA0118501238
B2050104748250N12002588WA0118401237
B2050114748248N12002591WA0118301236
B2050124748245N12002592WA0118301237
B2050134748243N12002593WA0118201237
B2050144748242N12002594WA0118201237
B2050154748240N12002597WA0118101236
B2050164748239N12002600WA0118001235
B2050174748238N12002606WA0117901232
B2050184748238N12002612WA0117801230
B2050194748238N12002618WA0117701230
B2050204748237N12002623WA0117601231
B2050214748236N12002626WA0117501233
B2050224748235N12002630WA0117501233
B2050234748234N12002634WA0117501233
B2050244748233N12002640WA0117501232
B2050254748231N12002645WA0117501233
B2050264748228N12002647WA0117501235
B2050274748225N12002646WA0117601237
B2050284748222N12002643WA0117701240
B2050294748221N12002639WA0117801241
B2050304748219N12002635WA0117901243
B2050314748218N12002629WA0118101244
B2050324748217N12002621WA0118201244
B2050334748217N12002611WA0118301242
B2050344748221N12002601WA0118401241
B2050354748227N12002593WA0118401240
B2050364748235N12002592WA0118501240
B2050374748242N12002596WA0118501236
B2050384748246N12002603WA0118501237
B2050394748247N12002609WA0118601239
B2050404748247N12002611WA0118701241
B2050414748247N12002612WA0118801244
B2050424748247N12002613WA0119001245
B2050424748247N12002613WA0119001245
B2050434748247N12002616WA0119101245
B2050444748246N12002619WA0119201245
B2050454748244N12002622WA0119301245
B2050464748242N12002624WA0119301246
B2050474748240N12002625WA0119401247
B2050484748239N12002625WA0119501247
B2050494748238N12002625WA0119601247
B2050504748235N12002625WA0119601247
B2050514748231N12002623WA0119701246
B2050524748228N12002621WA0119701247
B2050534748226N12002616WA0119701249
B2050544748224N12002611WA0119801252
B2050554748222N12002606WA0119901254
B2050564748220N12002600WA0120001254
B2050574748219N12002591WA0120101254
B2050584748219N12002581WA0120101253
B2050594748221N12002569WA0120101251
B2051004748226N12002558WA0120201251
B2051014748233N12002551WA0120201251
B2051024748240N12002547WA0120201252
B2051034748247N12002546WA0120301253
B2051044748253N12002548WA0120301253
B2051054748257N12002552WA0120301252
B2051064748260N12002558WA0120301252
B2051074748261N12002564WA0120401252
B2051084748261N12002568WA0120401252
B2051094748260N12002572WA0120401253
B2051104748258N12002574WA0120401254
B2051114748257N12002576WA0120501255
B2051124748256N12002577WA0120501256
B2051134748254N12002577WA0120601256
B2051144748251N12002576WA0120601256
B2051154748249N12002575WA0120701257
B2051164748247N12002573WA0120701258
B2051174748245N12002570WA0120801260
B2051184748243N12002567WA0120901261
B2051194748241N12002564WA0121001261
B2051204748237N12002562WA0121001260
B2051214748233N12002561WA0121001260
B2051224748229N12002560WA0121101261
B2051234748226N12002557WA0121201264
B2051244748224N12002554WA0121301267
B2051254748221N12002550WA0121401268
B2051264748218N12002545WA0121501269
B2051274748214N12002539WA0121601270
B2051284748212N12002531WA0121701271
B2051294748210N12002523WA0121901273
B2051304748210N12002514WA0122001274
B2051314748212N12002505WA0122101275
B2051324748214N12002495WA0122201274
B2051334748216N12002485WA0122301273
B2051344748220N12002475WA0122401273
B2051354748225N12002466WA0122501272
B2051364748231N12002459WA0122501272
B2051374748239N12002456WA0122601271
B2051384748245N12002457WA0122601271
B2051394748251N12002461WA0122601269
B2051404748254N12002467WA0122601268
B2051414748254N12002472WA0122601267
B2051424748255N12002476WA0122601269
B2051434748255N12002479WA0122601271
B2051444748256N12002481WA0122701272
B2051454748255N12002485WA0122701273
B2051464748254N12002487WA0122801273
B2051464748254N12002487WA0122801273
B2051474748253N12002489WA0122901274
B2051484748252N12002491WA0122901274
B2051494748252N12002493WA0123001275
B2051504748252N12002496WA0123001275
B2051514748251N12002499WA0123101276
B2051524748250N12002502WA0123101276
B2051534748249N12002505WA0123201277
B2051544748248N12002507WA0123301278
B2051554748245N12002508WA0123301279
B2051564748243N12002508WA0123401280
B2051574748241N12002507WA0123501282
B2051584748238N12002505WA0123601283
B2051594748236N12002503WA0123601283
B2052004748233N12002500WA0123701281
B2052014748230N12002496WA0123701280
B2052024748227N12002491WA0123701280
B2052034748224N12002484WA0123801281
B2052044748223N12002477WA0123801283
B2052054748222N12002469WA0123901284
B2052064748222N12002461WA0123901284
B2052074748222N12002453WA0123901283
B2052084748223N12002444WA0124001283
B2052094748225N12002435WA0124001282
B2052104748230N12002427WA0124001281
B2052114748237N12002422WA0124001279
B2052124748244N12002419WA0123901278
B2052134748250N12002420WA0123901277
B2052144748255N12002422WA0123901277
B2052154748258N12002426WA0123801277
B2052164748261N12002430WA0123801276
B2052174748262N12002434WA0123801275
B2052184748264N12002437WA0123701275
B2052194748264N12002440WA0123701274
B2052204748264N12002443WA0123701273
B2052214748262N12002446WA0123601271
B2052224748261N12002448WA0123501270
B2052234748260N12002452WA0123401269
B2052244748259N12002456WA0123301268
B2052254748258N12002460WA0123201267
B2052264748257N12002463WA0123201266
B2052274748257N12002467WA0123101265
B2052284748257N12002472WA0123001264
B2052294748256N12002477WA0122901263
B2052304748255N12002481WA0122801262
B2052314748253N12002484WA0122701261
B2052324748250N12002487WA0122601259
B2052334748247N12002489WA0122501259
B2052344748245N12002491WA0122501259
B2052354748243N12002491WA0122401260
B2052364748241N12002490WA0122401261
B2052374748238N12002487WA0122301261
B2052384748235N12002485WA0122301262
B2052394748233N12002484WA0122301263
B2052404748231N12002483WA0122301263
B2052414748229N12002482WA0122301263
B2052424748226N12002480WA0122301261
B2052434748224N12002480WA0122201258
B2052444748221N12002480WA0122101255
B2052454748218N12002478WA0122001254
B2052464748215N12002475WA0121901253
B2052474748213N12002471WA0121801251
B2052484748210N12002468WA0121701249
B2052494748207N12002466WA0121501247
B2052504748203N12002464WA0121401244
B2052504748203N12002464WA0121401244
B2052514748200N12002461WA0121201241
B2052524748196N12002459WA0121101239
B2052534748193N12002457WA0120901238
B2052544748190N12002456WA0120801237
B2052554748186N12002455WA0120601235
B2052564748182N12002453WA0120401232
B2052574748177N12002450WA0120201230
B2052584748173N12002447WA0120101228
B2052594748170N12002445WA0119901227
B2053004748166N12002443WA0119701225
B2053014748162N12002441WA0119501223
B2053024748157N12002437WA0119401219
B2053034748153N12002433WA0119101215
B2053044748148N12002430WA0118901212
B2053054748143N12002428WA0118701209
B2053064748138N12002426WA0118501208
B2053074748133N12002424WA0118201206
B2053084748128N12002420WA0118101205
B2053094748122N12002417WA0117901203
B2053104748118N12002415WA0117801204
B2053114748113N12002413WA0117601204
B2053124748109N12002409WA0117501203
B2053134748105N12002404WA0117301202
B2053144748101N12002401WA0117301201
B2053154748097N12002399WA0117101199
B2053164748092N12002397WA0117001198
B2053174748087N12002394WA0116801196
B2053184748082N12002390WA0116701194
B2053194748077N12002388WA0116601193
B2053204748073N12002387WA0116501192
B2053214748068N12002385WA0116301190
B2053224748063N12002381WA0116201187
B2053234748057N12002376WA0116001183
B2053244748050N12002371WA0115801181
B2053254748044N12002369WA0115701181
B2053264748040N12002367WA0115501182
B2053274748035N12002365WA0115401182
B2053284748031N12002361WA0115301180
B2053294748025N12002358WA0115201178
B2053304748020N12002355WA0115101176
B2053314748014N12002352WA0114901175
B2053324748008N12002349WA0114801174
B2053334748003N12002346WA0114701173
B2053344747998N12002343WA0114601173
B2053354747993N12002341WA0114501172
B2053364747988N12002337WA0114401170
B2053374747982N12002334WA0114301168
B2053384747976N12002329WA0114201166
B2053394747971N12002325WA0114001165
B2053404747967N12002321WA0113901163
B2053414747962N12002317WA0113701161
B2053424747957N12002314WA0113601158
B2053434747952N12002311WA0113401155
B2053444747947N12002307WA0113201152
B2053454747942N12002302WA0113001149
B2053464747937N12002297WA0112801147
B2053474747933N12002294WA0112601145
B2053484747928N12002291WA0112401143
B2053494747923N12002288WA0112201142
B2053504747918N12002284WA0112001140
B2053514747912N12002280WA0111801138
B2053524747906N12002277WA0111701137
B2053534747901N12002274WA0111501136
B2053544747897N12002271WA0111301136
B2053544747897N12002271WA0111301136
B2053554747892N12002268WA0111201135
B2053564747887N12002264WA0111101133
B2053574747882N12002261WA0110901131
B2053584747875N12002258WA0110701129
B2053594747870N12002256WA0110501128
B2054004747864N12002253WA0110401127
B2054014747859N12002248WA0110301127
B2054024747854N12002244WA0110201126
B2054034747848N12002240WA0110001124
B2054044747843N12002237WA0109901123
B2054054747837N12002234WA0109801123
B2054064747832N12002230WA0109701124
B2054074747828N12002226WA0109601124
B2054084747823N12002223WA0109501124
B2054094747818N12002218WA0109401122
B2054104747813N12002213WA0109301121
B2054114747807N12002208WA0109301122
B2054124747803N12002203WA0109201123
B2054134747799N12002200WA0109201125
B2054144747794N12002197WA0109201126
B2054154747790N12002193WA0109201127
B2054164747786N12002188WA0109201127
B2054174747781N12002183WA0109201127
B2054184747776N12002178WA0109201127
B2054194747772N12002173WA0109201127
B2054204747767N12002169WA0109201127
B2054214747763N12002165WA0109201127
B2054224747757N12002161WA0109301128
B2054234747753N12002159WA0109301128
B2054244747748N12002156WA0109301129
B2054254747744N12002153WA0109301130
B2054264747739N12002150WA0109301130
B2054274747735N12002147WA0109401130
B2054284747730N12002144WA0109401130
B2054294747726N12002142WA0109401131
B2054304747721N12002141WA0109401132
B2054314747718N12002140WA0109501133
B2054324747714N12002137WA0109501135
B2054334747710N12002135WA0109601137
B2054344747706N12002131WA0109701139
B2054354747703N12002127WA0109801141
B2054364747701N12002119WA0109901142
B2054374747699N12002110WA0110001141
B2054384747699N12002099WA0110101141
B2054394747701N12002089WA0110201143
B2054404747704N12002080WA0110301145
B2054414747710N12002075WA0110401145
B2054424747716N12002074WA0110501144
B2054434747721N12002076WA0110501144
B2054444747723N12002079WA0110601145
B2054454747724N12002082WA0110701148
B2054464747724N12002083WA0110801151
B2054474747724N12002085WA0110901153
B2054484747723N12002088WA0111001154
B2054494747721N12002091WA0111201154
B2054504747718N12002093WA0111301156
B2054514747715N12002094WA0111401159
B2054524747712N12002094WA0111601163
B2054534747709N12002093WA0111801166
B2054544747705N12002092WA0112001170
B2054554747702N12002088WA0112201175
B2054564747698N12002082WA0112401178
B2054574747695N12002072WA0112701180
B2054584747694N12002060WA0112901182
B2054594747696N12002048WA0113101184
B2054594747696N12002048WA0113101184
B2055004747700N12002038WA0113301186
B2055014747706N12002032WA0113601188
B2055024747711N12002029WA0113801191
B2055034747716N12002028WA0114001193
B2055044747721N12002027WA0114201195
B2055054747725N12002028WA0114501197
B2055064747728N12002030WA0114601200
B2055074747729N12002034WA0114901204
B2055084747727N12002038WA0115101207
B2055094747724N12002040WA0115401210
B2055104747720N12002040WA0115601213
B2055114747716N12002038WA0115901216
B2055124747712N12002035WA0116101220
B2055134747708N12002029WA0116501223
B2055144747705N12002022WA0116701227
B2055154747704N12002011WA0117001230
B2055164747704N12002000WA0117201232
B2055174747707N12001988WA0117601234
B2055184747713N12001979WA0117801237
B2055194747719N12001975WA0118101241
B2055204747725N12001975WA0118301243
B2055214747729N12001977WA0118601246
B2055224747733N12001980WA0118801249
B2055234747735N12001982WA0119201253
B2055244747737N12001985WA0119401257
B2055254747737N12001989WA0119801261
B2055264747738N12001992WA0120001263
B2055274747738N12001996WA0120401266
B2055284747737N12002000WA0120601269
B2055294747736N12002003WA0121001272
B2055304747732N12002004WA0121201274
B2055314747728N12002002WA0121501274
B2055324747723N12001997WA0121701275
B2055334747720N12001991WA0122001277
B2055344747718N12001982WA0122201280
B2055354747719N12001973WA0122401282
B2055364747721N12001962WA0122601282
B2055374747725N12001952WA0122801283
B2055384747731N12001945WA0123001286
B2055394747737N12001941WA0123301290
B2055404747742N12001941WA0123501295
B2055414747746N12001944WA0123801298
B2055424747749N12001947WA0124001302
B2055434747752N12001950WA0124301305
B2055444747753N12001954WA0124501308
B2055454747753N12001957WA0124801309
B2055464747751N12001960WA0125001310
B2055474747747N12001961WA0125201311
B2055484747742N12001961WA0125401311
B2055494747739N12001959WA0125601313
B2055504747736N12001957WA0125801313
B2055514747732N12001953WA0125901313
B2055524747728N12001949WA0126001310
B2055534747722N12001943WA0126101306
B2055544747716N12001935WA0126101304
B2055554747712N12001924WA0126101304
B2055564747711N12001911WA0126101304
B2055574747711N12001899WA0126101304
B2055584747713N12001889WA0126101305
B2055594747715N12001878WA0126201305
B2056004747718N12001868WA0126201305
B2056014747722N12001859WA0126201305
B2056024747728N12001852WA0126201305
B2056034747734N12001847WA0126201306
B2056034747734N12001847WA0126201306
B2056044747740N12001846WA0126301307
B2056054747745N12001846WA0126301310
B2056064747749N12001847WA0126401314
B2056074747753N12001848WA0126601318
B2056084747755N12001850WA0126701321
B2056094747758N12001852WA0126901324
B2056104747762N12001855WA0127101325
B2056114747764N12001859WA0127301327
B2056124747765N12001863WA0127401330
B2056134747764N12001867WA0127601333
B2056144747762N12001870WA0127801335
B2056154747760N12001872WA0128001337
B2056164747758N12001873WA0128101338
B2056174747754N12001872WA0128301338
B2056184747749N12001870WA0128401337
B2056194747743N12001865WA0128501337
B2056204747738N12001857WA0128601337
B2056214747735N12001847WA0128701338
B2056224747734N12001835WA0128701337
B2056234747734N12001823WA0128801337
B2056244747735N12001812WA0128901337
B2056254747737N12001800WA0128901338
B2056264747740N12001790WA0129001336
B2056274747746N12001782WA0129001334
B2056284747752N12001778WA0128901333
B2056294747757N12001776WA0128901331
B2056304747762N12001777WA0128901331
B2056314747765N12001779WA0128801331
B2056324747767N12001780WA0128801332
B2056334747770N12001782WA0128801332
B2056344747772N12001785WA0128801332
B2056354747774N12001788WA0128801331
B2056364747774N12001793WA0128801331
B2056374747774N12001799WA0128701330
B2056384747774N12001803WA0128701331
B2056394747774N12001807WA0128701333
B2056404747774N12001809WA0128801335
B2056414747774N12001811WA0128801336
B2056424747774N12001815WA0128801336
B2056434747774N12001819WA0128901336
B2056444747776N12001824WA0128901336
B2056454747778N12001827WA0128901337
B2056464747780N12001829WA0129001337
B2056474747782N12001833WA0129001338
B2056484747783N12001836WA0129101338
B2056494747783N12001840WA0129101338
B2056504747784N12001844WA0129101338
B2056514747786N12001848WA0129201338
B2056524747788N12001851WA0129201338
B2056534747790N12001854WA0129201338
B2056544747792N12001857WA0129201338
B2056554747794N12001860WA0129201338
B2056564747796N12001862WA0129201337
B2056574747798N12001865WA0129201335
B2056584747800N12001868WA0129201332
B2056594747801N12001872WA0129101329
B2057004747801N12001875WA0129001327
B2057014747801N12001878WA0128901326
B2057024747801N12001879WA0128801325
B2057034747802N12001881WA0128601322
B2057044747803N12001885WA0128501318
B2057054747805N12001889WA0128301315
B2057064747806N12001892WA0128101313
B2057074747807N12001895WA0127901311
B2057074747807N12001895WA0127901311
B2057084747808N12001897WA0127801309
B2057094747809N12001900WA0127601307
B2057104747811N12001904WA0127401304
B2057114747813N12001908WA0127201302
B2057124747815N12001913WA0127101301
B2057134747815N12001917WA0126901302
B2057144747814N12001922WA0126801303
B2057154747813N12001926WA0126701304
B2057164747814N12001929WA0126701305
B2057174747816N12001933WA0126601305
B2057184747818N12001937WA0126601304
B2057194747819N12001942WA0126501302
B2057204747820N12001947WA0126401300
B2057214747822N12001952WA0126301299
B2057224747825N12001957WA0126201296
B2057234747828N12001963WA0126001295
B2057244747831N12001969WA0125901294
B2057254747833N12001976WA0125801293
B2057264747834N12001981WA0125701292
B2057274747837N12001986WA0125601293
B2057284747839N12001990WA0125601293
B2057294747841N12001993WA0125501295
B2057304747842N12001995WA0125501297
B2057314747844N12001998WA0125501298
B2057324747845N12002002WA0125501299
B2057334747846N12002007WA0125501299
B2057344747847N12002011WA0125601300
B2057354747847N12002015WA0125601301
B2057364747849N12002018WA0125601301
B2057374747851N12002021WA0125701301
B2057384747852N12002025WA0125701302
B2057394747853N12002028WA0125701303
B2057404747854N12002032WA0125801303
B2057414747856N12002035WA0125801304
B2057424747857N12002039WA0125901305
B2057434747858N12002043WA0125901307
B2057444747858N12002048WA0126001307
B2057454747857N12002053WA0126001307
B2057464747856N12002058WA0126101309
B2057474747854N12002062WA0126201310
B2057484747852N12002065WA0126201311
B2057494747849N12002069WA0126301311
B2057504747845N12002073WA0126401310
B2057514747841N12002076WA0126401311
B2057524747837N12002076WA0126501313
B2057534747833N12002074WA0126601314
B2057544747829N12002071WA0126601314
B2057554747824N12002069WA0126701314
B2057564747820N12002067WA0126701313
B2057574747815N12002065WA0126701312
B2057584747810N12002062WA0126701310
B2057594747805N12002059WA0126701309
B2058004747801N12002056WA0126701308
B2058014747796N12002054WA0126601307
B2058024747792N12002051WA0126601305
B2058034747788N12002047WA0126501302
B2058044747784N12002042WA0126401299
B2058054747779N12002038WA0126201296
B2058064747774N12002035WA0126101292
B2058074747769N12002033WA0125901289
B2058084747764N12002032WA0125701286
B2058094747760N12002029WA0125501284
B2058104747755N12002027WA0125301281
B2058114747750N12002024WA0125101277
B2058114747750N12002024WA0125101277
B2058124747745N12002021WA0124901274
B2058134747741N12002019WA0124601271
B2058144747737N12002016WA0124401268
B2058154747733N12002012WA0124101265
B2058164747728N12002008WA0123901262
B2058174747724N12002005WA0123501258
B2058184747719N12002003WA0123301253
B2058194747714N12002001WA0123001249
B2058204747709N12001999WA0122701246
B2058214747705N12001996WA0122401243
B2058224747701N12001993WA0122201241
B2058234747697N12001990WA0121801239
B2058244747693N12001985WA0121601236
B2058254747689N12001981WA0121301232
B2058264747684N12001976WA0121101228
B2058274747679N12001970WA0120701225
B2058284747675N12001965WA0120501222
B2058294747671N12001959WA0120101219
B2058304747667N12001954WA0119901216
B2058314747663N12001947WA0119501212
B2058324747658N12001941WA0119201208
B2058334747653N12001934WA0118901204
B2058344747649N12001928WA0118601201
B2058354747644N12001922WA0118201198
B2058364747640N12001918WA0118001195
B2058374747635N12001914WA0117601192
B2058384747630N12001911WA0117401189
B2058394747626N12001908WA0117101186
B2058404747622N12001905WA0116801184
B2058414747619N12001902WA0116501182
B2058424747615N12001900WA0116301179
B2058434747611N12001897WA0116001177
B2058444747606N12001895WA0115801174
B2058454747602N12001894WA0115501172
B2058464747598N12001894WA0115301169
B2058474747594N12001895WA0114901166
B2058484747590N12001894WA0114701164
B2058494747586N12001893WA0114401162
B2058504747582N12001891WA0114301159
B2058514747579N12001890WA0114001158
B2058524747575N12001889WA0113801156
B2058534747571N12001886WA0113601154
B2058544747567N12001880WA0113401152
B2058554747564N12001873WA0113101149
B2058564747562N12001864WA0112901146
B2058574747560N12001856WA0112701144
B2058584747559N12001847WA0112501142
B2058594747558N12001837WA0112201139
B2059004747558N12001827WA0112001137
B2059014747557N12001817WA0111801136
B2059024747557N12001808WA0111601135
B2059034747557N12001800WA0111401136
B2059044747556N12001792WA0111301136
B2059054747555N12001785WA0111201136
B2059064747554N12001777WA0111101136
B2059074747553N12001769WA0111001136
B2059084747554N12001760WA0111001137
B2059094747555N12001751WA0110901137
B2059104747556N12001743WA0110901137
B2059114747559N12001734WA0110901137
B2059124747562N12001727WA0110801137
B2059134747565N12001719WA0110801136
B2059144747568N12001710WA0110801136
B2059154747571N12001701WA0110701134
B2059154747571N12001701WA0110701134
B2059164747574N12001691WA0110701133
B2059174747577N12001682WA0110601133
B2059184747579N12001673WA0110501132
B2059194747581N12001663WA0110501130
B2059204747582N12001653WA0110401129
B2059214747583N12001642WA0110301127
B2059224747583N12001630WA0110201127
B2059234747583N12001620WA0110201127
B2059244747582N12001610WA0110101127
B2059254747581N12001600WA0110001126
B2059264747581N12001591WA0110001125
B2059274747580N12001581WA0109901123
B2059284747578N12001571WA0109801122
B2059294747576N12001561WA0109701120
B2059304747574N12001552WA0109601119
B2059314747572N12001542WA0109501118
B2059324747572N12001533WA0109401117
B2059334747571N12001522WA0109301115
B2059344747571N12001512WA0109201112
B2059354747571N12001501WA0109001110
B2059364747571N12001490WA0108901108
B2059374747572N12001480WA0108701107
B2059384747573N12001470WA0108601105
B2059394747575N12001461WA0108501104
B2059404747576N12001451WA0108301101
B2059414747578N12001441WA0108101098
B2059424747580N12001431WA0108001095
B2059434747582N12001421WA0107701092
B2059444747584N12001412WA0107601090
B2059454747585N12001402WA0107401088
B2059464747587N12001393WA0107201086
B2059474747590N12001384WA0107001083
B2059484747593N12001375WA0106801079
B2059494747597N12001365WA0106501075
B2059504747600N12001354WA0106301072
B2059514747603N12001344WA0106001070
B2059524747606N12001333WA0105801068
B2059534747609N12001324WA0105501066
B2059544747612N12001315WA0105301064
B2059554747616N12001305WA0105001061
B2059564747620N12001295WA0104801057
B2059574747623N12001285WA0104501054
B2059584747627N12001275WA0104301052
B2059594747630N12001266WA0104001050
B2100004747634N12001257WA0103801047
B2100014747637N12001248WA0103501044
B2100024747641N12001239WA0103301041
B2100034747645N12001229WA0103001038
B2100044747649N12001220WA0102801035
B2100054747653N12001211WA0102501032
B2100064747657N12001202WA0102301029
B2100074747661N12001193WA0101901026
B2100084747665N12001184WA0101701022
B2100094747669N12001174WA0101401019
B2100104747674N12001165WA0101101016
B2100114747677N12001156WA0100801013
B2100124747680N12001147WA0100601011
B2100134747683N12001138WA0100301009
B2100144747686N12001129WA0100101006
B2100154747690N12001120WA0099701002
B2100164747694N12001112WA0099500999
B2100174747698N12001103WA0099200997
B2100184747702N12001095WA0099000994
B2100194747706N12001087WA0098600991
B2100194747706N12001087WA0098600991
B2100204747710N12001078WA0098400988
B2100214747714N12001070WA0098100984
B2100224747719N12001062WA0097800981
B2100234747723N12001053WA0097500978
B2100244747727N12001045WA0097300976
B2100254747731N12001037WA0096900974
B2100264747735N12001029WA0096700972
B2100274747739N12001021WA0096400969
B2100284747744N12001013WA0096200966
B2100294747749N12001005WA0095900963
B2100304747754N12000997WA0095700960
B2100314747759N12000989WA0095300957
B2100324747764N12000981WA0095100956
B2100334747769N12000974WA0094900954
B2100344747773N12000967WA0094700952
B2100354747778N12000959WA0094400949
B2100364747784N12000951WA0094200945
B2100374747790N12000944WA0093800942
B2100384747797N12000937WA0093600939
B2100394747803N12000932WA0093300938
B2100404747808N12000927WA0093100936
B2100414747814N12000922WA0092900934
B2100424747820N12000915WA0092700931
B2100434747827N12000909WA0092400929
B2100444747833N12000902WA0092200927
B2100454747838N12000896WA0091900926
B2100464747843N12000890WA0091800924
B2100474747848N12000883WA0091500922
B2100484747854N12000876WA0091300920
B2100494747860N12000870WA0091100917
B2100504747866N12000865WA0090900915
B2100514747872N12000861WA0090700914
B2100524747878N12000858WA0090500912
B2100534747884N12000857WA0090300911
B2100544747889N12000856WA0090100910
B2100554747893N12000857WA0089900908
B2100564747896N12000861WA0089700906
B2100574747898N12000865WA0089500903
B2100584747897N12000870WA0089300902
B2100594747895N12000872WA0089100902
B2101004747893N12000873WA0089000903
B2101014747891N12000871WA0088900903
B2101024747889N12000869WA0088800902
B2101034747886N12000867WA0088600900
B2101044747883N12000865WA0088500898
B2101054747880N12000863WA0088300895
B2101064747875N12000860WA0088200892
B2101074747871N12000858WA0087900890
B2101084747868N12000856WA0087800889
B2101094747865N12000855WA0087600888
B2101104747861N12000853WA0087500886
B2101114747858N12000851WA0087300883
B2101124747854N12000850WA0087100880
B2101134747850N12000848WA0086900877
B2101144747847N12000847WA0086700875
B2101154747844N12000845WA0086500874
B2101164747841N12000843WA0086300872
B2101174747839N12000842WA0086100870
B2101184747836N12000842WA0085900867
B2101194747832N12000840WA0085700864
B2101204747828N12000838WA0085500861
B2101214747825N12000836WA0085200859
B2101224747822N12000834WA0085000856
B2101234747820N12000833WA0084800854
B2101234747820N12000833WA0084800854
B2101244747817N12000831WA0084600851
B2101254747813N12000829WA0084300848
B2101264747809N12000828WA0084100845
B2101274747804N12000828WA0083800842
B2101284747800N12000827WA0083600841
B2101294747796N12000825WA0083400839
B2101304747792N12000822WA0083200837
B2101314747789N12000821WA0082900835
B2101324747784N12000819WA0082700831
B2101334747779N12000819WA0082400827
B2101344747774N12000818WA0082200825
B2101354747770N12000816WA0081900823
B2101364747765N12000814WA0081700823
B2101374747761N12000812WA0081500821
B2101384747757N12000809WA0081300820
B2101394747752N12000808WA0081100818
B2101404747748N12000805WA0080900817
B2101414747744N12000802WA0080700814
B2101424747740N12000797WA0080500812
B2101434747737N12000791WA0080300809
B2101444747733N12000784WA0080100807
B2101454747730N12000777WA0079900804
B2101464747727N12000767WA0079700801
B2101474747725N12000757WA0079400798
B2101484747724N12000747WA0079200794
B2101494747723N12000737WA0078900791
B2101504747723N12000727WA0078700789
B2101514747723N12000717WA0078400788
B2101524747722N12000709WA0078300787
B2101534747722N12000700WA0078000785
B2101544747721N12000691WA0077800782
B2101554747720N12000681WA0077500779
B2101564747719N12000670WA0077400777
B2101574747719N12000660WA0077100775
B2101584747718N12000650WA0076900774
B2101594747717N12000641WA0076700772
B2102004747716N12000631WA0076500769
B2102014747715N12000621WA0076200766
B2102024747715N12000611WA0076000762
B2102034747715N12000600WA0075700758
B2102044747715N12000589WA0075500755
B2102054747715N12000578WA0075200752
B2102064747716N12000568WA0075000749
B2102074747717N12000558WA0074700747
B2102084747717N12000548WA0074500745
B2102094747717N12000538WA0074200743
B2102104747717N12000527WA0074000741
B2102114747716N12000515WA0073800739
B2102124747716N12000503WA0073600738
B2102134747715N12000492WA0073400738
B2102144747715N12000482WA0073300738
B2102154747714N12000472WA0073200737
B2102164747713N12000462WA0073100737
B2102174747712N12000453WA0073000737
B2102184747709N12000444WA0073000736
B2102194747707N12000436WA0072900734
B2102204747703N12000429WA0072800734
B2102214747700N12000421WA0072700733
B2102224747697N12000413WA0072600733
B2102234747694N12000407WA0072600733
B2102244747691N12000401WA0072500733
B2102254747687N12000394WA0072400732
B2102264747683N12000388WA0072400731
B2102274747679N12000382WA0072300730
B2102274747679N12000382WA0072300730
B2102284747674N12000377WA0072200730
B2102294747670N12000372WA0072200730
B2102304747666N12000368WA0072100729
B2102314747662N12000363WA0072000728
B2102324747657N12000359WA0072000728
B2102334747653N12000354WA0071900728
B2102344747649N12000349WA0071900727
B2102354747646N12000342WA0071800726
B2102364747642N12000334WA0071700726
B2102374747639N12000325WA0071600724
B2102384747635N12000316WA0071600723
B2102394747632N12000306WA0071500723
B2102404747630N12000295WA0071400721
B2102414747628N12000283WA0071300719
B2102424747627N12000271WA0071200718
B2102434747626N12000258WA0071100717
B2102444747627N12000246WA0071000716
B2102454747629N12000235WA0070900715
B2102464747632N12000224WA0070800713
B2102474747635N12000215WA0070600710
B2102484747639N12000205WA0070400706
B2102494747643N12000194WA0070100701
B2102504747647N12000182WA0069900697
B2102514747651N12000171WA0069600694
B2102524747655N12000161WA0069400691
B2102534747659N12000152WA0069100689
B2102544747662N12000144WA0068900686
B2102554747666N12000135WA0068600683
B2102564747670N12000125WA0068300680
B2102574747675N12000115WA0068000677
B2102584747679N12000104WA0067800675
B2102594747683N12000094WA0067500675
B2103004747687N12000086WA0067400675
B2103014747691N12000078WA0067200674
B2103024747695N12000070WA0067000673
B2103034747699N12000062WA0066900671
B2103044747703N12000052WA0066700669
B2103054747706N12000041WA0066500667
B2103064747710N12000032WA0066400666
B2103074747715N12000023WA0066200665
B2103084747719N12000015WA0066100665
B2103094747723N12000007WA0066000663
B2103104747728N11959998WA0065900661
B2103114747732N11959989WA0065700659
B2103124747736N11959980WA0065500657
B2103134747740N11959971WA0065400655
B2103144747744N11959962WA0065200654
B2103154747747N11959953WA0065000652
B2103164747750N11959944WA0064900650
B2103174747753N11959935WA0064700648
B2103184747756N11959925WA0064600646
B2103194747758N11959916WA0064400645
B2103204747761N11959906WA0064300643
B2103214747764N11959897WA0064100641
B2103224747767N11959888WA0063900639
B2103234747769N11959878WA0063700637
B2103244747772N11959869WA0063500635
B2103254747775N11959859WA0063300633
B2103264747778N11959850WA0063200631
B2103274747781N11959840WA0062900629
B2103284747784N11959830WA0062800627
B2103294747787N11959820WA0062500625
B2103304747790N11959810WA0062400623
B2103314747793N11959801WA0062100621
B2103314747793N11959801WA0062100621
B2103324747796N11959791WA0061900618
B2103334747799N11959781WA0061700615
B2103344747802N11959770WA0061500613
B2103354747805N11959760WA0061200610
B2103364747809N11959750WA0061000608
B2103374747812N11959740WA0060700605
B2103384747815N11959730WA0060600603
B2103394747818N11959720WA0060300600
B2103404747821N11959710WA0060100598
B2103414747824N11959700WA0059800596
B2103424747827N11959691WA0059600594
B2103434747831N11959681WA0059300591
B2103444747834N11959672WA0059200589
B2103454747837N11959662WA0058900587
B2103464747841N11959653WA0058700585
B2103474747845N11959644WA0058500583
B2103484747849N11959636WA0058300581
B2103494747853N11959627WA0058000578
B2103504747857N11959619WA0057800575
B2103514747862N11959610WA0057600573
B2103524747867N11959602WA0057400570
B2103534747871N11959595WA0057100568
B2103544747876N11959587WA0056900566
B2103554747880N11959580WA0056600563
B2103564747884N11959572WA0056500560
B2103574747889N11959564WA0056200556
B2103584747894N11959557WA0055900553
B2103594747900N11959550WA0055600550
B2104004747905N11959544WA0055400547
B2104014747909N11959536WA0055100544
B2104024747914N11959529WA0054900541
B2104034747919N11959522WA0054600539
B2104044747924N11959516WA0054400536
B2104054747928N11959509WA0054100534
B2104064747932N11959502WA0053900531
B2104074747936N11959495WA0053600529
B2104084747941N11959488WA0053300526
B2104094747946N11959481WA0053000523
B2104104747951N11959474WA0052800520
B2104114747956N11959467WA0052500518
B2104124747960N11959460WA0052300515
B2104134747965N11959454WA0052000513
B2104144747970N11959447WA0051800510
B2104154747975N11959440WA0051500507
B2104164747981N11959434WA0051300505
B2104174747986N11959428WA0051000502
B2104184747991N11959422WA0050800499
B2104194747997N11959416WA0050500497
B2104204748002N11959409WA0050300495
B2104214748008N11959403WA0050000492
B2104224748013N11959397WA0049800490
B2104234748019N11959392WA0049500487
B2104244748025N11959386WA0049300485
B2104254748030N11959380WA0049000483
B2104264748036N11959374WA0048800480
B2104274748041N11959367WA0048500478
B2104284748047N11959361WA0048400475
B2104294748053N11959354WA0048100473
B2104304748058N11959348WA0047900470
B2104314748064N11959341WA0047600468
B2104324748069N11959334WA0047400464
B2104334748076N11959325WA0047100459
B2104344748082N11959316WA0046800456
B2104354748089N11959308WA0046500454
B2104354748089N11959308WA0046500454
B2104364748094N11959300WA0046300453
B2104374748100N11959293WA0046000452
B2104384748107N11959286WA0045900450
B2104394748113N11959278WA0045600448
B2104404748120N11959270WA0045500446
B2104414748126N11959262WA0045300446
B2104424748132N11959254WA0045200445
B2104434748138N11959247WA0045000444
B2104444748143N11959239WA0044900442
B2104454748148N11959230WA0044800441
B2104464748153N11959221WA0044700439
B2104474748158N11959212WA0044600437
B2104484748162N11959201WA0044500436
B2104494748166N11959190WA0044400435
B2104504748170N11959180WA0044300434
B2104514748174N11959170WA0044300434
B2104524748177N11959160WA0044300434
B2104534748179N11959150WA0044300433
B2104544748180N11959141WA0044300433
B2104554748181N11959132WA0044300432
B2104564748181N11959123WA0044300432
B2104574748181N11959115WA0044300432
B2104584748180N11959108WA0044300432
B2104594748179N11959102WA0044300432
B2105004748177N11959095WA0044400432
B2105014748175N11959089WA0044400432
B2105024748173N11959084WA0044400431
B2105034748171N11959081WA0044400431
B2105044748168N11959080WA0044500431
B2105054748166N11959080WA0044500430
B2105064748162N11959079WA0044400429
B2105074748159N11959075WA0044400429
B2105084748157N11959068WA0044400431
B2105094748157N11959061WA0044400433
B2105104748158N11959054WA0044400433
B2105114748159N11959046WA0044400433
B2105124748160N11959038WA0044400433
B2105134748160N11959031WA0044400432
B2105144748161N11959024WA0044400432
B2105154748162N11959016WA0044400431
B2105164748164N11959007WA0044400430
B2105174748165N11958999WA0044300430
B2105184748167N11958991WA0044300430
B2105194748168N11958983WA0044300430
B2105204748169N11958975WA0044200430
B2105214748171N11958968WA0044200429
B2105224748172N11958960WA0044200429
B2105234748174N11958952WA0044100429
B2105244748174N11958944WA0044100428
B2105254748174N11958936WA0044000427
B2105264748174N11958928WA0044000426
B2105274748174N11958921WA0043900426
B2105284748174N11958915WA0043900426
B2105294748173N11958910WA0043800425
B2105304748172N11958903WA0043800424
B2105314748171N11958895WA0043600423
B2105324748170N11958889WA0043600422
B2105334748167N11958884WA0043400421
B2105344748165N11958879WA0043400421
B2105354748164N11958874WA0043300421
B2105364748162N11958868WA0043200423
B2105374748160N11958863WA0043200423
B2105384748159N11958859WA0043100423
B2105394748157N11958854WA0043100424
B2105404748155N11958849WA0043100424
B2105404748155N11958849WA0043100424
B2105414748153N11958845WA0043100425
B2105424748151N11958842WA0043100426
B2105434748149N11958840WA0043100426
B2105444748147N11958839WA0043100427
B2105454748145N11958837WA0043200427
B2105464748143N11958837WA0043200428
B2105474748142N11958836WA0043200429
B2105484748140N11958835WA0043300429
B2105494748138N11958835WA0043300429
B2105504748135N11958836WA0043300429
B2105514748133N11958838WA0043300429
B2105524748131N11958840WA0043300431
B2105534748129N11958838WA0043400433
B2105544748126N11958834WA0043400432
B2105554748124N11958832WA0043400431
B2105564748121N11958832WA0043400431
B2105574748119N11958832WA0043500432
B2105584748117N11958830WA0043500433
B2105594748114N11958827WA0043500432
B2106004748111N11958824WA0043500431
B2106014748107N11958823WA0043500430
B2106024748105N11958822WA0043500430
B2106034748102N11958820WA0043500431
B2106044748100N11958818WA0043400432
B2106054748098N11958816WA0043400431
B2106064748095N11958816WA0043400430
B2106074748092N11958815WA0043400429
B2106084748089N11958815WA0043400428
B2106094748087N11958816WA0043300428
B2106104748085N11958817WA0043300428
B2106114748083N11958818WA0043200428
B2106124748082N11958821WA0043200427
B2106134748080N11958822WA0043200427
B2106144748079N11958824WA0043200427
B2106154748077N11958825WA0043100427
B2106164748075N11958825WA0043100426
B2106174748073N11958826WA0043000425
B2106184748071N11958827WA0042900425
B2106194748070N11958828WA0042800426
B2106204748069N11958829WA0042800427
B2106214748068N11958832WA0042700427
B2106224748067N11958834WA0042600429
B2106234748066N11958835WA0042500428
B2106244748064N11958837WA0042500427
B2106254748062N11958839WA0042400427
B2106264748060N11958844WA0042300427
B2106274748058N11958846WA0042200429
B2106284748057N11958847WA0042100429
B2106294748056N11958849WA0042000429
B2106304748055N11958851WA0042000428
B2106314748055N11958855WA0041900428
B2106324748054N11958857WA0041800432
B2106334748053N11958859WA0041800432
B2106344748051N11958859WA0041700431
B2106354748048N11958858WA0041600430
B2106364748046N11958858WA0041600428
B2106374748043N11958858WA0041500426
B2106384748041N11958859WA0041400425
B2106394748039N11958860WA0041300424
B2106404748037N11958860WA0041300422
B2106414748034N11958859WA0041100420
B2106424748031N11958860WA0041100418
B2106434748029N11958862WA0040900417
B2106444748027N11958865WA0040900416
B2106444748027N11958865WA0040900416
B2106454748025N11958867WA0040700415
B2106464748023N11958868WA0040700413
B2106474748022N11958870WA0040500411
B2106484748022N11958873WA0040400409
B2106494748021N11958876WA0040300409
B2106504748020N11958879WA0040200407
B2106514748019N11958881WA0040000406
B2106524748018N11958883WA0039900405
B2106534748018N11958885WA0039700403
B2106544748016N11958888WA0039600401
B2106554748015N11958889WA0039400399
B2106564748012N11958890WA0039200398
B2106574748010N11958890WA0039100396
B2106584748008N11958890WA0038900395
B2106594748005N11958884WA0038700394
B2107004748003N11958877WA0038600392
B2107014748004N11958870WA0038400391
B2107024748005N11958860WA0038300389
B2107034748009N11958852WA0038100388
B2107044748015N11958851WA0037900388
B2107054748020N11958847WA0037700386
B2107064748026N11958844WA0037600385
B2107074748031N11958842WA0037400383
B2107084748036N11958841WA0037300381
B2107094748040N11958841WA0037100379
B2107104748042N11958843WA0037000375
B2107114748044N11958846WA0036800371
B2107124748045N11958850WA0036600367
B2107134748045N11958855WA0036400364
B2107144748044N11958858WA0036200362
B2107154748043N11958859WA0036000360
B2107164748040N11958861WA0035900358
B2107174748040N11958864WA0035700355
B2107184748039N11958868WA0035500353
B2107194748038N11958870WA0035300351
B2107204748036N11958870WA0035100349
B2107214748036N11958872WA0034900344
B2107224748035N11958877WA0034700345
B2107234748036N11958881WA0034500346
B2107244748034N11958882WA0034300346
B2107254748034N11958885WA0034100345
B2107264748034N11958888WA0033900342
B2107274748036N11958891WA0033700340
B2107284748039N11958895WA0033500338
B2107294748044N11958897WA0033300335
B2107304748048N11958900WA0033100334
B2107314748051N11958902WA0032900332
B2107324748053N11958905WA0032700329
B2107334748053N11958908WA0032500325
B2107344748052N11958912WA0032300322
B2107354748050N11958916WA0032100320
B2107364748046N11958916WA0031900317
B2107374748041N11958913WA0031600315
B2107384748038N11958911WA0031500313
B2107394748036N11958908WA0031300311
B2107404748034N11958906WA0031200309
B2107414748032N11958904WA0031000307
B2107424748028N11958903WA0030900304
B2107434748024N11958902WA0030700301
B2107444748020N11958901WA0030600299
B2107454748018N11958899WA0030400296
B2107464748016N11958898WA0030300293
B2107474748014N11958899WA0030100290
B2107474748014N11958899WA0030100290
B2107484748013N11958901WA0030000287
B2107494748012N11958904WA0029700286
B2107504748011N11958908WA0029600283
B2107514748011N11958913WA0029300281
B2107524748011N11958918WA0029100278
B2107534748010N11958923WA0028900275
B2107544748010N11958928WA0028700273
B2107554748010N11958933WA0028400269
B2107564748011N11958938WA0028300267
B2107574748011N11958942WA0028100265
B2107584748011N11958945WA0027900264
B2107594748010N11958950WA0027800262
B2108004748010N11958955WA0027600260
B2108014748009N11958959WA0027500260
B2108024748008N11958963WA0027400258
B2108034748007N11958967WA0027200257
B2108044748005N11958970WA0027100255
B2108054748003N11958974WA0026900253
B2108064748003N11958980WA0026800252
B2108074748004N11958986WA0026700252
B2108084748006N11958991WA0026600251
B2108094748008N11958996WA0026500248
B2108104748010N11958998WA0026500248
B2108114748011N11959001WA0026400247
B2108124748013N11959006WA0026300247
B2108134748014N11959011WA0026200245
B2108144748017N11959016WA0026100243
B2108154748018N11959020WA0026000243
B2108164748019N11959024WA0026000243
B2108174748018N11959027WA0025900242
B2108184748016N11959030WA0025800241
B2108194748012N11959033WA0025700239
B2108204748008N11959034WA0025600237
B2108214748004N11959035WA0025500237
B2108224748000N11959038WA0025400237
B2108234747996N11959041WA0025200236
B2108244747992N11959043WA0025100235
B2108254747989N11959045WA0025000235
B2108264747986N11959047WA0024900235
B2108274747983N11959049WA0024900234
B2108284747980N11959051WA0024800234
B2108294747977N11959053WA0024700232
B2108304747974N11959055WA0024600231
B2108314747970N11959056WA0024500230
B2108324747966N11959058WA0024500228
B2108334747962N11959061WA0024300227
B2108344747959N11959065WA0024200227
B2108354747956N11959068WA0024100227
B2108364747953N11959071WA0024100227
B2108374747950N11959073WA0023900227
B2108384747947N11959075WA0023900226
B2108394747944N11959077WA0023800226
B2108404747942N11959079WA0023700225
B2108414747941N11959080WA0023600224
B2108424747940N11959081WA0023500224
B2108434747939N11959081WA0023400223
B2108444747939N11959082WA0023300223
B2108454747939N11959082WA0023300222
B2108464747939N11959081WA0023200222
B2108474747939N11959081WA0023100221
B2108484747939N11959081WA0023100221
B2108494747939N11959081WA0023000221
B2108504747939N11959081WA0023000221
B2108514747939N11959081WA0023000220
B2108514747939N11959081WA0023000220
B2108524747939N11959081WA0023000220
B2108534747939N11959081WA0022900220
B2108544747939N11959081WA0022900220
B2108554747939N11959081WA0022900220
B2108564747939N11959081WA0022900220
B2108574747939N11959081WA0022800220
B2108584747938N11959081WA0022800220
B2108594747938N11959081WA0022800220
B2109004747938N11959081WA0022800220
B2109014747938N11959081WA0022800220
B2109024747938N11959081WA0022800220
B2109034747938N11959081WA0022800220
B2109044747939N11959081WA0022800220
B2109054747938N11959081WA0022800219
B2109064747938N11959081WA0022800219
B2109074747938N11959081WA0022800219
B2109084747938N11959081WA0022800219
B2109094747938N11959081WA0022800219
B2109104747938N11959081WA0022800219
B2109114747939N11959081WA0022700219
B2109124747938N11959081WA0022700218
B2109134747938N11959081WA0022700218
B2109144747938N11959081WA0022700218
B2109154747938N11959081WA0022700218
B2109164747938N11959081WA0022700218
B2109174747938N11959081WA0022700218
B2109184747939N11959081WA0022700218
B2109194747939N11959080WA0022700218
B2109204747939N11959080WA0022700218
B2109214747939N11959080WA0022700218
B2109224747939N11959080WA0022700218
B2109234747939N11959080WA0022700218
B2109244747939N11959081WA0022700219
B2109254747939N11959081WA0022700218
B2109264747939N11959081WA0022700218
B2109274747938N11959081WA0022700218
B2109284747939N11959080WA0022700218
B2109294747939N11959081WA0022700218
B2109304747939N11959081WA0022700218
B2109314747939N11959082WA0022700218
B2109324747940N11959083WA0022700217
B2109334747940N11959083WA0022700218
B2109344747940N11959084WA0022700217
B2109354747941N11959085WA0022700217
B2109364747941N11959085WA0022700217
B2109374747941N11959086WA0022700217
B2109384747941N11959087WA0022700217
B2109394747942N11959087WA0022700217
B2109404747942N11959088WA0022700217
B2109414747942N11959089WA0022700217
B2109424747943N11959090WA0022700217
B2109434747943N11959091WA0022700217
B2109444747943N11959092WA0022700217
B2109454747944N11959092WA0022800218
B2109464747944N11959093WA0022800217
B2109474747945N11959093WA0022800217
B2109484747945N11959094WA0022800218
B2109494747946N11959094WA0022800218
B2109504747946N11959094WA0022800218
B2109514747947N11959095WA0022800218
B2109524747948N11959095WA0022800218
B2109534747948N11959096WA0022800217
B2109544747948N11959096WA0022800218
B2109554747949N11959096WA0022800218
