AXFMSFP Flymaster Live, V1.0
HFFXA010
HFPLTPILOT:James Owen
HFGTYGLIDERTYPE:Bogden Bf_Cocon Van (V2 Modification) / Ozone Swift 6
HFGIDGLIDERID:
HFDTM100GPSDATUM:WGS-1984
HFCIDCOMPETITIONID:123
HFCCLCOMPETITIONCLASS:
HOSITSITE:LAUNCH
HFGPS:UBLOXNEO6
HFPRSPRESSALTSENSOR:NA
HFRFWFIRMWAREVERSION:202g
HFRHWHARDWAREVERSION:1.0R2
HFFTYFRTYPE:FLYMASTER,LIVE
HFDTE170625
B2004084748234N12002328WA0109501124
B2004094748231N12002328WA0109501123
B2004104748228N12002329WA0109501121
B2004114748224N12002329WA0109401119
B2004124748220N12002328WA0109401117
B2004134748216N12002326WA0109401117
B2004144748213N12002326WA0109401119
B2004154748211N12002326WA0109301120
B2004164748209N12002326WA0109201120
B2004174748206N12002327WA0109101119
B2004184748202N12002328WA0109201117
B2004194748198N12002329WA0109201114
B2004204748194N12002330WA0109201114
B2004214748190N12002330WA0109201114
B2004224748188N12002329WA0109101115
B2004234748185N12002328WA0109101114
B2004244748180N12002328WA0109101112
B2004254748176N12002327WA0109001110
B2004264748171N12002325WA0109001110
B2004274748167N12002322WA0108901111
B2004284748164N12002318WA0108901112
B2004294748162N12002314WA0108801114
B2004304748159N12002310WA0108901115
B2004314748157N12002306WA0108901116
B2004324748153N12002302WA0108901115
B2004334748149N12002298WA0108901115
B2004344748145N12002295WA0108901115
B2004354748142N12002294WA0108901114
B2004364748138N12002294WA0108901113
B2004374748134N12002294WA0108901112
B2004384748130N12002296WA0108901110
B2004394748126N12002299WA0108901106
B2004404748121N12002302WA0108801102
B2004414748116N12002305WA0108701099
B2004424748111N12002309WA0108601097
B2004434748107N12002312WA0108501097
B2004444748103N12002316WA0108401097
B2004454748100N12002320WA0108301097
B2004464748098N12002326WA0108201097
B2004474748096N12002332WA0108101096
B2004484748095N12002338WA0108001096
B2004494748094N12002344WA0107901095
B2004504748093N12002351WA0107801094
B2004514748092N12002357WA0107801094
B2004524748091N12002363WA0107701092
B2004534748090N12002370WA0107601090
B2004544748089N12002377WA0107501089
B2004554748088N12002385WA0107401087
B2004564748088N12002394WA0107301085
B2004574748088N12002401WA0107201084
B2004584748088N12002409WA0107101083
B2004594748088N12002417WA0107001083
B2005004748087N12002425WA0106901081
B2005014748086N12002432WA0106701079
B2005024748085N12002440WA0106601078
B2005034748085N12002447WA0106501077
B2005034748085N12002447WA0106501077
B2005044748086N12002454WA0106401075
B2005054748086N12002462WA0106301073
B2005064748086N12002470WA0106201071
B2005074748084N12002479WA0106001068
B2005084748081N12002487WA0106001067
B2005094748079N12002495WA0105801066
B2005104748078N12002502WA0105701067
B2005114748077N12002510WA0105601066
B2005124748076N12002518WA0105501063
B2005134748074N12002527WA0105301062
B2005144748072N12002535WA0105201060
B2005154748070N12002544WA0105101058
B2005164748069N12002552WA0104901058
B2005174748068N12002560WA0104801057
B2005184748067N12002569WA0104701054
B2005194748066N12002578WA0104501052
B2005204748065N12002586WA0104401050
B2005214748064N12002595WA0104201048
B2005224748063N12002604WA0104101046
B2005234748062N12002613WA0103901045
B2005244748061N12002621WA0103701044
B2005254748060N12002629WA0103601043
B2005264748059N12002637WA0103401042
B2005274748058N12002645WA0103301041
B2005284748056N12002653WA0103101039
B2005294748055N12002662WA0103001038
B2005304748053N12002670WA0102801037
B2005314748051N12002678WA0102701035
B2005324748049N12002687WA0102501035
B2005334748047N12002696WA0102401033
B2005344748046N12002704WA0102301032
B2005354748044N12002713WA0102101031
B2005364748042N12002722WA0102001030
B2005374748040N12002730WA0101801029
B2005384748037N12002738WA0101701028
B2005394748035N12002747WA0101501029
B2005404748033N12002755WA0101401029
B2005414748030N12002763WA0101301028
B2005424748028N12002771WA0101201028
B2005434748026N12002780WA0101101028
B2005444748024N12002788WA0101001028
B2005454748023N12002796WA0100901029
B2005464748022N12002804WA0100901029
B2005474748021N12002814WA0100801030
B2005484748020N12002823WA0100701031
B2005494748018N12002832WA0100701032
B2005504748017N12002842WA0100701033
B2005514748016N12002851WA0100701035
B2005524748016N12002860WA0100701037
B2005534748015N12002870WA0100701039
B2005544748015N12002879WA0100801041
B2005554748013N12002888WA0100901044
B2005564748011N12002894WA0101001046
B2005574748009N12002899WA0101101048
B2005584748006N12002902WA0101201050
B2005594748003N12002904WA0101401050
B2006004747999N12002904WA0101401049
B2006014747993N12002901WA0101601048
B2006024747989N12002897WA0101601046
B2006034747984N12002891WA0101701046
B2006044747981N12002885WA0101801046
B2006054747980N12002876WA0101901045
B2006064747980N12002865WA0101901045
B2006074747982N12002854WA0102001045
B2006074747982N12002854WA0102001045
B2006084747985N12002843WA0102001046
B2006094747989N12002833WA0102101047
B2006104747993N12002824WA0102101051
B2006114747998N12002818WA0102101054
B2006124748003N12002812WA0102201057
B2006134748008N12002809WA0102201059
B2006144748013N12002809WA0102201061
B2006154748018N12002812WA0102301063
B2006164748022N12002818WA0102401064
B2006174748024N12002825WA0102501066
B2006184748025N12002833WA0102601068
B2006194748025N12002842WA0102801070
B2006204748021N12002848WA0102901073
B2006214748016N12002850WA0103101075
B2006224748011N12002848WA0103201076
B2006234748006N12002844WA0103401078
B2006244748003N12002838WA0103501081
B2006254748001N12002830WA0103801082
B2006264748001N12002822WA0103901084
B2006274748003N12002815WA0104101085
B2006284748008N12002810WA0104201087
B2006294748014N12002812WA0104501089
B2006304748019N12002819WA0104601090
B2006314748020N12002828WA0104801093
B2006324748018N12002836WA0104901095
B2006334748015N12002841WA0105101100
B2006344748013N12002845WA0105201104
B2006354748012N12002849WA0105401105
B2006364748011N12002853WA0105501105
B2006374748009N12002857WA0105701106
B2006384748006N12002858WA0105801107
B2006394748003N12002857WA0106001107
B2006404747999N12002855WA0106201105
B2006414747996N12002850WA0106301102
B2006424747995N12002842WA0106401099
B2006434747996N12002833WA0106501095
B2006444747997N12002823WA0106501091
B2006454747998N12002813WA0106501090
B2006464747997N12002804WA0106501089
B2006474747995N12002795WA0106501088
B2006484747993N12002786WA0106401087
B2006494747991N12002777WA0106401087
B2006504747992N12002769WA0106301086
B2006514747993N12002758WA0106301084
B2006524747996N12002747WA0106301084
B2006534748000N12002738WA0106301086
B2006544748004N12002729WA0106301090
B2006554748008N12002722WA0106301092
B2006564748013N12002715WA0106301094
B2006574748018N12002708WA0106301096
B2006584748023N12002703WA0106401098
B2006594748029N12002700WA0106401099
B2007004748034N12002700WA0106501099
B2007014748040N12002703WA0106501099
B2007024748044N12002708WA0106601099
B2007034748047N12002713WA0106601099
B2007044748048N12002720WA0106601098
B2007054748050N12002727WA0106701098
B2007064748051N12002736WA0106701098
B2007074748050N12002744WA0106701099
B2007084748050N12002752WA0106701100
B2007094748049N12002760WA0106701100
B2007104748049N12002768WA0106701102
B2007104748049N12002768WA0106701102
B2007114748048N12002775WA0106701104
B2007124748047N12002782WA0106701105
B2007134748045N12002788WA0106801106
B2007144748043N12002792WA0106801106
B2007154748040N12002795WA0106901108
B2007164748037N12002797WA0106901109
B2007174748034N12002799WA0107001108
B2007184748030N12002800WA0107101107
B2007194748027N12002797WA0107101102
B2007204748024N12002791WA0107101099
B2007214748022N12002784WA0107201096
B2007224748022N12002777WA0107201095
B2007234748023N12002770WA0107101092
B2007244748025N12002761WA0107101090
B2007254748029N12002753WA0107101087
B2007264748034N12002745WA0107001085
B2007274748042N12002741WA0106901084
B2007284748049N12002740WA0106901083
B2007294748055N12002742WA0106801084
B2007304748059N12002745WA0106701083
B2007314748064N12002747WA0106701084
B2007324748068N12002748WA0106601084
B2007334748073N12002750WA0106501084
B2007344748078N12002752WA0106501082
B2007354748084N12002755WA0106401081
B2007364748089N12002759WA0106401079
B2007374748095N12002763WA0106301078
B2007384748099N12002768WA0106301078
B2007394748104N12002775WA0106201077
B2007404748109N12002783WA0106201078
B2007414748112N12002791WA0106201081
B2007424748115N12002799WA0106201083
B2007434748118N12002807WA0106201085
B2007444748120N12002816WA0106201084
B2007454748120N12002824WA0106201083
B2007464748119N12002832WA0106201083
B2007474748117N12002840WA0106201083
B2007484748114N12002847WA0106201083
B2007494748109N12002853WA0106201083
B2007504748104N12002857WA0106201080
B2007514748098N12002859WA0106201077
B2007524748092N12002859WA0106201077
B2007534748088N12002859WA0106101078
B2007544748085N12002859WA0106101079
B2007554748083N12002857WA0106001077
B2007564748080N12002854WA0106001074
B2007574748075N12002851WA0105901071
B2007584748071N12002847WA0105801069
B2007594748066N12002844WA0105701067
B2008004748062N12002840WA0105601066
B2008014748059N12002835WA0105401064
B2008024748056N12002830WA0105301063
B2008034748053N12002825WA0105201061
B2008044748049N12002818WA0105101058
B2008054748045N12002811WA0104901054
B2008064748040N12002804WA0104801050
B2008074748035N12002797WA0104601046
B2008084748030N12002790WA0104401045
B2008094748026N12002784WA0104201045
B2008104748022N12002777WA0104101044
B2008114748019N12002769WA0103901043
B2008124748016N12002760WA0103801042
B2008134748013N12002752WA0103601040
B2008134748013N12002752WA0103601040
B2008144748009N12002745WA0103501039
B2008154748005N12002737WA0103301037
B2008164748001N12002729WA0103201036
B2008174747998N12002721WA0103101036
B2008184747995N12002712WA0103001036
B2008194747992N12002705WA0102901037
B2008204747990N12002698WA0102801038
B2008214747987N12002693WA0102701037
B2008224747983N12002686WA0102601036
B2008234747980N12002679WA0102601034
B2008244747977N12002670WA0102501033
B2008254747974N12002661WA0102401033
B2008264747971N12002654WA0102401034
B2008274747967N12002645WA0102301035
B2008284747963N12002637WA0102301038
B2008294747960N12002630WA0102301042
B2008304747957N12002624WA0102301044
B2008314747957N12002616WA0102301046
B2008324747957N12002607WA0102301049
B2008334747958N12002601WA0102401055
B2008344747962N12002596WA0102401058
B2008354747967N12002596WA0102501060
B2008364747972N12002599WA0102601062
B2008374747975N12002604WA0102701063
B2008384747975N12002609WA0102801066
B2008394747974N12002614WA0102901067
B2008404747972N12002619WA0103001068
B2008414747970N12002625WA0103101068
B2008424747968N12002632WA0103101069
B2008434747965N12002640WA0103201070
B2008444747961N12002647WA0103301073
B2008454747957N12002652WA0103401075
B2008464747953N12002655WA0103501076
B2008474747948N12002657WA0103601077
B2008484747945N12002656WA0103701077
B2008494747941N12002652WA0103801076
B2008504747937N12002646WA0103801073
B2008514747933N12002637WA0103901070
B2008524747931N12002627WA0104001070
B2008534747932N12002619WA0104101070
B2008544747934N12002612WA0104201070
B2008554747937N12002606WA0104201071
B2008564747941N12002602WA0104301072
B2008574747946N12002600WA0104401072
B2008584747950N12002600WA0104401072
B2008594747954N12002603WA0104501073
B2009004747956N12002608WA0104501073
B2009014747957N12002616WA0104601073
B2009024747956N12002623WA0104701074
B2009034747953N12002628WA0104701075
B2009044747949N12002632WA0104801076
B2009054747944N12002632WA0104801077
B2009064747939N12002631WA0104901076
B2009074747934N12002630WA0104901075
B2009084747928N12002627WA0105001074
B2009094747923N12002623WA0105001075
B2009104747919N12002618WA0105001075
B2009114747915N12002611WA0105101076
B2009124747912N12002604WA0105101076
B2009134747909N12002596WA0105101075
B2009144747905N12002587WA0105101073
B2009154747901N12002578WA0105201072
B2009164747897N12002569WA0105201072
B2009174747894N12002561WA0105201073
B2009174747894N12002561WA0105201073
B2009184747891N12002553WA0105201075
B2009194747888N12002547WA0105201076
B2009204747885N12002541WA0105201076
B2009214747882N12002534WA0105201075
B2009224747880N12002527WA0105201073
B2009234747877N12002519WA0105101071
B2009244747874N12002511WA0105101068
B2009254747871N12002504WA0105001066
B2009264747868N12002496WA0105001064
B2009274747864N12002489WA0104901062
B2009284747860N12002482WA0104801060
B2009294747856N12002475WA0104701059
B2009304747853N12002469WA0104601058
B2009314747850N12002462WA0104401057
B2009324747846N12002456WA0104301055
B2009334747843N12002450WA0104201052
B2009344747839N12002443WA0104101050
B2009354747835N12002435WA0103901048
B2009364747831N12002427WA0103801046
B2009374747828N12002419WA0103601044
B2009384747824N12002411WA0103501043
B2009394747820N12002403WA0103301042
B2009404747817N12002395WA0103201041
B2009414747813N12002388WA0103101040
B2009424747810N12002381WA0103001039
B2009434747806N12002374WA0102801037
B2009444747802N12002366WA0102701035
B2009454747798N12002358WA0102501033
B2009464747794N12002350WA0102401031
B2009474747791N12002342WA0102201029
B2009484747787N12002334WA0102101028
B2009494747783N12002327WA0101901026
B2009504747780N12002319WA0101801023
B2009514747776N12002310WA0101601020
B2009524747773N12002301WA0101401017
B2009534747769N12002293WA0101201015
B2009544747765N12002285WA0101101012
B2009554747761N12002277WA0100901010
B2009564747757N12002268WA0100701008
B2009574747754N12002259WA0100501005
B2009584747751N12002249WA0100301003
B2009594747748N12002240WA0100101002
B2010004747745N12002232WA0099901000
B2010014747742N12002224WA0099700998
B2010024747739N12002215WA0099500995
B2010034747736N12002205WA0099300992
B2010044747733N12002195WA0099100989
B2010054747729N12002185WA0098800987
B2010064747726N12002176WA0098700984
B2010074747722N12002166WA0098400982
B2010084747719N12002155WA0098200979
B2010094747716N12002145WA0097900976
B2010104747714N12002135WA0097700974
B2010114747712N12002124WA0097500971
B2010124747709N12002114WA0097300969
B2010134747707N12002104WA0097000967
B2010144747704N12002093WA0096800966
B2010154747702N12002082WA0096600963
B2010164747700N12002071WA0096400962
B2010174747698N12002060WA0096100961
B2010184747697N12002049WA0096000960
B2010194747695N12002039WA0095800960
B2010204747692N12002030WA0095600960
B2010204747692N12002030WA0095600960
B2010214747690N12002022WA0095400960
B2010224747688N12002014WA0095300960
B2010234747687N12002004WA0095200959
B2010244747686N12001995WA0095100958
B2010254747686N12001985WA0094900956
B2010264747686N12001975WA0094800955
B2010274747687N12001965WA0094600952
B2010284747687N12001954WA0094500950
B2010294747688N12001944WA0094300949
B2010304747688N12001933WA0094200948
B2010314747688N12001923WA0094000947
B2010324747687N12001913WA0093900947
B2010334747686N12001904WA0093800946
B2010344747686N12001895WA0093700945
B2010354747685N12001886WA0093500945
B2010364747685N12001876WA0093400943
B2010374747685N12001866WA0093300942
B2010384747684N12001856WA0093200941
B2010394747684N12001846WA0093000940
B2010404747684N12001835WA0092900939
B2010414747684N12001825WA0092800939
B2010424747684N12001814WA0092700938
B2010434747684N12001804WA0092600938
B2010444747684N12001794WA0092500937
B2010454747683N12001783WA0092400936
B2010464747683N12001772WA0092300935
B2010474747682N12001762WA0092200935
B2010484747682N12001752WA0092100935
B2010494747682N12001742WA0092000934
B2010504747683N12001731WA0092000934
B2010514747683N12001720WA0091900933
B2010524747684N12001708WA0091800932
B2010534747685N12001694WA0091800933
B2010544747685N12001683WA0091700936
B2010554747685N12001673WA0091700939
B2010564747686N12001663WA0091700940
B2010574747686N12001653WA0091700941
B2010584747687N12001642WA0091700940
B2010594747688N12001631WA0091700940
B2011004747691N12001620WA0091700939
B2011014747695N12001610WA0091700940
B2011024747699N12001601WA0091700941
B2011034747704N12001593WA0091700942
B2011044747709N12001586WA0091700942
B2011054747715N12001578WA0091700944
B2011064747720N12001571WA0091800946
B2011074747725N12001565WA0091800948
B2011084747729N12001560WA0091800951
B2011094747734N12001556WA0091900952
B2011104747739N12001554WA0092000954
B2011114747745N12001554WA0092100954
B2011124747750N12001554WA0092200955
B2011134747755N12001556WA0092200955
B2011144747758N12001560WA0092300956
B2011154747760N12001564WA0092500957
B2011164747760N12001567WA0092500960
B2011174747759N12001569WA0092700962
B2011184747757N12001569WA0092700963
B2011194747754N12001568WA0092800962
B2011204747750N12001565WA0092900960
B2011214747745N12001559WA0092900957
B2011224747742N12001548WA0092900954
B2011234747742N12001535WA0092900954
B2011234747742N12001535WA0092900954
B2011244747743N12001524WA0093000956
B2011254747745N12001514WA0093000960
B2011264747748N12001506WA0093000962
B2011274747750N12001497WA0093100964
B2011284747753N12001487WA0093200966
B2011294747757N12001477WA0093300969
B2011304747761N12001467WA0093400972
B2011314747765N12001459WA0093500974
B2011324747771N12001452WA0093600978
B2011334747777N12001447WA0093800980
B2011344747784N12001446WA0093900982
B2011354747790N12001449WA0094100983
B2011364747792N12001455WA0094200985
B2011374747792N12001461WA0094500988
B2011384747790N12001466WA0094600990
B2011394747787N12001468WA0094900993
B2011404747783N12001468WA0095100996
B2011414747779N12001465WA0095401001
B2011424747776N12001459WA0095501004
B2011434747774N12001450WA0095801006
B2011444747776N12001439WA0096001007
B2011454747780N12001430WA0096301009
B2011464747786N12001426WA0096501011
B2011474747792N12001426WA0096801015
B2011484747795N12001430WA0097001018
B2011494747797N12001436WA0097201020
B2011504747799N12001442WA0097401022
B2011514747799N12001447WA0097701025
B2011524747798N12001451WA0097901029
B2011534747796N12001453WA0098201032
B2011544747791N12001453WA0098401032
B2011554747786N12001449WA0098701029
B2011564747781N12001440WA0098901030
B2011574747779N12001429WA0099201032
B2011584747781N12001418WA0099301034
B2011594747784N12001408WA0099601036
B2012004747789N12001401WA0099801040
B2012014747795N12001396WA0100101044
B2012024747801N12001394WA0100301049
B2012034747805N12001394WA0100601053
B2012044747809N12001396WA0100801055
B2012054747813N12001400WA0101101057
B2012064747814N12001405WA0101301059
B2012074747813N12001411WA0101601063
B2012084747810N12001415WA0101801067
B2012094747806N12001416WA0102101070
B2012104747802N12001414WA0102301074
B2012114747798N12001409WA0102601079
B2012124747795N12001403WA0102901084
B2012134747792N12001396WA0103201089
B2012144747791N12001388WA0103501091
B2012154747792N12001378WA0103801094
B2012164747794N12001368WA0104001096
B2012174747799N12001361WA0104401100
B2012184747805N12001356WA0104601102
B2012194747811N12001356WA0105001104
B2012204747816N12001357WA0105201106
B2012214747820N12001359WA0105501109
B2012224747824N12001361WA0105801113
B2012234747828N12001361WA0106101117
B2012244747831N12001361WA0106301118
B2012254747833N12001362WA0106501119
B2012264747834N12001364WA0106701119
B2012264747834N12001364WA0106701119
B2012274747835N12001369WA0107001118
B2012284747835N12001375WA0107101118
B2012294747834N12001381WA0107401119
B2012304747834N12001387WA0107501120
B2012314747833N12001393WA0107601122
B2012324747833N12001397WA0107701127
B2012334747833N12001401WA0107901130
B2012344747833N12001405WA0108001132
B2012354747832N12001408WA0108201133
B2012364747829N12001409WA0108301134
B2012374747824N12001409WA0108501135
B2012384747818N12001407WA0108601135
B2012394747811N12001402WA0108801135
B2012404747805N12001394WA0108901138
B2012414747802N12001383WA0109001140
B2012424747801N12001372WA0109101142
B2012434747802N12001363WA0109301145
B2012444747806N12001356WA0109501148
B2012454747811N12001353WA0109701149
B2012464747816N12001354WA0109801151
B2012474747820N12001358WA0110001153
B2012484747821N12001365WA0110101157
B2012494747819N12001371WA0110401160
B2012504747814N12001373WA0110501163
B2012514747808N12001372WA0110701166
B2012524747802N12001368WA0110901167
B2012534747797N12001360WA0111101169
B2012544747794N12001349WA0111301171
B2012554747795N12001338WA0111501174
B2012564747798N12001329WA0111701176
B2012574747804N12001322WA0112001179
B2012584747809N12001319WA0112201182
B2012594747814N12001320WA0112401185
B2013004747817N12001323WA0112601186
B2013014747820N12001327WA0112801189
B2013024747822N12001331WA0113001191
B2013034747823N12001334WA0113201193
B2013044747823N12001336WA0113401193
B2013054747822N12001338WA0113601193
B2013064747820N12001340WA0113701194
B2013074747815N12001342WA0113901194
B2013084747809N12001342WA0114001193
B2013094747802N12001339WA0114201193
B2013104747796N12001332WA0114301194
B2013114747792N12001323WA0114501195
B2013124747790N12001312WA0114601196
B2013134747792N12001301WA0114701198
B2013144747796N12001293WA0114801200
B2013154747801N12001287WA0115001201
B2013164747807N12001285WA0115101203
B2013174747810N12001284WA0115201205
B2013184747813N12001286WA0115301207
B2013194747814N12001288WA0115501208
B2013204747816N12001290WA0115601208
B2013214747816N12001294WA0115801209
B2013224747816N12001297WA0115901210
B2013234747814N12001301WA0116001211
B2013244747812N12001305WA0116101211
B2013254747810N12001309WA0116301212
B2013264747808N12001314WA0116401213
B2013274747805N12001319WA0116501215
B2013284747801N12001324WA0116601216
B2013294747798N12001329WA0116701219
B2013294747798N12001329WA0116701219
B2013304747794N12001334WA0116801221
B2013314747792N12001339WA0117001222
B2013324747790N12001344WA0117101224
B2013334747788N12001348WA0117301225
B2013344747784N12001351WA0117401226
B2013354747779N12001353WA0117601226
B2013364747773N12001351WA0117701225
B2013374747768N12001345WA0117801224
B2013384747764N12001335WA0117901222
B2013394747764N12001325WA0118001222
B2013404747766N12001316WA0118001224
B2013414747769N12001307WA0118101224
B2013424747772N12001299WA0118101225
B2013434747776N12001292WA0118201226
B2013444747781N12001286WA0118201226
B2013454747786N12001282WA0118201225
B2013464747792N12001279WA0118301224
B2013474747798N12001279WA0118301224
B2013484747803N12001280WA0118301226
B2013494747808N12001282WA0118401227
B2013504747812N12001284WA0118401230
B2013514747816N12001285WA0118501233
B2013524747820N12001286WA0118601235
B2013534747823N12001288WA0118801236
B2013544747826N12001291WA0118901238
B2013554747827N12001295WA0119001239
B2013564747828N12001299WA0119101241
B2013574747829N12001304WA0119301242
B2013584747831N12001309WA0119401244
B2013594747832N12001312WA0119501247
B2014004747832N12001314WA0119701248
B2014014747830N12001315WA0119801249
B2014024747826N12001316WA0119901251
B2014034747820N12001315WA0120001250
B2014044747814N12001310WA0120101249
B2014054747808N12001302WA0120201251
B2014064747804N12001293WA0120301253
B2014074747801N12001283WA0120401255
B2014084747800N12001272WA0120501257
B2014094747800N12001261WA0120601258
B2014104747803N12001250WA0120601259
B2014114747809N12001241WA0120801260
B2014124747816N12001236WA0120901261
B2014134747821N12001235WA0121001263
B2014144747825N12001236WA0121101265
B2014154747827N12001238WA0121301266
B2014164747830N12001240WA0121401267
B2014174747831N12001244WA0121501268
B2014184747832N12001248WA0121601268
B2014194747833N12001253WA0121701268
B2014204747834N12001258WA0121801268
B2014214747834N12001263WA0121901270
B2014224747833N12001268WA0122001273
B2014234747832N12001271WA0122101274
B2014244747831N12001274WA0122201275
B2014254747828N12001275WA0122301276
B2014264747824N12001273WA0122401276
B2014274747819N12001269WA0122501276
B2014284747815N12001262WA0122601276
B2014294747814N12001251WA0122701275
B2014304747815N12001241WA0122701276
B2014314747819N12001233WA0122801277
B2014324747824N12001227WA0122901278
B2014324747824N12001227WA0122901278
B2014334747829N12001225WA0123001281
B2014344747833N12001225WA0123101282
B2014354747837N12001226WA0123201282
B2014364747841N12001230WA0123301283
B2014374747845N12001233WA0123401283
B2014384747849N12001237WA0123501284
B2014394747852N12001241WA0123601285
B2014404747855N12001245WA0123701285
B2014414747857N12001251WA0123901286
B2014424747859N12001258WA0123901288
B2014434747860N12001264WA0124101289
B2014444747861N12001270WA0124201292
B2014454747861N12001276WA0124301294
B2014464747861N12001281WA0124401296
B2014474747859N12001287WA0124601297
B2014484747857N12001290WA0124701298
B2014494747854N12001292WA0124801298
B2014504747848N12001293WA0124901297
B2014514747841N12001290WA0125001295
B2014524747836N12001285WA0125101300
B2014534747832N12001279WA0125201303
B2014544747831N12001271WA0125201304
B2014554747832N12001262WA0125301305
B2014564747833N12001253WA0125401306
B2014574747835N12001244WA0125501307
B2014584747839N12001236WA0125501308
B2014594747845N12001231WA0125701309
B2015004747851N12001229WA0125701310
B2015014747856N12001231WA0125901311
B2015024747860N12001235WA0126001311
B2015034747862N12001240WA0126101311
B2015044747863N12001246WA0126101310
B2015054747863N12001252WA0126201309
B2015064747862N12001258WA0126201308
B2015074747860N12001263WA0126201303
B2015084747857N12001267WA0126201299
B2015094747856N12001273WA0126201295
B2015104747855N12001279WA0126101288
B2015114747855N12001285WA0126001285
B2015124747854N12001290WA0125901283
B2015134747853N12001294WA0125801280
B2015144747851N12001298WA0125701277
B2015154747848N12001302WA0125401274
B2015164747844N12001304WA0125301270
B2015174747838N12001306WA0125001266
B2015184747832N12001305WA0124901263
B2015194747826N12001300WA0124601262
B2015204747822N12001294WA0124501260
B2015214747817N12001288WA0124301259
B2015224747813N12001282WA0124201257
B2015234747809N12001276WA0124001257
B2015244747804N12001269WA0123901258
B2015254747800N12001263WA0123801259
B2015264747795N12001256WA0123701262
B2015274747791N12001250WA0123601264
B2015284747787N12001243WA0123601266
B2015294747783N12001235WA0123601268
B2015304747780N12001226WA0123601269
B2015314747778N12001217WA0123601271
B2015324747778N12001207WA0123601273
B2015334747778N12001198WA0123601274
B2015344747781N12001189WA0123701276
B2015354747786N12001182WA0123801278
B2015364747791N12001178WA0123801280
B2015364747791N12001178WA0123801280
B2015374747796N12001176WA0124001282
B2015384747800N12001178WA0124001283
B2015394747802N12001180WA0124201284
B2015404747803N12001185WA0124301284
B2015414747803N12001190WA0124401286
B2015424747803N12001196WA0124501288
B2015434747801N12001201WA0124701289
B2015444747798N12001205WA0124801291
B2015454747793N12001209WA0125001292
B2015464747788N12001210WA0125101294
B2015474747783N12001210WA0125201297
B2015484747778N12001207WA0125401300
B2015494747773N12001203WA0125501300
B2015504747769N12001196WA0125601300
B2015514747766N12001187WA0125801300
B2015524747766N12001177WA0125801300
B2015534747768N12001167WA0126001300
B2015544747772N12001158WA0126101300
B2015554747777N12001152WA0126201302
B2015564747781N12001148WA0126301305
B2015574747786N12001147WA0126401308
B2015584747789N12001149WA0126501310
B2015594747792N12001152WA0126701312
B2016004747794N12001156WA0126801312
B2016014747796N12001161WA0127001312
B2016024747796N12001167WA0127101312
B2016034747794N12001172WA0127201313
B2016044747791N12001176WA0127301313
B2016054747787N12001180WA0127401314
B2016064747783N12001183WA0127501315
B2016074747779N12001186WA0127601316
B2016084747775N12001189WA0127601316
B2016094747770N12001190WA0127701315
B2016104747764N12001190WA0127801313
B2016114747758N12001188WA0127801310
B2016124747752N12001181WA0127801308
B2016134747748N12001172WA0127801308
B2016144747746N12001161WA0127801306
B2016154747747N12001151WA0127801305
B2016164747750N12001142WA0127801304
B2016174747754N12001135WA0127801304
B2016184747758N12001130WA0127801306
B2016194747763N12001127WA0127701306
B2016204747767N12001126WA0127701307
B2016214747772N12001126WA0127701307
B2016224747776N12001128WA0127701307
B2016234747780N12001130WA0127701307
B2016244747784N12001133WA0127701308
B2016254747788N12001135WA0127701308
B2016264747792N12001137WA0127701308
B2016274747796N12001139WA0127701306
B2016284747799N12001141WA0127701305
B2016294747802N12001144WA0127701303
B2016304747805N12001148WA0127701301
B2016314747806N12001153WA0127601298
B2016324747807N12001158WA0127601296
B2016334747807N12001163WA0127501294
B2016344747806N12001168WA0127401292
B2016354747803N12001172WA0127201290
B2016364747801N12001177WA0127101287
B2016374747797N12001180WA0126901285
B2016384747794N12001183WA0126801282
B2016394747789N12001185WA0126601279
B2016394747789N12001185WA0126601279
B2016404747784N12001187WA0126401275
B2016414747778N12001189WA0126201272
B2016424747772N12001191WA0126001270
B2016434747767N12001194WA0125701268
B2016444747762N12001198WA0125501266
B2016454747759N12001203WA0125301264
B2016464747756N12001208WA0125101261
B2016474747755N12001214WA0124801258
B2016484747755N12001219WA0124701256
B2016494747755N12001224WA0124401252
B2016504747756N12001229WA0124201249
B2016514747756N12001234WA0123901245
B2016524747758N12001240WA0123701242
B2016534747760N12001245WA0123401238
B2016544747762N12001249WA0123201236
B2016554747765N12001253WA0122901234
B2016564747767N12001257WA0122701232
B2016574747769N12001260WA0122401229
B2016584747772N12001264WA0122201226
B2016594747776N12001268WA0121901223
B2017004747779N12001272WA0121601220
B2017014747783N12001277WA0121301217
B2017024747787N12001280WA0121101214
B2017034747791N12001282WA0120801211
B2017044747795N12001284WA0120601208
B2017054747799N12001286WA0120301206
B2017064747802N12001289WA0120101205
B2017074747807N12001292WA0119801203
B2017084747812N12001294WA0119501203
B2017094747818N12001296WA0119301202
B2017104747823N12001297WA0119101203
B2017114747828N12001299WA0119001206
B2017124747832N12001300WA0118901208
B2017134747836N12001302WA0118801210
B2017144747840N12001304WA0118701212
B2017154747844N12001307WA0118701214
B2017164747847N12001310WA0118701215
B2017174747849N12001314WA0118701217
B2017184747851N12001319WA0118701219
B2017194747853N12001322WA0118801222
B2017204747854N12001326WA0118801224
B2017214747854N12001329WA0118901226
B2017224747854N12001332WA0119001228
B2017234747852N12001334WA0119101229
B2017244747849N12001334WA0119201229
B2017254747845N12001331WA0119301228
B2017264747842N12001325WA0119401229
B2017274747839N12001317WA0119501232
B2017284747839N12001306WA0119601235
B2017294747841N12001295WA0119701237
B2017304747844N12001285WA0119801240
B2017314747850N12001276WA0120001241
B2017324747856N12001271WA0120001242
B2017334747863N12001269WA0120201243
B2017344747869N12001270WA0120301243
B2017354747874N12001272WA0120401244
B2017364747878N12001275WA0120501245
B2017374747882N12001278WA0120601246
B2017384747885N12001282WA0120701247
B2017394747888N12001287WA0120801248
B2017404747891N12001292WA0120901250
B2017414747893N12001296WA0121001252
B2017424747896N12001301WA0121101254
B2017434747898N12001305WA0121201256
B2017434747898N12001305WA0121201256
B2017444747901N12001308WA0121301258
B2017454747904N12001312WA0121501260
B2017464747907N12001316WA0121601260
B2017474747909N12001319WA0121701262
B2017484747910N12001323WA0121901263
B2017494747911N12001327WA0122001265
B2017504747910N12001331WA0122101266
B2017514747910N12001335WA0122201267
B2017524747909N12001338WA0122301269
B2017534747907N12001340WA0122501270
B2017544747905N12001340WA0122601269
B2017554747901N12001338WA0122701268
B2017564747897N12001333WA0122801267
B2017574747894N12001322WA0122901267
B2017584747894N12001309WA0122901267
B2017594747897N12001297WA0123001268
B2018004747902N12001287WA0123101268
B2018014747908N12001280WA0123201270
B2018024747914N12001277WA0123301271
B2018034747921N12001276WA0123401272
B2018044747927N12001277WA0123501273
B2018054747933N12001278WA0123601276
B2018064747938N12001280WA0123701276
B2018074747942N12001282WA0123801276
B2018084747947N12001285WA0123901277
B2018094747951N12001287WA0124001277
B2018104747955N12001288WA0124101277
B2018114747959N12001290WA0124201277
B2018124747962N12001292WA0124201276
B2018134747965N12001295WA0124301276
B2018144747966N12001299WA0124301275
B2018154747967N12001302WA0124401275
B2018164747967N12001305WA0124401274
B2018174747965N12001308WA0124401272
B2018184747962N12001311WA0124401272
B2018194747959N12001314WA0124401273
B2018204747956N12001316WA0124401274
B2018214747953N12001319WA0124401276
B2018224747950N12001322WA0124401277
B2018234747947N12001324WA0124401277
B2018244747945N12001327WA0124501277
B2018254747942N12001330WA0124501278
B2018264747940N12001332WA0124601278
B2018274747938N12001333WA0124601279
B2018284747936N12001333WA0124701279
B2018294747933N12001332WA0124701279
B2018304747931N12001330WA0124701279
B2018314747928N12001328WA0124801280
B2018324747924N12001327WA0124801281
B2018334747922N12001325WA0124901281
B2018344747920N12001321WA0124901282
B2018354747918N12001319WA0125001285
B2018364747915N12001315WA0125001285
B2018374747912N12001308WA0125001285
B2018384747911N12001298WA0125101285
B2018394747913N12001286WA0125101285
B2018404747917N12001275WA0125201286
B2018414747925N12001267WA0125301286
B2018424747932N12001266WA0125301287
B2018434747939N12001268WA0125401289
B2018444747944N12001272WA0125501291
B2018454747949N12001276WA0125601292
B2018464747953N12001280WA0125701293
B2018474747956N12001285WA0125801294
B2018474747956N12001285WA0125801294
B2018484747958N12001290WA0125901295
B2018494747958N12001296WA0126001295
B2018504747958N12001301WA0126101296
B2018514747956N12001304WA0126201295
B2018524747954N12001304WA0126201295
B2018534747952N12001301WA0126301291
B2018544747951N12001293WA0126301286
B2018554747953N12001283WA0126201283
B2018564747958N12001274WA0126201281
B2018574747965N12001267WA0126201279
B2018584747972N12001263WA0126201279
B2018594747980N12001264WA0126201281
B2019004747986N12001267WA0126201282
B2019014747991N12001272WA0126201283
B2019024747996N12001278WA0126201283
B2019034748001N12001284WA0126201283
B2019044748005N12001289WA0126101283
B2019054748009N12001295WA0126101282
B2019064748012N12001300WA0126101281
B2019074748015N12001307WA0126101279
B2019084748018N12001313WA0126001278
B2019094748020N12001320WA0126001277
B2019104748022N12001326WA0126001276
B2019114748025N12001332WA0125901274
B2019124748028N12001339WA0125801273
B2019134748031N12001346WA0125801272
B2019144748034N12001352WA0125701271
B2019154748036N12001357WA0125601271
B2019164748038N12001362WA0125501272
B2019174748040N12001366WA0125501271
B2019184748043N12001370WA0125401268
B2019194748045N12001376WA0125301266
B2019204748047N12001383WA0125201264
B2019214748048N12001389WA0125101263
B2019224748049N12001396WA0125001260
B2019234748051N12001402WA0124801257
B2019244748052N12001409WA0124701252
B2019254748053N12001417WA0124401248
B2019264748054N12001425WA0124301244
B2019274748056N12001433WA0124001241
B2019284748057N12001440WA0123801238
B2019294748058N12001447WA0123601235
B2019304748058N12001453WA0123401232
B2019314748059N12001460WA0123101229
B2019324748061N12001468WA0122901225
B2019334748061N12001475WA0122501221
B2019344748062N12001482WA0122301218
B2019354748062N12001489WA0121901215
B2019364748062N12001495WA0121701213
B2019374748063N12001501WA0121401211
B2019384748064N12001506WA0121101208
B2019394748065N12001512WA0120801205
B2019404748065N12001518WA0120601202
B2019414748065N12001526WA0120201199
B2019424748065N12001534WA0120001196
B2019434748065N12001541WA0119701195
B2019444748064N12001547WA0119401194
B2019454748064N12001552WA0119101192
B2019464748063N12001556WA0118901189
B2019474748063N12001562WA0118601185
B2019484748062N12001568WA0118401182
B2019494748061N12001575WA0118001178
B2019504748060N12001582WA0117801175
B2019514748060N12001589WA0117401174
B2019514748060N12001589WA0117401174
B2019524748060N12001595WA0117201172
B2019534748059N12001600WA0116901170
B2019544748058N12001605WA0116701168
B2019554748056N12001611WA0116401166
B2019564748055N12001617WA0116201163
B2019574748053N12001623WA0115901162
B2019584748052N12001629WA0115701159
B2019594748050N12001634WA0115401157
B2020004748048N12001640WA0115301155
B2020014748046N12001645WA0115001153
B2020024748045N12001650WA0114801151
B2020034748044N12001655WA0114601149
B2020044748042N12001660WA0114401146
B2020054748040N12001666WA0114201144
B2020064748039N12001671WA0114001141
B2020074748037N12001676WA0113701138
B2020084748036N12001682WA0113501136
B2020094748036N12001687WA0113301134
B2020104748035N12001692WA0113101132
B2020114748035N12001697WA0112801130
B2020124748035N12001702WA0112601127
B2020134748034N12001708WA0112401125
B2020144748033N12001713WA0112201123
B2020154748033N12001719WA0111901121
B2020164748033N12001725WA0111801120
B2020174748032N12001730WA0111501118
B2020184748032N12001736WA0111301116
B2020194748031N12001741WA0111101115
B2020204748030N12001747WA0110901114
B2020214748030N12001752WA0110701112
B2020224748029N12001758WA0110501111
B2020234748029N12001763WA0110301109
B2020244748028N12001768WA0110201107
B2020254748027N12001773WA0110001105
B2020264748026N12001779WA0109801103
B2020274748025N12001784WA0109601101
B2020284748024N12001790WA0109501098
B2020294748024N12001797WA0109301096
B2020304748023N12001804WA0109101094
B2020314748023N12001810WA0108901093
B2020324748023N12001816WA0108801091
B2020334748023N12001821WA0108601090
B2020344748023N12001825WA0108501088
B2020354748023N12001831WA0108301085
B2020364748023N12001836WA0108101082
B2020374748022N12001842WA0107901079
B2020384748021N12001847WA0107701077
B2020394748019N12001853WA0107501075
B2020404748018N12001858WA0107301074
B2020414748018N12001863WA0107101073
B2020424748017N12001867WA0107001071
B2020434748016N12001872WA0106801069
B2020444748015N12001876WA0106601066
B2020454748013N12001882WA0106401063
B2020464748012N12001887WA0106201061
B2020474748012N12001892WA0106001058
B2020484748011N12001897WA0105801056
B2020494748010N12001902WA0105601054
B2020504748008N12001907WA0105401051
B2020514748007N12001912WA0105201048
B2020524748006N12001917WA0105001046
B2020534748004N12001921WA0104801044
B2020544748003N12001926WA0104601042
B2020544748003N12001926WA0104601042
B2020554748001N12001931WA0104301039
B2020564748000N12001936WA0104201037
B2020574747999N12001941WA0103901034
B2020584747998N12001946WA0103801032
B2020594747997N12001951WA0103501031
B2021004747996N12001955WA0103401029
B2021014747994N12001960WA0103101026
B2021024747994N12001965WA0102901024
B2021034747993N12001969WA0102701021
B2021044747992N12001972WA0102501019
B2021054747991N12001975WA0102301017
B2021064747988N12001973WA0102101015
B2021074747985N12001967WA0101801011
B2021084747981N12001958WA0101601010
B2021094747979N12001949WA0101301008
B2021104747977N12001939WA0101201008
B2021114747975N12001929WA0100901006
B2021124747972N12001919WA0100701004
B2021134747970N12001909WA0100401002
B2021144747967N12001899WA0100200999
B2021154747965N12001889WA0099900997
B2021164747962N12001878WA0099800995
B2021174747960N12001868WA0099500993
B2021184747957N12001858WA0099300991
B2021194747955N12001848WA0099100990
B2021204747952N12001838WA0098900988
B2021214747950N12001828WA0098600987
B2021224747947N12001817WA0098500986
B2021234747944N12001806WA0098200985
B2021244747941N12001794WA0098100985
B2021254747938N12001783WA0097900985
B2021264747935N12001772WA0097800987
B2021274747934N12001762WA0097600989
B2021284747932N12001754WA0097500991
B2021294747931N12001745WA0097500990
B2021304747929N12001737WA0097400989
B2021314747926N12001727WA0097300986
B2021324747925N12001715WA0097300984
B2021334747923N12001703WA0097200984
B2021344747921N12001691WA0097100984
B2021354747919N12001680WA0097000984
B2021364747918N12001669WA0096900985
B2021374747917N12001659WA0096800984
B2021384747915N12001648WA0096800983
B2021394747914N12001635WA0096700981
B2021404747913N12001622WA0096600979
B2021414747913N12001609WA0096500978
B2021424747913N12001598WA0096400977
B2021434747914N12001587WA0096300976
B2021444747915N12001576WA0096200977
B2021454747915N12001566WA0096100975
B2021464747915N12001555WA0096000973
B2021474747915N12001543WA0095800971
B2021484747916N12001531WA0095700970
B2021494747917N12001518WA0095600969
B2021504747917N12001506WA0095500969
B2021514747916N12001495WA0095400971
B2021524747915N12001486WA0095300973
B2021534747914N12001477WA0095200974
B2021544747913N12001467WA0095200975
B2021554747912N12001457WA0095200975
B2021564747912N12001446WA0095200974
B2021574747911N12001435WA0095200974
B2021584747911N12001423WA0095100973
B2021584747911N12001423WA0095100973
B2021594747910N12001410WA0095100974
B2022004747909N12001398WA0095100974
B2022014747909N12001387WA0095100977
B2022024747908N12001375WA0095100978
B2022034747907N12001365WA0095100979
B2022044747906N12001355WA0095100979
B2022054747905N12001344WA0095100979
B2022064747903N12001333WA0095100978
B2022074747903N12001322WA0095100976
B2022084747902N12001310WA0095100975
B2022094747902N12001297WA0095100974
B2022104747902N12001286WA0095000972
B2022114747902N12001274WA0095000971
B2022124747901N12001262WA0094900968
B2022134747900N12001249WA0094800964
B2022144747901N12001236WA0094700959
B2022154747901N12001223WA0094500956
B2022164747902N12001211WA0094400952
B2022174747902N12001198WA0094100949
B2022184747902N12001185WA0094000946
B2022194747902N12001172WA0093700942
B2022204747901N12001159WA0093500939
B2022214747901N12001148WA0093200937
B2022224747901N12001138WA0093000936
B2022234747901N12001128WA0092700936
B2022244747901N12001119WA0092500933
B2022254747900N12001108WA0092300930
B2022264747899N12001097WA0092100926
B2022274747897N12001085WA0091800924
B2022284747896N12001073WA0091600922
B2022294747895N12001062WA0091300919
B2022304747895N12001050WA0091200916
B2022314747895N12001036WA0090900913
B2022324747895N12001023WA0090700910
B2022334747895N12001010WA0090400908
B2022344747895N12000998WA0090200906
B2022354747895N12000987WA0090000906
B2022364747895N12000976WA0089800903
B2022374747894N12000964WA0089500899
B2022384747893N12000951WA0089400895
B2022394747892N12000938WA0089100892
B2022404747891N12000925WA0088900889
B2022414747889N12000912WA0088600888
B2022424747887N12000900WA0088400887
B2022434747886N12000888WA0088200885
B2022444747885N12000877WA0088000884
B2022454747885N12000866WA0087800883
B2022464747884N12000855WA0087700882
B2022474747884N12000844WA0087500879
B2022484747884N12000832WA0087300876
B2022494747883N12000819WA0087100874
B2022504747883N12000807WA0087000872
B2022514747883N12000796WA0086800869
B2022524747884N12000784WA0086600868
B2022534747884N12000773WA0086400865
B2022544747884N12000762WA0086300863
B2022554747884N12000750WA0086000860
B2022564747884N12000738WA0085900858
B2022574747885N12000726WA0085600856
B2022584747885N12000715WA0085500854
B2022594747887N12000703WA0085300852
B2023004747888N12000692WA0085100850
B2023014747889N12000680WA0084900848
B2023024747890N12000668WA0084700846
B2023024747890N12000668WA0084700846
B2023034747890N12000657WA0084500845
B2023044747891N12000646WA0084300844
B2023054747893N12000635WA0084100842
B2023064747894N12000624WA0084000840
B2023074747895N12000612WA0083800837
B2023084747897N12000600WA0083600835
B2023094747899N12000590WA0083400833
B2023104747903N12000581WA0083200831
B2023114747909N12000571WA0083000829
B2023124747915N12000563WA0082800827
B2023134747922N12000555WA0082600825
B2023144747928N12000548WA0082400823
B2023154747934N12000541WA0082200821
B2023164747941N12000534WA0082000819
B2023174747947N12000526WA0081700816
B2023184747954N12000518WA0081500814
B2023194747961N12000509WA0081200811
B2023204747967N12000500WA0081000809
B2023214747972N12000491WA0080800807
B2023224747978N12000482WA0080600806
B2023234747983N12000473WA0080300804
B2023244747988N12000463WA0080100802
B2023254747993N12000452WA0079800799
B2023264747997N12000442WA0079700797
B2023274748001N12000431WA0079400795
B2023284748006N12000421WA0079200793
B2023294748010N12000411WA0079000791
B2023304748014N12000399WA0078800788
B2023314748018N12000386WA0078500786
B2023324748020N12000372WA0078400784
B2023334748021N12000360WA0078100784
B2023344748022N12000348WA0078000783
B2023354748023N12000339WA0077800782
B2023364748023N12000331WA0077700780
B2023374748024N12000322WA0077600779
B2023384748025N12000312WA0077500777
B2023394748024N12000300WA0077400776
B2023404748022N12000291WA0077400774
B2023414748019N12000281WA0077400774
B2023424748017N12000272WA0077400773
B2023434748015N12000262WA0077400772
B2023444748013N12000253WA0077400772
B2023454748012N12000244WA0077500771
B2023464748010N12000235WA0077500770
B2023474748008N12000227WA0077500769
B2023484748008N12000219WA0077500771
B2023494748007N12000211WA0077600775
B2023504748006N12000203WA0077600779
B2023514748004N12000196WA0077600781
B2023524748001N12000190WA0077600782
B2023534747998N12000184WA0077700783
B2023544747994N12000179WA0077700784
B2023554747991N12000176WA0077700785
B2023564747988N12000173WA0077700785
B2023574747985N12000172WA0077800786
B2023584747982N12000172WA0077800785
B2023594747979N12000173WA0077800785
B2024004747977N12000174WA0077800784
B2024014747976N12000177WA0077800784
B2024024747975N12000178WA0077900784
B2024034747976N12000179WA0077800784
B2024044747978N12000180WA0077800784
B2024054747981N12000182WA0077800783
B2024054747981N12000182WA0077800783
B2024064747985N12000184WA0077800781
B2024074747991N12000184WA0077800780
B2024084747997N12000183WA0077700780
B2024094748002N12000181WA0077600780
B2024104748008N12000179WA0077600780
B2024114748014N12000176WA0077500779
B2024124748020N12000170WA0077400779
B2024134748026N12000161WA0077300778
B2024144748031N12000152WA0077200777
B2024154748035N12000143WA0077100777
B2024164748038N12000134WA0077000779
B2024174748040N12000125WA0076900779
B2024184748042N12000115WA0076800779
B2024194748044N12000104WA0076800779
B2024204748045N12000094WA0076800778
B2024214748046N12000084WA0076700778
B2024224748045N12000074WA0076700778
B2024234748044N12000064WA0076700777
B2024244748042N12000055WA0076700777
B2024254748038N12000046WA0076700776
B2024264748034N12000039WA0076700777
B2024274748031N12000035WA0076700778
B2024284748028N12000030WA0076700780
B2024294748024N12000024WA0076700782
B2024304748021N12000018WA0076700782
B2024314748017N12000012WA0076800782
B2024324748013N12000007WA0076800781
B2024334748009N12000004WA0076800781
B2024344748005N12000003WA0076800780
B2024354748001N12000003WA0076800780
B2024364747998N12000004WA0076800780
B2024374747996N12000006WA0076800780
B2024384747995N12000008WA0076800779
B2024394747995N12000010WA0076700778
B2024404747996N12000013WA0076700776
B2024414747998N12000016WA0076600775
B2024424748000N12000019WA0076500775
B2024434748005N12000020WA0076400775
B2024444748009N12000020WA0076400775
B2024454748014N12000019WA0076300775
B2024464748018N12000018WA0076200774
B2024474748023N12000016WA0076100773
B2024484748028N12000016WA0076000772
B2024494748033N12000014WA0075800772
B2024504748040N12000011WA0075700771
B2024514748047N12000007WA0075600770
B2024524748053N12000003WA0075500769
B2024534748060N11959998WA0075200769
B2024544748066N11959992WA0075100769
B2024554748071N11959984WA0075000769
B2024564748075N11959974WA0074900769
B2024574748078N11959964WA0074800769
B2024584748078N11959953WA0074800769
B2024594748077N11959943WA0074800769
B2025004748075N11959934WA0074700768
B2025014748072N11959926WA0074700768
B2025024748070N11959919WA0074700768
B2025034748067N11959911WA0074700767
B2025044748063N11959905WA0074700767
B2025054748058N11959901WA0074700766
B2025064748054N11959899WA0074700764
B2025074748051N11959899WA0074700765
B2025084748048N11959899WA0074700766
B2025094748045N11959899WA0074600766
B2025094748045N11959899WA0074600766
B2025104748042N11959898WA0074600765
B2025114748039N11959897WA0074600765
B2025124748036N11959895WA0074600763
B2025134748032N11959895WA0074500762
B2025144748029N11959898WA0074500759
B2025154748026N11959902WA0074400757
B2025164748025N11959906WA0074300756
B2025174748025N11959909WA0074200756
B2025184748026N11959913WA0074100756
B2025194748029N11959917WA0073900755
B2025204748031N11959922WA0073800753
B2025214748035N11959927WA0073700752
B2025224748038N11959931WA0073600751
B2025234748042N11959933WA0073500751
B2025244748045N11959936WA0073400750
B2025254748049N11959939WA0073400750
B2025264748054N11959941WA0073300749
B2025274748057N11959944WA0073300748
B2025284748060N11959947WA0073200748
B2025294748062N11959951WA0073200747
B2025304748062N11959955WA0073200746
B2025314748061N11959960WA0073100744
B2025324748060N11959964WA0073100743
B2025334748058N11959968WA0073000741
B2025344748056N11959972WA0072900740
B2025354748053N11959975WA0072800738
B2025364748050N11959978WA0072700737
B2025374748047N11959982WA0072600735
B2025384748043N11959986WA0072500733
B2025394748039N11959991WA0072300733
B2025404748036N11959996WA0072200733
B2025414748032N12000001WA0072100733
B2025424748030N12000006WA0072100734
B2025434748028N12000009WA0072000734
B2025444748026N12000012WA0072000735
B2025454748024N12000016WA0072000734
B2025464748022N12000021WA0072000734
B2025474748018N12000025WA0072100733
B2025484748016N12000027WA0072100733
B2025494748012N12000029WA0072200732
B2025504748009N12000029WA0072200732
B2025514748005N12000026WA0072200732
B2025524748003N12000021WA0072200732
B2025534748001N12000012WA0072200732
B2025544748002N12000001WA0072200731
B2025554748005N11959991WA0072200731
B2025564748008N11959984WA0072200732
B2025574748011N11959979WA0072200733
B2025584748014N11959973WA0072100733
B2025594748016N11959964WA0072100731
B2026004748019N11959954WA0072100729
B2026014748020N11959944WA0072100729
B2026024748020N11959936WA0072000731
B2026034748019N11959928WA0071900730
B2026044748018N11959920WA0071900728
B2026054748017N11959913WA0071800726
B2026064748015N11959906WA0071700724
B2026074748013N11959901WA0071600723
B2026084748011N11959896WA0071500723
B2026094748008N11959893WA0071400723
B2026104748005N11959889WA0071400722
B2026114748003N11959885WA0071200721
B2026124748000N11959879WA0071200719
B2026134747997N11959872WA0071000716
B2026134747997N11959872WA0071000716
B2026144747994N11959864WA0070900715
B2026154747993N11959855WA0070800713
B2026164747991N11959847WA0070700711
B2026174747990N11959839WA0070600710
B2026184747989N11959831WA0070500709
B2026194747987N11959824WA0070300707
B2026204747986N11959816WA0070200705
B2026214747985N11959807WA0070000702
B2026224747985N11959798WA0069900700
B2026234747985N11959789WA0069700699
B2026244747985N11959780WA0069600698
B2026254747985N11959770WA0069500698
B2026264747986N11959761WA0069400697
B2026274747986N11959752WA0069300696
B2026284747988N11959743WA0069200695
B2026294747990N11959735WA0069100693
B2026304747993N11959727WA0069000691
B2026314747995N11959717WA0068900687
B2026324747996N11959705WA0068800684
B2026334747999N11959693WA0068600680
B2026344748001N11959683WA0068500681
B2026354748004N11959675WA0068300680
B2026364748007N11959667WA0068200680
B2026374748010N11959658WA0068100679
B2026384748012N11959648WA0068000677
B2026394748014N11959638WA0067800676
B2026404748016N11959629WA0067700675
B2026414748019N11959619WA0067600675
B2026424748020N11959609WA0067500674
B2026434748022N11959598WA0067400673
B2026444748024N11959589WA0067300673
B2026454748026N11959580WA0067200672
B2026464748029N11959571WA0067100672
B2026474748030N11959563WA0066900670
B2026484748032N11959554WA0066900668
B2026494748033N11959546WA0066700665
B2026504748034N11959537WA0066600663
B2026514748035N11959528WA0066400660
B2026524748037N11959519WA0066300656
B2026534748040N11959509WA0066000654
B2026544748043N11959501WA0065900652
B2026554748045N11959492WA0065600651
B2026564748048N11959484WA0065500649
B2026574748051N11959475WA0065200646
B2026584748054N11959467WA0065000643
B2026594748058N11959459WA0064700640
B2027004748062N11959451WA0064500639
B2027014748067N11959444WA0064300638
B2027024748070N11959438WA0064100637
B2027034748074N11959431WA0063900637
B2027044748078N11959424WA0063700635
B2027054748083N11959417WA0063500633
B2027064748087N11959410WA0063300631
B2027074748092N11959402WA0063100630
B2027084748096N11959395WA0062900629
B2027094748101N11959388WA0062700628
B2027104748105N11959381WA0062600627
B2027114748110N11959374WA0062400626
B2027124748114N11959367WA0062300624
B2027134748118N11959360WA0062100623
B2027144748122N11959352WA0061900622
B2027154748125N11959345WA0061800621
B2027164748129N11959337WA0061700619
B2027164748129N11959337WA0061700619
B2027174748133N11959329WA0061500618
B2027184748137N11959320WA0061400615
B2027194748142N11959311WA0061200613
B2027204748145N11959303WA0061100614
B2027214748146N11959295WA0060900615
B2027224748147N11959288WA0060800615
B2027234748148N11959281WA0060700613
B2027244748150N11959272WA0060600611
B2027254748151N11959263WA0060400610
B2027264748153N11959254WA0060400609
B2027274748154N11959246WA0060200609
B2027284748154N11959238WA0060100609
B2027294748154N11959230WA0060000608
B2027304748154N11959222WA0059900606
B2027314748153N11959214WA0059800604
B2027324748152N11959205WA0059700603
B2027334748150N11959196WA0059500603
B2027344748148N11959188WA0059400602
B2027354748147N11959180WA0059300601
B2027364748145N11959172WA0059200600
B2027374748144N11959164WA0059100598
B2027384748141N11959156WA0058900595
B2027394748139N11959149WA0058800594
B2027404748137N11959142WA0058700593
B2027414748135N11959134WA0058500591
B2027424748133N11959127WA0058400589
B2027434748131N11959119WA0058200587
B2027444748128N11959111WA0058100584
B2027454748126N11959104WA0057900582
B2027464748123N11959097WA0057800580
B2027474748121N11959091WA0057600579
B2027484748119N11959084WA0057500577
B2027494748117N11959077WA0057300575
B2027504748115N11959070WA0057200572
B2027514748113N11959063WA0057000570
B2027524748111N11959056WA0056800567
B2027534748108N11959048WA0056600565
B2027544748106N11959041WA0056500562
B2027554748105N11959033WA0056300560
B2027564748103N11959025WA0056100557
B2027574748102N11959017WA0055900556
B2027584748100N11959008WA0055700553
B2027594748099N11959000WA0055500551
B2028004748097N11958992WA0055400549
B2028014748096N11958984WA0055100546
B2028024748094N11958976WA0055000544
B2028034748092N11958968WA0054700542
B2028044748091N11958960WA0054500540
B2028054748089N11958952WA0054300538
B2028064748087N11958945WA0054100536
B2028074748084N11958939WA0053900535
B2028084748081N11958935WA0053800532
B2028094748077N11958931WA0053500529
B2028104748073N11958928WA0053400525
B2028114748069N11958927WA0053100523
B2028124748066N11958928WA0053000521
B2028134748063N11958931WA0052700519
B2028144748062N11958936WA0052600517
B2028154748062N11958942WA0052400514
B2028164748063N11958949WA0052200512
B2028174748067N11958955WA0052000511
B2028184748071N11958961WA0051800509
B2028194748077N11958965WA0051600507
B2028194748077N11958965WA0051600507
B2028204748082N11958968WA0051400505
B2028214748087N11958972WA0051200503
B2028224748092N11958976WA0051000501
B2028234748096N11958980WA0050800500
B2028244748099N11958984WA0050700498
B2028254748100N11958990WA0050400496
B2028264748098N11958995WA0050300494
B2028274748095N11958998WA0050000492
B2028284748091N11958999WA0049900490
B2028294748087N11958995WA0049600487
B2028304748085N11958989WA0049400486
B2028314748083N11958982WA0049200485
B2028324748082N11958975WA0049100484
B2028334748081N11958968WA0048800483
B2028344748080N11958960WA0048700480
B2028354748078N11958953WA0048400478
B2028364748076N11958946WA0048300476
B2028374748074N11958939WA0048000475
B2028384748073N11958933WA0047900476
B2028394748070N11958928WA0047600474
B2028404748067N11958923WA0047500472
B2028414748063N11958918WA0047300469
B2028424748060N11958914WA0047100467
B2028434748057N11958911WA0046900466
B2028444748053N11958909WA0046700466
B2028454748050N11958908WA0046500466
B2028464748046N11958906WA0046400467
B2028474748043N11958906WA0046200467
B2028484748039N11958904WA0046100467
B2028494748035N11958903WA0046000465
B2028504748032N11958901WA0045900464
B2028514748028N11958901WA0045700463
B2028524748023N11958899WA0045600463
B2028534748019N11958897WA0045500462
B2028544748015N11958895WA0045400461
B2028554748011N11958893WA0045200459
B2028564748007N11958891WA0045100458
B2028574748004N11958889WA0044900457
B2028584748001N11958887WA0044800458
B2028594747997N11958886WA0044600456
B2029004747994N11958886WA0044500454
B2029014747990N11958885WA0044300452
B2029024747986N11958884WA0044200450
B2029034747983N11958880WA0044000449
B2029044747980N11958877WA0043900449
B2029054747977N11958874WA0043700448
B2029064747974N11958874WA0043600447
B2029074747972N11958879WA0043400445
B2029084747970N11958885WA0043300442
B2029094747970N11958891WA0043100442
B2029104747973N11958896WA0043000445
B2029114747977N11958901WA0042800444
B2029124747982N11958905WA0042700442
B2029134747987N11958909WA0042500441
B2029144747991N11958914WA0042400439
B2029154747995N11958920WA0042200436
B2029164747999N11958925WA0042100434
B2029174748002N11958931WA0041900433
B2029184748006N11958936WA0041800433
B2029194748009N11958941WA0041600432
B2029204748012N11958946WA0041500431
B2029214748015N11958951WA0041300429
B2029224748018N11958957WA0041200426
B2029234748021N11958963WA0041000423
B2029234748021N11958963WA0041000423
B2029244748024N11958970WA0040900421
B2029254748027N11958976WA0040600419
B2029264748029N11958981WA0040500417
B2029274748030N11958986WA0040200415
B2029284748032N11958994WA0040000412
B2029294748035N11959003WA0039700409
B2029304748037N11959011WA0039600408
B2029314748039N11959018WA0039300408
B2029324748041N11959024WA0039200408
B2029334748042N11959030WA0039000406
B2029344748043N11959038WA0038800404
B2029354748044N11959047WA0038600402
B2029364748045N11959056WA0038500401
B2029374748046N11959063WA0038300400
B2029384748047N11959069WA0038200400
B2029394748047N11959074WA0038000400
B2029404748046N11959079WA0037900399
B2029414748045N11959085WA0037800398
B2029424748044N11959092WA0037700397
B2029434748043N11959098WA0037600396
B2029444748042N11959102WA0037500395
B2029454748040N11959107WA0037400394
B2029464748038N11959110WA0037300393
B2029474748035N11959113WA0037200392
B2029484748032N11959114WA0037100390
B2029494748030N11959112WA0037000389
B2029504748030N11959107WA0036900387
B2029514748030N11959100WA0036900385
B2029524748030N11959093WA0036800383
B2029534748031N11959085WA0036700380
B2029544748033N11959077WA0036600376
B2029554748034N11959069WA0036600373
B2029564748036N11959061WA0036500370
B2029574748036N11959053WA0036400368
B2029584748036N11959045WA0036400365
B2029594748035N11959039WA0036300363
B2030004748035N11959032WA0036300360
B2030014748034N11959025WA0036200358
B2030024748032N11959019WA0036100356
B2030034748031N11959013WA0036000354
B2030044748029N11959008WA0036000353
B2030054748026N11959004WA0035900351
B2030064748024N11959000WA0035900349
B2030074748022N11958996WA0035800349
B2030084748020N11958991WA0035700348
B2030094748017N11958987WA0035700348
B2030104748015N11958983WA0035600348
B2030114748013N11958979WA0035600347
B2030124748011N11958976WA0035600347
B2030134748009N11958972WA0035500345
B2030144748007N11958968WA0035400344
B2030154748005N11958964WA0035400343
B2030164748003N11958961WA0035300344
B2030174748001N11958958WA0035300344
B2030184747999N11958956WA0035200344
B2030194747997N11958953WA0035200344
B2030204747995N11958950WA0035200344
B2030214747992N11958947WA0035100343
B2030224747990N11958945WA0035100342
B2030234747987N11958944WA0035000341
B2030244747985N11958945WA0035000340
B2030254747983N11958949WA0034900339
B2030264747982N11958958WA0034800338
B2030274747983N11958964WA0034800337
B2030274747983N11958964WA0034800337
B2030284747984N11958970WA0034700337
B2030294747986N11958975WA0034600337
B2030304747989N11958981WA0034500336
B2030314747992N11958987WA0034300335
B2030324747996N11958993WA0034300334
B2030334747999N11958999WA0034100333
B2030344748003N11959005WA0034000332
B2030354748007N11959011WA0033900331
B2030364748011N11959017WA0033800329
B2030374748015N11959023WA0033700328
B2030384748018N11959029WA0033500327
B2030394748022N11959034WA0033400326
B2030404748024N11959039WA0033200325
B2030414748025N11959044WA0033100324
B2030424748024N11959048WA0032900323
B2030434748022N11959050WA0032700322
B2030444748020N11959050WA0032500321
B2030454748020N11959045WA0032300320
B2030464748021N11959036WA0032100319
B2030474748021N11959031WA0031900316
B2030484748022N11959025WA0031700314
B2030494748022N11959020WA0031500312
B2030504748021N11959015WA0031300309
B2030514748020N11959010WA0031100306
B2030524748018N11959006WA0030900303
B2030534748015N11959007WA0030700301
B2030544748013N11959009WA0030500296
B2030554748012N11959014WA0030300293
B2030564748013N11959021WA0030100290
B2030574748015N11959028WA0029900287
B2030584748017N11959034WA0029700286
B2030594748021N11959038WA0029500284
B2031004748024N11959043WA0029300282
B2031014748026N11959047WA0029100281
B2031024748025N11959052WA0028800280
B2031034748023N11959056WA0028600279
B2031044748022N11959056WA0028300277
B2031054748021N11959051WA0028100275
B2031064748019N11959050WA0027900273
B2031074748017N11959047WA0027800272
B2031084748015N11959045WA0027500271
B2031094748013N11959042WA0027400268
B2031104748011N11959039WA0027200266
B2031114748008N11959037WA0027000264
B2031124748006N11959040WA0026900262
B2031134748003N11959042WA0026700259
B2031144748001N11959045WA0026600255
B2031154748000N11959049WA0026400253
B2031164747999N11959054WA0026200252
B2031174747999N11959059WA0026100250
B2031184747999N11959065WA0025900249
B2031194747997N11959068WA0025800245
B2031204747994N11959071WA0025700242
B2031214747990N11959072WA0025500240
B2031224747985N11959074WA0025400236
B2031234747981N11959077WA0025200234
B2031244747977N11959080WA0025100232
B2031254747973N11959083WA0024900230
B2031264747970N11959086WA0024800228
B2031274747966N11959088WA0024600227
B2031284747963N11959091WA0024500226
B2031294747959N11959095WA0024400224
B2031304747956N11959098WA0024200222
B2031314747953N11959098WA0024100222
B2031314747953N11959098WA0024100222
B2031324747950N11959100WA0024000220
B2031334747948N11959098WA0023900219
B2031344747946N11959099WA0023700219
B2031354747944N11959097WA0023600218
B2031364747944N11959095WA0023500217
B2031374747944N11959094WA0023400217
B2031384747943N11959093WA0023300217
B2031394747943N11959092WA0023200217
B2031404747942N11959091WA0023200217
B2031414747942N11959091WA0023100217
B2031424747942N11959091WA0023000216
B2031434747941N11959091WA0023000215
B2031444747941N11959091WA0022900214
B2031454747941N11959091WA0022900213
B2031464747940N11959091WA0022900213
B2031474747940N11959091WA0022800213
B2031484747940N11959091WA0022800213
B2031494747939N11959090WA0022800213
B2031504747939N11959090WA0022800213
B2031514747939N11959090WA0022700212
B2031524747939N11959090WA0022700212
B2031534747939N11959090WA0022700211
B2031544747939N11959090WA0022700211
B2031554747938N11959090WA0022700211
B2031564747938N11959090WA0022700211
B2031574747938N11959090WA0022700210
B2031584747938N11959090WA0022700210
B2031594747938N11959090WA0022600210
B2032004747938N11959091WA0022600210
B2032014747938N11959091WA0022600210
B2032024747938N11959091WA0022600209
B2032034747938N11959091WA0022600208
B2032044747938N11959092WA0022600208
B2032054747939N11959092WA0022600208
B2032064747939N11959092WA0022600208
B2032074747939N11959092WA0022600208
B2032084747939N11959092WA0022600207
B2032094747939N11959092WA0022600207
B2032104747939N11959092WA0022600206
B2032114747939N11959092WA0022600206
B2032124747939N11959092WA0022600206
B2032134747939N11959092WA0022600207
B2032144747939N11959092WA0022600206
B2032154747939N11959092WA0022600207
B2032164747939N11959092WA0022600206
B2032174747939N11959092WA0022600206
B2032184747939N11959092WA0022600206
B2032194747939N11959093WA0022600205
B2032204747939N11959092WA0022600205
B2032214747938N11959092WA0022600205
B2032224747938N11959092WA0022600206
B2032234747938N11959092WA0022600206
B2032244747938N11959092WA0022600207
B2032254747938N11959092WA0022600207
B2032264747938N11959092WA0022500207
B2032274747938N11959092WA0022500207
B2032284747938N11959092WA0022500207
B2032294747938N11959092WA0022500207
B2032304747938N11959092WA0022500207
B2032314747938N11959092WA0022500207
B2032324747938N11959093WA0022500208
B2032334747938N11959093WA0022500208
B2032344747938N11959094WA0022500208
B2032354747937N11959095WA0022500209
