AXFMSFP Flymaster Live, V1.0
HFFXA010
HFPLTPILOT:John Cassidy
HFGTYGLIDERTYPE:Advance Lightness 4 / Advance Iota Dls
HFGIDGLIDERID:
HFDTM100GPSDATUM:WGS-1984
HFCIDCOMPETITIONID:911
HFCCLCOMPETITIONCLASS:
HOSITSITE:LAUNCH
HFGPS:UBLOXNEO6
HFPRSPRESSALTSENSOR:NA
HFRFWFIRMWAREVERSION:202g
HFRHWHARDWAREVERSION:1.0R2
HFFTYFRTYPE:FLYMASTER,LIVE
HFDTE170625
B2038414748240N12002364WA0109301127
B2038424748240N12002367WA0109201127
B2038434748240N12002369WA0109201126
B2038444748241N12002372WA0109201126
B2038454748240N12002375WA0109201124
B2038464748240N12002378WA0109101123
B2038474748239N12002381WA0109101122
B2038484748238N12002385WA0109001120
B2038494748238N12002389WA0109001118
B2038504748237N12002394WA0108901117
B2038514748235N12002399WA0108801115
B2038524748233N12002404WA0108701113
B2038534748231N12002408WA0108601111
B2038544748228N12002413WA0108501110
B2038554748227N12002418WA0108401110
B2038564748225N12002423WA0108301108
B2038574748223N12002428WA0108301107
B2038584748221N12002433WA0108201106
B2038594748218N12002439WA0108101103
B2039004748216N12002446WA0108001101
B2039014748214N12002454WA0107901100
B2039024748212N12002461WA0107801100
B2039034748210N12002467WA0107701101
B2039044748208N12002472WA0107701101
B2039054748206N12002478WA0107601100
B2039064748204N12002483WA0107501099
B2039074748201N12002490WA0107401096
B2039084748198N12002496WA0107301093
B2039094748195N12002502WA0107201091
B2039104748191N12002507WA0107001091
B2039114748188N12002512WA0106901090
B2039124748185N12002517WA0106801089
B2039134748182N12002522WA0106701088
B2039144748178N12002527WA0106601085
B2039154748174N12002531WA0106401083
B2039164748169N12002535WA0106301080
B2039174748165N12002539WA0106101080
B2039184748162N12002543WA0106001080
B2039194748159N12002545WA0105901080
B2039204748156N12002546WA0105801080
B2039214748153N12002548WA0105701076
B2039224748150N12002551WA0105601073
B2039234748147N12002556WA0105401070
B2039244748144N12002560WA0105301067
B2039254748139N12002565WA0105101066
B2039264748134N12002568WA0105001066
B2039274748130N12002570WA0104901067
B2039284748125N12002570WA0104801068
B2039294748121N12002570WA0104701069
B2039304748117N12002571WA0104701069
B2039314748113N12002572WA0104601069
B2039324748108N12002574WA0104501067
B2039334748103N12002577WA0104501066
B2039344748098N12002580WA0104401065
B2039354748092N12002581WA0104301066
B2039364748087N12002581WA0104301066
B2039374748082N12002581WA0104201067
B2039384748076N12002581WA0104201067
B2039394748071N12002584WA0104101067
B2039404748065N12002587WA0104101066
B2039414748059N12002591WA0104001066
B2039424748053N12002595WA0104001066
B2039434748047N12002597WA0104001067
B2039444748041N12002598WA0104001071
B2039454748037N12002600WA0104101075
B2039464748033N12002604WA0104201078
B2039474748030N12002608WA0104301081
B2039484748027N12002612WA0104501082
B2039494748024N12002617WA0104601085
B2039504748022N12002621WA0104801088
B2039514748020N12002625WA0104901092
B2039524748020N12002630WA0105201096
B2039534748021N12002636WA0105401099
B2039544748021N12002643WA0105701103
B2039554748022N12002650WA0105801106
B2039564748024N12002657WA0106201111
B2039574748027N12002663WA0106401116
B2039584748030N12002669WA0106801121
B2039594748033N12002675WA0107101125
B2040004748036N12002682WA0107501128
B2040014748041N12002688WA0107701131
B2040024748047N12002691WA0108101134
B2040034748054N12002690WA0108301137
B2040034748054N12002690WA0108301137
B2040044748060N12002686WA0108701140
B2040054748065N12002679WA0108901144
B2040064748068N12002671WA0109301148
B2040074748069N12002663WA0109601152
B2040084748070N12002656WA0110001157
B2040094748070N12002650WA0110301161
B2040104748069N12002644WA0110701165
B2040114748068N12002638WA0111001168
B2040124748067N12002632WA0111401172
B2040134748066N12002626WA0111701175
B2040144748064N12002619WA0112101178
B2040154748062N12002612WA0112401182
B2040164748061N12002606WA0112801186
B2040174748059N12002601WA0113101190
B2040184748057N12002597WA0113501193
B2040194748055N12002591WA0113701195
B2040204748051N12002585WA0114101198
B2040214748047N12002578WA0114401199
B2040224748042N12002571WA0114701202
B2040234748040N12002564WA0115001207
B2040244748038N12002558WA0115401213
B2040254748037N12002552WA0115701218
B2040264748036N12002547WA0116101222
B2040274748034N12002541WA0116401225
B2040284748032N12002535WA0116801227
B2040294748029N12002527WA0117001229
B2040304748025N12002520WA0117401230
B2040314748021N12002513WA0117601233
B2040324748018N12002507WA0117901236
B2040334748015N12002502WA0118201240
B2040344748012N12002499WA0118501244
B2040354748009N12002498WA0118801247
B2040364748005N12002499WA0119101249
B2040374748002N12002502WA0119301250
B2040384748001N12002508WA0119601251
B2040394748002N12002515WA0119801252
B2040404748006N12002519WA0120101253
B2040414748012N12002520WA0120201255
B2040424748017N12002517WA0120501258
B2040434748021N12002511WA0120701261
B2040444748025N12002506WA0121001266
B2040454748028N12002501WA0121201270
B2040464748031N12002497WA0121601273
B2040474748034N12002492WA0121801275
B2040484748037N12002486WA0122101277
B2040494748040N12002478WA0122301279
B2040504748041N12002470WA0122601281
B2040514748042N12002463WA0122801283
B2040524748043N12002457WA0123001285
B2040534748045N12002452WA0123201287
B2040544748047N12002446WA0123501289
B2040554748049N12002440WA0123601291
B2040564748048N12002434WA0123901292
B2040574748046N12002427WA0124001292
B2040584748044N12002421WA0124201294
B2040594748041N12002415WA0124401297
B2041004748040N12002410WA0124601300
B2041014748038N12002405WA0124801303
B2041024748035N12002401WA0125001305
B2041034748031N12002399WA0125201306
B2041044748027N12002395WA0125401306
B2041054748022N12002390WA0125501306
B2041064748018N12002384WA0125701306
B2041064748018N12002384WA0125701306
B2041074748016N12002376WA0125801307
B2041084748013N12002371WA0126001308
B2041094748009N12002367WA0126101310
B2041104748004N12002365WA0126201310
B2041114747999N12002363WA0126301308
B2041124747993N12002361WA0126401308
B2041134747988N12002359WA0126401309
B2041144747984N12002359WA0126501310
B2041154747980N12002360WA0126601312
B2041164747977N12002364WA0126701312
B2041174747975N12002368WA0126701311
B2041184747973N12002374WA0126701309
B2041194747971N12002380WA0126701309
B2041204747969N12002386WA0126801309
B2041214747967N12002391WA0126801308
B2041224747965N12002396WA0126801307
B2041234747962N12002401WA0126801306
B2041244747960N12002407WA0126701305
B2041254747957N12002412WA0126701303
B2041264747956N12002417WA0126701303
B2041274747955N12002422WA0126601303
B2041284747955N12002425WA0126601303
B2041294747956N12002429WA0126601302
B2041304747957N12002434WA0126501299
B2041314747957N12002441WA0126401295
B2041324747957N12002449WA0126201292
B2041334747957N12002455WA0126101291
B2041344747958N12002461WA0126001290
B2041354747958N12002467WA0125901288
B2041364747958N12002472WA0125701286
B2041374747958N12002478WA0125601284
B2041384747957N12002482WA0125401281
B2041394747955N12002486WA0125301277
B2041404747953N12002489WA0125001274
B2041414747951N12002492WA0124901270
B2041424747949N12002496WA0124601267
B2041434747949N12002500WA0124401264
B2041444747950N12002506WA0124101262
B2041454747952N12002511WA0124001259
B2041464747955N12002516WA0123701257
B2041474747960N12002520WA0123501254
B2041484747967N12002523WA0123201252
B2041494747974N12002524WA0123001249
B2041504747980N12002524WA0122801247
B2041514747987N12002523WA0122601245
B2041524747994N12002521WA0122301243
B2041534748001N12002518WA0122201241
B2041544748007N12002513WA0121901239
B2041554748013N12002506WA0121701237
B2041564748017N12002498WA0121501234
B2041574748019N12002489WA0121301231
B2041584748019N12002480WA0121001227
B2041594748019N12002472WA0120801224
B2042004748018N12002463WA0120501221
B2042014748019N12002455WA0120301219
B2042024748019N12002446WA0120001217
B2042034748018N12002439WA0119801215
B2042044748017N12002432WA0119601212
B2042054748015N12002424WA0119401209
B2042064748013N12002416WA0119101205
B2042074748011N12002408WA0118901203
B2042084748009N12002401WA0118601201
B2042094748006N12002396WA0118401199
B2042104748004N12002391WA0118101197
B2042104748004N12002391WA0118101197
B2042114748002N12002386WA0117901194
B2042124748000N12002379WA0117601191
B2042134747998N12002372WA0117401187
B2042144747995N12002365WA0117101183
B2042154747992N12002359WA0116901180
B2042164747988N12002354WA0116501177
B2042174747985N12002350WA0116301175
B2042184747983N12002345WA0116001174
B2042194747980N12002340WA0115801171
B2042204747977N12002333WA0115501167
B2042214747973N12002327WA0115201164
B2042224747970N12002321WA0114901161
B2042234747966N12002316WA0114701159
B2042244747963N12002312WA0114401157
B2042254747960N12002306WA0114201155
B2042264747957N12002301WA0113901152
B2042274747953N12002295WA0113701150
B2042284747950N12002290WA0113401146
B2042294747947N12002285WA0113201144
B2042304747943N12002280WA0112901142
B2042314747940N12002276WA0112701139
B2042324747937N12002273WA0112401137
B2042334747934N12002271WA0112201135
B2042344747931N12002271WA0111901132
B2042354747927N12002270WA0111701129
B2042364747924N12002269WA0111401126
B2042374747920N12002268WA0111201123
B2042384747916N12002266WA0110901121
B2042394747913N12002265WA0110701118
B2042404747909N12002264WA0110401116
B2042414747905N12002263WA0110201114
B2042424747902N12002262WA0109901112
B2042434747899N12002262WA0109701110
B2042444747896N12002263WA0109501107
B2042454747892N12002263WA0109301105
B2042464747888N12002263WA0109001102
B2042474747885N12002261WA0108801099
B2042484747881N12002260WA0108501097
B2042494747878N12002259WA0108401095
B2042504747876N12002260WA0108101093
B2042514747874N12002262WA0107901091
B2042524747874N12002267WA0107601088
B2042534747875N12002272WA0107501085
B2042544747878N12002278WA0107201082
B2042554747881N12002283WA0107001079
B2042564747884N12002288WA0106701077
B2042574747888N12002293WA0106501076
B2042584747891N12002298WA0106201074
B2042594747895N12002303WA0106001072
B2043004747899N12002309WA0105801070
B2043014747902N12002315WA0105601069
B2043024747905N12002321WA0105401068
B2043034747908N12002326WA0105301068
B2043044747911N12002331WA0105101068
B2043054747914N12002335WA0105001068
B2043064747917N12002339WA0104801067
B2043074747920N12002343WA0104701065
B2043084747922N12002350WA0104501062
B2043094747925N12002357WA0104401059
B2043104747927N12002365WA0104201057
B2043114747930N12002371WA0104101057
B2043124747932N12002377WA0103901057
B2043134747934N12002382WA0103801057
B2043144747936N12002387WA0103701056
B2043144747936N12002387WA0103701056
B2043154747939N12002393WA0103601054
B2043164747941N12002400WA0103401052
B2043174747943N12002407WA0103301050
B2043184747945N12002414WA0103201049
B2043194747947N12002421WA0103101050
B2043204747950N12002427WA0103001052
B2043214747952N12002433WA0103001053
B2043224747955N12002438WA0103001055
B2043234747957N12002443WA0103001056
B2043244747959N12002448WA0103001056
B2043254747961N12002454WA0103001056
B2043264747962N12002460WA0102901054
B2043274747965N12002467WA0102901052
B2043284747967N12002473WA0102801051
B2043294747969N12002480WA0102801050
B2043304747971N12002485WA0102701050
B2043314747973N12002491WA0102701049
B2043324747975N12002496WA0102601048
B2043334747976N12002502WA0102501047
B2043344747977N12002509WA0102501046
B2043354747978N12002515WA0102401045
B2043364747979N12002521WA0102301044
B2043374747981N12002526WA0102301045
B2043384747983N12002530WA0102201045
B2043394747984N12002534WA0102201045
B2043404747986N12002538WA0102101045
B2043414747988N12002541WA0102101044
B2043424747990N12002546WA0102001042
B2043434747991N12002550WA0102001041
B2043444747993N12002555WA0101901040
B2043454747995N12002560WA0101801039
B2043464747996N12002564WA0101701038
B2043474747998N12002569WA0101701037
B2043484747999N12002574WA0101601035
B2043494748000N12002579WA0101501034
B2043504748001N12002585WA0101401032
B2043514748003N12002590WA0101301031
B2043524748006N12002596WA0101201030
B2043534748008N12002603WA0101101029
B2043544748011N12002609WA0101001029
B2043554748013N12002615WA0100901030
B2043564748016N12002620WA0100901031
B2043574748019N12002624WA0100901033
B2043584748022N12002627WA0100901034
B2043594748026N12002629WA0100901036
B2044004748029N12002630WA0100901037
B2044014748033N12002632WA0100901037
B2044024748038N12002631WA0101001038
B2044034748044N12002629WA0101001038
B2044044748049N12002624WA0101001037
B2044054748053N12002615WA0101001037
B2044064748053N12002604WA0101001034
B2044074748052N12002594WA0101001033
B2044084748049N12002587WA0101001034
B2044094748046N12002581WA0101001036
B2044104748045N12002577WA0101001038
B2044114748044N12002572WA0101101039
B2044124748042N12002568WA0101101038
B2044134748039N12002564WA0101101037
B2044144748035N12002562WA0101101034
B2044154748031N12002562WA0101101034
B2044164748028N12002563WA0101101035
B2044174748025N12002564WA0101101037
B2044184748024N12002565WA0101201039
B2044194748023N12002567WA0101201039
B2044194748023N12002567WA0101201039
B2044204748021N12002569WA0101201039
B2044214748019N12002572WA0101201038
B2044224748017N12002575WA0101301037
B2044234748014N12002578WA0101301037
B2044244748012N12002579WA0101301038
B2044254748011N12002581WA0101301039
B2044264748010N12002583WA0101301040
B2044274748010N12002586WA0101401039
B2044284748011N12002590WA0101401038
B2044294748012N12002594WA0101401037
B2044304748013N12002599WA0101301037
B2044314748014N12002602WA0101301037
B2044324748015N12002605WA0101301037
B2044334748016N12002609WA0101301036
B2044344748016N12002612WA0101301035
B2044354748016N12002617WA0101201033
B2044364748017N12002622WA0101101031
B2044374748017N12002628WA0101101029
B2044384748017N12002633WA0101001028
B2044394748018N12002638WA0100901027
B2044404748019N12002644WA0100801025
B2044414748020N12002650WA0100701023
B2044424748020N12002656WA0100601022
B2044434748020N12002660WA0100501022
B2044444748020N12002664WA0100401022
B2044454748020N12002667WA0100301022
B2044464748021N12002671WA0100201021
B2044474748023N12002675WA0100201019
B2044484748024N12002681WA0100001015
B2044494748026N12002687WA0099901012
B2044504748026N12002694WA0099701009
B2044514748027N12002700WA0099601009
B2044524748029N12002704WA0099401009
B2044534748031N12002707WA0099301010
B2044544748033N12002710WA0099201009
B2044554748036N12002712WA0099101009
B2044564748040N12002715WA0099001008
B2044574748044N12002717WA0099001007
B2044584748049N12002718WA0098901006
B2044594748054N12002719WA0098801007
B2045004748059N12002722WA0098701007
B2045014748064N12002726WA0098701009
B2045024748067N12002730WA0098701012
B2045034748071N12002734WA0098801015
B2045044748074N12002735WA0098901019
B2045054748077N12002737WA0099001022
B2045064748079N12002738WA0099101025
B2045074748081N12002739WA0099201025
B2045084748085N12002742WA0099301025
B2045094748090N12002746WA0099301023
B2045104748095N12002751WA0099401020
B2045114748099N12002755WA0099401018
B2045124748102N12002760WA0099301016
B2045134748106N12002764WA0099301014
B2045144748109N12002768WA0099201012
B2045154748112N12002773WA0099101009
B2045164748115N12002779WA0099001007
B2045174748118N12002785WA0098901005
B2045184748120N12002790WA0098701005
B2045194748122N12002795WA0098701005
B2045204748124N12002800WA0098501004
B2045214748126N12002804WA0098501003
B2045224748128N12002809WA0098301002
B2045234748130N12002813WA0098301001
B2045234748130N12002813WA0098301001
B2045244748133N12002817WA0098100999
B2045254748135N12002821WA0098000998
B2045264748138N12002825WA0097900996
B2045274748140N12002831WA0097800995
B2045284748142N12002836WA0097700993
B2045294748143N12002841WA0097600993
B2045304748144N12002846WA0097400992
B2045314748145N12002851WA0097300991
B2045324748148N12002857WA0097200990
B2045334748151N12002863WA0097100989
B2045344748153N12002869WA0097000990
B2045354748155N12002876WA0097000990
B2045364748156N12002883WA0096900991
B2045374748158N12002889WA0096900993
B2045384748160N12002894WA0096900995
B2045394748163N12002898WA0096900996
B2045404748165N12002901WA0097000997
B2045414748169N12002905WA0097000997
B2045424748174N12002908WA0097000997
B2045434748180N12002911WA0097000997
B2045444748186N12002913WA0097100999
B2045454748191N12002915WA0097101002
B2045464748196N12002917WA0097201005
B2045474748200N12002918WA0097301007
B2045484748206N12002918WA0097501009
B2045494748212N12002917WA0097601010
B2045504748217N12002915WA0097701012
B2045514748221N12002913WA0097801014
B2045524748225N12002912WA0098001016
B2045534748229N12002912WA0098101017
B2045544748234N12002914WA0098101015
B2045554748238N12002918WA0098201012
B2045564748242N12002924WA0098201010
B2045574748244N12002930WA0098201011
B2045584748244N12002935WA0098301012
B2045594748242N12002939WA0098301013
B2046004748240N12002942WA0098401015
B2046014748237N12002944WA0098401017
B2046024748233N12002944WA0098501019
B2046034748230N12002944WA0098601020
B2046044748226N12002943WA0098701022
B2046054748223N12002942WA0098801024
B2046064748221N12002943WA0098901025
B2046074748220N12002946WA0099001025
B2046084748220N12002952WA0099101024
B2046094748223N12002958WA0099201024
B2046104748225N12002962WA0099301026
B2046114748229N12002964WA0099401029
B2046124748233N12002964WA0099501031
B2046134748238N12002960WA0099601031
B2046144748243N12002953WA0099701029
B2046154748247N12002943WA0099701028
B2046164748247N12002932WA0099801028
B2046174748244N12002923WA0099801029
B2046184748240N12002917WA0099901029
B2046194748235N12002913WA0100001031
B2046204748231N12002909WA0100101034
B2046214748227N12002904WA0100201036
B2046224748224N12002900WA0100301037
B2046234748221N12002897WA0100401039
B2046244748217N12002896WA0100501039
B2046254748213N12002896WA0100501038
B2046264748209N12002896WA0100601039
B2046274748206N12002897WA0100701041
B2046274748206N12002897WA0100701041
B2046284748204N12002899WA0100901043
B2046294748201N12002901WA0100901044
B2046304748200N12002905WA0101101046
B2046314748200N12002909WA0101201046
B2046324748201N12002915WA0101301046
B2046334748202N12002920WA0101301046
B2046344748205N12002926WA0101401047
B2046354748208N12002931WA0101501048
B2046364748211N12002933WA0101601050
B2046374748215N12002934WA0101701052
B2046384748218N12002934WA0101801052
B2046394748223N12002933WA0101801052
B2046404748228N12002931WA0101901051
B2046414748233N12002926WA0101901050
B2046424748238N12002919WA0102001050
B2046434748241N12002910WA0102001049
B2046444748241N12002899WA0102001048
B2046454748238N12002889WA0102001045
B2046464748233N12002883WA0101901043
B2046474748228N12002878WA0101901044
B2046484748224N12002872WA0101901046
B2046494748222N12002866WA0101901048
B2046504748220N12002860WA0102001049
B2046514748217N12002854WA0102001051
B2046524748214N12002849WA0102101052
B2046534748211N12002844WA0102101053
B2046544748208N12002838WA0102201055
B2046554748206N12002831WA0102301057
B2046564748205N12002824WA0102401060
B2046574748204N12002817WA0102501062
B2046584748203N12002811WA0102701064
B2046594748202N12002805WA0102801064
B2047004748199N12002799WA0102901064
B2047014748195N12002794WA0103001065
B2047024748191N12002790WA0103101067
B2047034748187N12002789WA0103201070
B2047044748183N12002790WA0103401073
B2047054748181N12002791WA0103601075
B2047064748178N12002792WA0103701077
B2047074748176N12002793WA0103901077
B2047084748172N12002795WA0104001077
B2047094748169N12002798WA0104101076
B2047104748166N12002801WA0104201075
B2047114748163N12002804WA0104201075
B2047124748160N12002805WA0104301076
B2047134748157N12002806WA0104401076
B2047144748153N12002807WA0104401075
B2047154748149N12002808WA0104401075
B2047164748147N12002810WA0104501076
B2047174748146N12002814WA0104501076
B2047184748146N12002820WA0104501075
B2047194748149N12002825WA0104501074
B2047204748152N12002830WA0104501073
B2047214748154N12002834WA0104501073
B2047224748157N12002839WA0104501073
B2047234748160N12002844WA0104501073
B2047244748163N12002849WA0104501072
B2047254748167N12002854WA0104501072
B2047264748171N12002860WA0104401072
B2047274748175N12002865WA0104401073
B2047284748177N12002870WA0104501075
B2047294748180N12002874WA0104501077
B2047304748183N12002877WA0104601079
B2047314748186N12002879WA0104601080
B2047314748186N12002879WA0104601080
B2047324748190N12002882WA0104701081
B2047334748193N12002885WA0104801081
B2047344748197N12002888WA0104801081
B2047354748200N12002892WA0104901082
B2047364748203N12002897WA0104901082
B2047374748206N12002901WA0105001083
B2047384748209N12002905WA0105101085
B2047394748212N12002909WA0105101087
B2047404748213N12002913WA0105201088
B2047414748215N12002917WA0105301089
B2047424748215N12002921WA0105401090
B2047434748215N12002925WA0105501091
B2047444748215N12002929WA0105601092
B2047454748215N12002932WA0105601093
B2047464748215N12002936WA0105701093
B2047474748215N12002939WA0105801094
B2047484748215N12002942WA0105901095
B2047494748214N12002946WA0106001095
B2047504748214N12002951WA0106101095
B2047514748214N12002955WA0106101096
B2047524748214N12002959WA0106201096
B2047534748215N12002964WA0106301097
B2047544748215N12002969WA0106301098
B2047554748216N12002974WA0106401099
B2047564748217N12002979WA0106501099
B2047574748220N12002984WA0106501100
B2047584748226N12002988WA0106601100
B2047594748233N12002988WA0106601100
B2048004748240N12002983WA0106701100
B2048014748245N12002974WA0106801100
B2048024748248N12002964WA0106801102
B2048034748248N12002955WA0106901105
B2048044748248N12002947WA0107001108
B2048054748248N12002939WA0107101111
B2048064748248N12002931WA0107301112
B2048074748247N12002921WA0107401112
B2048084748247N12002913WA0107501113
B2048094748245N12002906WA0107601115
B2048104748243N12002902WA0107701116
B2048114748240N12002900WA0107801117
B2048124748237N12002897WA0108001118
B2048134748235N12002894WA0108101119
B2048144748233N12002892WA0108201121
B2048154748230N12002889WA0108301122
B2048164748228N12002888WA0108401122
B2048174748225N12002886WA0108501123
B2048184748223N12002885WA0108601124
B2048194748220N12002885WA0108701125
B2048204748218N12002885WA0108801126
B2048214748216N12002885WA0108901127
B2048224748213N12002886WA0109001127
B2048234748212N12002887WA0109101129
B2048244748212N12002890WA0109201131
B2048254748212N12002893WA0109301131
B2048264748212N12002898WA0109401132
B2048274748212N12002904WA0109501133
B2048284748213N12002910WA0109601135
B2048294748214N12002915WA0109801139
B2048304748217N12002918WA0110001143
B2048314748221N12002921WA0110101145
B2048324748226N12002923WA0110301147
B2048334748233N12002922WA0110501148
B2048344748240N12002917WA0110701149
B2048344748240N12002917WA0110701149
B2048354748244N12002907WA0110801150
B2048364748244N12002896WA0111001150
B2048374748242N12002886WA0111101151
B2048384748239N12002877WA0111201153
B2048394748238N12002868WA0111401158
B2048404748238N12002859WA0111601162
B2048414748238N12002851WA0111801167
B2048424748237N12002845WA0112101170
B2048434748235N12002839WA0112301172
B2048444748231N12002834WA0112601173
B2048454748227N12002830WA0112801175
B2048464748223N12002826WA0113101178
B2048474748220N12002821WA0113301182
B2048484748217N12002816WA0113601186
B2048494748214N12002812WA0113801190
B2048504748212N12002811WA0114101194
B2048514748210N12002812WA0114401197
B2048524748209N12002815WA0114701199
B2048534748207N12002819WA0114901201
B2048544748206N12002823WA0115301202
B2048554748205N12002828WA0115401204
B2048564748205N12002832WA0115701205
B2048574748206N12002836WA0115901206
B2048584748206N12002841WA0116101206
B2048594748205N12002845WA0116201207
B2049004748204N12002848WA0116401208
B2049014748202N12002850WA0116501208
B2049024748199N12002851WA0116701208
B2049034748197N12002850WA0116801208
B2049044748194N12002847WA0116901208
B2049054748192N12002843WA0117001208
B2049064748190N12002838WA0117101209
B2049074748188N12002834WA0117101209
B2049084748186N12002830WA0117201210
B2049094748184N12002827WA0117301210
B2049104748181N12002826WA0117301210
B2049114748179N12002826WA0117401210
B2049124748177N12002828WA0117401210
B2049134748176N12002830WA0117501211
B2049144748175N12002834WA0117501213
B2049154748176N12002839WA0117601215
B2049164748179N12002844WA0117701217
B2049174748184N12002848WA0117801218
B2049184748190N12002851WA0117901219
B2049194748198N12002850WA0118001219
B2049204748205N12002845WA0118001218
B2049214748211N12002838WA0118101219
B2049224748215N12002829WA0118201219
B2049234748217N12002820WA0118201220
B2049244748219N12002811WA0118301220
B2049254748220N12002803WA0118301221
B2049264748221N12002796WA0118401223
B2049274748222N12002787WA0118501224
B2049284748222N12002780WA0118601227
B2049294748221N12002774WA0118701229
B2049304748219N12002770WA0118801231
B2049314748217N12002769WA0118901232
B2049324748214N12002769WA0119001232
B2049334748212N12002772WA0119101233
B2049344748210N12002776WA0119201234
B2049354748208N12002781WA0119301237
B2049364748207N12002787WA0119501240
B2049374748209N12002793WA0119701244
B2049384748212N12002798WA0119901247
B2049384748212N12002798WA0119901247
B2049394748218N12002801WA0120101250
B2049404748225N12002801WA0120301252
B2049414748231N12002797WA0120501255
B2049424748236N12002789WA0120701256
B2049434748239N12002778WA0120901257
B2049444748239N12002768WA0121101259
B2049454748238N12002758WA0121301262
B2049464748237N12002749WA0121601266
B2049474748238N12002741WA0121801270
B2049484748238N12002735WA0122101274
B2049494748239N12002730WA0122301277
B2049504748238N12002724WA0122601277
B2049514748237N12002718WA0122701276
B2049524748234N12002712WA0122901275
B2049534748232N12002706WA0123001275
B2049544748230N12002701WA0123201276
B2049554748228N12002695WA0123301277
B2049564748226N12002690WA0123401277
B2049574748224N12002684WA0123501278
B2049584748222N12002679WA0123601280
B2049594748221N12002675WA0123701280
B2050004748219N12002670WA0123801281
B2050014748217N12002666WA0123901280
B2050024748214N12002661WA0124001278
B2050034748211N12002656WA0124001278
B2050044748209N12002651WA0124101278
B2050054748207N12002647WA0124101279
B2050064748205N12002642WA0124101279
B2050074748203N12002636WA0124101278
B2050084748201N12002630WA0124101276
B2050094748199N12002623WA0124101274
B2050104748197N12002614WA0124101273
B2050114748196N12002605WA0124101272
B2050124748196N12002596WA0124001272
B2050134748195N12002586WA0124001271
B2050144748195N12002577WA0124001271
B2050154748196N12002567WA0123901271
B2050164748196N12002558WA0123901271
B2050174748197N12002550WA0123901272
B2050184748198N12002542WA0123901272
B2050194748198N12002536WA0123901273
B2050204748199N12002530WA0123901272
B2050214748199N12002523WA0123801270
B2050224748198N12002516WA0123801268
B2050234748197N12002508WA0123701265
B2050244748195N12002500WA0123601262
B2050254748193N12002492WA0123501261
B2050264748192N12002486WA0123401260
B2050274748190N12002479WA0123301259
B2050284748187N12002473WA0123101258
B2050294748185N12002467WA0123001256
B2050304748183N12002459WA0122901253
B2050314748181N12002450WA0122801250
B2050324748178N12002442WA0122601248
B2050334748175N12002435WA0122401247
B2050344748172N12002429WA0122301246
B2050354748169N12002425WA0122201245
B2050364748166N12002424WA0122001244
B2050374748162N12002425WA0121901242
B2050384748159N12002429WA0121701240
B2050394748159N12002435WA0121601239
B2050404748160N12002440WA0121501238
B2050414748162N12002444WA0121401238
B2050424748165N12002448WA0121201237
B2050424748165N12002448WA0121201237
B2050434748167N12002454WA0121101235
B2050444748169N12002461WA0121001232
B2050454748171N12002469WA0120901230
B2050464748173N12002477WA0120701228
B2050474748176N12002483WA0120601229
B2050484748179N12002487WA0120501230
B2050494748182N12002491WA0120401232
B2050504748184N12002495WA0120401233
B2050514748186N12002497WA0120301234
B2050524748188N12002500WA0120301235
B2050534748189N12002504WA0120301235
B2050544748191N12002507WA0120301235
B2050554748192N12002511WA0120301235
B2050564748193N12002515WA0120301236
B2050574748194N12002518WA0120301237
B2050584748195N12002521WA0120401238
B2050594748197N12002525WA0120401239
B2051004748198N12002528WA0120401240
B2051014748200N12002531WA0120501240
B2051024748203N12002535WA0120501240
B2051034748206N12002540WA0120501240
B2051044748208N12002545WA0120601240
B2051054748211N12002549WA0120601240
B2051064748213N12002554WA0120601240
B2051074748216N12002558WA0120601240
B2051084748219N12002562WA0120601241
B2051094748223N12002565WA0120701240
B2051104748226N12002569WA0120701240
B2051114748229N12002573WA0120701239
B2051124748232N12002579WA0120701238
B2051134748234N12002584WA0120601238
B2051144748236N12002590WA0120601238
B2051154748239N12002593WA0120701241
B2051164748243N12002594WA0120701244
B2051174748248N12002594WA0120801246
B2051184748254N12002592WA0120901247
B2051194748261N12002586WA0121001247
B2051204748267N12002576WA0121101248
B2051214748270N12002566WA0121101250
B2051224748270N12002555WA0121301252
B2051234748269N12002546WA0121401254
B2051244748268N12002538WA0121501255
B2051254748268N12002530WA0121601256
B2051264748267N12002522WA0121701257
B2051274748266N12002514WA0121701255
B2051284748264N12002508WA0121801254
B2051294748262N12002503WA0121801252
B2051304748258N12002498WA0121701251
B2051314748254N12002496WA0121701250
B2051324748251N12002496WA0121701251
B2051334748249N12002495WA0121801252
B2051344748246N12002494WA0121801254
B2051354748244N12002491WA0121801255
B2051364748242N12002488WA0121901256
B2051374748240N12002487WA0121901257
B2051384748237N12002487WA0122001257
B2051394748234N12002487WA0122001256
B2051404748231N12002488WA0122101256
B2051414748228N12002488WA0122101257
B2051424748224N12002488WA0122101257
B2051434748222N12002489WA0122201258
B2051444748220N12002490WA0122201259
B2051454748217N12002490WA0122301259
B2051464748215N12002491WA0122301259
B2051464748215N12002491WA0122301259
B2051474748212N12002493WA0122301259
B2051484748210N12002495WA0122401259
B2051494748208N12002497WA0122401259
B2051504748206N12002499WA0122401259
B2051514748204N12002501WA0122401259
B2051524748202N12002504WA0122401258
B2051534748200N12002508WA0122401257
B2051544748199N12002513WA0122401255
B2051554748198N12002519WA0122401254
B2051564748197N12002523WA0122301254
B2051574748196N12002528WA0122301254
B2051584748195N12002533WA0122301253
B2051594748195N12002538WA0122301253
B2052004748195N12002543WA0122201252
B2052014748196N12002549WA0122201251
B2052024748196N12002555WA0122101251
B2052034748197N12002562WA0122101250
B2052044748197N12002568WA0122001249
B2052054748197N12002573WA0122001249
B2052064748198N12002579WA0121901248
B2052074748199N12002584WA0121901248
B2052084748201N12002589WA0121801247
B2052094748205N12002593WA0121801246
B2052104748211N12002596WA0121701244
B2052114748218N12002595WA0121601241
B2052124748225N12002591WA0121401240
B2052134748231N12002582WA0121401240
B2052144748234N12002572WA0121301241
B2052154748237N12002562WA0121301242
B2052164748238N12002554WA0121201243
B2052174748239N12002545WA0121201245
B2052184748240N12002537WA0121201245
B2052194748241N12002529WA0121201244
B2052204748241N12002520WA0121201243
B2052214748241N12002511WA0121101241
B2052224748240N12002502WA0121101240
B2052234748240N12002494WA0121001240
B2052244748240N12002486WA0121001240
B2052254748240N12002480WA0120901240
B2052264748241N12002473WA0120901239
B2052274748242N12002465WA0120801238
B2052284748243N12002457WA0120701235
B2052294748243N12002448WA0120701233
B2052304748244N12002439WA0120601232
B2052314748244N12002431WA0120501231
B2052324748244N12002423WA0120401230
B2052334748245N12002415WA0120301230
B2052344748244N12002407WA0120201229
B2052354748244N12002400WA0120101228
B2052364748242N12002394WA0120001227
B2052374748241N12002388WA0119901225
B2052384748239N12002381WA0119801224
B2052394748237N12002375WA0119801224
B2052404748236N12002370WA0119701224
B2052414748234N12002365WA0119601225
B2052424748231N12002362WA0119601225
B2052434748229N12002360WA0119501225
B2052444748227N12002358WA0119501224
B2052454748224N12002355WA0119401224
B2052464748222N12002353WA0119401223
B2052474748219N12002352WA0119301222
B2052484748216N12002352WA0119201221
B2052494748213N12002352WA0119201220
B2052504748209N12002352WA0119101219
B2052504748209N12002352WA0119101219
B2052514748206N12002352WA0119101219
B2052524748202N12002353WA0119001219
B2052534748199N12002355WA0119001219
B2052544748196N12002358WA0118901219
B2052554748194N12002361WA0118901218
B2052564748193N12002365WA0118801217
B2052574748191N12002369WA0118701215
B2052584748190N12002374WA0118601213
B2052594748189N12002378WA0118601212
B2053004748188N12002383WA0118501211
B2053014748187N12002387WA0118401210
B2053024748186N12002390WA0118301210
B2053034748185N12002393WA0118201210
B2053044748183N12002396WA0118201209
B2053054748182N12002398WA0118101207
B2053064748180N12002401WA0117901203
B2053074748179N12002406WA0117801200
B2053084748177N12002410WA0117601196
B2053094748175N12002415WA0117501193
B2053104748173N12002418WA0117301191
B2053114748171N12002421WA0117101188
B2053124748168N12002423WA0116901186
B2053134748165N12002424WA0116701183
B2053144748161N12002426WA0116501181
B2053154748157N12002426WA0116301178
B2053164748152N12002425WA0116001175
B2053174748148N12002425WA0115901173
B2053184748144N12002424WA0115601170
B2053194748138N12002423WA0115401168
B2053204748134N12002419WA0115201167
B2053214748131N12002415WA0115001166
B2053224748128N12002412WA0114801165
B2053234748125N12002411WA0114601163
B2053244748121N12002411WA0114401158
B2053254748114N12002410WA0114201155
B2053264748108N12002407WA0114001152
B2053274748102N12002404WA0113801151
B2053284748098N12002402WA0113601151
B2053294748095N12002401WA0113501151
B2053304748092N12002401WA0113301150
B2053314748088N12002402WA0113201148
B2053324748084N12002401WA0113001146
B2053334748079N12002399WA0112901143
B2053344748073N12002397WA0112601140
B2053354748067N12002394WA0112501139
B2053364748062N12002390WA0112301138
B2053374748059N12002388WA0112201138
B2053384748055N12002385WA0112001137
B2053394748051N12002382WA0111901136
B2053404748047N12002380WA0111701134
B2053414748041N12002377WA0111601131
B2053424748036N12002374WA0111301128
B2053434748031N12002371WA0111201126
B2053444748026N12002368WA0111001125
B2053454748021N12002365WA0110901124
B2053464748016N12002362WA0110701123
B2053474748011N12002359WA0110601122
B2053484748006N12002357WA0110401122
B2053494748002N12002354WA0110301121
B2053504747997N12002352WA0110101118
B2053514747992N12002349WA0110001115
B2053524747986N12002347WA0109801112
B2053534747980N12002345WA0109701109
B2053544747974N12002341WA0109401107
B2053544747974N12002341WA0109401107
B2053554747968N12002337WA0109301107
B2053564747963N12002333WA0109101108
B2053574747958N12002329WA0109001109
B2053584747954N12002326WA0108901109
B2053594747950N12002323WA0108801109
B2054004747946N12002321WA0108701108
B2054014747941N12002318WA0108601106
B2054024747936N12002315WA0108501105
B2054034747931N12002312WA0108401103
B2054044747925N12002309WA0108301103
B2054054747921N12002306WA0108201103
B2054064747917N12002303WA0108101103
B2054074747913N12002300WA0108101103
B2054084747909N12002297WA0108001102
B2054094747904N12002295WA0107901100
B2054104747899N12002291WA0107801098
B2054114747894N12002288WA0107701097
B2054124747889N12002283WA0107601097
B2054134747883N12002278WA0107501098
B2054144747878N12002274WA0107501101
B2054154747873N12002271WA0107501104
B2054164747868N12002269WA0107601108
B2054174747865N12002268WA0107701110
B2054184747861N12002267WA0107801112
B2054194747856N12002265WA0107801112
B2054204747852N12002263WA0107901113
B2054214747847N12002260WA0108001114
B2054224747843N12002255WA0108101115
B2054234747839N12002248WA0108201115
B2054244747836N12002239WA0108201114
B2054254747834N12002230WA0108301113
B2054264747832N12002221WA0108301113
B2054274747828N12002215WA0108301113
B2054284747824N12002212WA0108301112
B2054294747818N12002213WA0108301108
B2054304747814N12002217WA0108201107
B2054314747811N12002221WA0108201107
B2054324747808N12002225WA0108201108
B2054334747804N12002226WA0108201110
B2054344747801N12002227WA0108201111
B2054354747798N12002226WA0108201112
B2054364747795N12002227WA0108301113
B2054374747792N12002229WA0108301113
B2054384747790N12002233WA0108301112
B2054394747788N12002238WA0108301112
B2054404747786N12002242WA0108401113
B2054414747784N12002246WA0108401114
B2054424747782N12002250WA0108401115
B2054434747780N12002253WA0108501117
B2054444747779N12002255WA0108601120
B2054454747780N12002258WA0108701121
B2054464747782N12002261WA0108801122
B2054474747786N12002263WA0108801122
B2054484747792N12002263WA0108901123
B2054494747797N12002260WA0109001126
B2054504747801N12002256WA0109101128
B2054514747805N12002249WA0109201129
B2054524747809N12002240WA0109301129
B2054534747811N12002230WA0109401129
B2054544747810N12002220WA0109501128
B2054554747807N12002211WA0109501127
B2054564747802N12002203WA0109601126
B2054574747798N12002196WA0109601126
B2054584747793N12002190WA0109601127
B2054594747789N12002184WA0109701129
B2054594747789N12002184WA0109701129
B2055004747785N12002178WA0109701130
B2055014747781N12002172WA0109801132
B2055024747777N12002166WA0109901134
B2055034747774N12002161WA0110001137
B2055044747770N12002156WA0110201140
B2055054747766N12002152WA0110301143
B2055064747763N12002148WA0110501146
B2055074747759N12002144WA0110601147
B2055084747756N12002140WA0110801149
B2055094747753N12002134WA0110901150
B2055104747752N12002127WA0111101150
B2055114747750N12002119WA0111201150
B2055124747750N12002110WA0111301150
B2055134747750N12002101WA0111401150
B2055144747753N12002094WA0111501151
B2055154747758N12002088WA0111501150
B2055164747763N12002086WA0111601150
B2055174747769N12002088WA0111601150
B2055184747773N12002090WA0111701150
B2055194747777N12002093WA0111701152
B2055204747780N12002096WA0111801153
B2055214747783N12002099WA0111901156
B2055224747785N12002102WA0112001159
B2055234747786N12002105WA0112101161
B2055244747784N12002108WA0112201163
B2055254747781N12002110WA0112301164
B2055264747776N12002110WA0112501165
B2055274747772N12002106WA0112601167
B2055284747769N12002099WA0112801169
B2055294747767N12002092WA0112901171
B2055304747767N12002083WA0113101172
B2055314747769N12002075WA0113201172
B2055324747771N12002067WA0113301173
B2055334747775N12002061WA0113401173
B2055344747780N12002057WA0113501172
B2055354747786N12002056WA0113501172
B2055364747792N12002056WA0113601173
B2055374747797N12002056WA0113701175
B2055384747801N12002055WA0113801179
B2055394747804N12002053WA0113901181
B2055404747807N12002053WA0114101183
B2055414747809N12002053WA0114201183
B2055424747812N12002056WA0114301182
B2055434747815N12002060WA0114301181
B2055444747817N12002064WA0114401180
B2055454747819N12002069WA0114401180
B2055464747820N12002074WA0114501181
B2055474747821N12002079WA0114501182
B2055484747820N12002083WA0114601183
B2055494747819N12002087WA0114701184
B2055504747817N12002090WA0114801185
B2055514747815N12002093WA0114801186
B2055524747812N12002095WA0114901186
B2055534747808N12002096WA0115001186
B2055544747804N12002097WA0115001185
B2055554747799N12002099WA0115001184
B2055564747793N12002100WA0115001183
B2055574747788N12002099WA0115101184
B2055584747784N12002098WA0115101185
B2055594747780N12002095WA0115101186
B2056004747777N12002092WA0115101186
B2056014747772N12002090WA0115201185
B2056024747768N12002089WA0115101184
B2056034747763N12002087WA0115101181
B2056034747763N12002087WA0115101181
B2056044747758N12002084WA0115101178
B2056054747753N12002079WA0115001176
B2056064747748N12002074WA0114901173
B2056074747743N12002069WA0114801170
B2056084747738N12002064WA0114601167
B2056094747732N12002060WA0114501164
B2056104747727N12002054WA0114201161
B2056114747721N12002047WA0114101157
B2056124747715N12002040WA0113801154
B2056134747710N12002034WA0113701152
B2056144747706N12002027WA0113501151
B2056154747702N12002020WA0113301150
B2056164747699N12002014WA0113101149
B2056174747695N12002009WA0113001147
B2056184747690N12002005WA0112701144
B2056194747686N12002004WA0112601140
B2056204747681N12002004WA0112301137
B2056214747677N12002004WA0112101135
B2056224747673N12002004WA0111901133
B2056234747669N12002004WA0111701131
B2056244747665N12002004WA0111501129
B2056254747660N12002003WA0111301126
B2056264747656N12002002WA0111001124
B2056274747651N12002000WA0110901121
B2056284747647N12001998WA0110601118
B2056294747642N12001996WA0110401116
B2056304747638N12001993WA0110101113
B2056314747634N12001988WA0109901111
B2056324747630N12001983WA0109701109
B2056334747626N12001976WA0109501106
B2056344747623N12001968WA0109201104
B2056354747620N12001959WA0109001101
B2056364747619N12001948WA0108701098
B2056374747620N12001936WA0108501095
B2056384747622N12001925WA0108201092
B2056394747626N12001915WA0108001089
B2056404747631N12001907WA0107701087
B2056414747636N12001900WA0107501084
B2056424747642N12001893WA0107201081
B2056434747647N12001885WA0107001079
B2056444747652N12001876WA0106701076
B2056454747655N12001865WA0106501074
B2056464747656N12001854WA0106201071
B2056474747656N12001842WA0106001068
B2056484747654N12001830WA0105601064
B2056494747651N12001820WA0105401061
B2056504747647N12001811WA0105101059
B2056514747644N12001804WA0104901057
B2056524747640N12001797WA0104601055
B2056534747637N12001789WA0104401053
B2056544747633N12001782WA0104101050
B2056554747628N12001774WA0103901047
B2056564747624N12001767WA0103601044
B2056574747621N12001760WA0103401042
B2056584747617N12001753WA0103201040
B2056594747614N12001747WA0103001038
B2057004747610N12001740WA0102701035
B2057014747607N12001735WA0102501032
B2057024747603N12001730WA0102201030
B2057034747599N12001726WA0102001027
B2057044747596N12001724WA0101701024
B2057054747593N12001724WA0101501022
B2057064747590N12001726WA0101201019
B2057074747589N12001729WA0101001016
B2057074747589N12001729WA0101001016
B2057084747587N12001732WA0100701013
B2057094747585N12001735WA0100501010
B2057104747583N12001738WA0100101006
B2057114747581N12001742WA0099901003
B2057124747579N12001746WA0099600999
B2057134747576N12001750WA0099400995
B2057144747574N12001754WA0099000992
B2057154747571N12001757WA0098800989
B2057164747569N12001760WA0098400986
B2057174747568N12001763WA0098200983
B2057184747566N12001767WA0097800979
B2057194747564N12001771WA0097600975
B2057204747561N12001775WA0097200972
B2057214747558N12001778WA0097000969
B2057224747556N12001781WA0096600967
B2057234747553N12001784WA0096400965
B2057244747550N12001787WA0096100963
B2057254747547N12001790WA0095900960
B2057264747544N12001793WA0095600957
B2057274747541N12001797WA0095300953
B2057284747538N12001801WA0095000950
B2057294747535N12001806WA0094800948
B2057304747532N12001810WA0094500946
B2057314747530N12001814WA0094300944
B2057324747529N12001819WA0094000942
B2057334747527N12001824WA0093800939
B2057344747525N12001829WA0093500936
B2057354747523N12001834WA0093300933
B2057364747521N12001840WA0093000931
B2057374747520N12001846WA0092800929
B2057384747518N12001852WA0092500926
B2057394747517N12001857WA0092300925
B2057404747515N12001861WA0092000923
B2057414747514N12001865WA0091900922
B2057424747512N12001869WA0091600920
B2057434747511N12001873WA0091500918
B2057444747509N12001878WA0091200915
B2057454747507N12001882WA0091100912
B2057464747505N12001887WA0090800910
B2057474747504N12001892WA0090600908
B2057484747503N12001896WA0090400907
B2057494747503N12001901WA0090200905
B2057504747504N12001906WA0090000903
B2057514747505N12001912WA0089800901
B2057524747506N12001919WA0089600899
B2057534747507N12001926WA0089400898
B2057544747509N12001932WA0089200897
B2057554747511N12001939WA0089100896
B2057564747513N12001944WA0088900895
B2057574747515N12001950WA0088800894
B2057584747517N12001955WA0088600892
B2057594747520N12001960WA0088500891
B2058004747523N12001966WA0088300889
B2058014747525N12001972WA0088200887
B2058024747528N12001978WA0088000886
B2058034747530N12001983WA0087900885
B2058044747532N12001989WA0087700884
B2058054747534N12001994WA0087600883
B2058064747535N12001999WA0087400883
B2058074747535N12002004WA0087300882
B2058084747536N12002008WA0087200881
B2058094747536N12002013WA0087100879
B2058104747537N12002019WA0086900877
B2058114747537N12002026WA0086800875
B2058114747537N12002026WA0086800875
B2058124747538N12002032WA0086600873
B2058134747539N12002038WA0086500872
B2058144747540N12002044WA0086400871
B2058154747540N12002049WA0086300871
B2058164747540N12002054WA0086100870
B2058174747540N12002059WA0086000868
B2058184747540N12002065WA0085900867
B2058194747540N12002072WA0085800866
B2058204747541N12002078WA0085700865
B2058214747542N12002084WA0085600865
B2058224747543N12002090WA0085500866
B2058234747543N12002094WA0085400866
B2058244747544N12002099WA0085400865
B2058254747544N12002103WA0085300864
B2058264747544N12002109WA0085200863
B2058274747542N12002115WA0085200862
B2058284747541N12002121WA0085100861
B2058294747539N12002127WA0085000860
B2058304747537N12002132WA0085000861
B2058314747535N12002137WA0084900863
B2058324747533N12002140WA0084900864
B2058334747531N12002143WA0084900865
B2058344747529N12002146WA0084900866
B2058354747528N12002150WA0085000866
B2058364747528N12002156WA0085000865
B2058374747530N12002162WA0085000865
B2058384747532N12002168WA0085000865
B2058394747535N12002174WA0085000866
B2058404747538N12002179WA0085000867
B2058414747541N12002183WA0085000869
B2058424747545N12002185WA0085100871
B2058434747550N12002185WA0085200873
B2058444747554N12002182WA0085300875
B2058454747557N12002176WA0085300875
B2058464747559N12002167WA0085400874
B2058474747557N12002157WA0085400872
B2058484747551N12002150WA0085400871
B2058494747544N12002148WA0085400870
B2058504747538N12002150WA0085500873
B2058514747535N12002151WA0085500877
B2058524747532N12002151WA0085700880
B2058534747530N12002150WA0085700881
B2058544747527N12002150WA0085800882
B2058554747524N12002153WA0085900880
B2058564747522N12002159WA0085900877
B2058574747521N12002165WA0085900876
B2058584747522N12002170WA0085900877
B2058594747525N12002173WA0086000878
B2059004747529N12002174WA0086000878
B2059014747534N12002173WA0086000878
B2059024747538N12002171WA0086100879
B2059034747542N12002167WA0086100881
B2059044747545N12002161WA0086100882
B2059054747547N12002153WA0086200882
B2059064747547N12002144WA0086200882
B2059074747545N12002136WA0086300882
B2059084747542N12002129WA0086300884
B2059094747538N12002126WA0086400884
B2059104747534N12002126WA0086400884
B2059114747530N12002128WA0086400883
B2059124747526N12002131WA0086400882
B2059134747522N12002134WA0086400882
B2059144747520N12002136WA0086400882
B2059154747518N12002138WA0086400882
B2059154747518N12002138WA0086400882
B2059164747517N12002143WA0086400881
B2059174747517N12002150WA0086400879
B2059184747519N12002156WA0086400878
B2059194747521N12002162WA0086400879
B2059204747525N12002166WA0086400880
B2059214747528N12002169WA0086400880
B2059224747531N12002172WA0086300880
B2059234747534N12002177WA0086300879
B2059244747538N12002182WA0086300878
B2059254747541N12002189WA0086300878
B2059264747544N12002194WA0086200878
B2059274747547N12002200WA0086200879
B2059284747550N12002205WA0086300881
B2059294747553N12002209WA0086300883
B2059304747556N12002212WA0086400885
B2059314747559N12002215WA0086400887
B2059324747562N12002218WA0086500888
B2059334747567N12002220WA0086600890
B2059344747571N12002223WA0086700890
B2059354747576N12002226WA0086700891
B2059364747581N12002231WA0086800892
B2059374747586N12002236WA0086900893
B2059384747591N12002241WA0087000895
B2059394747596N12002245WA0087100896
B2059404747601N12002249WA0087200898
B2059414747605N12002253WA0087300900
B2059424747611N12002255WA0087500903
B2059434747616N12002256WA0087600907
B2059444747621N12002255WA0087800910
B2059454747626N12002256WA0088000913
B2059464747629N12002258WA0088200916
B2059474747631N12002260WA0088400918
B2059484747633N12002263WA0088600920
B2059494747634N12002266WA0088800923
B2059504747636N12002268WA0089000925
B2059514747636N12002269WA0089200927
B2059524747636N12002271WA0089500930
B2059534747635N12002273WA0089600931
B2059544747634N12002274WA0089900933
B2059554747633N12002275WA0090000935
B2059564747632N12002276WA0090300938
B2059574747632N12002277WA0090400940
B2059584747634N12002279WA0090700940
B2059594747636N12002282WA0090800941
B2100004747640N12002284WA0091000941
B2100014747643N12002286WA0091100943
B2100024747647N12002287WA0091300945
B2100034747651N12002288WA0091400947
B2100044747654N12002289WA0091600949
B2100054747658N12002290WA0091800950
B2100064747662N12002292WA0091900951
B2100074747666N12002294WA0092100953
B2100084747669N12002296WA0092200955
B2100094747672N12002299WA0092400957
B2100104747675N12002301WA0092600959
B2100114747678N12002303WA0092700962
B2100124747680N12002305WA0092900964
B2100134747682N12002307WA0093100966
B2100144747683N12002310WA0093300969
B2100154747683N12002312WA0093500971
B2100164747681N12002314WA0093700972
B2100174747679N12002315WA0093800975
B2100184747677N12002315WA0094100977
B2100194747676N12002315WA0094200979
B2100194747676N12002315WA0094200979
B2100204747676N12002316WA0094500981
B2100214747676N12002319WA0094600983
B2100224747677N12002322WA0094800984
B2100234747680N12002325WA0095000986
B2100244747684N12002327WA0095200988
B2100254747688N12002328WA0095400991
B2100264747692N12002328WA0095600994
B2100274747695N12002328WA0095800996
B2100284747699N12002328WA0096000999
B2100294747702N12002329WA0096201000
B2100304747706N12002331WA0096401002
B2100314747709N12002333WA0096601003
B2100324747712N12002336WA0096801005
B2100334747716N12002339WA0097001008
B2100344747719N12002341WA0097201011
B2100354747723N12002343WA0097401013
B2100364747728N12002344WA0097601016
B2100374747732N12002345WA0097801020
B2100384747736N12002345WA0098101024
B2100394747740N12002345WA0098301027
B2100404747744N12002345WA0098601029
B2100414747749N12002344WA0098801030
B2100424747754N12002344WA0099101031
B2100434747759N12002345WA0099201032
B2100444747764N12002345WA0099501033
B2100454747768N12002345WA0099601035
B2100464747773N12002346WA0099801035
B2100474747777N12002348WA0099901035
B2100484747781N12002350WA0100001034
B2100494747785N12002352WA0100101034
B2100504747790N12002356WA0100201033
B2100514747794N12002359WA0100301034
B2100524747797N12002362WA0100401035
B2100534747798N12002366WA0100501036
B2100544747798N12002370WA0100501036
B2100554747797N12002375WA0100601034
B2100564747796N12002381WA0100601033
B2100574747795N12002386WA0100601033
B2100584747794N12002391WA0100701034
B2100594747793N12002394WA0100701035
B2101004747791N12002397WA0100801037
B2101014747789N12002399WA0100801039
B2101024747787N12002401WA0100901040
B2101034747783N12002403WA0101001042
B2101044747780N12002404WA0101101043
B2101054747777N12002405WA0101201046
B2101064747774N12002405WA0101401048
B2101074747772N12002405WA0101501050
B2101084747770N12002405WA0101701051
B2101094747767N12002404WA0101801051
B2101104747764N12002402WA0101801050
B2101114747761N12002401WA0101901048
B2101124747757N12002399WA0101901046
B2101134747754N12002397WA0101901045
B2101144747751N12002395WA0101901044
B2101154747749N12002394WA0101901043
B2101164747747N12002394WA0101901041
B2101174747745N12002395WA0101801039
B2101184747743N12002398WA0101701036
B2101194747741N12002401WA0101601033
B2101204747739N12002403WA0101501030
B2101214747737N12002404WA0101401029
B2101224747734N12002405WA0101301028
B2101234747731N12002405WA0101201027
B2101234747731N12002405WA0101201027
B2101244747728N12002406WA0101001026
B2101254747726N12002408WA0101001025
B2101264747723N12002410WA0100801024
B2101274747721N12002411WA0100801025
B2101284747721N12002412WA0100701026
B2101294747721N12002413WA0100701027
B2101304747724N12002414WA0100601026
B2101314747728N12002416WA0100601025
B2101324747733N12002416WA0100501024
B2101334747739N12002413WA0100401024
B2101344747745N12002409WA0100401025
B2101354747751N12002404WA0100401026
B2101364747756N12002400WA0100401027
B2101374747762N12002394WA0100401027
B2101384747767N12002389WA0100301025
B2101394747773N12002383WA0100301024
B2101404747780N12002378WA0100201023
B2101414747786N12002372WA0100201021
B2101424747792N12002367WA0100101020
B2101434747799N12002362WA0100001019
B2101444747805N12002356WA0099901019
B2101454747811N12002351WA0099901018
B2101464747817N12002347WA0099801018
B2101474747823N12002345WA0099701018
B2101484747829N12002344WA0099701018
B2101494747836N12002343WA0099601018
B2101504747842N12002341WA0099601019
B2101514747848N12002339WA0099601019
B2101524747854N12002339WA0099601020
B2101534747860N12002340WA0099501019
B2101544747866N12002343WA0099501019
B2101554747872N12002347WA0099501020
B2101564747878N12002349WA0099601023
B2101574747882N12002351WA0099601025
B2101584747886N12002352WA0099701028
B2101594747890N12002354WA0099801030
B2102004747894N12002356WA0099901032
B2102014747897N12002358WA0100001033
B2102024747899N12002361WA0100101035
B2102034747902N12002363WA0100201037
B2102044747904N12002366WA0100401039
B2102054747907N12002368WA0100501040
B2102064747910N12002371WA0100701042
B2102074747913N12002373WA0100801044
B2102084747917N12002377WA0101001046
B2102094747920N12002380WA0101101048
B2102104747922N12002382WA0101301050
B2102114747924N12002383WA0101401051
B2102124747926N12002386WA0101501051
B2102134747928N12002389WA0101601050
B2102144747930N12002393WA0101701050
B2102154747932N12002397WA0101801050
B2102164747934N12002401WA0101901051
B2102174747935N12002405WA0102001052
B2102184747935N12002409WA0102101055
B2102194747935N12002412WA0102201057
B2102204747934N12002414WA0102401061
B2102214747933N12002414WA0102501064
B2102224747931N12002414WA0102701067
B2102234747930N12002414WA0102901070
B2102244747929N12002415WA0103201073
B2102254747929N12002417WA0103301075
B2102264747928N12002420WA0103501075
B2102274747928N12002423WA0103701075
B2102274747928N12002423WA0103701075
B2102284747928N12002427WA0103901075
B2102294747926N12002430WA0103901075
B2102304747923N12002433WA0104101075
B2102314747920N12002434WA0104201076
B2102324747917N12002434WA0104301078
B2102334747914N12002432WA0104401080
B2102344747911N12002428WA0104601081
B2102354747908N12002423WA0104701082
B2102364747906N12002417WA0104801082
B2102374747904N12002410WA0104901082
B2102384747904N12002401WA0105001082
B2102394747906N12002391WA0105001081
B2102404747910N12002382WA0105101081
B2102414747915N12002376WA0105101081
B2102424747921N12002373WA0105201082
B2102434747927N12002371WA0105201085
B2102444747932N12002369WA0105401087
B2102454747938N12002367WA0105501089
B2102464747943N12002366WA0105601092
B2102474747949N12002366WA0105701094
B2102484747955N12002366WA0105901097
B2102494747960N12002368WA0106001100
B2102504747964N12002370WA0106201102
B2102514747967N12002373WA0106401105
B2102524747969N12002377WA0106601106
B2102534747971N12002381WA0106701107
B2102544747972N12002385WA0106901108
B2102554747971N12002389WA0107001109
B2102564747969N12002392WA0107201111
B2102574747967N12002392WA0107401114
B2102584747964N12002391WA0107601117
B2102594747962N12002389WA0107701119
B2103004747960N12002387WA0107901119
B2103014747958N12002387WA0108001118
B2103024747955N12002388WA0108101116
B2103034747952N12002390WA0108101115
B2103044747951N12002393WA0108201114
B2103054747951N12002396WA0108201113
B2103064747953N12002399WA0108301112
B2103074747955N12002402WA0108301111
B2103084747958N12002404WA0108201109
B2103094747962N12002407WA0108201106
B2103104747966N12002410WA0108101103
B2103114747970N12002414WA0108001100
B2103124747973N12002418WA0107901099
B2103134747974N12002421WA0107801098
B2103144747974N12002424WA0107601096
B2103154747973N12002427WA0107501094
B2103164747973N12002430WA0107401091
B2103174747971N12002433WA0107301089
B2103184747968N12002434WA0107101086
B2103194747965N12002435WA0106901084
B2103204747962N12002435WA0106701083
B2103214747959N12002435WA0106601082
B2103224747956N12002435WA0106401081
B2103234747954N12002433WA0106301080
B2103244747951N12002431WA0106201079
B2103254747947N12002427WA0106001077
B2103264747944N12002423WA0105901074
B2103274747940N12002417WA0105701071
B2103284747936N12002411WA0105501069
B2103294747933N12002406WA0105401067
B2103304747930N12002400WA0105201066
B2103314747927N12002395WA0105001065
B2103314747927N12002395WA0105001065
B2103324747924N12002391WA0104801063
B2103334747921N12002387WA0104701060
B2103344747917N12002383WA0104501057
B2103354747913N12002379WA0104301055
B2103364747910N12002376WA0104101053
B2103374747907N12002374WA0103901051
B2103384747904N12002373WA0103701049
B2103394747902N12002373WA0103501047
B2103404747899N12002374WA0103301044
B2103414747897N12002374WA0103101041
B2103424747894N12002375WA0102901039
B2103434747892N12002376WA0102701036
B2103444747890N12002378WA0102401033
B2103454747887N12002380WA0102201030
B2103464747883N12002382WA0102001027
B2103474747879N12002383WA0101801025
B2103484747876N12002384WA0101501023
B2103494747873N12002385WA0101301021
B2103504747870N12002385WA0101101020
B2103514747866N12002384WA0100901018
B2103524747862N12002381WA0100701015
B2103534747858N12002375WA0100501012
B2103544747853N12002368WA0100201008
B2103554747850N12002359WA0100001006
B2103564747846N12002350WA0099701004
B2103574747843N12002341WA0099601002
B2103584747840N12002333WA0099301000
B2103594747837N12002324WA0099100998
B2104004747834N12002315WA0098900996
B2104014747831N12002306WA0098700994
B2104024747828N12002296WA0098400992
B2104034747826N12002287WA0098300990
B2104044747823N12002277WA0098000988
B2104054747821N12002267WA0097800986
B2104064747819N12002257WA0097600983
B2104074747816N12002248WA0097400981
B2104084747813N12002239WA0097100979
B2104094747811N12002229WA0097000977
B2104104747808N12002219WA0096700975
B2104114747805N12002210WA0096500973
B2104124747802N12002200WA0096300971
B2104134747800N12002191WA0096100969
B2104144747797N12002182WA0095900966
B2104154747794N12002173WA0095700964
B2104164747791N12002162WA0095400961
B2104174747788N12002152WA0095200958
B2104184747786N12002141WA0095000956
B2104194747782N12002130WA0094800954
B2104204747779N12002120WA0094500953
B2104214747775N12002109WA0094400950
B2104224747772N12002098WA0094100948
B2104234747770N12002085WA0094000947
B2104244747768N12002073WA0093700946
B2104254747767N12002060WA0093600946
B2104264747766N12002047WA0093400946
B2104274747765N12002034WA0093300946
B2104284747764N12002021WA0093200946
B2104294747763N12002009WA0093100947
B2104304747762N12002001WA0093100949
B2104314747761N12001993WA0093000948
B2104324747759N12001984WA0092900946
B2104334747758N12001972WA0092800941
B2104344747755N12001957WA0092600936
B2104354747753N12001944WA0092500934
B2104354747753N12001944WA0092500934
B2104364747751N12001933WA0092400936
B2104374747748N12001925WA0092300938
B2104384747746N12001917WA0092200938
B2104394747742N12001910WA0092200937
B2104404747738N12001903WA0092100935
B2104414747732N12001896WA0091900932
B2104424747724N12001891WA0091800928
B2104434747717N12001888WA0091600924
B2104444747710N12001887WA0091400922
B2104454747704N12001887WA0091300921
B2104464747699N12001887WA0091100922
B2104474747694N12001885WA0091000924
B2104484747690N12001882WA0090900925
B2104494747686N12001879WA0090900926
B2104504747682N12001876WA0090800926
B2104514747678N12001873WA0090700925
B2104524747674N12001871WA0090600923
B2104534747670N12001868WA0090600921
B2104544747666N12001864WA0090400918
B2104554747662N12001861WA0090300916
B2104564747658N12001859WA0090100914
B2104574747654N12001856WA0090000911
B2104584747650N12001853WA0089800908
B2104594747646N12001849WA0089700906
B2105004747643N12001845WA0089500904
B2105014747639N12001840WA0089300903
B2105024747635N12001837WA0089100901
B2105034747631N12001833WA0089000900
B2105044747628N12001829WA0088800898
B2105054747623N12001825WA0088700897
B2105064747620N12001822WA0088500895
B2105074747616N12001818WA0088400893
B2105084747613N12001815WA0088200890
B2105094747609N12001812WA0088000887
B2105104747605N12001808WA0087800884
B2105114747601N12001804WA0087600881
B2105124747597N12001798WA0087400879
B2105134747593N12001792WA0087200877
B2105144747590N12001785WA0086900875
B2105154747587N12001777WA0086800874
B2105164747584N12001769WA0086500871
B2105174747581N12001762WA0086400868
B2105184747578N12001754WA0086100865
B2105194747575N12001744WA0085900862
B2105204747573N12001734WA0085600859
B2105214747571N12001724WA0085400856
B2105224747569N12001714WA0085200854
B2105234747567N12001705WA0085000852
B2105244747565N12001695WA0084700849
B2105254747564N12001685WA0084500846
B2105264747563N12001673WA0084200842
B2105274747562N12001661WA0084000839
B2105284747562N12001650WA0083600836
B2105294747562N12001639WA0083400834
B2105304747562N12001628WA0083100831
B2105314747563N12001617WA0082900828
B2105324747563N12001605WA0082500824
B2105334747564N12001592WA0082300820
B2105344747564N12001578WA0081900817
B2105354747564N12001565WA0081700815
B2105364747565N12001553WA0081400814
B2105374747566N12001542WA0081200814
B2105384747567N12001531WA0081000813
B2105394747568N12001520WA0080800813
B2105404747568N12001509WA0080600811
B2105404747568N12001509WA0080600811
B2105414747567N12001498WA0080500810
B2105424747566N12001487WA0080300808
B2105434747565N12001475WA0080100807
B2105444747564N12001463WA0079900806
B2105454747563N12001452WA0079800806
B2105464747562N12001440WA0079700805
B2105474747562N12001429WA0079600806
B2105484747561N12001419WA0079500805
B2105494747561N12001408WA0079400805
B2105504747561N12001397WA0079300804
B2105514747561N12001386WA0079200803
B2105524747561N12001374WA0079000801
B2105534747561N12001362WA0078900800
B2105544747560N12001350WA0078800798
B2105554747560N12001338WA0078700798
B2105564747560N12001326WA0078600798
B2105574747559N12001314WA0078600799
B2105584747559N12001303WA0078500799
B2105594747557N12001292WA0078500798
B2106004747557N12001281WA0078400798
B2106014747556N12001270WA0078300797
B2106024747555N12001258WA0078300796
B2106034747554N12001245WA0078200795
B2106044747553N12001232WA0078100795
B2106054747552N12001220WA0078100795
B2106064747552N12001208WA0078100795
B2106074747553N12001196WA0078000794
B2106084747554N12001183WA0078000793
B2106094747555N12001170WA0077900793
B2106104747557N12001157WA0077800792
B2106114747559N12001145WA0077800792
B2106124747562N12001133WA0077800792
B2106134747564N12001121WA0077700792
B2106144747567N12001109WA0077700791
B2106154747570N12001097WA0077600790
B2106164747573N12001084WA0077600789
B2106174747576N12001071WA0077500788
B2106184747580N12001059WA0077500789
B2106194747585N12001048WA0077500791
B2106204747588N12001038WA0077500792
B2106214747591N12001028WA0077500792
B2106224747592N12001017WA0077500792
B2106234747592N12001005WA0077500790
B2106244747590N12000994WA0077400788
B2106254747586N12000985WA0077400787
B2106264747582N12000979WA0077400786
B2106274747578N12000976WA0077300787
B2106284747575N12000975WA0077300787
B2106294747573N12000975WA0077300788
B2106304747571N12000977WA0077300789
B2106314747569N12000978WA0077300790
B2106324747568N12000980WA0077400791
B2106334747568N12000982WA0077400793
B2106344747568N12000983WA0077500794
B2106354747570N12000986WA0077500794
B2106364747572N12000988WA0077600794
B2106374747576N12000991WA0077600794
B2106384747581N12000993WA0077600793
B2106394747588N12000992WA0077600793
B2106404747595N12000988WA0077600792
B2106414747602N12000980WA0077600791
B2106424747609N12000970WA0077600789
B2106434747615N12000960WA0077600788
B2106444747621N12000949WA0077500786
B2106444747621N12000949WA0077500786
B2106454747626N12000939WA0077500786
B2106464747632N12000929WA0077400785
B2106474747638N12000919WA0077400784
B2106484747645N12000910WA0077300782
B2106494747652N12000900WA0077200780
B2106504747659N12000890WA0077100779
B2106514747664N12000880WA0077000779
B2106524747669N12000869WA0077000780
B2106534747673N12000859WA0077000781
B2106544747676N12000848WA0076900781
B2106554747678N12000837WA0076900782
B2106564747681N12000826WA0076900782
B2106574747683N12000815WA0076900782
B2106584747684N12000804WA0076800782
B2106594747685N12000793WA0076800781
B2107004747687N12000781WA0076800780
B2107014747689N12000770WA0076800779
B2107024747691N12000759WA0076700778
B2107034747694N12000749WA0076600777
B2107044747697N12000739WA0076600775
B2107054747699N12000728WA0076500773
B2107064747701N12000718WA0076400771
B2107074747703N12000707WA0076300770
B2107084747706N12000697WA0076100769
B2107094747709N12000689WA0076100768
B2107104747714N12000682WA0076000767
B2107114747719N12000676WA0075900766
B2107124747726N12000673WA0075800765
B2107134747732N12000671WA0075700764
B2107144747738N12000669WA0075600763
B2107154747745N12000667WA0075500763
B2107164747751N12000666WA0075400763
B2107174747757N12000665WA0075300763
B2107184747763N12000663WA0075300762
B2107194747768N12000660WA0075200761
B2107204747774N12000656WA0075100759
B2107214747780N12000651WA0075000757
B2107224747785N12000645WA0074800755
B2107234747791N12000638WA0074800753
B2107244747796N12000631WA0074600752
B2107254747801N12000623WA0074500750
B2107264747806N12000615WA0074400749
B2107274747812N12000608WA0074300749
B2107284747818N12000602WA0074200749
B2107294747824N12000598WA0074200750
B2107304747829N12000595WA0074100749
B2107314747834N12000591WA0074000748
B2107324747838N12000585WA0073900745
B2107334747841N12000577WA0073800741
B2107344747844N12000569WA0073600737
B2107354747846N12000561WA0073400735
B2107364747848N12000553WA0073300734
B2107374747850N12000545WA0073100731
B2107384747852N12000537WA0072900729
B2107394747852N12000529WA0072700726
B2107404747852N12000520WA0072500723
B2107414747850N12000512WA0072400721
B2107424747850N12000504WA0072100719
B2107434747849N12000496WA0072000719
B2107444747850N12000490WA0071800719
B2107454747850N12000485WA0071700717
B2107464747850N12000479WA0071400714
B2107474747849N12000472WA0071300709
B2107474747849N12000472WA0071300709
B2107484747847N12000464WA0071000705
B2107494747847N12000455WA0070800701
B2107504747847N12000446WA0070500699
B2107514747847N12000437WA0070300697
B2107524747848N12000428WA0070000694
B2107534747848N12000421WA0069700692
B2107544747848N12000413WA0069500689
B2107554747848N12000404WA0069300687
B2107564747849N12000396WA0069000685
B2107574747850N12000388WA0068800683
B2107584747851N12000380WA0068500681
B2107594747851N12000371WA0068300678
B2108004747850N12000362WA0068000675
B2108014747851N12000353WA0067800673
B2108024747851N12000344WA0067600672
B2108034747852N12000336WA0067400671
B2108044747853N12000329WA0067200670
B2108054747854N12000321WA0067100669
B2108064747855N12000313WA0066800668
B2108074747856N12000304WA0066700666
B2108084747858N12000295WA0066500664
B2108094747861N12000286WA0066400663
B2108104747863N12000277WA0066200662
B2108114747865N12000268WA0066000660
B2108124747867N12000258WA0065800658
B2108134747869N12000248WA0065700656
B2108144747872N12000237WA0065500654
B2108154747874N12000226WA0065400652
B2108164747876N12000216WA0065200651
B2108174747878N12000207WA0065000649
B2108184747880N12000197WA0064800648
B2108194747882N12000188WA0064700646
B2108204747885N12000178WA0064500643
B2108214747887N12000168WA0064300641
B2108224747889N12000157WA0064200640
B2108234747891N12000146WA0064000639
B2108244747893N12000135WA0063900639
B2108254747896N12000125WA0063800639
B2108264747898N12000116WA0063700640
B2108274747901N12000108WA0063600641
B2108284747903N12000100WA0063600641
B2108294747904N12000091WA0063500640
B2108304747906N12000082WA0063400639
B2108314747907N12000072WA0063400638
B2108324747909N12000063WA0063300638
B2108334747911N12000054WA0063200638
B2108344747913N12000046WA0063200637
B2108354747914N12000038WA0063100636
B2108364747915N12000030WA0063100635
B2108374747916N12000021WA0063000633
B2108384747916N12000012WA0062900632
B2108394747917N12000003WA0062800630
B2108404747919N11959993WA0062700630
B2108414747921N11959984WA0062700630
B2108424747923N11959976WA0062600630
B2108434747924N11959971WA0062500629
B2108444747924N11959966WA0062400626
B2108454747923N11959959WA0062300621
B2108464747921N11959952WA0062100616
B2108474747919N11959944WA0061900613
B2108484747918N11959936WA0061700611
B2108494747917N11959930WA0061500609
B2108504747917N11959924WA0061300607
B2108514747916N11959917WA0061100605
B2108514747916N11959917WA0061100605
B2108524747915N11959910WA0060800601
B2108534747914N11959903WA0060700598
B2108544747913N11959895WA0060400594
B2108554747912N11959887WA0060100591
B2108564747911N11959879WA0059800588
B2108574747910N11959871WA0059600585
B2108584747909N11959863WA0059300582
B2108594747909N11959855WA0059100580
B2109004747910N11959847WA0058800577
B2109014747910N11959838WA0058500574
B2109024747911N11959829WA0058200571
B2109034747912N11959820WA0058000569
B2109044747913N11959811WA0057700566
B2109054747914N11959802WA0057500564
B2109064747914N11959794WA0057200561
B2109074747914N11959785WA0056900558
B2109084747914N11959776WA0056600555
B2109094747914N11959766WA0056400552
B2109104747914N11959756WA0056100549
B2109114747915N11959746WA0055900548
B2109124747916N11959737WA0055600548
B2109134747917N11959729WA0055500549
B2109144747918N11959722WA0055300548
B2109154747918N11959716WA0055100548
B2109164747917N11959708WA0054900546
B2109174747917N11959701WA0054800544
B2109184747916N11959693WA0054600543
B2109194747916N11959685WA0054500541
B2109204747916N11959677WA0054300540
B2109214747916N11959669WA0054200539
B2109224747916N11959661WA0054000537
B2109234747916N11959653WA0053900535
B2109244747915N11959646WA0053700533
B2109254747914N11959639WA0053600532
B2109264747913N11959632WA0053400532
B2109274747913N11959625WA0053300531
B2109284747912N11959618WA0053100530
B2109294747912N11959612WA0053000528
B2109304747911N11959605WA0052800526
B2109314747910N11959597WA0052700523
B2109324747909N11959589WA0052500520
B2109334747908N11959581WA0052400518
B2109344747907N11959573WA0052200516
B2109354747907N11959566WA0052000514
B2109364747906N11959559WA0051800512
B2109374747905N11959553WA0051600510
B2109384747905N11959546WA0051400507
B2109394747903N11959538WA0051200503
B2109404747902N11959530WA0051000500
B2109414747900N11959521WA0050800496
B2109424747899N11959511WA0050500493
B2109434747898N11959502WA0050300491
B2109444747898N11959493WA0050000488
B2109454747898N11959485WA0049800485
B2109464747897N11959476WA0049500482
B2109474747895N11959468WA0049200478
B2109484747894N11959461WA0048900474
B2109494747892N11959454WA0048700470
B2109504747890N11959446WA0048300466
B2109514747889N11959439WA0048000462
B2109524747887N11959430WA0047600458
B2109534747886N11959422WA0047400455
B2109544747886N11959414WA0047000452
B2109554747885N11959406WA0046800449
B2109554747885N11959406WA0046800449
B2109564747885N11959399WA0046400447
B2109574747883N11959392WA0046100444
B2109584747882N11959385WA0045800441
B2109594747880N11959378WA0045600438
B2110004747879N11959371WA0045200435
B2110014747877N11959363WA0045000433
B2110024747876N11959356WA0044700430
B2110034747875N11959350WA0044400428
B2110044747873N11959343WA0044100425
B2110054747872N11959336WA0043900423
B2110064747870N11959329WA0043600420
B2110074747868N11959322WA0043400417
B2110084747866N11959315WA0043100414
B2110094747864N11959307WA0042900411
B2110104747863N11959298WA0042500408
B2110114747862N11959290WA0042300406
B2110124747861N11959282WA0042000403
B2110134747860N11959273WA0041800400
B2110144747859N11959264WA0041500397
B2110154747858N11959255WA0041300394
B2110164747858N11959246WA0041000392
B2110174747858N11959237WA0040800389
B2110184747858N11959228WA0040500387
B2110194747858N11959220WA0040300385
B2110204747858N11959212WA0040000383
B2110214747857N11959204WA0039800380
B2110224747857N11959197WA0039500378
B2110234747856N11959189WA0039300375
B2110244747855N11959181WA0039000372
B2110254747855N11959173WA0038800371
B2110264747854N11959164WA0038600369
B2110274747852N11959156WA0038400368
B2110284747851N11959148WA0038200368
B2110294747850N11959140WA0038100367
B2110304747850N11959132WA0037900367
B2110314747849N11959123WA0037800367
B2110324747849N11959115WA0037600366
B2110334747850N11959106WA0037500365
B2110344747851N11959097WA0037400364
B2110354747853N11959088WA0037300364
B2110364747856N11959080WA0037200364
B2110374747859N11959072WA0037100364
B2110384747862N11959064WA0037100364
B2110394747865N11959057WA0037000364
B2110404747867N11959050WA0036900363
B2110414747870N11959043WA0036900361
B2110424747874N11959035WA0036700359
B2110434747878N11959029WA0036600357
B2110444747882N11959022WA0036500355
B2110454747887N11959015WA0036400353
B2110464747892N11959008WA0036200351
B2110474747897N11959001WA0036100350
B2110484747902N11958994WA0036000349
B2110494747908N11958989WA0035900347
B2110504747914N11958984WA0035700346
B2110514747920N11958980WA0035600345
B2110524747926N11958978WA0035500345
B2110534747933N11958977WA0035400345
B2110544747939N11958977WA0035300345
B2110554747944N11958977WA0035200345
B2110564747949N11958977WA0035100346
B2110574747953N11958978WA0035100345
B2110584747957N11958978WA0035000344
B2110594747962N11958979WA0034900342
B2110594747962N11958979WA0034900342
B2111004747968N11958979WA0034800340
B2111014747973N11958980WA0034700338
B2111024747977N11958982WA0034600337
B2111034747981N11958985WA0034500336
B2111044747985N11958988WA0034300333
B2111054747987N11958991WA0034200331
B2111064747990N11958996WA0034000326
B2111074747994N11959000WA0033900323
B2111084747997N11959005WA0033600320
B2111094747999N11959009WA0033500318
B2111104748002N11959013WA0033200316
B2111114748005N11959016WA0033100314
B2111124748008N11959020WA0032800311
B2111134748011N11959025WA0032600308
B2111144748013N11959029WA0032400305
B2111154748015N11959034WA0032200303
B2111164748016N11959037WA0032000301
B2111174748016N11959041WA0031800299
B2111184748015N11959044WA0031500297
B2111194748013N11959046WA0031400296
B2111204748011N11959048WA0031100294
B2111214748008N11959049WA0031000292
B2111224748004N11959049WA0030800290
B2111234747999N11959048WA0030700289
B2111244747995N11959046WA0030500288
B2111254747992N11959042WA0030300287
B2111264747990N11959037WA0030100286
B2111274747987N11959032WA0030000284
B2111284747984N11959026WA0029800280
B2111294747981N11959019WA0029600278
B2111304747977N11959015WA0029400276
B2111314747974N11959012WA0029300276
B2111324747971N11959013WA0029100274
B2111334747968N11959015WA0028900271
B2111344747967N11959019WA0028600267
B2111354747968N11959024WA0028500264
B2111364747970N11959029WA0028300262
B2111374747974N11959033WA0028100262
B2111384747977N11959035WA0027900262
B2111394747979N11959038WA0027800262
B2111404747980N11959042WA0027600260
B2111414747980N11959047WA0027500259
B2111424747980N11959051WA0027300258
B2111434747980N11959055WA0027200256
B2111444747980N11959059WA0027100255
B2111454747980N11959062WA0026900253
B2111464747978N11959065WA0026800251
B2111474747975N11959067WA0026700250
B2111484747971N11959065WA0026500251
B2111494747967N11959063WA0026300251
B2111504747963N11959063WA0026200252
B2111514747961N11959064WA0026000250
B2111524747959N11959067WA0025900249
B2111534747956N11959070WA0025700249
B2111544747953N11959073WA0025500248
B2111554747951N11959075WA0025400246
B2111564747948N11959079WA0025200243
B2111574747945N11959082WA0025000242
B2111584747942N11959086WA0024800240
B2111594747938N11959091WA0024600239
B2112004747934N11959096WA0024400238
B2112014747931N11959100WA0024300239
B2112024747927N11959103WA0024200239
B2112034747925N11959104WA0024100238
B2112034747925N11959104WA0024100238
B2112044747923N11959107WA0023900237
B2112054747921N11959110WA0023800235
B2112064747919N11959112WA0023700235
B2112074747918N11959113WA0023600235
B2112084747918N11959113WA0023500234
B2112094747918N11959114WA0023500234
B2112104747918N11959114WA0023400234
B2112114747918N11959114WA0023400233
B2112124747918N11959114WA0023300233
B2112134747918N11959114WA0023300233
B2112144747918N11959114WA0023200232
B2112154747917N11959114WA0023200232
B2112164747917N11959113WA0023200231
B2112174747917N11959113WA0023200231
B2112184747917N11959113WA0023100230
B2112194747917N11959113WA0023100230
B2112204747917N11959113WA0023100230
B2112214747917N11959113WA0023100229
B2112224747917N11959113WA0023100229
B2112234747917N11959113WA0023100229
B2112244747917N11959113WA0023100229
B2112254747916N11959113WA0023100229
B2112264747916N11959113WA0023000229
B2112274747916N11959113WA0023000229
B2112284747916N11959113WA0023000229
B2112294747916N11959114WA0023000228
B2112304747917N11959113WA0023000228
B2112314747917N11959114WA0023000228
B2112324747917N11959114WA0023000228
B2112334747918N11959114WA0023000227
B2112344747918N11959114WA0023000227
B2112354747918N11959114WA0023000227
B2112364747918N11959114WA0023000227
B2112374747919N11959114WA0023000226
B2112384747919N11959114WA0023000226
B2112394747919N11959114WA0023000226
B2112404747919N11959114WA0023000226
B2112414747919N11959114WA0023000225
B2112424747919N11959114WA0023000225
B2112434747919N11959114WA0023000225
B2112444747919N11959115WA0023000225
B2112454747919N11959115WA0023000225
B2112464747920N11959115WA0023000225
B2112474747920N11959115WA0023000224
B2112484747920N11959115WA0023000224
B2112494747920N11959116WA0023000223
B2112504747920N11959117WA0023000223
B2112514747920N11959118WA0023000221
B2112524747920N11959120WA0023000220
B2112534747921N11959121WA0023000219
B2112544747921N11959122WA0023000217
B2112554747920N11959123WA0023000216
B2112564747920N11959124WA0023000215
B2112574747920N11959125WA0023000213
B2112584747920N11959127WA0023000212
B2112594747920N11959127WA0023000211
B2113004747920N11959127WA0023000211
B2113014747920N11959126WA0023000210
B2113024747920N11959126WA0023000210
B2113034747920N11959126WA0023000210
B2113044747919N11959126WA0023000210
B2113054747920N11959125WA0023000210
B2113064747920N11959125WA0023000210
B2113074747920N11959125WA0023000210
