AXFMSFP Flymaster Live, V1.0
HFFXA010
HFPLTPILOT:Joseph Giglio
HFGTYGLIDERTYPE:Bogdan Fly Cocon V3 / Phi Maestro 2
HFGIDGLIDERID:
HFDTM100GPSDATUM:WGS-1984
HFCIDCOMPETITIONID:7171
HFCCLCOMPETITIONCLASS:
HOSITSITE:LAUNCH
HFGPS:UBLOXNEO6
HFPRSPRESSALTSENSOR:NA
HFRFWFIRMWAREVERSION:202g
HFRHWHARDWAREVERSION:1.0R2
HFFTYFRTYPE:FLYMASTER,LIVE
HFDTE170625
B2033394748232N12002402WA0109001120
B2033404748230N12002406WA0108901120
B2033414748229N12002408WA0108901120
B2033424748227N12002410WA0108901121
B2033434748226N12002412WA0108801120
B2033444748225N12002414WA0108801119
B2033454748223N12002418WA0108801117
B2033464748221N12002422WA0108701116
B2033474748220N12002426WA0108601116
B2033484748218N12002429WA0108601117
B2033494748217N12002431WA0108601116
B2033504748215N12002433WA0108501115
B2033514748213N12002436WA0108401113
B2033524748209N12002439WA0108401112
B2033534748206N12002442WA0108301111
B2033544748204N12002444WA0108301113
B2033554748202N12002446WA0108201115
B2033564748199N12002447WA0108201116
B2033574748197N12002448WA0108201116
B2033584748194N12002449WA0108201114
B2033594748191N12002450WA0108101111
B2034004748188N12002451WA0108101109
B2034014748185N12002453WA0108001108
B2034024748181N12002454WA0108001107
B2034034748179N12002455WA0107901107
B2034044748178N12002457WA0107801107
B2034054748176N12002458WA0107701107
B2034064748173N12002459WA0107701107
B2034074748170N12002461WA0107601107
B2034084748167N12002463WA0107601106
B2034094748164N12002465WA0107501107
B2034104748162N12002467WA0107501107
B2034114748159N12002469WA0107501108
B2034124748157N12002470WA0107501108
B2034134748154N12002472WA0107501107
B2034144748151N12002475WA0107401104
B2034154748147N12002478WA0107301101
B2034164748144N12002480WA0107301100
B2034174748142N12002481WA0107301099
B2034184748139N12002483WA0107201098
B2034194748136N12002484WA0107201097
B2034204748133N12002485WA0107101094
B2034214748130N12002487WA0107001092
B2034224748127N12002488WA0106901090
B2034234748124N12002490WA0106801089
B2034244748122N12002492WA0106701088
B2034254748120N12002495WA0106601086
B2034264748118N12002498WA0106501083
B2034274748117N12002501WA0106301081
B2034284748115N12002505WA0106201079
B2034294748115N12002509WA0106001077
B2034304748114N12002512WA0105901075
B2034314748113N12002516WA0105701074
B2034324748111N12002519WA0105601073
B2034334748109N12002522WA0105401071
B2034344748108N12002526WA0105301070
B2034354748106N12002529WA0105101069
B2034364748104N12002532WA0105001067
B2034374748101N12002534WA0104801066
B2034384748099N12002537WA0104701065
B2034394748097N12002540WA0104501064
B2034404748095N12002544WA0104401062
B2034414748092N12002547WA0104301060
B2034424748088N12002549WA0104101059
B2034424748088N12002549WA0104101059
B2034434748084N12002550WA0104001057
B2034444748080N12002552WA0103901055
B2034454748076N12002553WA0103701053
B2034464748072N12002554WA0103601051
B2034474748068N12002555WA0103401049
B2034484748064N12002556WA0103301047
B2034494748060N12002557WA0103101045
B2034504748056N12002558WA0102901043
B2034514748052N12002560WA0102701041
B2034524748049N12002562WA0102601038
B2034534748045N12002564WA0102301037
B2034544748042N12002565WA0102201035
B2034554748039N12002567WA0102001033
B2034564748036N12002570WA0101801030
B2034574748032N12002573WA0101601027
B2034584748029N12002575WA0101401025
B2034594748025N12002578WA0101201024
B2035004748021N12002579WA0101001022
B2035014748017N12002581WA0100801020
B2035024748014N12002584WA0100701017
B2035034748010N12002587WA0100401014
B2035044748007N12002590WA0100201012
B2035054748004N12002593WA0100001010
B2035064748001N12002596WA0099801008
B2035074747997N12002599WA0099501006
B2035084747994N12002602WA0099301003
B2035094747991N12002604WA0099001002
B2035104747987N12002606WA0098901000
B2035114747983N12002608WA0098600998
B2035124747979N12002609WA0098400996
B2035134747975N12002610WA0098100993
B2035144747971N12002610WA0097900991
B2035154747968N12002611WA0097700988
B2035164747964N12002614WA0097500985
B2035174747960N12002616WA0097200983
B2035184747956N12002619WA0097000981
B2035194747952N12002622WA0096700980
B2035204747947N12002625WA0096600979
B2035214747942N12002628WA0096300978
B2035224747938N12002632WA0096200976
B2035234747935N12002635WA0095900975
B2035244747931N12002639WA0095800974
B2035254747927N12002643WA0095600973
B2035264747923N12002647WA0095500972
B2035274747919N12002651WA0095400971
B2035284747916N12002655WA0095300972
B2035294747913N12002657WA0095200972
B2035304747909N12002659WA0095100973
B2035314747905N12002661WA0095100974
B2035324747901N12002662WA0095000974
B2035334747896N12002664WA0095000974
B2035344747892N12002667WA0095000973
B2035354747888N12002670WA0095000972
B2035364747884N12002673WA0095000972
B2035374747879N12002675WA0095000971
B2035384747874N12002678WA0095000970
B2035394747870N12002682WA0094900970
B2035404747865N12002687WA0094900969
B2035414747860N12002691WA0094900969
B2035424747854N12002693WA0094900968
B2035434747849N12002696WA0094900969
B2035444747844N12002700WA0094800969
B2035454747839N12002705WA0094800970
B2035464747834N12002709WA0094800971
B2035464747834N12002709WA0094800971
B2035474747828N12002713WA0094800972
B2035484747823N12002717WA0094900975
B2035494747819N12002722WA0095000977
B2035504747815N12002727WA0095100978
B2035514747811N12002732WA0095200979
B2035524747808N12002737WA0095300980
B2035534747806N12002741WA0095500980
B2035544747804N12002747WA0095700981
B2035554747802N12002753WA0095800982
B2035564747799N12002759WA0095900982
B2035574747796N12002764WA0096100983
B2035584747794N12002768WA0096200985
B2035594747791N12002771WA0096400985
B2036004747788N12002775WA0096500986
B2036014747785N12002780WA0096700986
B2036024747781N12002785WA0096800987
B2036034747779N12002788WA0096900989
B2036044747776N12002790WA0097000991
B2036054747774N12002791WA0097100992
B2036064747771N12002794WA0097300993
B2036074747768N12002797WA0097400993
B2036084747765N12002800WA0097500993
B2036094747762N12002801WA0097500995
B2036104747759N12002801WA0097700996
B2036114747755N12002800WA0097700997
B2036124747752N12002798WA0097800996
B2036134747748N12002794WA0097900996
B2036144747744N12002791WA0097900997
B2036154747740N12002788WA0098000997
B2036164747737N12002784WA0098000998
B2036174747733N12002781WA0098000999
B2036184747730N12002776WA0098100999
B2036194747727N12002771WA0098101000
B2036204747723N12002765WA0098201001
B2036214747721N12002759WA0098201002
B2036224747719N12002752WA0098201002
B2036234747718N12002745WA0098201002
B2036244747717N12002737WA0098301002
B2036254747718N12002731WA0098301003
B2036264747720N12002725WA0098301005
B2036274747722N12002719WA0098301007
B2036284747724N12002713WA0098401008
B2036294747726N12002706WA0098401009
B2036304747729N12002701WA0098401011
B2036314747733N12002696WA0098501012
B2036324747736N12002692WA0098601013
B2036334747740N12002688WA0098601014
B2036344747745N12002685WA0098701014
B2036354747750N12002683WA0098701014
B2036364747755N12002682WA0098801015
B2036374747761N12002684WA0098801016
B2036384747766N12002686WA0098901019
B2036394747770N12002690WA0099001021
B2036404747773N12002694WA0099101023
B2036414747776N12002699WA0099201024
B2036424747779N12002706WA0099301025
B2036434747780N12002712WA0099401027
B2036444747781N12002716WA0099601029
B2036454747781N12002720WA0099701032
B2036464747781N12002723WA0099901034
B2036474747782N12002726WA0100001034
B2036484747782N12002731WA0100201034
B2036494747782N12002736WA0100301034
B2036504747781N12002741WA0100401034
B2036504747781N12002741WA0100401034
B2036514747780N12002746WA0100501035
B2036524747778N12002750WA0100601036
B2036534747777N12002753WA0100601037
B2036544747775N12002756WA0100701038
B2036554747773N12002760WA0100801038
B2036564747770N12002764WA0100801038
B2036574747767N12002766WA0100901038
B2036584747763N12002768WA0100901039
B2036594747759N12002768WA0101001041
B2037004747756N12002768WA0101001043
B2037014747753N12002768WA0101101043
B2037024747749N12002768WA0101101043
B2037034747745N12002767WA0101201042
B2037044747741N12002766WA0101201043
B2037054747737N12002763WA0101201043
B2037064747733N12002760WA0101201044
B2037074747730N12002757WA0101301045
B2037084747727N12002752WA0101301045
B2037094747725N12002747WA0101301045
B2037104747723N12002740WA0101301045
B2037114747721N12002734WA0101301044
B2037124747720N12002726WA0101301044
B2037134747719N12002718WA0101301044
B2037144747719N12002711WA0101301044
B2037154747720N12002703WA0101301045
B2037164747723N12002695WA0101301045
B2037174747725N12002687WA0101301047
B2037184747728N12002680WA0101401047
B2037194747730N12002673WA0101401048
B2037204747734N12002668WA0101401047
B2037214747737N12002663WA0101401047
B2037224747741N12002659WA0101401046
B2037234747745N12002657WA0101401046
B2037244747749N12002656WA0101401046
B2037254747753N12002656WA0101401047
B2037264747756N12002658WA0101401048
B2037274747760N12002661WA0101501048
B2037284747763N12002664WA0101501048
B2037294747766N12002668WA0101501049
B2037304747769N12002671WA0101601051
B2037314747772N12002674WA0101601052
B2037324747774N12002678WA0101701053
B2037334747776N12002682WA0101701054
B2037344747777N12002688WA0101801055
B2037354747778N12002694WA0101801055
B2037364747779N12002699WA0101901057
B2037374747777N12002704WA0102001058
B2037384747775N12002707WA0102101060
B2037394747772N12002708WA0102101061
B2037404747769N12002708WA0102201061
B2037414747765N12002705WA0102301062
B2037424747762N12002701WA0102401062
B2037434747758N12002696WA0102401062
B2037444747756N12002690WA0102501061
B2037454747754N12002682WA0102501061
B2037464747753N12002675WA0102601062
B2037474747754N12002667WA0102601063
B2037484747755N12002660WA0102701063
B2037494747758N12002653WA0102701064
B2037504747761N12002646WA0102701064
B2037514747764N12002640WA0102801065
B2037524747768N12002635WA0102801066
B2037534747771N12002630WA0102901067
B2037544747776N12002627WA0102901068
B2037544747776N12002627WA0102901068
B2037554747780N12002625WA0103001068
B2037564747785N12002624WA0103001069
B2037574747789N12002623WA0103101071
B2037584747792N12002624WA0103201073
B2037594747796N12002626WA0103301074
B2038004747800N12002629WA0103401074
B2038014747802N12002633WA0103401075
B2038024747805N12002637WA0103501076
B2038034747806N12002641WA0103601077
B2038044747807N12002645WA0103701078
B2038054747806N12002649WA0103801079
B2038064747803N12002653WA0103901080
B2038074747800N12002656WA0104001080
B2038084747795N12002657WA0104001080
B2038094747791N12002656WA0104101081
B2038104747787N12002653WA0104201083
B2038114747783N12002648WA0104301083
B2038124747781N12002643WA0104401084
B2038134747778N12002637WA0104401084
B2038144747777N12002630WA0104501084
B2038154747777N12002621WA0104501084
B2038164747780N12002612WA0104601083
B2038174747783N12002605WA0104601084
B2038184747787N12002599WA0104601085
B2038194747790N12002595WA0104701087
B2038204747794N12002592WA0104701087
B2038214747799N12002590WA0104801087
B2038224747804N12002588WA0104801087
B2038234747809N12002587WA0104801086
B2038244747814N12002587WA0104901087
B2038254747819N12002587WA0104901088
B2038264747824N12002588WA0105001089
B2038274747828N12002590WA0105001089
B2038284747833N12002593WA0105101090
B2038294747837N12002596WA0105101091
B2038304747842N12002599WA0105201093
B2038314747846N12002601WA0105301095
B2038324747850N12002603WA0105401097
B2038334747853N12002606WA0105501100
B2038344747857N12002608WA0105601103
B2038354747861N12002612WA0105701106
B2038364747864N12002617WA0105901109
B2038374747866N12002622WA0106101112
B2038384747866N12002628WA0106301116
B2038394747865N12002633WA0106501119
B2038404747863N12002636WA0106701122
B2038414747860N12002638WA0106901123
B2038424747856N12002640WA0107201125
B2038434747853N12002641WA0107301125
B2038444747849N12002640WA0107601127
B2038454747845N12002638WA0107701129
B2038464747841N12002634WA0108001131
B2038474747838N12002631WA0108101133
B2038484747835N12002627WA0108301134
B2038494747831N12002623WA0108501135
B2038504747828N12002617WA0108701135
B2038514747825N12002610WA0108801135
B2038524747824N12002601WA0108901135
B2038534747825N12002592WA0109001136
B2038544747826N12002584WA0109201136
B2038554747829N12002576WA0109201136
B2038564747832N12002569WA0109301137
B2038574747837N12002564WA0109401137
B2038584747841N12002560WA0109501137
B2038594747845N12002557WA0109601138
B2038594747845N12002557WA0109601138
B2039004747850N12002555WA0109601138
B2039014747855N12002555WA0109701139
B2039024747859N12002556WA0109801141
B2039034747863N12002559WA0109901144
B2039044747867N12002563WA0110001146
B2039054747870N12002567WA0110101150
B2039064747873N12002572WA0110301153
B2039074747876N12002577WA0110401156
B2039084747879N12002581WA0110601159
B2039094747880N12002585WA0110801162
B2039104747880N12002588WA0111001164
B2039114747879N12002593WA0111201164
B2039124747877N12002597WA0111401163
B2039134747874N12002601WA0111501164
B2039144747870N12002602WA0111701166
B2039154747866N12002600WA0111901169
B2039164747863N12002597WA0112101170
B2039174747860N12002592WA0112201169
B2039184747857N12002588WA0112301169
B2039194747854N12002584WA0112401170
B2039204747852N12002579WA0112601169
B2039214747850N12002574WA0112601169
B2039224747848N12002567WA0112701168
B2039234747846N12002560WA0112801167
B2039244747845N12002553WA0112801167
B2039254747845N12002546WA0112901167
B2039264747846N12002538WA0112901166
B2039274747848N12002530WA0112901165
B2039284747851N12002522WA0112901164
B2039294747854N12002514WA0112901164
B2039304747858N12002508WA0112901164
B2039314747862N12002503WA0112901164
B2039324747867N12002500WA0112901163
B2039334747872N12002497WA0112901163
B2039344747877N12002495WA0112901164
B2039354747881N12002493WA0112901166
B2039364747886N12002494WA0112901168
B2039374747890N12002494WA0112901170
B2039384747894N12002495WA0113001172
B2039394747898N12002496WA0113101175
B2039404747902N12002496WA0113201179
B2039414747904N12002496WA0113301183
B2039424747905N12002499WA0113501186
B2039434747907N12002502WA0113601187
B2039444747911N12002505WA0113801186
B2039454747915N12002508WA0113901186
B2039464747919N12002511WA0114101188
B2039474747923N12002514WA0114201193
B2039484747926N12002517WA0114401196
B2039494747929N12002521WA0114601199
B2039504747932N12002525WA0114801201
B2039514747935N12002529WA0115001203
B2039524747939N12002534WA0115201205
B2039534747943N12002538WA0115401208
B2039544747947N12002542WA0115701212
B2039554747949N12002546WA0115901216
B2039564747950N12002551WA0116201220
B2039574747950N12002557WA0116401223
B2039584747949N12002561WA0116701226
B2039594747948N12002564WA0117001230
B2040004747946N12002566WA0117301232
B2040014747943N12002567WA0117501232
B2040024747939N12002566WA0117801232
B2040034747934N12002562WA0118001231
B2040034747934N12002562WA0118001231
B2040044747930N12002558WA0118201231
B2040054747927N12002551WA0118301231
B2040064747924N12002542WA0118501231
B2040074747923N12002533WA0118601231
B2040084747923N12002525WA0118801232
B2040094747924N12002517WA0118901235
B2040104747927N12002509WA0119001236
B2040114747929N12002501WA0119101238
B2040124747931N12002493WA0119201239
B2040134747934N12002486WA0119301240
B2040144747937N12002479WA0119401243
B2040154747942N12002475WA0119501246
B2040164747947N12002473WA0119701247
B2040174747952N12002475WA0119801248
B2040184747956N12002479WA0119901250
B2040194747958N12002484WA0120101254
B2040204747958N12002488WA0120301257
B2040214747956N12002492WA0120401259
B2040224747953N12002495WA0120601261
B2040234747949N12002496WA0120801265
B2040244747945N12002495WA0121001270
B2040254747942N12002491WA0121201273
B2040264747938N12002486WA0121501276
B2040274747935N12002482WA0121701278
B2040284747931N12002477WA0122001281
B2040294747928N12002470WA0122201283
B2040304747925N12002461WA0122501284
B2040314747926N12002450WA0122601286
B2040324747929N12002440WA0122901287
B2040334747934N12002435WA0123001288
B2040344747939N12002433WA0123301289
B2040354747943N12002436WA0123401292
B2040364747946N12002440WA0123601294
B2040374747947N12002445WA0123801297
B2040384747948N12002449WA0124001300
B2040394747948N12002454WA0124201302
B2040404747948N12002459WA0124401304
B2040414747947N12002465WA0124501306
B2040424747944N12002469WA0124701308
B2040434747939N12002469WA0124901310
B2040444747934N12002467WA0125101311
B2040454747929N12002465WA0125301313
B2040464747925N12002463WA0125501315
B2040474747922N12002461WA0125701317
B2040484747920N12002458WA0125901319
B2040494747918N12002453WA0126101318
B2040504747917N12002448WA0126201315
B2040514747915N12002441WA0126301314
B2040524747915N12002435WA0126401312
B2040534747915N12002427WA0126501311
B2040544747916N12002420WA0126601309
B2040554747919N12002412WA0126601308
B2040564747923N12002406WA0126601307
B2040574747927N12002400WA0126601307
B2040584747931N12002395WA0126501308
B2040594747934N12002392WA0126501309
B2041004747938N12002392WA0126501310
B2041014747941N12002394WA0126501310
B2041024747943N12002397WA0126501310
B2041034747945N12002400WA0126501310
B2041044747947N12002404WA0126601311
B2041054747949N12002409WA0126601311
B2041064747950N12002413WA0126601311
B2041064747950N12002413WA0126601311
B2041074747953N12002417WA0126601311
B2041084747955N12002420WA0126601311
B2041094747959N12002423WA0126601310
B2041104747962N12002426WA0126701310
B2041114747965N12002430WA0126701311
B2041124747968N12002433WA0126701312
B2041134747969N12002436WA0126801314
B2041144747971N12002439WA0126801315
B2041154747972N12002445WA0126801315
B2041164747972N12002451WA0126901315
B2041174747973N12002457WA0126901315
B2041184747973N12002461WA0127001316
B2041194747972N12002463WA0127001316
B2041204747970N12002465WA0127001315
B2041214747967N12002469WA0127001313
B2041224747964N12002472WA0127001311
B2041234747961N12002475WA0127001311
B2041244747957N12002477WA0127001312
B2041254747954N12002478WA0127001312
B2041264747950N12002478WA0127001312
B2041274747948N12002477WA0127001311
B2041284747945N12002476WA0127001309
B2041294747941N12002476WA0126901307
B2041304747938N12002476WA0126901304
B2041314747935N12002476WA0126801301
B2041324747932N12002475WA0126701298
B2041334747929N12002472WA0126601295
B2041344747925N12002469WA0126401291
B2041354747923N12002465WA0126301288
B2041364747920N12002460WA0126101286
B2041374747917N12002454WA0125901283
B2041384747914N12002449WA0125701279
B2041394747912N12002444WA0125501276
B2041404747909N12002437WA0125201273
B2041414747907N12002429WA0125101270
B2041424747906N12002422WA0124801267
B2041434747904N12002414WA0124601264
B2041444747902N12002407WA0124301261
B2041454747900N12002401WA0124101258
B2041464747897N12002395WA0123801256
B2041474747895N12002390WA0123501253
B2041484747892N12002385WA0123201250
B2041494747889N12002380WA0123001248
B2041504747887N12002376WA0122701245
B2041514747884N12002372WA0122401242
B2041524747881N12002369WA0122101239
B2041534747877N12002368WA0121901236
B2041544747874N12002366WA0121501233
B2041554747871N12002365WA0121301230
B2041564747868N12002364WA0120901228
B2041574747865N12002364WA0120701225
B2041584747861N12002363WA0120401222
B2041594747858N12002362WA0120201219
B2042004747854N12002361WA0119801216
B2042014747851N12002359WA0119601213
B2042024747847N12002358WA0119301211
B2042034747843N12002356WA0119101208
B2042044747839N12002355WA0118801206
B2042054747836N12002354WA0118601203
B2042064747832N12002354WA0118301201
B2042074747829N12002353WA0118101199
B2042084747826N12002352WA0117801197
B2042094747823N12002351WA0117601194
B2042104747820N12002351WA0117301192
B2042104747820N12002351WA0117301192
B2042114747816N12002350WA0117101189
B2042124747812N12002349WA0116801185
B2042134747808N12002347WA0116601182
B2042144747804N12002345WA0116301179
B2042154747801N12002343WA0116201177
B2042164747798N12002342WA0115901176
B2042174747795N12002340WA0115701173
B2042184747792N12002338WA0115401170
B2042194747789N12002336WA0115201167
B2042204747785N12002335WA0114901164
B2042214747782N12002333WA0114701161
B2042224747778N12002332WA0114401159
B2042234747776N12002330WA0114201158
B2042244747773N12002330WA0113901155
B2042254747770N12002329WA0113701152
B2042264747767N12002329WA0113401149
B2042274747763N12002329WA0113301146
B2042284747760N12002330WA0113001143
B2042294747757N12002331WA0112801141
B2042304747754N12002332WA0112501138
B2042314747751N12002334WA0112301135
B2042324747748N12002335WA0112001133
B2042334747745N12002336WA0111801131
B2042344747743N12002338WA0111501128
B2042354747740N12002339WA0111301125
B2042364747737N12002341WA0111001123
B2042374747734N12002342WA0110801120
B2042384747730N12002343WA0110501117
B2042394747727N12002344WA0110301114
B2042404747724N12002345WA0110101112
B2042414747722N12002346WA0109901110
B2042424747719N12002346WA0109601107
B2042434747716N12002347WA0109401104
B2042444747713N12002348WA0109101101
B2042454747710N12002349WA0108901097
B2042464747707N12002351WA0108601095
B2042474747704N12002352WA0108401092
B2042484747700N12002352WA0108101089
B2042494747696N12002352WA0107901087
B2042504747693N12002352WA0107601084
B2042514747689N12002352WA0107401081
B2042524747685N12002352WA0107101078
B2042534747681N12002351WA0106901075
B2042544747677N12002350WA0106501072
B2042554747674N12002350WA0106301069
B2042564747670N12002348WA0106001067
B2042574747666N12002347WA0105801064
B2042584747662N12002346WA0105501061
B2042594747658N12002344WA0105301057
B2043004747653N12002342WA0104901054
B2043014747649N12002339WA0104701052
B2043024747645N12002336WA0104401050
B2043034747641N12002332WA0104201047
B2043044747637N12002329WA0103901045
B2043054747633N12002326WA0103701041
B2043064747628N12002323WA0103401038
B2043074747624N12002318WA0103101035
B2043084747620N12002311WA0102801033
B2043094747617N12002303WA0102601031
B2043104747615N12002296WA0102301029
B2043114747612N12002288WA0102101026
B2043124747610N12002280WA0101801023
B2043134747607N12002271WA0101601019
B2043144747604N12002263WA0101301016
B2043144747604N12002263WA0101301016
B2043154747601N12002256WA0101001013
B2043164747597N12002250WA0100701011
B2043174747593N12002245WA0100501008
B2043184747589N12002242WA0100201006
B2043194747584N12002238WA0100001004
B2043204747580N12002236WA0099601001
B2043214747575N12002234WA0099400998
B2043224747571N12002233WA0099100996
B2043234747566N12002232WA0098900993
B2043244747562N12002232WA0098600990
B2043254747557N12002233WA0098300987
B2043264747553N12002234WA0098000984
B2043274747549N12002235WA0097800981
B2043284747545N12002236WA0097500978
B2043294747541N12002238WA0097200974
B2043304747536N12002238WA0096900971
B2043314747532N12002237WA0096700968
B2043324747527N12002235WA0096400964
B2043334747522N12002232WA0096100960
B2043344747517N12002228WA0095800957
B2043354747512N12002224WA0095500954
B2043364747508N12002219WA0095200951
B2043374747504N12002214WA0094900948
B2043384747500N12002207WA0094600944
B2043394747496N12002200WA0094300940
B2043404747493N12002192WA0093900937
B2043414747489N12002184WA0093700934
B2043424747486N12002175WA0093300930
B2043434747482N12002167WA0093000927
B2043444747478N12002159WA0092600923
B2043454747475N12002151WA0092400919
B2043464747471N12002144WA0092000916
B2043474747466N12002137WA0091700913
B2043484747462N12002129WA0091300909
B2043494747457N12002121WA0091000906
B2043504747451N12002113WA0090600903
B2043514747447N12002105WA0090400900
B2043524747442N12002097WA0090000898
B2043534747437N12002091WA0089800895
B2043544747433N12002085WA0089400892
B2043554747428N12002079WA0089100888
B2043564747423N12002073WA0088800885
B2043574747418N12002067WA0088600882
B2043584747414N12002061WA0088200878
B2043594747410N12002055WA0088000875
B2044004747406N12002048WA0087600872
B2044014747402N12002043WA0087400869
B2044024747397N12002038WA0087100867
B2044034747393N12002033WA0086800864
B2044044747389N12002030WA0086500861
B2044054747384N12002027WA0086300859
B2044064747379N12002023WA0086000856
B2044074747375N12002020WA0085800854
B2044084747370N12002017WA0085500852
B2044094747366N12002014WA0085300849
B2044104747362N12002011WA0085000847
B2044114747358N12002008WA0084800844
B2044124747354N12002004WA0084600842
B2044134747350N12002000WA0084400839
B2044144747345N12001996WA0084100836
B2044154747340N12001992WA0083900834
B2044164747336N12001989WA0083700832
B2044174747331N12001986WA0083500831
B2044184747326N12001984WA0083200829
B2044194747322N12001982WA0083100827
B2044194747322N12001982WA0083100827
B2044204747317N12001980WA0082800825
B2044214747311N12001978WA0082700824
B2044224747306N12001977WA0082500823
B2044234747301N12001976WA0082300823
B2044244747297N12001977WA0082100823
B2044254747294N12001979WA0082000823
B2044264747291N12001980WA0081900822
B2044274747288N12001982WA0081800822
B2044284747285N12001985WA0081600821
B2044294747281N12001988WA0081600822
B2044304747278N12001990WA0081500823
B2044314747274N12001993WA0081400825
B2044324747271N12001997WA0081400827
B2044334747268N12002000WA0081400829
B2044344747265N12002003WA0081400832
B2044354747262N12002006WA0081400833
B2044364747259N12002011WA0081500835
B2044374747257N12002016WA0081500838
B2044384747255N12002023WA0081600841
B2044394747255N12002029WA0081700845
B2044404747256N12002036WA0081800848
B2044414747258N12002043WA0082000851
B2044424747261N12002049WA0082200855
B2044434747264N12002052WA0082300859
B2044444747269N12002055WA0082600863
B2044454747273N12002055WA0082700867
B2044464747278N12002054WA0083000870
B2044474747283N12002051WA0083200874
B2044484747286N12002046WA0083500878
B2044494747289N12002041WA0083700883
B2044504747291N12002035WA0084100887
B2044514747292N12002028WA0084300890
B2044524747292N12002020WA0084700893
B2044534747292N12002013WA0084900897
B2044544747291N12002007WA0085300903
B2044554747289N12002004WA0085600907
B2044564747288N12002001WA0086000910
B2044574747287N12001996WA0086200910
B2044584747285N12001989WA0086600909
B2044594747283N12001980WA0086800907
B2045004747280N12001972WA0087000908
B2045014747275N12001965WA0087200911
B2045024747271N12001962WA0087500914
B2045034747266N12001961WA0087700917
B2045044747261N12001960WA0087900921
B2045054747256N12001959WA0088100925
B2045064747252N12001958WA0088400930
B2045074747248N12001957WA0088600933
B2045084747245N12001954WA0089000937
B2045094747242N12001950WA0089200939
B2045104747240N12001943WA0089500940
B2045114747241N12001934WA0089700941
B2045124747243N12001926WA0090000944
B2045134747246N12001920WA0090200947
B2045144747250N12001916WA0090400948
B2045154747255N12001913WA0090600948
B2045164747259N12001911WA0090800947
B2045174747264N12001908WA0091000947
B2045184747270N12001907WA0091100945
B2045194747276N12001907WA0091200944
B2045204747282N12001909WA0091300945
B2045214747286N12001912WA0091400945
B2045224747290N12001918WA0091500946
B2045234747293N12001923WA0091600949
B2045234747293N12001923WA0091600949
B2045244747296N12001929WA0091700951
B2045254747299N12001934WA0091800954
B2045264747300N12001939WA0092000956
B2045274747302N12001945WA0092100957
B2045284747303N12001952WA0092200959
B2045294747304N12001960WA0092400961
B2045304747304N12001967WA0092500966
B2045314747304N12001973WA0092700971
B2045324747303N12001978WA0092900976
B2045334747301N12001982WA0093100981
B2045344747298N12001986WA0093400983
B2045354747295N12001989WA0093600985
B2045364747291N12001993WA0093900986
B2045374747285N12001994WA0094100989
B2045384747279N12001993WA0094400993
B2045394747275N12001988WA0094600997
B2045404747271N12001982WA0094901001
B2045414747268N12001975WA0095101005
B2045424747266N12001969WA0095501009
B2045434747264N12001962WA0095701013
B2045444747263N12001954WA0096101016
B2045454747264N12001945WA0096301019
B2045464747266N12001937WA0096701022
B2045474747270N12001931WA0096901027
B2045484747274N12001927WA0097301031
B2045494747279N12001925WA0097601036
B2045504747284N12001923WA0098001039
B2045514747289N12001922WA0098201042
B2045524747294N12001923WA0098601046
B2045534747298N12001925WA0098901051
B2045544747301N12001928WA0099301057
B2045554747303N12001931WA0099601062
B2045564747303N12001935WA0100101066
B2045574747303N12001940WA0100401069
B2045584747301N12001946WA0100801070
B2045594747299N12001951WA0101101074
B2046004747294N12001955WA0101501077
B2046014747289N12001957WA0101801080
B2046024747284N12001957WA0102201083
B2046034747278N12001955WA0102401086
B2046044747273N12001951WA0102801090
B2046054747269N12001945WA0103101094
B2046064747266N12001938WA0103501098
B2046074747265N12001930WA0103801102
B2046084747266N12001922WA0104201106
B2046094747269N12001915WA0104401109
B2046104747273N12001910WA0104801112
B2046114747278N12001908WA0105101117
B2046124747282N12001907WA0105501121
B2046134747287N12001906WA0105801125
B2046144747292N12001906WA0106201129
B2046154747297N12001905WA0106501132
B2046164747302N12001905WA0107001137
B2046174747305N12001908WA0107301141
B2046184747308N12001912WA0107701144
B2046194747310N12001915WA0108001147
B2046204747312N12001918WA0108401150
B2046214747314N12001921WA0108701153
B2046224747316N12001923WA0109101156
B2046234747318N12001926WA0109401158
B2046244747319N12001929WA0109801161
B2046254747320N12001932WA0110001163
B2046264747319N12001936WA0110401166
B2046274747317N12001938WA0110601167
B2046274747317N12001938WA0110601167
B2046284747313N12001940WA0111001166
B2046294747309N12001941WA0111201166
B2046304747305N12001941WA0111401166
B2046314747301N12001940WA0111601167
B2046324747296N12001936WA0111801167
B2046334747292N12001930WA0111901168
B2046344747289N12001923WA0112101171
B2046354747287N12001915WA0112301174
B2046364747286N12001907WA0112501177
B2046374747286N12001899WA0112601179
B2046384747287N12001890WA0112801181
B2046394747288N12001882WA0113001183
B2046404747290N12001875WA0113201185
B2046414747292N12001870WA0113401187
B2046424747295N12001866WA0113601188
B2046434747299N12001864WA0113701190
B2046444747303N12001864WA0113901192
B2046454747306N12001865WA0114101194
B2046464747307N12001866WA0114301196
B2046474747309N12001869WA0114401198
B2046484747310N12001871WA0114601199
B2046494747311N12001874WA0114701199
B2046504747311N12001877WA0114901200
B2046514747310N12001881WA0115001201
B2046524747308N12001884WA0115201202
B2046534747306N12001887WA0115301202
B2046544747302N12001889WA0115401202
B2046554747299N12001892WA0115501202
B2046564747295N12001894WA0115601204
B2046574747290N12001894WA0115701206
B2046584747286N12001892WA0115901207
B2046594747281N12001889WA0115901208
B2047004747276N12001886WA0116101210
B2047014747271N12001882WA0116201212
B2047024747266N12001877WA0116301214
B2047034747262N12001872WA0116501216
B2047044747259N12001866WA0116601218
B2047054747256N12001859WA0116701219
B2047064747253N12001851WA0116901221
B2047074747251N12001841WA0117101222
B2047084747251N12001831WA0117201223
B2047094747252N12001821WA0117401225
B2047104747255N12001813WA0117501227
B2047114747257N12001807WA0117701230
B2047124747260N12001801WA0117901233
B2047134747263N12001796WA0118001235
B2047144747266N12001792WA0118201238
B2047154747269N12001788WA0118401239
B2047164747273N12001787WA0118601241
B2047174747276N12001787WA0118801243
B2047184747279N12001788WA0119001245
B2047194747281N12001790WA0119101247
B2047204747283N12001793WA0119301249
B2047214747284N12001797WA0119501252
B2047224747284N12001801WA0119701253
B2047234747283N12001805WA0119901255
B2047244747280N12001808WA0120101256
B2047254747276N12001809WA0120201258
B2047264747273N12001808WA0120401261
B2047274747269N12001807WA0120601263
B2047284747265N12001804WA0120801264
B2047294747260N12001801WA0120901265
B2047304747256N12001795WA0121101267
B2047314747253N12001788WA0121301269
B2047314747253N12001788WA0121301269
B2047324747251N12001778WA0121501271
B2047334747251N12001767WA0121601273
B2047344747251N12001756WA0121801275
B2047354747254N12001747WA0122001277
B2047364747257N12001739WA0122201278
B2047374747261N12001733WA0122301280
B2047384747265N12001728WA0122501283
B2047394747269N12001724WA0122701285
B2047404747272N12001722WA0122901286
B2047414747276N12001722WA0123001289
B2047424747278N12001722WA0123301290
B2047434747281N12001724WA0123401291
B2047444747284N12001727WA0123601292
B2047454747286N12001731WA0123701293
B2047464747287N12001736WA0123901293
B2047474747286N12001741WA0124001294
B2047484747285N12001746WA0124201296
B2047494747283N12001749WA0124301297
B2047504747281N12001752WA0124401299
B2047514747278N12001755WA0124601302
B2047524747276N12001757WA0124701303
B2047534747273N12001759WA0124901305
B2047544747271N12001759WA0125101307
B2047554747269N12001760WA0125201308
B2047564747267N12001761WA0125401309
B2047574747264N12001762WA0125501311
B2047584747262N12001765WA0125701313
B2047594747259N12001767WA0125801315
B2048004747256N12001768WA0126001317
B2048014747254N12001768WA0126101319
B2048024747251N12001768WA0126301321
B2048034747249N12001767WA0126501322
B2048044747246N12001765WA0126701323
B2048054747243N12001763WA0126801323
B2048064747240N12001760WA0127001323
B2048074747236N12001755WA0127101324
B2048084747233N12001747WA0127201325
B2048094747230N12001738WA0127301327
B2048104747229N12001729WA0127501330
B2048114747230N12001720WA0127601332
B2048124747231N12001711WA0127801333
B2048134747233N12001701WA0127901333
B2048144747236N12001691WA0128001333
B2048154747240N12001683WA0128101335
B2048164747245N12001675WA0128301336
B2048174747251N12001668WA0128401338
B2048184747256N12001661WA0128501339
B2048194747261N12001656WA0128601341
B2048204747265N12001653WA0128801342
B2048214747270N12001653WA0128901343
B2048224747274N12001655WA0129001345
B2048234747277N12001659WA0129101346
B2048244747279N12001663WA0129301349
B2048254747281N12001667WA0129401352
B2048264747282N12001671WA0129601354
B2048274747282N12001675WA0129701355
B2048284747282N12001679WA0129901357
B2048294747281N12001684WA0130001360
B2048304747280N12001687WA0130201363
B2048314747278N12001689WA0130401365
B2048324747274N12001691WA0130601367
B2048334747271N12001693WA0130701368
B2048344747267N12001693WA0131001370
B2048354747264N12001692WA0131101373
B2048364747261N12001690WA0131301376
B2048374747258N12001687WA0131501378
B2048384747255N12001683WA0131701379
B2048394747250N12001679WA0131901381
B2048404747246N12001675WA0132101382
B2048414747243N12001668WA0132301385
B2048424747241N12001660WA0132501386
B2048434747239N12001651WA0132701387
B2048444747239N12001640WA0132901388
B2048454747239N12001630WA0133001389
B2048464747241N12001621WA0133201392
B2048474747244N12001612WA0133401394
B2048484747248N12001604WA0133601394
B2048494747253N12001596WA0133701394
B2048504747259N12001589WA0133901395
B2048514747264N12001584WA0134001396
B2048524747270N12001581WA0134201397
B2048534747276N12001580WA0134301397
B2048544747282N12001581WA0134401398
B2048554747287N12001583WA0134501399
B2048564747292N12001585WA0134701401
B2048574747296N12001588WA0134801403
B2048584747299N12001590WA0135001405
B2048594747302N12001594WA0135101406
B2049004747304N12001598WA0135201407
B2049014747304N12001603WA0135301409
B2049024747303N12001607WA0135501412
B2049034747302N12001611WA0135601415
B2049044747301N12001614WA0135801417
B2049054747300N12001617WA0135901419
B2049064747298N12001621WA0136101421
B2049074747297N12001624WA0136301424
B2049084747295N12001627WA0136501426
B2049094747293N12001629WA0136601429
B2049104747290N12001630WA0136901432
B2049114747287N12001631WA0137001435
B2049124747284N12001632WA0137301437
B2049134747282N12001634WA0137401440
B2049144747279N12001634WA0137701443
B2049154747276N12001633WA0137901447
B2049164747273N12001629WA0138201451
B2049174747270N12001624WA0138401453
B2049184747267N12001619WA0138701455
B2049194747264N12001612WA0138901457
B2049204747262N12001605WA0139201460
B2049214747261N12001596WA0139401464
B2049224747260N12001587WA0139701466
B2049234747261N12001578WA0139901467
B2049244747261N12001567WA0140201469
B2049254747262N12001556WA0140401470
B2049264747263N12001546WA0140701472
B2049274747267N12001536WA0140901473
B2049284747271N12001528WA0141101475
B2049294747277N12001521WA0141301476
B2049304747282N12001515WA0141601477
B2049314747288N12001511WA0141701478
B2049324747293N12001508WA0141901479
B2049334747299N12001507WA0142001479
B2049344747305N12001508WA0142201480
B2049354747310N12001511WA0142301481
B2049364747314N12001516WA0142501482
B2049374747316N12001521WA0142601484
B2049384747317N12001525WA0142801486
B2049384747317N12001525WA0142801486
B2049394747316N12001529WA0142901490
B2049404747316N12001533WA0143101492
B2049414747314N12001536WA0143301495
B2049424747312N12001538WA0143501497
B2049434747310N12001540WA0143601500
B2049444747307N12001542WA0143901503
B2049454747304N12001542WA0144001505
B2049464747301N12001541WA0144301509
B2049474747297N12001539WA0144401511
B2049484747294N12001536WA0144701513
B2049494747290N12001532WA0144901515
B2049504747286N12001527WA0145201518
B2049514747283N12001520WA0145301521
B2049524747280N12001512WA0145601523
B2049534747278N12001503WA0145801526
B2049544747277N12001493WA0146101529
B2049554747278N12001483WA0146301532
B2049564747279N12001473WA0146601535
B2049574747281N12001463WA0146801538
B2049584747284N12001453WA0147101541
B2049594747288N12001443WA0147301544
B2050004747293N12001435WA0147601546
B2050014747298N12001428WA0147801548
B2050024747304N12001423WA0148101550
B2050034747309N12001420WA0148301551
B2050044747315N12001418WA0148601552
B2050054747320N12001418WA0148701553
B2050064747324N12001418WA0149001554
B2050074747328N12001419WA0149101555
B2050084747332N12001422WA0149301556
B2050094747335N12001426WA0149501556
B2050104747336N12001431WA0149601557
B2050114747337N12001436WA0149701559
B2050124747336N12001440WA0149901562
B2050134747334N12001444WA0150001564
B2050144747332N12001447WA0150101567
B2050154747331N12001451WA0150301569
B2050164747329N12001454WA0150401572
B2050174747327N12001457WA0150601575
B2050184747325N12001460WA0150801577
B2050194747322N12001461WA0150901580
B2050204747319N12001461WA0151201583
B2050214747316N12001461WA0151301586
B2050224747313N12001460WA0151601589
B2050234747310N12001460WA0151701591
B2050244747307N12001459WA0152001593
B2050254747304N12001458WA0152201596
B2050264747301N12001455WA0152501598
B2050274747297N12001449WA0152601599
B2050284747293N12001442WA0152901600
B2050294747290N12001434WA0153001601
B2050304747287N12001424WA0153301604
B2050314747286N12001414WA0153501607
B2050324747286N12001403WA0153701608
B2050334747287N12001392WA0153901609
B2050344747289N12001381WA0154101611
B2050354747292N12001371WA0154201613
B2050364747296N12001362WA0154501614
B2050374747301N12001356WA0154601616
B2050384747308N12001352WA0154801616
B2050394747315N12001348WA0154901617
B2050404747321N12001345WA0155201619
B2050414747326N12001343WA0155301622
B2050424747332N12001343WA0155501624
B2050424747332N12001343WA0155501624
B2050434747337N12001345WA0155601625
B2050444747341N12001348WA0155901627
B2050454747343N12001353WA0156001631
B2050464747344N12001357WA0156301634
B2050474747344N12001360WA0156401637
B2050484747344N12001364WA0156701639
B2050494747343N12001367WA0156901641
B2050504747342N12001370WA0157101644
B2050514747339N12001372WA0157301646
B2050524747336N12001372WA0157501647
B2050534747332N12001371WA0157701650
B2050544747328N12001369WA0158001652
B2050554747325N12001365WA0158201655
B2050564747322N12001359WA0158401657
B2050574747319N12001352WA0158601658
B2050584747316N12001344WA0158801659
B2050594747314N12001334WA0159001661
B2051004747312N12001326WA0159301663
B2051014747311N12001317WA0159401666
B2051024747310N12001307WA0159701669
B2051034747310N12001297WA0159801669
B2051044747310N12001286WA0160001670
B2051054747313N12001276WA0160201671
B2051064747316N12001267WA0160401672
B2051074747320N12001259WA0160501673
B2051084747325N12001253WA0160701674
B2051094747331N12001249WA0160801674
B2051104747337N12001247WA0161001675
B2051114747342N12001246WA0161101677
B2051124747347N12001245WA0161201679
B2051134747351N12001247WA0161401681
B2051144747355N12001250WA0161501684
B2051154747358N12001253WA0161701687
B2051164747360N12001257WA0161901690
B2051174747362N12001259WA0162001694
B2051184747363N12001262WA0162301696
B2051194747363N12001266WA0162401697
B2051204747362N12001269WA0162701699
B2051214747360N12001272WA0162801700
B2051224747357N12001274WA0163101702
B2051234747354N12001275WA0163201704
B2051244747350N12001274WA0163501707
B2051254747347N12001273WA0163601709
B2051264747343N12001271WA0163901711
B2051274747339N12001268WA0164001713
B2051284747335N12001264WA0164301714
B2051294747331N12001260WA0164501716
B2051304747327N12001254WA0164701715
B2051314747324N12001246WA0164801714
B2051324747323N12001237WA0165001712
B2051334747323N12001226WA0165101711
B2051344747324N12001217WA0165201709
B2051354747327N12001209WA0165301709
B2051364747331N12001204WA0165401709
B2051374747336N12001198WA0165401709
B2051384747339N12001192WA0165401711
B2051394747342N12001187WA0165501711
B2051404747346N12001181WA0165501714
B2051414747349N12001175WA0165601716
B2051424747352N12001166WA0165701716
B2051434747356N12001156WA0165701715
B2051444747360N12001147WA0165801716
B2051454747366N12001140WA0165901719
B2051464747370N12001135WA0166001722
B2051464747370N12001135WA0166001722
B2051474747375N12001131WA0166101725
B2051484747380N12001128WA0166201727
B2051494747385N12001125WA0166301727
B2051504747391N12001121WA0166501726
B2051514747397N12001118WA0166501727
B2051524747403N12001117WA0166701729
B2051534747408N12001116WA0166801731
B2051544747412N12001117WA0166901732
B2051554747415N12001118WA0167001734
B2051564747418N12001120WA0167201736
B2051574747420N12001123WA0167301738
B2051584747421N12001126WA0167401740
B2051594747421N12001129WA0167601742
B2052004747419N12001132WA0167701744
B2052014747417N12001133WA0167901748
B2052024747415N12001134WA0168101751
B2052034747412N12001134WA0168301753
B2052044747408N12001132WA0168501756
B2052054747404N12001130WA0168601758
B2052064747400N12001127WA0168901762
B2052074747396N12001122WA0169101765
B2052084747393N12001117WA0169301768
B2052094747390N12001110WA0169501771
B2052104747388N12001103WA0169801774
B2052114747386N12001094WA0170001777
B2052124747386N12001086WA0170301779
B2052134747387N12001076WA0170501781
B2052144747388N12001067WA0170801784
B2052154747391N12001058WA0171001787
B2052164747394N12001050WA0171301789
B2052174747399N12001044WA0171401789
B2052184747404N12001039WA0171701790
B2052194747410N12001037WA0171901790
B2052204747415N12001036WA0172101791
B2052214747419N12001036WA0172201791
B2052224747424N12001038WA0172401791
B2052234747427N12001042WA0172501790
B2052244747430N12001046WA0172701791
B2052254747431N12001050WA0172701793
B2052264747431N12001054WA0172901797
B2052274747430N12001058WA0173001799
B2052284747428N12001060WA0173101801
B2052294747426N12001063WA0173201803
B2052304747423N12001064WA0173401805
B2052314747420N12001065WA0173501807
B2052324747416N12001064WA0173701808
B2052334747413N12001061WA0173801810
B2052344747409N12001057WA0174001811
B2052354747406N12001052WA0174101812
B2052364747401N12001046WA0174301811
B2052374747397N12001039WA0174401810
B2052384747393N12001032WA0174501809
B2052394747389N12001024WA0174501808
B2052404747385N12001015WA0174601807
B2052414747381N12001005WA0174601806
B2052424747379N12000995WA0174701805
B2052434747376N12000987WA0174701806
B2052444747374N12000981WA0174701808
B2052454747372N12000975WA0174801808
B2052464747370N12000969WA0174801806
B2052474747368N12000961WA0174801802
B2052484747365N12000951WA0174701797
B2052494747363N12000941WA0174601794
B2052504747361N12000930WA0174501791
B2052504747361N12000930WA0174501791
B2052514747359N12000921WA0174501789
B2052524747357N12000912WA0174301787
B2052534747355N12000902WA0174201784
B2052544747353N12000892WA0174001781
B2052554747351N12000882WA0173901778
B2052564747350N12000873WA0173701776
B2052574747349N12000863WA0173501775
B2052584747348N12000853WA0173301773
B2052594747346N12000843WA0173201771
B2053004747344N12000834WA0172901769
B2053014747342N12000824WA0172801767
B2053024747340N12000816WA0172601765
B2053034747337N12000808WA0172401764
B2053044747334N12000800WA0172201761
B2053054747331N12000793WA0172101758
B2053064747328N12000784WA0171801755
B2053074747325N12000776WA0171701752
B2053084747322N12000769WA0171401750
B2053094747319N12000762WA0171301748
B2053104747316N12000754WA0171001745
B2053114747313N12000746WA0170901742
B2053124747309N12000737WA0170601739
B2053134747306N12000728WA0170401736
B2053144747302N12000720WA0170101733
B2053154747298N12000712WA0169901732
B2053164747294N12000705WA0169601730
B2053174747291N12000697WA0169501728
B2053184747288N12000689WA0169201725
B2053194747284N12000680WA0169001722
B2053204747281N12000670WA0168701718
B2053214747277N12000661WA0168501715
B2053224747274N12000652WA0168201713
B2053234747271N12000642WA0168001711
B2053244747268N12000633WA0167701708
B2053254747265N12000624WA0167501706
B2053264747262N12000615WA0167201703
B2053274747260N12000605WA0167001700
B2053284747257N12000595WA0166801698
B2053294747255N12000585WA0166601695
B2053304747251N12000575WA0166301692
B2053314747248N12000566WA0166101690
B2053324747244N12000558WA0165801689
B2053334747241N12000550WA0165601687
B2053344747238N12000543WA0165301685
B2053354747234N12000534WA0165101682
B2053364747231N12000526WA0164801680
B2053374747227N12000518WA0164601677
B2053384747223N12000510WA0164301675
B2053394747219N12000503WA0164201673
B2053404747216N12000495WA0163901671
B2053414747213N12000486WA0163701669
B2053424747209N12000478WA0163501666
B2053434747206N12000470WA0163301664
B2053444747203N12000462WA0163001661
B2053454747200N12000453WA0162801658
B2053464747197N12000444WA0162501655
B2053474747193N12000434WA0162401653
B2053484747190N12000424WA0162101651
B2053494747187N12000415WA0161901649
B2053504747185N12000405WA0161601647
B2053514747181N12000395WA0161401644
B2053524747178N12000386WA0161101642
B2053534747174N12000377WA0161001639
B2053544747171N12000368WA0160701637
B2053544747171N12000368WA0160701637
B2053554747168N12000359WA0160501636
B2053564747165N12000349WA0160201634
B2053574747162N12000339WA0160101631
B2053584747159N12000329WA0159801630
B2053594747156N12000318WA0159701628
B2054004747154N12000307WA0159401626
B2054014747152N12000296WA0159301624
B2054024747150N12000285WA0159001622
B2054034747147N12000274WA0158901620
B2054044747145N12000264WA0158601618
B2054054747142N12000253WA0158501616
B2054064747140N12000242WA0158301614
B2054074747138N12000232WA0158101612
B2054084747135N12000221WA0157901610
B2054094747132N12000211WA0157701608
B2054104747130N12000200WA0157501605
B2054114747128N12000189WA0157301603
B2054124747125N12000178WA0157101601
B2054134747123N12000167WA0156901598
B2054144747121N12000156WA0156701596
B2054154747118N12000146WA0156501594
B2054164747116N12000135WA0156301592
B2054174747114N12000124WA0156101589
B2054184747112N12000114WA0155801586
B2054194747109N12000103WA0155601583
B2054204747107N12000092WA0155401580
B2054214747104N12000082WA0155201578
B2054224747101N12000072WA0154901576
B2054234747099N12000061WA0154701574
B2054244747097N12000051WA0154501572
B2054254747094N12000041WA0154301570
B2054264747092N12000030WA0154001568
B2054274747091N12000019WA0153801565
B2054284747090N12000007WA0153601563
B2054294747089N11959995WA0153401560
B2054304747089N11959984WA0153101558
B2054314747088N11959973WA0152901556
B2054324747088N11959961WA0152701554
B2054334747088N11959949WA0152501551
B2054344747088N11959937WA0152201548
B2054354747087N11959926WA0152001546
B2054364747086N11959914WA0151801543
B2054374747086N11959902WA0151601541
B2054384747086N11959890WA0151301539
B2054394747085N11959877WA0151101537
B2054404747084N11959865WA0150901535
B2054414747083N11959854WA0150701533
B2054424747083N11959842WA0150401531
B2054434747082N11959831WA0150301529
B2054444747082N11959820WA0150001527
B2054454747082N11959808WA0149801525
B2054464747081N11959797WA0149601523
B2054474747079N11959786WA0149401520
B2054484747078N11959775WA0149101518
B2054494747076N11959764WA0148901516
B2054504747075N11959753WA0148701514
B2054514747073N11959742WA0148501511
B2054524747072N11959731WA0148201509
B2054534747070N11959720WA0148101506
B2054544747068N11959709WA0147801503
B2054554747066N11959697WA0147601500
B2054564747065N11959686WA0147301497
B2054574747063N11959674WA0147101494
B2054584747062N11959662WA0146801492
B2054594747060N11959651WA0146601489
B2054594747060N11959651WA0146601489
B2055004747058N11959640WA0146301486
B2055014747056N11959629WA0146101484
B2055024747054N11959617WA0145801481
B2055034747052N11959606WA0145601479
B2055044747051N11959594WA0145301476
B2055054747049N11959582WA0145101474
B2055064747047N11959570WA0144801471
B2055074747045N11959559WA0144601469
B2055084747042N11959549WA0144301468
B2055094747040N11959539WA0144101466
B2055104747038N11959528WA0143801464
B2055114747036N11959517WA0143701462
B2055124747034N11959506WA0143401460
B2055134747032N11959496WA0143201459
B2055144747030N11959487WA0143001458
B2055154747028N11959478WA0142801457
B2055164747026N11959468WA0142601457
B2055174747025N11959459WA0142501456
B2055184747023N11959449WA0142301455
B2055194747021N11959439WA0142201454
B2055204747020N11959429WA0142001453
B2055214747019N11959418WA0141901451
B2055224747018N11959408WA0141701450
B2055234747017N11959397WA0141601449
B2055244747015N11959386WA0141401448
B2055254747014N11959375WA0141301447
B2055264747013N11959364WA0141201446
B2055274747012N11959353WA0141101446
B2055284747011N11959343WA0140901446
B2055294747009N11959332WA0140801445
B2055304747007N11959322WA0140701444
B2055314747005N11959311WA0140601443
B2055324747004N11959300WA0140501442
B2055334747002N11959289WA0140401441
B2055344747000N11959279WA0140301440
B2055354746997N11959270WA0140301440
B2055364746994N11959261WA0140201439
B2055374746991N11959252WA0140101439
B2055384746988N11959243WA0140001439
B2055394746986N11959234WA0139901439
B2055404746983N11959225WA0139801438
B2055414746980N11959216WA0139801437
B2055424746977N11959207WA0139701437
B2055434746975N11959198WA0139601436
B2055444746972N11959189WA0139501435
B2055454746969N11959179WA0139501434
B2055464746967N11959171WA0139401434
B2055474746964N11959162WA0139301433
B2055484746961N11959154WA0139301432
B2055494746957N11959145WA0139201431
B2055504746954N11959137WA0139101430
B2055514746951N11959129WA0139001429
B2055524746947N11959122WA0138901428
B2055534746944N11959115WA0138901427
B2055544746940N11959108WA0138801426
B2055554746937N11959102WA0138701425
B2055564746934N11959096WA0138601423
B2055574746931N11959089WA0138501422
B2055584746927N11959082WA0138401420
B2055594746924N11959075WA0138301418
B2056004746921N11959068WA0138101416
B2056014746918N11959061WA0138001414
B2056024746915N11959053WA0137901412
B2056034746912N11959046WA0137801411
B2056034746912N11959046WA0137801411
B2056044746909N11959039WA0137601409
B2056054746906N11959032WA0137501407
B2056064746903N11959025WA0137401405
B2056074746901N11959018WA0137201403
B2056084746898N11959010WA0137101400
B2056094746896N11959002WA0136901398
B2056104746893N11958994WA0136701396
B2056114746890N11958987WA0136601394
B2056124746887N11958980WA0136401392
B2056134746885N11958973WA0136301390
B2056144746882N11958966WA0136101387
B2056154746879N11958958WA0135901385
B2056164746876N11958951WA0135701383
B2056174746873N11958944WA0135501381
B2056184746870N11958937WA0135301380
B2056194746867N11958930WA0135201378
B2056204746864N11958923WA0134901377
B2056214746861N11958916WA0134801376
B2056224746858N11958908WA0134601375
B2056234746856N11958901WA0134501374
B2056244746854N11958894WA0134301373
B2056254746852N11958887WA0134201372
B2056264746851N11958881WA0134001370
B2056274746849N11958874WA0133901367
B2056284746848N11958866WA0133701364
B2056294746846N11958859WA0133601361
B2056304746843N11958851WA0133301358
B2056314746841N11958843WA0133201355
B2056324746839N11958834WA0132901352
B2056334746837N11958826WA0132801349
B2056344746835N11958817WA0132501347
B2056354746834N11958808WA0132301344
B2056364746832N11958800WA0132101341
B2056374746830N11958791WA0131901338
B2056384746827N11958782WA0131601335
B2056394746825N11958773WA0131401333
B2056404746822N11958765WA0131101331
B2056414746819N11958757WA0130901329
B2056424746817N11958749WA0130701327
B2056434746814N11958742WA0130501325
B2056444746811N11958735WA0130201323
B2056454746808N11958727WA0130001321
B2056464746805N11958720WA0129801318
B2056474746802N11958712WA0129601316
B2056484746800N11958704WA0129401315
B2056494746797N11958696WA0129201313
B2056504746795N11958688WA0129001311
B2056514746792N11958681WA0128801309
B2056524746791N11958673WA0128601308
B2056534746789N11958665WA0128401306
B2056544746788N11958656WA0128201303
B2056554746786N11958647WA0128001300
B2056564746784N11958638WA0127801298
B2056574746783N11958629WA0127601297
B2056584746780N11958621WA0127401296
B2056594746777N11958613WA0127201294
B2057004746775N11958606WA0127001293
B2057014746772N11958598WA0126901291
B2057024746769N11958590WA0126701290
B2057034746766N11958582WA0126501288
B2057044746763N11958575WA0126301287
B2057054746759N11958568WA0126201286
B2057064746755N11958561WA0126001285
B2057074746752N11958555WA0125901284
B2057074746752N11958555WA0125901284
B2057084746748N11958549WA0125701283
B2057094746743N11958543WA0125601281
B2057104746739N11958539WA0125401279
B2057114746734N11958534WA0125301278
B2057124746730N11958529WA0125101277
B2057134746726N11958524WA0125001275
B2057144746721N11958519WA0124901274
B2057154746717N11958515WA0124801273
B2057164746713N11958510WA0124601271
B2057174746708N11958506WA0124501269
B2057184746703N11958503WA0124301268
B2057194746699N11958499WA0124201267
B2057204746694N11958496WA0124101266
B2057214746690N11958493WA0124001265
B2057224746685N11958489WA0123801263
B2057234746681N11958485WA0123701262
B2057244746676N11958481WA0123601260
B2057254746672N11958477WA0123501259
B2057264746667N11958473WA0123301258
B2057274746663N11958469WA0123201257
B2057284746659N11958464WA0123101256
B2057294746655N11958460WA0123001255
B2057304746651N11958456WA0122801253
B2057314746647N11958452WA0122701251
B2057324746643N11958447WA0122601250
B2057334746639N11958441WA0122501248
B2057344746636N11958435WA0122301247
B2057354746633N11958428WA0122201245
B2057364746629N11958421WA0122001244
B2057374746626N11958414WA0121901242
B2057384746623N11958407WA0121801241
B2057394746619N11958400WA0121601240
B2057404746616N11958394WA0121501239
B2057414746612N11958388WA0121401237
B2057424746608N11958383WA0121201236
B2057434746604N11958378WA0121101234
B2057444746599N11958374WA0120901233
B2057454746595N11958371WA0120801232
B2057464746591N11958368WA0120601231
B2057474746586N11958366WA0120501229
B2057484746581N11958364WA0120401228
B2057494746577N11958362WA0120201226
B2057504746572N11958360WA0120101225
B2057514746568N11958358WA0120001224
B2057524746563N11958357WA0119801223
B2057534746558N11958356WA0119701221
B2057544746554N11958355WA0119501219
B2057554746549N11958354WA0119401218
B2057564746544N11958353WA0119301216
B2057574746540N11958352WA0119101215
B2057584746535N11958352WA0119001214
B2057594746531N11958351WA0118901213
B2058004746526N11958351WA0118701211
B2058014746521N11958350WA0118601210
B2058024746516N11958349WA0118501209
B2058034746512N11958347WA0118401208
B2058044746507N11958344WA0118201206
B2058054746502N11958342WA0118101205
B2058064746497N11958341WA0117901203
B2058074746493N11958340WA0117801202
B2058084746488N11958338WA0117701201
B2058094746483N11958337WA0117501199
B2058104746478N11958336WA0117401198
B2058114746474N11958335WA0117301196
B2058114746474N11958335WA0117301196
B2058124746469N11958334WA0117101194
B2058134746464N11958333WA0117001193
B2058144746459N11958331WA0116801191
B2058154746454N11958330WA0116701190
B2058164746449N11958328WA0116501189
B2058174746444N11958326WA0116401187
B2058184746440N11958323WA0116201186
B2058194746435N11958321WA0116101184
B2058204746430N11958319WA0115901182
B2058214746425N11958316WA0115801180
B2058224746420N11958313WA0115601179
B2058234746415N11958309WA0115501177
B2058244746410N11958305WA0115301175
B2058254746406N11958300WA0115201173
B2058264746401N11958295WA0115001172
B2058274746397N11958289WA0114901169
B2058284746392N11958284WA0114701167
B2058294746388N11958278WA0114601165
B2058304746383N11958273WA0114401163
B2058314746378N11958269WA0114201161
B2058324746374N11958266WA0114001160
B2058334746369N11958265WA0113901157
B2058344746364N11958265WA0113701155
B2058354746359N11958265WA0113501154
B2058364746355N11958266WA0113301153
B2058374746351N11958267WA0113201151
B2058384746347N11958268WA0113001149
B2058394746343N11958270WA0112901147
B2058404746339N11958272WA0112701145
B2058414746334N11958275WA0112601143
B2058424746330N11958277WA0112401141
B2058434746326N11958279WA0112201139
B2058444746323N11958281WA0112001137
B2058454746319N11958283WA0111901135
B2058464746314N11958283WA0111701133
B2058474746309N11958283WA0111501130
B2058484746304N11958282WA0111301128
B2058494746299N11958280WA0111101126
B2058504746294N11958279WA0110901125
B2058514746289N11958278WA0110801123
B2058524746284N11958278WA0110601121
B2058534746279N11958278WA0110401119
B2058544746274N11958279WA0110201117
B2058554746270N11958281WA0110001115
B2058564746266N11958282WA0109801114
B2058574746262N11958284WA0109701113
B2058584746258N11958286WA0109501111
B2058594746255N11958289WA0109301109
B2059004746253N11958293WA0109101107
B2059014746252N11958297WA0109001106
B2059024746252N11958301WA0108701104
B2059034746255N11958305WA0108601103
B2059044746258N11958308WA0108401102
B2059054746262N11958309WA0108201100
B2059064746266N11958309WA0108001100
B2059074746270N11958307WA0107901099
B2059084746274N11958304WA0107701098
B2059094746278N11958301WA0107501095
B2059104746282N11958296WA0107301092
B2059114746286N11958291WA0107201090
B2059124746290N11958285WA0107001088
B2059134746294N11958279WA0106801086
B2059144746298N11958272WA0106701084
B2059154746301N11958266WA0106501081
B2059154746301N11958266WA0106501081
B2059164746305N11958258WA0106301079
B2059174746308N11958251WA0106201078
B2059184746312N11958243WA0106001076
B2059194746315N11958235WA0105901074
B2059204746318N11958227WA0105701073
B2059214746320N11958218WA0105501072
B2059224746322N11958210WA0105401070
B2059234746324N11958201WA0105201069
B2059244746326N11958192WA0105001067
B2059254746328N11958184WA0104901065
B2059264746330N11958176WA0104701064
B2059274746332N11958169WA0104601062
B2059284746335N11958162WA0104401062
B2059294746337N11958157WA0104301061
B2059304746340N11958151WA0104101060
B2059314746344N11958146WA0104001057
B2059324746348N11958142WA0103801056
B2059334746353N11958140WA0103601054
B2059344746357N11958140WA0103501052
B2059354746361N11958142WA0103301050
B2059364746364N11958144WA0103101047
B2059374746367N11958147WA0103001045
B2059384746369N11958152WA0102801043
B2059394746371N11958157WA0102601040
B2059404746372N11958161WA0102401039
B2059414746373N11958166WA0102301037
B2059424746373N11958170WA0102001035
B2059434746372N11958175WA0101901033
B2059444746371N11958179WA0101701031
B2059454746370N11958184WA0101501028
B2059464746370N11958188WA0101301027
B2059474746369N11958192WA0101201026
B2059484746369N11958196WA0101001026
B2059494746369N11958201WA0100801024
B2059504746369N11958206WA0100601023
B2059514746370N11958211WA0100501021
B2059524746371N11958216WA0100301020
B2059534746373N11958221WA0100201019
B2059544746376N11958225WA0100001018
B2059554746378N11958228WA0099901017
B2059564746381N11958230WA0099701016
B2059574746385N11958232WA0099601014
B2059584746388N11958233WA0099401012
B2059594746393N11958233WA0099301010
B2100004746398N11958231WA0099101008
B2100014746402N11958228WA0098901007
B2100024746407N11958224WA0098801005
B2100034746411N11958220WA0098601003
B2100044746416N11958215WA0098401001
B2100054746420N11958209WA0098300999
B2100064746425N11958204WA0098100997
B2100074746429N11958198WA0098000996
B2100084746434N11958193WA0097800994
B2100094746438N11958187WA0097700991
B2100104746443N11958183WA0097500989
B2100114746448N11958178WA0097300988
B2100124746453N11958174WA0097100986
B2100134746457N11958171WA0097000985
B2100144746462N11958168WA0096800982
B2100154746467N11958165WA0096700980
B2100164746472N11958162WA0096500978
B2100174746476N11958159WA0096400976
B2100184746481N11958155WA0096200974
B2100194746486N11958152WA0096100972
B2100194746486N11958152WA0096100972
B2100204746491N11958148WA0095900970
B2100214746496N11958145WA0095700969
B2100224746501N11958142WA0095500967
B2100234746506N11958138WA0095400965
B2100244746511N11958134WA0095200963
B2100254746516N11958130WA0095100961
B2100264746520N11958125WA0094900960
B2100274746525N11958121WA0094800958
B2100284746529N11958115WA0094600956
B2100294746533N11958109WA0094400954
B2100304746537N11958102WA0094200951
B2100314746542N11958096WA0094100949
B2100324746546N11958090WA0093900947
B2100334746551N11958084WA0093800944
B2100344746555N11958078WA0093600943
B2100354746560N11958073WA0093400942
B2100364746564N11958068WA0093200941
B2100374746569N11958064WA0093100940
B2100384746573N11958060WA0092900938
B2100394746578N11958057WA0092800937
B2100404746583N11958054WA0092600935
B2100414746588N11958052WA0092500935
B2100424746593N11958049WA0092300934
B2100434746598N11958046WA0092200933
B2100444746603N11958044WA0092000932
B2100454746607N11958041WA0091900931
B2100464746611N11958039WA0091800930
B2100474746615N11958038WA0091700928
B2100484746620N11958035WA0091500927
B2100494746624N11958033WA0091400925
B2100504746629N11958030WA0091300923
B2100514746633N11958027WA0091200922
B2100524746637N11958024WA0091000921
B2100534746641N11958021WA0090900919
B2100544746645N11958018WA0090700916
B2100554746650N11958015WA0090600915
B2100564746655N11958014WA0090500914
B2100574746659N11958012WA0090400914
B2100584746663N11958012WA0090200916
B2100594746667N11958012WA0090200917
B2101004746670N11958014WA0090100918
B2101014746673N11958016WA0090000919
B2101024746675N11958018WA0090000919
B2101034746677N11958022WA0089900919
B2101044746678N11958026WA0089900918
B2101054746679N11958031WA0089800918
B2101064746680N11958036WA0089800918
B2101074746680N11958041WA0089700918
B2101084746680N11958046WA0089700918
B2101094746679N11958050WA0089700917
B2101104746678N11958054WA0089600916
B2101114746676N11958059WA0089600915
B2101124746673N11958063WA0089500913
B2101134746670N11958067WA0089500912
B2101144746667N11958069WA0089400912
B2101154746663N11958071WA0089300911
B2101164746660N11958071WA0089200910
B2101174746656N11958071WA0089200908
B2101184746653N11958070WA0089100906
B2101194746649N11958071WA0089000903
B2101204746645N11958074WA0088800901
B2101214746643N11958077WA0088700899
B2101224746641N11958082WA0088500897
B2101234746641N11958086WA0088400895
B2101234746641N11958086WA0088400895
B2101244746643N11958090WA0088300894
B2101254746646N11958093WA0088200892
B2101264746649N11958096WA0088000891
B2101274746653N11958097WA0087800889
B2101284746658N11958098WA0087700887
B2101294746663N11958097WA0087500886
B2101304746667N11958095WA0087400885
B2101314746672N11958093WA0087200884
B2101324746677N11958089WA0087100883
B2101334746682N11958085WA0087000881
B2101344746686N11958081WA0086800879
B2101354746691N11958075WA0086700877
B2101364746696N11958070WA0086500875
B2101374746700N11958065WA0086400873
B2101384746705N11958059WA0086200872
B2101394746709N11958053WA0086100870
B2101404746714N11958048WA0085900868
B2101414746719N11958042WA0085800865
B2101424746724N11958037WA0085600863
B2101434746729N11958033WA0085500861
B2101444746733N11958030WA0085300858
B2101454746738N11958028WA0085100855
B2101464746743N11958027WA0084900854
B2101474746748N11958027WA0084800852
B2101484746752N11958028WA0084600851
B2101494746756N11958031WA0084500849
B2101504746760N11958033WA0084300847
B2101514746764N11958034WA0084100845
B2101524746768N11958036WA0083900843
B2101534746773N11958038WA0083800842
B2101544746777N11958040WA0083600840
B2101554746781N11958041WA0083400838
B2101564746786N11958041WA0083200836
B2101574746791N11958040WA0083100834
B2101584746796N11958040WA0082900831
B2101594746801N11958041WA0082700829
B2102004746806N11958042WA0082500828
B2102014746810N11958043WA0082400827
B2102024746814N11958044WA0082200826
B2102034746819N11958045WA0082100824
B2102044746823N11958046WA0081900823
B2102054746828N11958047WA0081800821
B2102064746832N11958047WA0081600820
B2102074746836N11958048WA0081500819
B2102084746841N11958048WA0081300817
B2102094746845N11958048WA0081200815
B2102104746850N11958048WA0081000813
B2102114746855N11958048WA0080800812
B2102124746859N11958047WA0080700811
B2102134746864N11958046WA0080500809
B2102144746869N11958045WA0080400808
B2102154746873N11958045WA0080200806
B2102164746878N11958045WA0080100804
B2102174746883N11958046WA0079900801
B2102184746888N11958047WA0079800800
B2102194746892N11958048WA0079600799
B2102204746896N11958050WA0079500797
B2102214746899N11958051WA0079300796
B2102224746903N11958053WA0079200794
B2102234746907N11958055WA0079000792
B2102244746910N11958058WA0078800790
B2102254746912N11958061WA0078700789
B2102264746915N11958064WA0078500787
B2102274746917N11958067WA0078400785
B2102274746917N11958067WA0078400785
B2102284746920N11958071WA0078200783
B2102294746922N11958074WA0078100781
B2102304746925N11958077WA0077900779
B2102314746928N11958080WA0077800777
B2102324746931N11958083WA0077500775
B2102334746933N11958085WA0077400772
B2102344746937N11958088WA0077200769
B2102354746940N11958091WA0077000765
B2102364746944N11958094WA0076700762
B2102374746949N11958096WA0076600760
B2102384746953N11958099WA0076300758
B2102394746956N11958102WA0076100757
B2102404746960N11958104WA0075900756
B2102414746963N11958106WA0075800756
B2102424746966N11958108WA0075600756
B2102434746969N11958110WA0075400756
B2102444746972N11958112WA0075300755
B2102454746975N11958114WA0075200753
B2102464746979N11958117WA0075000752
B2102474746982N11958121WA0074900752
B2102484746986N11958125WA0074700752
B2102494746989N11958128WA0074700753
B2102504746991N11958131WA0074600753
B2102514746993N11958134WA0074500753
B2102524746994N11958139WA0074400752
B2102534746996N11958143WA0074300751
B2102544746997N11958147WA0074200750
B2102554746998N11958152WA0074200749
B2102564746999N11958156WA0074100748
B2102574747000N11958160WA0074000747
B2102584747002N11958164WA0073900747
B2102594747004N11958167WA0073900747
B2103004747006N11958170WA0073800747
B2103014747009N11958173WA0073800748
B2103024747012N11958175WA0073700746
B2103034747015N11958177WA0073600746
B2103044747018N11958181WA0073600744
B2103054747022N11958185WA0073500743
B2103064747025N11958189WA0073400742
B2103074747028N11958194WA0073400742
B2103084747030N11958199WA0073300742
B2103094747032N11958204WA0073300742
B2103104747034N11958209WA0073200742
B2103114747036N11958214WA0073200743
B2103124747037N11958219WA0073100743
B2103134747037N11958224WA0073100743
B2103144747037N11958229WA0073100742
B2103154747037N11958234WA0073000742
B2103164747039N11958239WA0073000741
B2103174747041N11958244WA0073000740
B2103184747044N11958248WA0072900740
B2103194747047N11958251WA0072900739
B2103204747051N11958252WA0072800739
B2103214747056N11958253WA0072800738
B2103224747060N11958253WA0072800737
B2103234747065N11958254WA0072700736
B2103244747070N11958255WA0072700735
B2103254747074N11958256WA0072600735
B2103264747077N11958257WA0072600735
B2103274747080N11958260WA0072500736
B2103284747081N11958264WA0072500735
B2103294747082N11958268WA0072500735
B2103304747081N11958271WA0072400736
B2103314747079N11958274WA0072400736
B2103314747079N11958274WA0072400736
B2103324747077N11958275WA0072400737
B2103334747074N11958275WA0072400737
B2103344747070N11958274WA0072400737
B2103354747066N11958272WA0072400737
B2103364747062N11958267WA0072400737
B2103374747059N11958261WA0072400737
B2103384747057N11958253WA0072400738
B2103394747057N11958245WA0072400739
B2103404747058N11958236WA0072400740
B2103414747059N11958228WA0072400741
B2103424747062N11958222WA0072400741
B2103434747066N11958216WA0072400741
B2103444747070N11958211WA0072400741
B2103454747074N11958208WA0072400740
B2103464747080N11958206WA0072400739
B2103474747085N11958205WA0072400738
B2103484747090N11958206WA0072400738
B2103494747094N11958208WA0072400738
B2103504747096N11958210WA0072300739
B2103514747098N11958212WA0072300739
B2103524747100N11958214WA0072300739
B2103534747100N11958218WA0072300737
B2103544747101N11958222WA0072300736
B2103554747101N11958226WA0072200735
B2103564747101N11958229WA0072200734
B2103574747100N11958232WA0072200734
B2103584747098N11958235WA0072100734
B2103594747096N11958239WA0072100733
B2104004747094N11958242WA0072000733
B2104014747091N11958244WA0072000734
B2104024747089N11958246WA0071900734
B2104034747086N11958247WA0071900734
B2104044747083N11958247WA0071900735
B2104054747079N11958247WA0071800735
B2104064747076N11958247WA0071800736
B2104074747073N11958248WA0071800737
B2104084747071N11958249WA0071800737
B2104094747068N11958250WA0071800738
B2104104747065N11958251WA0071800738
B2104114747063N11958252WA0071800738
B2104124747061N11958255WA0071900738
B2104134747061N11958259WA0071900737
B2104144747062N11958263WA0071900737
B2104154747065N11958266WA0071900737
B2104164747069N11958266WA0071900737
B2104174747074N11958264WA0071900737
B2104184747079N11958258WA0071900736
B2104194747082N11958249WA0071900736
B2104204747082N11958239WA0071800736
B2104214747080N11958229WA0071800735
B2104224747076N11958222WA0071800735
B2104234747072N11958217WA0071800735
B2104244747067N11958214WA0071800736
B2104254747063N11958214WA0071800737
B2104264747059N11958215WA0071800737
B2104274747056N11958217WA0071800738
B2104284747054N11958220WA0071800739
B2104294747052N11958224WA0071800740
B2104304747052N11958229WA0071900740
B2104314747053N11958234WA0071900740
B2104324747055N11958238WA0071900742
B2104334747058N11958240WA0071900743
B2104344747061N11958241WA0072000744
B2104354747065N11958241WA0072000745
B2104354747065N11958241WA0072000745
B2104364747070N11958239WA0072100745
B2104374747075N11958235WA0072100745
B2104384747080N11958228WA0072200746
B2104394747084N11958219WA0072200746
B2104404747087N11958212WA0072300747
B2104414747091N11958208WA0072400749
B2104424747095N11958206WA0072500750
B2104434747099N11958203WA0072500750
B2104444747104N11958201WA0072600748
B2104454747109N11958201WA0072600747
B2104464747112N11958202WA0072700747
B2104474747115N11958205WA0072700746
B2104484747116N11958208WA0072700745
B2104494747117N11958212WA0072700744
B2104504747117N11958216WA0072700743
B2104514747118N11958220WA0072700742
B2104524747118N11958223WA0072700740
B2104534747117N11958227WA0072600738
B2104544747116N11958230WA0072500736
B2104554747115N11958234WA0072500734
B2104564747113N11958236WA0072400733
B2104574747111N11958237WA0072300732
B2104584747108N11958238WA0072200731
B2104594747105N11958239WA0072100730
B2105004747103N11958240WA0072000730
B2105014747100N11958241WA0071900731
B2105024747098N11958242WA0071800731
B2105034747096N11958242WA0071800731
B2105044747095N11958243WA0071700729
B2105054747094N11958245WA0071700728
B2105064747093N11958247WA0071600725
B2105074747092N11958251WA0071500723
B2105084747091N11958255WA0071300721
B2105094747093N11958260WA0071300720
B2105104747095N11958265WA0071100720
B2105114747098N11958268WA0071000719
B2105124747101N11958272WA0070900717
B2105134747105N11958275WA0070800716
B2105144747109N11958278WA0070700713
B2105154747113N11958282WA0070600711
B2105164747117N11958285WA0070400709
B2105174747122N11958288WA0070300708
B2105184747126N11958291WA0070100706
B2105194747130N11958295WA0070000705
B2105204747135N11958298WA0069800703
B2105214747139N11958302WA0069700701
B2105224747142N11958305WA0069600700
B2105234747146N11958309WA0069400699
B2105244747149N11958312WA0069300698
B2105254747153N11958314WA0069200696
B2105264747156N11958318WA0069000695
B2105274747159N11958321WA0068900692
B2105284747163N11958326WA0068700690
B2105294747166N11958330WA0068600688
B2105304747170N11958333WA0068400687
B2105314747174N11958336WA0068200686
B2105324747178N11958338WA0068100684
B2105334747183N11958340WA0067900682
B2105344747187N11958342WA0067700681
B2105354747192N11958344WA0067600679
B2105364747196N11958345WA0067400678
B2105374747200N11958347WA0067300677
B2105384747203N11958350WA0067200675
B2105394747207N11958352WA0067100673
B2105404747211N11958355WA0066900671
B2105404747211N11958355WA0066900671
B2105414747215N11958358WA0066800670
B2105424747219N11958360WA0066600669
B2105434747223N11958362WA0066500668
B2105444747227N11958364WA0066300667
B2105454747231N11958367WA0066200665
B2105464747234N11958369WA0066100664
B2105474747237N11958372WA0066000663
B2105484747240N11958375WA0065900662
B2105494747244N11958377WA0065800661
B2105504747247N11958380WA0065600659
B2105514747250N11958383WA0065500658
B2105524747253N11958385WA0065400657
B2105534747256N11958387WA0065300655
B2105544747259N11958389WA0065200654
B2105554747263N11958391WA0065100652
B2105564747266N11958393WA0064900650
B2105574747270N11958395WA0064800649
B2105584747273N11958398WA0064700647
B2105594747277N11958400WA0064600645
B2106004747281N11958403WA0064400644
B2106014747284N11958404WA0064300643
B2106024747288N11958406WA0064200642
B2106034747292N11958409WA0064100641
B2106044747295N11958411WA0063900640
B2106054747298N11958414WA0063800639
B2106064747300N11958417WA0063700637
B2106074747302N11958420WA0063600636
B2106084747304N11958423WA0063400635
B2106094747306N11958427WA0063400633
B2106104747309N11958430WA0063200632
B2106114747312N11958433WA0063100631
B2106124747315N11958437WA0063000631
B2106134747317N11958441WA0062900631
B2106144747320N11958445WA0062800631
B2106154747322N11958448WA0062700632
B2106164747325N11958451WA0062700631
B2106174747327N11958455WA0062600630
B2106184747329N11958461WA0062600629
B2106194747331N11958466WA0062500629
B2106204747333N11958471WA0062500629
B2106214747335N11958476WA0062500630
B2106224747338N11958480WA0062500630
B2106234747340N11958484WA0062500630
B2106244747342N11958489WA0062600630
B2106254747344N11958493WA0062600630
B2106264747344N11958498WA0062600631
B2106274747343N11958500WA0062700633
B2106284747341N11958502WA0062700635
B2106294747338N11958503WA0062700636
B2106304747335N11958503WA0062800637
B2106314747332N11958502WA0062800638
B2106324747328N11958500WA0062900639
B2106334747324N11958496WA0062900639
B2106344747322N11958490WA0062900639
B2106354747322N11958483WA0063000639
B2106364747322N11958474WA0063000640
B2106374747324N11958467WA0063000642
B2106384747327N11958460WA0063000643
B2106394747331N11958455WA0063000643
B2106404747336N11958451WA0063100643
B2106414747341N11958449WA0063100643
B2106424747346N11958448WA0063100644
B2106434747350N11958447WA0063100644
B2106444747355N11958447WA0063200645
B2106444747355N11958447WA0063200645
B2106454747359N11958447WA0063200645
B2106464747363N11958448WA0063300645
B2106474747367N11958450WA0063300645
B2106484747370N11958454WA0063300645
B2106494747372N11958459WA0063300645
B2106504747372N11958464WA0063400646
B2106514747372N11958467WA0063400648
B2106524747371N11958470WA0063400649
B2106534747369N11958471WA0063500650
B2106544747368N11958473WA0063500650
B2106554747367N11958475WA0063600650
B2106564747364N11958476WA0063600649
B2106574747361N11958475WA0063600649
B2106584747358N11958471WA0063600649
B2106594747355N11958465WA0063600649
B2107004747354N11958459WA0063600648
B2107014747355N11958451WA0063500649
B2107024747355N11958444WA0063500648
B2107034747356N11958435WA0063500647
B2107044747358N11958427WA0063400647
B2107054747360N11958418WA0063400646
B2107064747364N11958412WA0063300646
B2107074747368N11958406WA0063300646
B2107084747373N11958402WA0063200647
B2107094747377N11958400WA0063200646
B2107104747382N11958398WA0063200646
B2107114747386N11958397WA0063100646
B2107124747391N11958398WA0063100646
B2107134747395N11958399WA0063100645
B2107144747399N11958400WA0063100645
B2107154747402N11958401WA0063000644
B2107164747406N11958402WA0063000644
B2107174747409N11958404WA0063000643
B2107184747412N11958407WA0063000643
B2107194747414N11958410WA0062900642
B2107204747417N11958414WA0062900642
B2107214747419N11958417WA0062900641
B2107224747422N11958420WA0062800641
B2107234747424N11958423WA0062800641
B2107244747426N11958426WA0062800640
B2107254747429N11958429WA0062700639
B2107264747432N11958432WA0062700638
B2107274747436N11958435WA0062700637
B2107284747440N11958437WA0062600636
B2107294747443N11958439WA0062600635
B2107304747447N11958441WA0062500634
B2107314747450N11958443WA0062500634
B2107324747452N11958446WA0062400632
B2107334747455N11958450WA0062300631
B2107344747458N11958454WA0062300630
B2107354747461N11958458WA0062200629
B2107364747464N11958462WA0062200629
B2107374747466N11958466WA0062100628
B2107384747468N11958469WA0062000627
B2107394747471N11958473WA0062000625
B2107404747473N11958478WA0061900622
B2107414747475N11958482WA0061800619
B2107424747478N11958487WA0061700617
B2107434747481N11958492WA0061600616
B2107444747484N11958496WA0061500616
B2107454747486N11958500WA0061400614
B2107464747489N11958505WA0061300613
B2107474747492N11958509WA0061200612
B2107474747492N11958509WA0061200612
B2107484747495N11958514WA0061100610
B2107494747498N11958518WA0061000608
B2107504747501N11958523WA0060900607
B2107514747504N11958528WA0060800605
B2107524747506N11958533WA0060600603
B2107534747509N11958537WA0060500601
B2107544747512N11958540WA0060300600
B2107554747516N11958543WA0060200598
B2107564747519N11958547WA0060100596
B2107574747522N11958551WA0059900594
B2107584747525N11958556WA0059700591
B2107594747527N11958561WA0059600588
B2108004747528N11958566WA0059400586
B2108014747529N11958572WA0059300584
B2108024747530N11958577WA0059000583
B2108034747532N11958582WA0058900581
B2108044747533N11958587WA0058700579
B2108054747534N11958593WA0058500577
B2108064747535N11958598WA0058300576
B2108074747537N11958604WA0058200574
B2108084747538N11958609WA0058000572
B2108094747539N11958614WA0057800571
B2108104747540N11958620WA0057600568
B2108114747541N11958625WA0057500566
B2108124747541N11958631WA0057200564
B2108134747541N11958635WA0057100563
B2108144747541N11958640WA0056900562
B2108154747540N11958644WA0056800560
B2108164747539N11958648WA0056500559
B2108174747538N11958652WA0056400557
B2108184747537N11958657WA0056200555
B2108194747535N11958661WA0056000553
B2108204747534N11958666WA0055800552
B2108214747533N11958671WA0055700551
B2108224747533N11958677WA0055500550
B2108234747534N11958681WA0055400550
B2108244747536N11958685WA0055200549
B2108254747538N11958689WA0055100550
B2108264747541N11958692WA0055000549
B2108274747545N11958693WA0054900547
B2108284747549N11958694WA0054700545
B2108294747554N11958694WA0054600544
B2108304747558N11958693WA0054500543
B2108314747563N11958691WA0054400542
B2108324747567N11958688WA0054300540
B2108334747572N11958684WA0054200539
B2108344747576N11958680WA0054000537
B2108354747581N11958675WA0053900535
B2108364747585N11958670WA0053800534
B2108374747589N11958665WA0053700532
B2108384747593N11958660WA0053500531
B2108394747597N11958656WA0053400529
B2108404747602N11958653WA0053200528
B2108414747606N11958649WA0053100526
B2108424747610N11958646WA0053000524
B2108434747615N11958642WA0052900523
B2108444747619N11958638WA0052700521
B2108454747624N11958634WA0052600520
B2108464747629N11958630WA0052400519
B2108474747633N11958626WA0052300518
B2108484747638N11958622WA0052100516
B2108494747642N11958619WA0052000515
B2108504747647N11958615WA0051800514
B2108514747652N11958611WA0051700512
B2108514747652N11958611WA0051700512
B2108524747657N11958607WA0051500511
B2108534747661N11958603WA0051400510
B2108544747666N11958599WA0051300509
B2108554747670N11958595WA0051200508
B2108564747675N11958591WA0051000507
B2108574747680N11958588WA0051000506
B2108584747686N11958585WA0050800505
B2108594747691N11958583WA0050700505
B2109004747696N11958580WA0050600504
B2109014747701N11958578WA0050500502
B2109024747706N11958576WA0050400501
B2109034747711N11958575WA0050400501
B2109044747716N11958576WA0050300500
B2109054747720N11958579WA0050200499
B2109064747724N11958582WA0050100498
B2109074747727N11958585WA0050000498
B2109084747729N11958590WA0049900497
B2109094747731N11958594WA0049800495
B2109104747732N11958598WA0049700494
B2109114747733N11958603WA0049600493
B2109124747733N11958607WA0049500492
B2109134747732N11958611WA0049400490
B2109144747731N11958615WA0049300489
B2109154747730N11958619WA0049200488
B2109164747729N11958622WA0049100486
B2109174747728N11958626WA0049000484
B2109184747727N11958630WA0048800482
B2109194747725N11958634WA0048700480
B2109204747724N11958637WA0048500479
B2109214747722N11958641WA0048400477
B2109224747721N11958645WA0048200475
B2109234747719N11958648WA0048100474
B2109244747717N11958652WA0047900472
B2109254747716N11958657WA0047800471
B2109264747714N11958662WA0047600469
B2109274747713N11958667WA0047400467
B2109284747713N11958672WA0047300466
B2109294747713N11958678WA0047100466
B2109304747714N11958683WA0047000465
B2109314747715N11958689WA0046900464
B2109324747715N11958694WA0046700462
B2109334747715N11958700WA0046600461
B2109344747715N11958705WA0046500460
B2109354747714N11958709WA0046400459
B2109364747713N11958714WA0046200458
B2109374747712N11958718WA0046100456
B2109384747710N11958723WA0046000454
B2109394747709N11958727WA0045900452
B2109404747708N11958731WA0045700451
B2109414747707N11958735WA0045600449
B2109424747706N11958739WA0045500447
B2109434747705N11958742WA0045300446
B2109444747703N11958746WA0045200444
B2109454747702N11958750WA0045000442
B2109464747701N11958755WA0044800440
B2109474747700N11958760WA0044700438
B2109484747699N11958765WA0044500437
B2109494747698N11958770WA0044400436
B2109504747698N11958775WA0044200434
B2109514747697N11958781WA0044000432
B2109524747697N11958786WA0043800429
B2109534747696N11958792WA0043700428
B2109544747695N11958797WA0043500426
B2109554747694N11958801WA0043300424
B2109554747694N11958801WA0043300424
B2109564747693N11958805WA0043100422
B2109574747693N11958810WA0042900420
B2109584747693N11958816WA0042700418
B2109594747695N11958821WA0042600416
B2110004747697N11958826WA0042300415
B2110014747699N11958830WA0042200414
B2110024747701N11958834WA0042000412
B2110034747703N11958838WA0041800410
B2110044747705N11958844WA0041600408
B2110054747707N11958849WA0041500406
B2110064747709N11958854WA0041200405
B2110074747710N11958859WA0041100404
B2110084747711N11958864WA0040900402
B2110094747712N11958869WA0040800401
B2110104747712N11958873WA0040600399
B2110114747713N11958878WA0040500397
B2110124747712N11958884WA0040300396
B2110134747711N11958889WA0040200394
B2110144747710N11958894WA0040000392
B2110154747709N11958899WA0039900391
B2110164747709N11958903WA0039700390
B2110174747711N11958906WA0039600388
B2110184747715N11958907WA0039400386
B2110194747720N11958905WA0039300383
B2110204747723N11958896WA0039100380
B2110214747723N11958888WA0038900379
B2110224747719N11958882WA0038700376
B2110234747714N11958883WA0038500375
B2110244747711N11958886WA0038200373
B2110254747711N11958891WA0038000373
B2110264747713N11958896WA0037700373
B2110274747717N11958897WA0037600370
B2110284747721N11958895WA0037300370
B2110294747724N11958895WA0037200368
B2110304747728N11958896WA0037000366
B2110314747733N11958897WA0036800363
B2110324747739N11958897WA0036600360
B2110334747745N11958896WA0036400358
B2110344747750N11958895WA0036200357
B2110354747753N11958894WA0036100355
B2110364747757N11958894WA0035900353
B2110374747762N11958896WA0035800350
B2110384747768N11958896WA0035500348
B2110394747773N11958893WA0035400345
B2110404747777N11958890WA0035200340
B2110414747782N11958889WA0035100333
B2110424747786N11958887WA0034900325
B2110434747794N11958887WA0034800320
B2110444747800N11958884WA0034500315
B2110454747802N11958875WA0034400311
B2110464747803N11958861WA0034200304
B2110474747804N11958850WA0034100298
B2110484747806N11958843WA0033900296
B2110494747810N11958837WA0033800295
B2110504747815N11958832WA0033700293
B2110514747820N11958830WA0033600292
B2110524747826N11958830WA0033400291
B2110534747830N11958835WA0033300288
B2110544747833N11958841WA0033200286
B2110554747831N11958847WA0033100285
B2110564747830N11958852WA0032900283
B2110574747829N11958856WA0032800280
B2110584747831N11958862WA0032700276
B2110594747836N11958867WA0032600276
B2110594747836N11958867WA0032600276
B2111004747843N11958869WA0032400275
B2111014747849N11958864WA0032300274
B2111024747853N11958856WA0032200272
B2111034747857N11958850WA0032100270
B2111044747860N11958844WA0032000266
B2111054747865N11958839WA0031900263
B2111064747869N11958835WA0031800260
B2111074747874N11958830WA0031700257
B2111084747879N11958825WA0031600255
B2111094747884N11958823WA0031600252
B2111104747890N11958824WA0031500249
B2111114747894N11958833WA0031400247
B2111124747895N11958841WA0031300244
B2111134747894N11958846WA0031200241
B2111144747893N11958852WA0031100239
B2111154747892N11958855WA0031100235
B2111164747892N11958860WA0031000232
B2111174747890N11958865WA0030900233
B2111184747888N11958869WA0030900231
B2111194747885N11958872WA0030800230
B2111204747882N11958875WA0030700226
B2111214747880N11958878WA0030700221
B2111224747878N11958882WA0030700217
B2111234747876N11958885WA0030600215
B2111244747873N11958888WA0030600215
B2111254747870N11958892WA0030600215
B2111264747867N11958896WA0030500213
B2111274747866N11958899WA0030500213
B2111284747864N11958904WA0030500211
B2111294747862N11958908WA0030400210
B2111304747860N11958913WA0030400211
B2111314747857N11958918WA0030300209
B2111324747855N11958922WA0030200207
B2111334747854N11958926WA0030200206
B2111344747853N11958930WA0030100204
B2111354747853N11958934WA0030100202
B2111364747851N11958938WA0030000202
B2111374747851N11958944WA0029900202
B2111384747851N11958951WA0029800202
B2111394747856N11958957WA0029700201
B2111404747861N11958961WA0029600201
B2111414747866N11958962WA0029500202
B2111424747872N11958962WA0029300201
B2111434747878N11958961WA0029200199
B2111444747884N11958960WA0029000200
B2111454747890N11958959WA0028900200
B2111464747895N11958958WA0028700201
B2111474747901N11958958WA0028600199
B2111484747906N11958957WA0028400199
B2111494747911N11958957WA0028300198
B2111504747916N11958958WA0028100196
B2111514747921N11958959WA0028000196
B2111524747926N11958959WA0027800196
B2111534747931N11958959WA0027700196
B2111544747936N11958960WA0027600195
B2111554747940N11958961WA0027500195
B2111564747945N11958962WA0027300195
B2111574747950N11958963WA0027300195
B2111584747954N11958964WA0027200194
B2111594747958N11958964WA0027100193
B2112004747961N11958965WA0027000193
B2112014747965N11958966WA0027000193
B2112024747969N11958968WA0026900193
B2112034747973N11958970WA0026800193
B2112034747973N11958970WA0026800193
B2112044747977N11958972WA0026700194
B2112054747982N11958974WA0026700193
B2112064747986N11958976WA0026600194
B2112074747989N11958977WA0026500194
B2112084747992N11958979WA0026400194
B2112094747995N11958982WA0026300194
B2112104747997N11958986WA0026200194
B2112114747999N11958989WA0026100194
B2112124748000N11958993WA0026000194
B2112134748001N11958997WA0025900194
B2112144748001N11959001WA0025800193
B2112154748000N11959005WA0025700193
B2112164747998N11959009WA0025500193
B2112174747995N11959012WA0025400192
B2112184747992N11959016WA0025200191
B2112194747989N11959020WA0025100190
B2112204747986N11959024WA0024900190
B2112214747983N11959028WA0024800190
B2112224747981N11959032WA0024600191
B2112234747979N11959034WA0024400191
B2112244747977N11959036WA0024300192
B2112254747975N11959038WA0024100192
B2112264747974N11959040WA0024000192
B2112274747973N11959042WA0023900193
B2112284747971N11959043WA0023700193
B2112294747970N11959043WA0023600193
B2112304747970N11959043WA0023500194
B2112314747969N11959043WA0023500194
B2112324747969N11959042WA0023400195
B2112334747968N11959042WA0023300195
B2112344747968N11959042WA0023300195
B2112354747968N11959042WA0023200196
B2112364747967N11959042WA0023200196
B2112374747967N11959042WA0023100196
B2112384747967N11959042WA0023100196
B2112394747967N11959042WA0023100196
B2112404747967N11959042WA0023100197
B2112414747967N11959042WA0023000197
B2112424747967N11959042WA0023000198
B2112434747967N11959041WA0023000199
B2112444747967N11959041WA0023000199
B2112454747967N11959042WA0023000199
B2112464747967N11959042WA0023000199
B2112474747967N11959042WA0023000200
B2112484747966N11959041WA0023000200
B2112494747966N11959042WA0023000200
B2112504747966N11959042WA0023000200
B2112514747966N11959042WA0023000200
B2112524747966N11959042WA0022900200
B2112534747966N11959043WA0022900200
B2112544747966N11959043WA0022900200
B2112554747966N11959043WA0022900201
B2112564747966N11959044WA0022900201
B2112574747966N11959044WA0022900201
B2112584747966N11959044WA0022900201
B2112594747966N11959044WA0022900202
B2113004747966N11959044WA0022900202
B2113014747966N11959044WA0022900202
B2113024747966N11959044WA0022900202
B2113034747965N11959044WA0022900203
B2113044747965N11959044WA0022900203
B2113054747965N11959043WA0022900203
B2113064747965N11959043WA0022900203
B2113074747965N11959042WA0022900204
