AXFMSFP Flymaster Live, V1.0
HFFXA010
HFPLTPILOT:Josh Krohn
HFGTYGLIDERTYPE:Supair Delight 3 / Skywalk Chili 5
HFGIDGLIDERID:
HFDTM100GPSDATUM:WGS-1984
HFCIDCOMPETITIONID:6666
HFCCLCOMPETITIONCLASS:
HOSITSITE:LAUNCH
HFGPS:UBLOXNEO6
HFPRSPRESSALTSENSOR:NA
HFRFWFIRMWAREVERSION:202g
HFRHWHARDWAREVERSION:1.0R2
HFFTYFRTYPE:FLYMASTER,LIVE
HFDTE170625
B1951024748231N12002586WA0107201102
B1951034748232N12002592WA0107201104
B1951044748233N12002597WA0107301107
B1951054748234N12002601WA0107301110
B1951064748235N12002604WA0107401112
B1951074748237N12002607WA0107501114
B1951084748238N12002610WA0107601115
B1951094748239N12002614WA0107701116
B1951104748239N12002619WA0107801115
B1951114748239N12002624WA0107801115
B1951124748238N12002628WA0107901116
B1951134748237N12002631WA0108001117
B1951144748237N12002634WA0108101119
B1951154748236N12002636WA0108201121
B1951164748235N12002640WA0108301122
B1951174748234N12002643WA0108401123
B1951184748234N12002647WA0108501125
B1951194748235N12002650WA0108601127
B1951204748236N12002654WA0108801130
B1951214748236N12002657WA0108901132
B1951224748235N12002660WA0109001133
B1951234748234N12002662WA0109201135
B1951244748234N12002665WA0109301137
B1951254748233N12002668WA0109501139
B1951264748233N12002671WA0109701142
B1951274748233N12002673WA0109801144
B1951284748233N12002675WA0110001146
B1951294748231N12002676WA0110201147
B1951304748228N12002677WA0110401147
B1951314748226N12002677WA0110501148
B1951324748224N12002678WA0110701151
B1951334748222N12002678WA0110801154
B1951344748221N12002677WA0111101158
B1951354748220N12002675WA0111201161
B1951364748218N12002671WA0111501162
B1951374748216N12002667WA0111601164
B1951384748216N12002662WA0111901166
B1951394748216N12002656WA0112001167
B1951404748217N12002649WA0112201168
B1951414748220N12002641WA0112401169
B1951424748224N12002634WA0112501168
B1951434748231N12002629WA0112601169
B1951444748238N12002628WA0112701168
B1951454748244N12002632WA0112801167
B1951464748249N12002637WA0112901168
B1951474748252N12002643WA0113001169
B1951484748253N12002648WA0113101171
B1951494748254N12002653WA0113201174
B1951504748256N12002656WA0113301177
B1951514748257N12002660WA0113501180
B1951524748259N12002663WA0113601183
B1951534748259N12002667WA0113801186
B1951544748259N12002670WA0114001189
B1951554748258N12002672WA0114201192
B1951564748256N12002675WA0114401195
B1951574748254N12002679WA0114601198
B1951584748253N12002682WA0114901202
B1951594748252N12002686WA0115101206
B1952004748250N12002689WA0115401211
B1952014748249N12002692WA0115701214
B1952024748247N12002695WA0116001217
B1952034748245N12002697WA0116201220
B1952044748244N12002700WA0116601224
B1952054748242N12002701WA0116801227
B1952064748241N12002703WA0117201229
B1952074748240N12002704WA0117401230
B1952084748238N12002705WA0117701231
B1952094748235N12002705WA0117901231
B1952104748232N12002704WA0118101231
B1952114748229N12002702WA0118201231
B1952124748226N12002699WA0118401232
B1952134748224N12002695WA0118501232
B1952144748221N12002690WA0118701233
B1952154748218N12002684WA0118801233
B1952164748215N12002677WA0118901233
B1952174748214N12002668WA0119001234
B1952184748215N12002658WA0119101234
B1952194748216N12002647WA0119201235
B1952204748219N12002638WA0119301237
B1952214748223N12002630WA0119401240
B1952224748228N12002624WA0119501241
B1952234748234N12002620WA0119601243
B1952244748240N12002618WA0119801245
B1952254748245N12002619WA0119901247
B1952264748248N12002621WA0120101249
B1952274748250N12002624WA0120201251
B1952284748252N12002626WA0120401253
B1952294748253N12002629WA0120501255
B1952304748254N12002631WA0120801257
B1952314748253N12002634WA0120901259
B1952324748252N12002636WA0121101261
B1952334748251N12002637WA0121201262
B1952344748250N12002638WA0121401263
B1952354748248N12002638WA0121501262
B1952364748245N12002637WA0121601262
B1952374748241N12002635WA0121701262
B1952384748238N12002632WA0121801263
B1952394748234N12002628WA0121901265
B1952404748232N12002624WA0122001266
B1952414748229N12002620WA0122101269
B1952424748226N12002615WA0122301269
B1952434748223N12002609WA0122401270
B1952444748219N12002602WA0122501270
B1952454748217N12002593WA0122601269
B1952464748216N12002581WA0122601267
B1952474748218N12002569WA0122701267
B1952484748221N12002558WA0122701267
B1952494748225N12002550WA0122801270
B1952504748229N12002544WA0122901271
B1952514748234N12002540WA0123001272
B1952524748239N12002538WA0123001273
B1952534748242N12002538WA0123101273
B1952544748245N12002540WA0123201274
B1952554748247N12002543WA0123201273
B1952564748248N12002546WA0123301274
B1952574748248N12002548WA0123301275
B1952584748248N12002550WA0123401277
B1952594748247N12002551WA0123501279
B1953004748246N12002552WA0123601280
B1953014748245N12002553WA0123701281
B1953024748244N12002555WA0123801282
B1953034748241N12002556WA0123901284
B1953044748239N12002556WA0124001286
B1953054748237N12002556WA0124101288
B1953064748235N12002556WA0124201289
B1953074748233N12002555WA0124401290
B1953084748231N12002554WA0124501291
B1953094748228N12002552WA0124601290
B1953104748224N12002550WA0124701289
B1953114748221N12002545WA0124701289
B1953124748218N12002540WA0124801288
B1953134748215N12002535WA0124801287
B1953144748212N12002531WA0124801286
B1953154748209N12002526WA0124801284
B1953164748205N12002522WA0124801281
B1953174748203N12002515WA0124701277
B1953184748201N12002508WA0124601275
B1953194748199N12002501WA0124501272
B1953204748197N12002494WA0124301268
B1953214748195N12002486WA0124101264
B1953224748194N12002477WA0123901260
B1953234748196N12002466WA0123701256
B1953244748200N12002457WA0123501254
B1953254748205N12002450WA0123301252
B1953264748210N12002445WA0123001251
B1953274748215N12002441WA0122901250
B1953284748220N12002438WA0122701249
B1953294748225N12002436WA0122501247
B1953304748230N12002435WA0122301244
B1953314748234N12002437WA0122101242
B1953324748235N12002440WA0121901242
B1953334748236N12002442WA0121801241
B1953344748237N12002443WA0121601240
B1953354748237N12002445WA0121501238
B1953364748238N12002447WA0121201234
B1953374748237N12002450WA0121101230
B1953384748235N12002452WA0120801225
B1953394748232N12002452WA0120601221
B1953404748230N12002452WA0120301220
B1953414748229N12002451WA0120101219
B1953424748228N12002451WA0119801217
B1953434748227N12002451WA0119601214
B1953444748225N12002452WA0119301209
B1953454748223N12002453WA0119101204
B1953464748222N12002455WA0118701200
B1953474748221N12002457WA0118501198
B1953484748219N12002459WA0118101193
B1953494748217N12002461WA0117801189
B1953504748215N12002462WA0117401186
B1953514748213N12002462WA0117201182
B1953524748211N12002463WA0116801180
B1953534748209N12002463WA0116601177
B1953544748207N12002463WA0116201173
B1953554748203N12002463WA0115901170
B1953564748200N12002462WA0115601168
B1953574748198N12002461WA0115301166
B1953584748196N12002461WA0115001164
B1953594748193N12002462WA0114801162
B1954004748191N12002464WA0114501159
B1954014748189N12002466WA0114301156
B1954024748186N12002469WA0114001154
B1954034748184N12002471WA0113801153
B1954044748181N12002472WA0113501151
B1954054748179N12002474WA0113301150
B1954064748176N12002475WA0113001148
B1954074748173N12002476WA0112901147
B1954084748170N12002478WA0112601145
B1954094748167N12002479WA0112501143
B1954104748164N12002481WA0112201142
B1954114748161N12002483WA0112101140
B1954124748158N12002486WA0111901139
B1954134748155N12002488WA0111701138
B1954144748152N12002490WA0111501137
B1954154748149N12002492WA0111401136
B1954164748146N12002493WA0111201135
B1954174748143N12002494WA0111101134
B1954184748141N12002495WA0111001134
B1954194748138N12002496WA0110901134
B1954204748135N12002498WA0110701134
B1954214748132N12002500WA0110701134
B1954224748128N12002502WA0110601133
B1954234748123N12002505WA0110501133
B1954244748119N12002508WA0110401132
B1954254748116N12002511WA0110401133
B1954264748113N12002513WA0110301133
B1954274748110N12002514WA0110301132
B1954284748106N12002517WA0110201130
B1954294748102N12002519WA0110101128
B1954304748098N12002522WA0110001125
B1954314748094N12002522WA0109901124
B1954324748091N12002522WA0109801122
B1954334748088N12002522WA0109701120
B1954344748085N12002524WA0109501118
B1954354748081N12002527WA0109401115
B1954364748077N12002530WA0109201113
B1954374748074N12002531WA0109101112
B1954384748070N12002532WA0108901112
B1954394748067N12002533WA0108801111
B1954404748064N12002532WA0108601110
B1954414748060N12002529WA0108501109
B1954424748058N12002526WA0108401108
B1954434748055N12002524WA0108301109
B1954444748052N12002523WA0108201111
B1954454748048N12002523WA0108201112
B1954464748044N12002522WA0108201113
B1954474748040N12002521WA0108101115
B1954484748036N12002521WA0108201118
B1954494748034N12002522WA0108201122
B1954504748032N12002525WA0108301124
B1954514748029N12002527WA0108401126
B1954524748026N12002530WA0108601127
B1954534748022N12002531WA0108601127
B1954544748019N12002534WA0108701128
B1954554748016N12002536WA0108801128
B1954564748012N12002538WA0108901129
B1954574748008N12002540WA0109001129
B1954584748004N12002542WA0109101129
B1954594748000N12002544WA0109101130
B1955004747996N12002547WA0109201130
B1955014747993N12002549WA0109301130
B1955024747990N12002551WA0109301130
B1955034747987N12002552WA0109401130
B1955044747984N12002554WA0109401131
B1955054747981N12002557WA0109501131
B1955064747978N12002559WA0109501132
B1955074747976N12002561WA0109601132
B1955084747974N12002563WA0109601134
B1955094747972N12002565WA0109701135
B1955104747971N12002568WA0109801134
B1955114747969N12002571WA0109801133
B1955124747966N12002575WA0109801132
B1955134747964N12002577WA0109801133
B1955144747962N12002578WA0109801133
B1955154747960N12002579WA0109901133
B1955164747959N12002580WA0109901132
B1955174747957N12002582WA0109901130
B1955184747953N12002583WA0109801127
B1955194747950N12002585WA0109701124
B1955204747946N12002586WA0109601121
B1955214747943N12002588WA0109501119
B1955224747940N12002590WA0109401117
B1955234747937N12002593WA0109201114
B1955244747934N12002596WA0109101112
B1955254747930N12002598WA0108901109
B1955264747927N12002600WA0108701107
B1955274747924N12002602WA0108601105
B1955284747921N12002603WA0108401104
B1955294747918N12002604WA0108301102
B1955304747914N12002605WA0108101100
B1955314747911N12002605WA0107901098
B1955324747908N12002606WA0107701096
B1955334747905N12002606WA0107601095
B1955344747902N12002606WA0107401094
B1955354747899N12002606WA0107201092
B1955364747896N12002605WA0107001089
B1955374747892N12002604WA0106901087
B1955384747889N12002603WA0106701085
B1955394747886N12002601WA0106501083
B1955404747883N12002599WA0106301081
B1955414747880N12002597WA0106101078
B1955424747877N12002595WA0105901075
B1955434747874N12002591WA0105701072
B1955444747872N12002587WA0105501070
B1955454747870N12002583WA0105301068
B1955464747869N12002579WA0105001067
B1955474747868N12002575WA0104901065
B1955484747868N12002570WA0104601062
B1955494747868N12002565WA0104501059
B1955504747869N12002560WA0104201057
B1955514747870N12002555WA0104101056
B1955524747871N12002552WA0103901056
B1955534747871N12002549WA0103701055
B1955544747872N12002545WA0103601054
B1955554747871N12002540WA0103401052
B1955564747871N12002534WA0103301051
B1955574747870N12002529WA0103201052
B1955584747870N12002526WA0103101054
B1955594747868N12002524WA0103001055
B1956004747867N12002521WA0103001055
B1956014747866N12002518WA0102901055
B1956024747864N12002515WA0102901055
B1956034747861N12002513WA0102801055
B1956044747858N12002512WA0102801055
B1956054747856N12002513WA0102801054
B1956064747852N12002514WA0102701053
B1956074747849N12002516WA0102701051
B1956084747845N12002520WA0102601050
B1956094747843N12002525WA0102501051
B1956104747841N12002530WA0102501052
B1956114747840N12002536WA0102501052
B1956124747838N12002542WA0102501052
B1956134747837N12002549WA0102401052
B1956144747835N12002556WA0102401050
B1956154747833N12002562WA0102401050
B1956164747832N12002568WA0102301050
B1956174747831N12002572WA0102301048
B1956184747830N12002577WA0102201046
B1956194747828N12002582WA0102201042
B1956204747824N12002586WA0102001038
B1956214747821N12002588WA0101901035
B1956224747817N12002588WA0101701033
B1956234747815N12002587WA0101601031
B1956244747813N12002586WA0101401029
B1956254747810N12002584WA0101201026
B1956264747807N12002582WA0101001023
B1956274747804N12002580WA0100801019
B1956284747801N12002577WA0100501016
B1956294747798N12002574WA0100401014
B1956304747796N12002570WA0100101012
B1956314747794N12002567WA0099901010
B1956324747792N12002563WA0099601007
B1956334747790N12002559WA0099401004
B1956344747787N12002555WA0099101000
B1956354747784N12002551WA0098900996
B1956364747781N12002548WA0098600993
B1956374747778N12002544WA0098400990
B1956384747775N12002541WA0098000988
B1956394747773N12002536WA0097800986
B1956404747771N12002531WA0097500984
B1956414747770N12002526WA0097300981
B1956424747768N12002521WA0097000979
B1956434747766N12002517WA0096800977
B1956444747763N12002512WA0096500973
B1956454747761N12002506WA0096300971
B1956464747759N12002500WA0096000968
B1956474747757N12002494WA0095800966
B1956484747756N12002488WA0095600965
B1956494747754N12002483WA0095400964
B1956504747751N12002478WA0095100963
B1956514747748N12002474WA0095000962
B1956524747746N12002469WA0094800962
B1956534747743N12002465WA0094700961
B1956544747739N12002462WA0094500961
B1956554747736N12002458WA0094400961
B1956564747733N12002454WA0094300960
B1956574747730N12002451WA0094200960
B1956584747728N12002448WA0094000959
B1956594747726N12002446WA0094000958
B1957004747724N12002443WA0093800955
B1957014747721N12002438WA0093700952
B1957024747718N12002434WA0093500950
B1957034747716N12002428WA0093400948
B1957044747714N12002423WA0093200946
B1957054747712N12002418WA0093000944
B1957064747710N12002413WA0092800943
B1957074747707N12002407WA0092700941
B1957084747704N12002401WA0092500940
B1957094747701N12002394WA0092400941
B1957104747698N12002389WA0092300941
B1957114747695N12002384WA0092200942
B1957124747692N12002379WA0092100943
B1957134747689N12002374WA0092100943
B1957144747685N12002370WA0092000943
B1957154747680N12002368WA0092000944
B1957164747676N12002367WA0092000945
B1957174747673N12002366WA0092000945
B1957184747670N12002365WA0092000946
B1957194747666N12002365WA0092000945
B1957204747663N12002365WA0091900944
B1957214747660N12002365WA0091900942
B1957224747657N12002365WA0091800940
B1957234747653N12002362WA0091800937
B1957244747650N12002359WA0091700934
B1957254747647N12002355WA0091600932
B1957264747645N12002351WA0091400929
B1957274747642N12002348WA0091300927
B1957284747639N12002343WA0091100925
B1957294747637N12002338WA0091000923
B1957304747634N12002333WA0090700921
B1957314747632N12002329WA0090600919
B1957324747630N12002324WA0090400917
B1957334747629N12002320WA0090300916
B1957344747627N12002315WA0090100915
B1957354747624N12002310WA0090000914
B1957364747621N12002307WA0089800913
B1957374747618N12002303WA0089700912
B1957384747616N12002300WA0089500913
B1957394747615N12002297WA0089400914
B1957404747613N12002294WA0089300914
B1957414747612N12002290WA0089300914
B1957424747609N12002286WA0089200914
B1957434747607N12002282WA0089200913
B1957444747605N12002277WA0089100913
B1957454747604N12002273WA0089000913
B1957464747602N12002268WA0089000914
B1957474747599N12002263WA0089000914
B1957484747596N12002259WA0088900915
B1957494747593N12002256WA0088900915
B1957504747590N12002253WA0088900916
B1957514747587N12002249WA0088900917
B1957524747585N12002244WA0088900917
B1957534747583N12002239WA0089000917
B1957544747580N12002233WA0089000917
B1957554747578N12002228WA0089000920
B1957564747576N12002224WA0089100923
B1957574747574N12002220WA0089200927
B1957584747572N12002216WA0089300929
B1957594747571N12002211WA0089400931
B1958004747570N12002204WA0089600932
B1958014747568N12002198WA0089700934
B1958024747566N12002192WA0089800937
B1958034747563N12002189WA0090000940
B1958044747560N12002185WA0090200942
B1958054747557N12002181WA0090300944
B1958064747553N12002177WA0090500945
B1958074747549N12002174WA0090700947
B1958084747544N12002174WA0090800948
B1958094747539N12002174WA0091000949
B1958104747534N12002176WA0091200951
B1958114747531N12002177WA0091300952
B1958124747528N12002179WA0091500954
B1958134747525N12002181WA0091600955
B1958144747522N12002183WA0091800956
B1958154747520N12002186WA0091900956
B1958164747518N12002189WA0092000957
B1958174747517N12002193WA0092100957
B1958184747516N12002197WA0092200957
B1958194747514N12002200WA0092300957
B1958204747512N12002202WA0092400956
B1958214747508N12002202WA0092400955
B1958224747504N12002200WA0092500955
B1958234747501N12002197WA0092500954
B1958244747498N12002192WA0092500954
B1958254747495N12002187WA0092600954
B1958264747494N12002182WA0092600953
B1958274747494N12002175WA0092600952
B1958284747495N12002169WA0092500951
B1958294747497N12002162WA0092500949
B1958304747500N12002157WA0092500949
B1958314747503N12002153WA0092400948
B1958324747507N12002150WA0092400948
B1958334747510N12002146WA0092300947
B1958344747512N12002141WA0092300947
B1958354747514N12002136WA0092200946
B1958364747516N12002129WA0092100945
B1958374747517N12002123WA0092100943
B1958384747518N12002116WA0092000942
B1958394747518N12002109WA0091900941
B1958404747517N12002104WA0091800940
B1958414747515N12002099WA0091800939
B1958424747513N12002094WA0091700939
B1958434747511N12002090WA0091600939
B1958444747510N12002087WA0091500939
B1958444747510N12002087WA0091500939
B1958454747508N12002084WA0091500939
B1958464747505N12002081WA0091500938
B1958474747502N12002078WA0091400937
B1958484747500N12002076WA0091300936
B1958494747498N12002072WA0091300936
B1958504747497N12002069WA0091200935
B1958514747495N12002065WA0091200934
B1958524747493N12002062WA0091100932
B1958534747491N12002058WA0091000930
B1958544747490N12002052WA0090900927
B1958554747488N12002046WA0090800924
B1958564747486N12002040WA0090600922
B1958574747484N12002033WA0090500920
B1958584747483N12002025WA0090300918
B1958594747482N12002016WA0090200916
B1959004747482N12002007WA0090000915
B1959014747481N12001998WA0089900914
B1959024747480N12001991WA0089700914
B1959034747479N12001984WA0089600914
B1959044747478N12001977WA0089500914
B1959054747478N12001970WA0089400913
B1959064747477N12001963WA0089300913
B1959074747477N12001956WA0089200911
B1959084747476N12001948WA0089100909
B1959094747475N12001940WA0089000906
B1959104747474N12001932WA0088800903
B1959114747473N12001925WA0088700901
B1959124747473N12001917WA0088500900
B1959134747473N12001911WA0088400899
B1959144747473N12001905WA0088300898
B1959154747472N12001898WA0088100897
B1959164747471N12001891WA0088000894
B1959174747470N12001884WA0087900892
B1959184747469N12001876WA0087700890
B1959194747468N12001869WA0087500889
B1959204747467N12001862WA0087400887
B1959214747465N12001855WA0087200885
B1959224747464N12001849WA0087000883
B1959234747462N12001842WA0086900880
B1959244747460N12001834WA0086700877
B1959254747458N12001827WA0086500875
B1959264747457N12001820WA0086300873
B1959274747456N12001812WA0086100871
B1959284747455N12001805WA0085900869
B1959294747455N12001798WA0085700867
B1959304747454N12001790WA0085500865
B1959314747452N12001781WA0085400863
B1959324747449N12001774WA0085100863
B1959334747446N12001769WA0085000864
B1959344747443N12001766WA0084900866
B1959354747441N12001763WA0084800867
B1959364747438N12001758WA0084700866
B1959374747435N12001753WA0084700866
B1959384747431N12001748WA0084600866
B1959394747428N12001744WA0084500867
B1959404747426N12001740WA0084500870
B1959414747424N12001734WA0084500871
B1959424747422N12001728WA0084500871
B1959434747418N12001721WA0084500870
B1959444747415N12001716WA0084500870
B1959454747411N12001710WA0084500870
B1959464747409N12001703WA0084500871
B1959474747408N12001696WA0084600871
B1959474747408N12001696WA0084600871
B1959484747407N12001690WA0084600871
B1959494747406N12001684WA0084600870
B1959504747404N12001678WA0084500869
B1959514747403N12001671WA0084500868
B1959524747404N12001662WA0084500866
B1959534747406N12001653WA0084400864
B1959544747410N12001644WA0084300863
B1959554747415N12001638WA0084300862
B1959564747421N12001634WA0084200861
B1959574747428N12001632WA0084100859
B1959584747434N12001633WA0084000858
B1959594747438N12001636WA0084000857
B2000004747441N12001639WA0083900855
B2000014747444N12001643WA0083800854
B2000024747445N12001646WA0083700853
B2000034747445N12001650WA0083600852
B2000044747445N12001654WA0083500849
B2000054747443N12001657WA0083400848
B2000064747441N12001659WA0083200846
B2000074747439N12001659WA0083100846
B2000084747437N12001658WA0083000846
B2000094747436N12001657WA0083000846
B2000104747434N12001655WA0082800844
B2000114747431N12001652WA0082800841
B2000124747428N12001649WA0082600839
B2000134747425N12001645WA0082500837
B2000144747423N12001641WA0082400838
B2000154747422N12001636WA0082300838
B2000164747421N12001632WA0082200838
B2000174747419N12001628WA0082100837
B2000184747417N12001623WA0082000835
B2000194747414N12001619WA0081900833
B2000204747412N12001614WA0081700832
B2000214747411N12001609WA0081700832
B2000224747409N12001605WA0081600832
B2000234747408N12001601WA0081500831
B2000244747405N12001596WA0081400830
B2000254747403N12001592WA0081300828
B2000264747401N12001588WA0081200827
B2000274747399N12001584WA0081100827
B2000284747397N12001581WA0081000827
B2000294747395N12001577WA0080900826
B2000304747393N12001572WA0080800826
B2000314747391N12001568WA0080800825
B2000324747389N12001562WA0080700824
B2000334747387N12001557WA0080600823
B2000344747386N12001551WA0080500823
B2000354747385N12001545WA0080500821
B2000364747384N12001540WA0080400819
B2000374747383N12001534WA0080300816
B2000384747381N12001527WA0080100813
B2000394747379N12001521WA0080000811
B2000404747378N12001514WA0079800809
B2000414747377N12001508WA0079700807
B2000424747376N12001502WA0079500805
B2000434747375N12001495WA0079400803
B2000444747374N12001487WA0079200800
B2000454747373N12001480WA0079000798
B2000464747372N12001473WA0078800797
B2000474747371N12001466WA0078700796
B2000484747371N12001459WA0078500795
B2000494747371N12001452WA0078400794
B2000504747371N12001445WA0078200792
B2000514747371N12001437WA0078100791
B2000514747371N12001437WA0078100791
B2000524747371N12001429WA0077900789
B2000534747371N12001421WA0077800789
B2000544747372N12001414WA0077700788
B2000554747373N12001407WA0077600788
B2000564747375N12001401WA0077500787
B2000574747375N12001394WA0077400786
B2000584747376N12001387WA0077300784
B2000594747377N12001380WA0077200782
B2001004747377N12001372WA0077000781
B2001014747378N12001365WA0076900779
B2001024747379N12001359WA0076800777
B2001034747380N12001351WA0076600775
B2001044747380N12001343WA0076500774
B2001054747380N12001334WA0076400774
B2001064747381N12001326WA0076300776
B2001074747383N12001320WA0076300779
B2001084747386N12001315WA0076300781
B2001094747389N12001309WA0076300783
B2001104747392N12001303WA0076300783
B2001114747397N12001297WA0076300784
B2001124747402N12001293WA0076400785
B2001134747408N12001289WA0076400787
B2001144747413N12001288WA0076500788
B2001154747419N12001287WA0076500790
B2001164747424N12001287WA0076600792
B2001174747429N12001289WA0076700791
B2001184747433N12001293WA0076800790
B2001194747436N12001297WA0076800788
B2001204747438N12001302WA0076800786
B2001214747439N12001305WA0076700785
B2001224747440N12001307WA0076700784
B2001234747440N12001309WA0076700781
B2001244747440N12001311WA0076600777
B2001254747438N12001312WA0076500773
B2001264747434N12001311WA0076300770
B2001274747430N12001310WA0076200770
B2001284747427N12001307WA0076100772
B2001294747426N12001304WA0076000775
B2001304747425N12001301WA0076000777
B2001314747424N12001297WA0076000777
B2001324747421N12001292WA0076000777
B2001334747419N12001285WA0075900777
B2001344747417N12001278WA0075900778
B2001354747417N12001271WA0076000781
B2001364747417N12001265WA0076000784
B2001374747417N12001260WA0076100786
B2001384747417N12001255WA0076200788
B2001394747417N12001248WA0076300788
B2001404747417N12001240WA0076400788
B2001414747417N12001231WA0076400789
B2001424747416N12001223WA0076500791
B2001434747415N12001217WA0076600792
B2001444747415N12001211WA0076700792
B2001454747414N12001203WA0076800791
B2001464747414N12001195WA0076800789
B2001474747414N12001187WA0076800787
B2001484747413N12001179WA0076800786
B2001494747412N12001172WA0076800784
B2001504747412N12001164WA0076800782
B2001514747411N12001155WA0076700779
B2001524747410N12001146WA0076600776
B2001534747410N12001138WA0076500774
B2001544747410N12001129WA0076400771
B2001544747410N12001129WA0076400771
B2001554747410N12001121WA0076200769
B2001564747411N12001112WA0076100766
B2001574747411N12001103WA0075900763
B2001584747411N12001094WA0075700760
B2001594747412N12001085WA0075500757
B2002004747412N12001076WA0075300755
B2002014747413N12001067WA0075100752
B2002024747414N12001058WA0074900750
B2002034747414N12001049WA0074700747
B2002044747415N12001039WA0074400744
B2002054747416N12001030WA0074300741
B2002064747418N12001020WA0074000739
B2002074747419N12001010WA0073800737
B2002084747420N12001001WA0073500735
B2002094747420N12000991WA0073400732
B2002104747421N12000982WA0073100730
B2002114747421N12000973WA0072900728
B2002124747422N12000964WA0072700726
B2002134747422N12000955WA0072500724
B2002144747423N12000946WA0072300721
B2002154747424N12000936WA0072100719
B2002164747425N12000927WA0071800716
B2002174747426N12000917WA0071600714
B2002184747426N12000908WA0071400711
B2002194747426N12000899WA0071200709
B2002204747426N12000890WA0071000708
B2002214747426N12000882WA0070800706
B2002224747426N12000873WA0070500704
B2002234747425N12000864WA0070400702
B2002244747424N12000855WA0070100700
B2002254747424N12000846WA0070000699
B2002264747424N12000838WA0069800698
B2002274747424N12000830WA0069700697
B2002284747424N12000822WA0069400694
B2002294747423N12000813WA0069300692
B2002304747423N12000804WA0069100689
B2002314747422N12000795WA0068900688
B2002324747422N12000787WA0068700688
B2002334747423N12000781WA0068600687
B2002344747423N12000774WA0068400685
B2002354747422N12000767WA0068300683
B2002364747422N12000759WA0068100681
B2002374747421N12000751WA0068000679
B2002384747421N12000743WA0067800677
B2002394747421N12000736WA0067600676
B2002404747421N12000728WA0067400675
B2002414747422N12000721WA0067300673
B2002424747422N12000712WA0067100670
B2002434747422N12000704WA0067000668
B2002444747422N12000695WA0066800666
B2002454747422N12000687WA0066600664
B2002464747423N12000680WA0066400664
B2002474747423N12000673WA0066300662
B2002484747423N12000665WA0066100661
B2002494747423N12000657WA0066000659
B2002504747423N12000649WA0065900657
B2002514747423N12000641WA0065700656
B2002524747423N12000633WA0065600654
B2002534747423N12000625WA0065400653
B2002544747424N12000616WA0065300652
B2002554747424N12000608WA0065200650
B2002564747424N12000599WA0065000649
B2002574747424N12000591WA0064900647
B2002574747424N12000591WA0064900647
B2002584747424N12000582WA0064700646
B2002594747425N12000574WA0064600644
B2003004747425N12000566WA0064400643
B2003014747425N12000558WA0064300641
B2003024747425N12000549WA0064100639
B2003034747426N12000541WA0064000638
B2003044747426N12000532WA0063800636
B2003054747427N12000524WA0063700634
B2003064747428N12000516WA0063500632
B2003074747428N12000507WA0063400630
B2003084747429N12000499WA0063200628
B2003094747429N12000491WA0063100626
B2003104747431N12000483WA0062900625
B2003114747431N12000476WA0062800624
B2003124747432N12000468WA0062600622
B2003134747433N12000461WA0062400619
B2003144747433N12000453WA0062200616
B2003154747434N12000444WA0062000614
B2003164747434N12000437WA0061800612
B2003174747434N12000429WA0061600609
B2003184747435N12000420WA0061400606
B2003194747435N12000411WA0061200603
B2003204747436N12000402WA0060900600
B2003214747436N12000393WA0060800598
B2003224747436N12000384WA0060500596
B2003234747436N12000376WA0060300593
B2003244747436N12000367WA0060000591
B2003254747436N12000358WA0059900590
B2003264747436N12000350WA0059600588
B2003274747436N12000342WA0059500587
B2003284747436N12000335WA0059300586
B2003294747436N12000328WA0059100585
B2003304747436N12000320WA0058900583
B2003314747437N12000311WA0058800581
B2003324747438N12000302WA0058500579
B2003334747439N12000293WA0058400577
B2003344747440N12000285WA0058200576
B2003354747442N12000277WA0058100575
B2003364747443N12000269WA0057900576
B2003374747445N12000262WA0057800576
B2003384747447N12000255WA0057700577
B2003394747449N12000248WA0057600578
B2003404747450N12000240WA0057600579
B2003414747452N12000232WA0057600580
B2003424747454N12000224WA0057500580
B2003434747455N12000216WA0057500579
B2003444747456N12000209WA0057500578
B2003454747457N12000200WA0057400576
B2003464747459N12000191WA0057300574
B2003474747461N12000182WA0057300572
B2003484747463N12000173WA0057100570
B2003494747465N12000165WA0057000569
B2003504747467N12000156WA0056900568
B2003514747470N12000149WA0056800568
B2003524747472N12000141WA0056700567
B2003534747474N12000134WA0056600566
B2003544747476N12000125WA0056500564
B2003554747478N12000117WA0056400562
B2003564747480N12000108WA0056200560
B2003574747482N12000099WA0056100559
B2003584747484N12000091WA0056000557
B2003594747485N12000082WA0055900556
B2004004747487N12000073WA0055700555
B2004004747487N12000073WA0055700555
B2004014747488N12000065WA0055600553
B2004024747489N12000056WA0055500552
B2004034747490N12000048WA0055400550
B2004044747490N12000039WA0055200549
B2004054747491N12000031WA0055100548
B2004064747492N12000022WA0054900547
B2004074747493N12000013WA0054800545
B2004084747495N12000005WA0054700544
B2004094747497N11959996WA0054600542
B2004104747498N11959988WA0054400541
B2004114747500N11959979WA0054300539
B2004124747502N11959970WA0054100537
B2004134747503N11959962WA0054000535
B2004144747504N11959953WA0053800534
B2004154747505N11959944WA0053700534
B2004164747507N11959936WA0053500533
B2004174747509N11959927WA0053400532
B2004184747511N11959919WA0053300531
B2004194747513N11959910WA0053200530
B2004204747515N11959901WA0053100530
B2004214747518N11959892WA0053000530
B2004224747521N11959884WA0052900530
B2004234747524N11959876WA0052800530
B2004244747528N11959868WA0052700529
B2004254747533N11959859WA0052700528
B2004264747537N11959850WA0052600527
B2004274747541N11959841WA0052500526
B2004284747545N11959833WA0052400525
B2004294747550N11959825WA0052300523
B2004304747555N11959818WA0052200522
B2004314747561N11959810WA0052100520
B2004324747566N11959804WA0052000520
B2004334747570N11959797WA0051900521
B2004344747575N11959791WA0051900520
B2004354747579N11959784WA0051800520
B2004364747584N11959777WA0051700517
B2004374747590N11959768WA0051600515
B2004384747595N11959761WA0051500513
B2004394747600N11959753WA0051400512
B2004404747605N11959747WA0051200510
B2004414747609N11959740WA0051100507
B2004424747614N11959732WA0050900503
B2004434747618N11959724WA0050800499
B2004444747623N11959715WA0050500495
B2004454747627N11959706WA0050300491
B2004464747630N11959698WA0050000489
B2004474747634N11959691WA0049800487
B2004484747637N11959684WA0049500485
B2004494747640N11959676WA0049400483
B2004504747643N11959668WA0049100480
B2004514747646N11959660WA0048900478
B2004524747649N11959653WA0048600476
B2004534747651N11959646WA0048500474
B2004544747655N11959640WA0048200472
B2004554747659N11959633WA0048000470
B2004564747663N11959626WA0047700466
B2004574747667N11959619WA0047500463
B2004584747670N11959611WA0047200460
B2004594747674N11959603WA0047000457
B2005004747677N11959594WA0046700455
B2005014747681N11959585WA0046500453
B2005024747684N11959577WA0046300452
B2005034747686N11959569WA0046100451
B2005034747686N11959569WA0046100451
B2005044747689N11959561WA0045900451
B2005054747692N11959553WA0045700451
B2005064747695N11959545WA0045500449
B2005074747698N11959536WA0045400448
B2005084747701N11959528WA0045300449
B2005094747702N11959521WA0045200450
B2005104747704N11959515WA0045100450
B2005114747706N11959508WA0045000449
B2005124747710N11959500WA0044900447
B2005134747714N11959492WA0044800445
B2005144747718N11959486WA0044700445
B2005154747722N11959480WA0044600446
B2005164747724N11959476WA0044500447
B2005174747727N11959470WA0044500446
B2005184747731N11959465WA0044400444
B2005194747735N11959460WA0044300441
B2005204747740N11959455WA0044200439
B2005214747744N11959450WA0044100439
B2005224747747N11959446WA0044000440
B2005234747751N11959442WA0043900440
B2005244747754N11959439WA0043800439
B2005254747758N11959434WA0043800437
B2005264747761N11959429WA0043700435
B2005274747765N11959424WA0043600433
B2005284747769N11959419WA0043400430
B2005294747772N11959414WA0043300429
B2005304747775N11959408WA0043200427
B2005314747778N11959403WA0043000425
B2005324747782N11959398WA0042900422
B2005334747785N11959392WA0042700420
B2005344747789N11959387WA0042500418
B2005354747793N11959381WA0042400416
B2005364747796N11959377WA0042200415
B2005374747799N11959373WA0042100414
B2005384747803N11959369WA0041900413
B2005394747806N11959364WA0041800412
B2005404747810N11959360WA0041700411
B2005414747813N11959356WA0041600411
B2005424747817N11959352WA0041400410
B2005434747820N11959348WA0041300410
B2005444747824N11959344WA0041200408
B2005454747828N11959341WA0041100407
B2005464747832N11959338WA0041000406
B2005474747836N11959335WA0040900406
B2005484747839N11959332WA0040800405
B2005494747843N11959329WA0040700404
B2005504747847N11959327WA0040600403
B2005514747851N11959325WA0040500401
B2005524747856N11959323WA0040400399
B2005534747860N11959320WA0040300399
B2005544747863N11959317WA0040200398
B2005554747866N11959314WA0040100398
B2005564747870N11959311WA0040000397
B2005574747873N11959308WA0039900396
B2005584747877N11959305WA0039800395
B2005594747881N11959302WA0039700394
B2006004747885N11959299WA0039600393
B2006014747889N11959295WA0039600393
B2006024747894N11959290WA0039500392
B2006034747897N11959285WA0039400392
B2006044747901N11959280WA0039300392
B2006054747904N11959275WA0039300392
B2006064747907N11959269WA0039200391
B2006074747911N11959265WA0039200389
B2006074747911N11959265WA0039200389
B2006084747916N11959260WA0039100388
B2006094747921N11959256WA0039000386
B2006104747925N11959252WA0038900385
B2006114747929N11959247WA0038800385
B2006124747933N11959244WA0038700384
B2006134747937N11959240WA0038700383
B2006144747941N11959236WA0038500381
B2006154747946N11959231WA0038400378
B2006164747951N11959226WA0038300375
B2006174747955N11959221WA0038200374
B2006184747959N11959217WA0038000373
B2006194747963N11959213WA0037900372
B2006204747967N11959210WA0037800371
B2006214747971N11959206WA0037700369
B2006224747975N11959201WA0037500366
B2006234747981N11959197WA0037300363
B2006244747986N11959193WA0037100361
B2006254747990N11959190WA0037000361
B2006264747993N11959186WA0036900361
B2006274747996N11959181WA0036800361
B2006284747999N11959177WA0036600359
B2006294748004N11959174WA0036500357
B2006304748009N11959171WA0036400356
B2006314748013N11959168WA0036300357
B2006324748016N11959165WA0036200357
B2006334748019N11959162WA0036100357
B2006344748023N11959159WA0036000357
B2006354748027N11959157WA0036000356
B2006364748030N11959154WA0035900356
B2006374748033N11959151WA0035800356
B2006384748035N11959148WA0035800355
B2006394748038N11959145WA0035700353
B2006404748042N11959141WA0035600350
B2006414748046N11959137WA0035500347
B2006424748050N11959132WA0035300345
B2006434748052N11959127WA0035200344
B2006444748055N11959123WA0035100344
B2006454748057N11959118WA0035000342
B2006464748060N11959113WA0034800340
B2006474748063N11959107WA0034700338
B2006484748066N11959102WA0034600337
B2006494748068N11959099WA0034500336
B2006504748071N11959096WA0034300336
B2006514748073N11959093WA0034200334
B2006524748077N11959089WA0034000331
B2006534748081N11959085WA0033900328
B2006544748084N11959081WA0033700327
B2006554748085N11959076WA0033600327
B2006564748086N11959072WA0033400325
B2006574748087N11959066WA0033300323
B2006584748088N11959061WA0033100321
B2006594748089N11959055WA0033000319
B2007004748089N11959049WA0032800318
B2007014748090N11959043WA0032700317
B2007024748092N11959038WA0032500317
B2007034748093N11959035WA0032400316
B2007044748092N11959031WA0032300316
B2007054748092N11959027WA0032200314
B2007064748091N11959023WA0032000312
B2007074748089N11959018WA0031900310
B2007084748088N11959013WA0031800310
B2007094748086N11959009WA0031700310
B2007104748085N11959005WA0031600311
B2007104748085N11959005WA0031600311
B2007114748084N11959001WA0031600311
B2007124748084N11958997WA0031500311
B2007134748084N11958993WA0031400310
B2007144748083N11958988WA0031400308
B2007154748083N11958983WA0031300307
B2007164748082N11958978WA0031200306
B2007174748081N11958972WA0031100305
B2007184748080N11958967WA0031000304
B2007194748079N11958962WA0030900304
B2007204748077N11958958WA0030900304
B2007214748076N11958954WA0030800303
B2007224748074N11958950WA0030700302
B2007234748073N11958946WA0030700301
B2007244748071N11958941WA0030600299
B2007254748069N11958936WA0030500298
B2007264748067N11958932WA0030400298
B2007274748066N11958928WA0030400297
B2007284748064N11958923WA0030300295
B2007294748062N11958919WA0030200294
B2007304748059N11958915WA0030100292
B2007314748056N11958912WA0030000291
B2007324748054N11958909WA0029900291
B2007334748051N11958906WA0029900290
B2007344748049N11958904WA0029800289
B2007354748046N11958900WA0029700288
B2007364748043N11958897WA0029600286
B2007374748040N11958894WA0029500284
B2007384748037N11958892WA0029400284
B2007394748034N11958891WA0029300283
B2007404748030N11958891WA0029200282
B2007414748027N11958891WA0029100281
B2007424748023N11958894WA0029000279
B2007434748020N11958897WA0028900278
B2007444748017N11958902WA0028800277
B2007454748015N11958907WA0028700276
B2007464748014N11958912WA0028600275
B2007474748013N11958918WA0028500273
B2007484748013N11958925WA0028300272
B2007494748014N11958932WA0028200270
B2007504748015N11958938WA0028100269
B2007514748016N11958944WA0028000269
B2007524748017N11958949WA0027900268
B2007534748019N11958955WA0027800267
B2007544748020N11958962WA0027700265
B2007554748022N11958969WA0027600263
B2007564748023N11958974WA0027500262
B2007574748025N11958979WA0027400262
B2007584748026N11958984WA0027200261
B2007594748027N11958989WA0027100259
B2008004748026N11958996WA0027000256
B2008014748025N11959003WA0026900252
B2008024748024N11959011WA0026700250
B2008034748023N11959018WA0026600250
B2008044748022N11959024WA0026400250
B2008054748021N11959030WA0026300250
B2008064748019N11959036WA0026200249
B2008074748016N11959042WA0026100248
B2008084748011N11959045WA0026000246
B2008094748006N11959046WA0025900244
B2008104748002N11959044WA0025700244
B2008114748000N11959040WA0025600245
B2008124747998N11959038WA0025500245
B2008134747996N11959035WA0025500244
B2008134747996N11959035WA0025500244
B2008144747993N11959033WA0025300241
B2008154747988N11959032WA0025200238
B2008164747983N11959033WA0025100236
B2008174747979N11959036WA0024900236
B2008184747977N11959040WA0024800236
B2008194747974N11959044WA0024700236
B2008204747973N11959048WA0024600236
B2008214747971N11959054WA0024500236
B2008224747970N11959060WA0024400234
B2008234747969N11959067WA0024300233
B2008244747967N11959073WA0024200232
B2008254747965N11959078WA0024100230
B2008264747962N11959083WA0023900229
B2008274747959N11959087WA0023900228
B2008284747955N11959091WA0023700226
B2008294747951N11959093WA0023600225
B2008304747947N11959094WA0023500224
B2008314747944N11959095WA0023400223
B2008324747942N11959096WA0023300223
B2008334747940N11959096WA0023200222
B2008344747938N11959097WA0023100222
B2008354747938N11959097WA0023100222
B2008364747938N11959097WA0023000222
B2008374747938N11959097WA0022900222
B2008384747938N11959097WA0022900222
B2008394747938N11959097WA0022800222
B2008404747938N11959097WA0022800222
B2008414747937N11959097WA0022800222
B2008424747937N11959097WA0022700222
B2008434747937N11959097WA0022700222
B2008444747937N11959097WA0022700222
B2008454747937N11959097WA0022700222
B2008464747937N11959097WA0022700222
B2008474747937N11959097WA0022700222
B2008484747937N11959097WA0022600222
B2008494747937N11959097WA0022600222
B2008504747937N11959097WA0022600222
B2008514747937N11959097WA0022600221
B2008524747937N11959097WA0022600221
B2008534747937N11959097WA0022600221
B2008544747937N11959097WA0022600221
B2008554747936N11959097WA0022600220
B2008564747936N11959097WA0022600220
B2008574747936N11959097WA0022600220
B2008584747936N11959097WA0022600219
B2008594747936N11959097WA0022600219
B2009004747936N11959097WA0022500219
B2009014747936N11959097WA0022500219
B2009024747936N11959098WA0022500219
B2009034747936N11959098WA0022500219
B2009044747935N11959099WA0022500218
B2009054747935N11959100WA0022500217
B2009064747935N11959100WA0022600217
B2009074747935N11959100WA0022600217
B2009084747935N11959100WA0022500217
B2009094747935N11959100WA0022500217
B2009104747935N11959101WA0022500218
B2009114747936N11959100WA0022500218
B2009124747936N11959100WA0022500218
B2009134747936N11959100WA0022600218
B2009144747936N11959100WA0022500218
B2009154747936N11959100WA0022500218
B2009164747936N11959100WA0022500218
B2009174747936N11959100WA0022500218
