AXFMSFP Flymaster Live, V1.0
HFFXA010
HFPLTPILOT:Julie Spiegler
HFGTYGLIDERTYPE:Sup'Air Delight 4 / Ozone Alpina 4
HFGIDGLIDERID:
HFDTM100GPSDATUM:WGS-1984
HFCIDCOMPETITIONID:721
HFCCLCOMPETITIONCLASS:
HOSITSITE:LAUNCH
HFGPS:UBLOXNEO6
HFPRSPRESSALTSENSOR:NA
HFRFWFIRMWAREVERSION:202g
HFRHWHARDWAREVERSION:1.0R2
HFFTYFRTYPE:FLYMASTER,LIVE
HFDTE170625
B2024054748246N12002358WA0109301123
B2024064748246N12002358WA0109301123
B2024074748246N12002358WA0109301123
B2024084748246N12002358WA0109301123
B2024094748246N12002358WA0109301123
B2024104748246N12002358WA0109301123
B2024114748246N12002358WA0109301123
B2024124748246N12002358WA0109301123
B2024134748246N12002358WA0109301123
B2024144748246N12002358WA0109301123
B2024154748246N12002358WA0109301123
B2024164748246N12002358WA0109301123
B2024174748246N12002358WA0109301123
B2024184748246N12002359WA0109301123
B2024194748246N12002359WA0109301123
B2024204748246N12002359WA0109301123
B2024214748246N12002359WA0109301122
B2024224748246N12002359WA0109301122
B2024234748246N12002359WA0109301122
B2024244748246N12002359WA0109301122
B2024254748246N12002359WA0109301122
B2024264748246N12002359WA0109301122
B2024274748246N12002359WA0109301122
B2024284748246N12002359WA0109301122
B2024294748245N12002360WA0109301122
B2024304748245N12002360WA0109301122
B2024314748245N12002361WA0109201122
B2024324748245N12002361WA0109201122
B2024334748245N12002361WA0109201122
B2024344748245N12002360WA0109201122
B2024354748245N12002360WA0109201122
B2024364748245N12002360WA0109201122
B2024374748245N12002361WA0109201122
B2024384748245N12002361WA0109201122
B2024394748245N12002361WA0109201122
B2024404748245N12002361WA0109201122
B2024414748245N12002361WA0109201122
B2024424748245N12002362WA0109201123
B2024434748244N12002364WA0109201123
B2024444748243N12002366WA0109201123
B2024454748242N12002368WA0109201123
B2024464748240N12002370WA0109101123
B2024474748238N12002371WA0109101122
B2024484748237N12002372WA0109101122
B2024494748235N12002373WA0109001122
B2024504748233N12002375WA0109001121
B2024514748231N12002377WA0109001120
B2024524748229N12002378WA0108901119
B2024534748228N12002380WA0108801119
B2024544748226N12002383WA0108801118
B2024554748224N12002385WA0108701117
B2024564748223N12002387WA0108701115
B2024574748223N12002387WA0108601114
B2024584748223N12002387WA0108501114
B2024594748223N12002387WA0108401113
B2025004748223N12002387WA0108401114
B2025014748223N12002387WA0108401114
B2025024748223N12002388WA0108301114
B2025034748223N12002387WA0108301114
B2025044748223N12002387WA0108301114
B2025054748223N12002387WA0108301114
B2025064748223N12002387WA0108201113
B2025074748223N12002387WA0108201113
B2025084748223N12002387WA0108201112
B2025094748223N12002388WA0108201112
B2053544748244N12002387WA0109201126
B2053554748243N12002390WA0109201125
B2053564748243N12002393WA0109201123
B2053574748241N12002395WA0109201122
B2053584748239N12002398WA0109201121
B2053594748238N12002400WA0109101121
B2054004748236N12002401WA0109101121
B2054014748234N12002401WA0109101120
B2054024748232N12002403WA0109001119
B2054034748229N12002405WA0109001118
B2054044748227N12002409WA0108901117
B2054054748226N12002412WA0108901117
B2054064748224N12002414WA0108801117
B2054074748222N12002416WA0108801117
B2054084748220N12002419WA0108701117
B2054094748219N12002421WA0108701116
B2054104748217N12002423WA0108601115
B2054114748214N12002427WA0108601115
B2054124748210N12002429WA0108601116
B2054134748207N12002430WA0108601118
B2054144748205N12002429WA0108601120
B2054154748202N12002429WA0108601122
B2054164748200N12002429WA0108601122
B2054174748197N12002429WA0108701121
B2054184748195N12002431WA0108701121
B2054194748192N12002433WA0108701120
B2054204748189N12002436WA0108701120
B2054214748186N12002439WA0108701121
B2054224748184N12002441WA0108701122
B2054234748181N12002443WA0108701123
B2054244748179N12002444WA0108801124
B2054254748176N12002445WA0108801124
B2054264748173N12002446WA0108801124
B2054274748170N12002446WA0108801123
B2054284748166N12002446WA0108801123
B2054294748162N12002446WA0108801123
B2054304748159N12002445WA0108801123
B2054314748155N12002444WA0108801122
B2054324748152N12002444WA0108801122
B2054334748148N12002444WA0108801121
B2054344748144N12002443WA0108801119
B2054354748139N12002441WA0108701117
B2054364748134N12002439WA0108601114
B2054374748128N12002436WA0108601112
B2054384748123N12002433WA0108401111
B2054394748117N12002429WA0108401110
B2054404748112N12002425WA0108301109
B2054414748107N12002422WA0108201109
B2054424748103N12002419WA0108101108
B2054434748098N12002416WA0108001107
B2054444748094N12002413WA0107901105
B2054454748089N12002409WA0107801103
B2054464748084N12002405WA0107601101
B2054474748079N12002402WA0107501099
B2054484748075N12002399WA0107401098
B2054494748071N12002397WA0107301097
B2054504748066N12002394WA0107101095
B2054514748061N12002391WA0107001092
B2054524748056N12002388WA0106901090
B2054534748050N12002385WA0106701088
B2054544748046N12002382WA0106601087
B2054554748041N12002379WA0106501086
B2054564748037N12002376WA0106301086
B2054574748033N12002373WA0106201084
B2054584748028N12002370WA0106101084
B2054594748024N12002367WA0106001083
B2054594748024N12002367WA0106001083
B2055004748019N12002364WA0105801082
B2055014748014N12002360WA0105701081
B2055024748009N12002357WA0105601080
B2055034748004N12002354WA0105601079
B2055044748000N12002350WA0105401079
B2055054747995N12002347WA0105401078
B2055064747990N12002344WA0105301077
B2055074747985N12002340WA0105201075
B2055084747980N12002336WA0105001074
B2055094747974N12002333WA0105001073
B2055104747969N12002330WA0104801073
B2055114747965N12002328WA0104801073
B2055124747961N12002325WA0104701072
B2055134747956N12002322WA0104601072
B2055144747952N12002319WA0104501071
B2055154747947N12002316WA0104501069
B2055164747943N12002313WA0104301066
B2055174747937N12002310WA0104201063
B2055184747931N12002306WA0104001060
B2055194747925N12002303WA0103901058
B2055204747920N12002299WA0103701056
B2055214747914N12002295WA0103601055
B2055224747910N12002291WA0103401054
B2055234747904N12002287WA0103301054
B2055244747899N12002285WA0103201054
B2055254747894N12002282WA0103101057
B2055264747890N12002280WA0103101059
B2055274747886N12002278WA0103101062
B2055284747881N12002276WA0103101063
B2055294747875N12002276WA0103101064
B2055304747869N12002275WA0103201065
B2055314747863N12002276WA0103201068
B2055324747859N12002277WA0103301071
B2055334747854N12002278WA0103401073
B2055344747850N12002280WA0103501074
B2055354747845N12002282WA0103601075
B2055364747839N12002283WA0103701075
B2055374747834N12002284WA0103801076
B2055384747829N12002284WA0103901078
B2055394747825N12002283WA0104001079
B2055404747820N12002282WA0104101081
B2055414747816N12002280WA0104101081
B2055424747811N12002277WA0104201080
B2055434747806N12002272WA0104301078
B2055444747802N12002267WA0104301076
B2055454747799N12002261WA0104301075
B2055464747796N12002256WA0104301073
B2055474747792N12002251WA0104301071
B2055484747788N12002246WA0104201067
B2055494747784N12002242WA0104101063
B2055504747779N12002239WA0103901060
B2055514747773N12002236WA0103801055
B2055524747768N12002234WA0103601051
B2055534747763N12002231WA0103401049
B2055544747758N12002227WA0103201047
B2055554747755N12002224WA0103001045
B2055564747751N12002221WA0102701042
B2055574747747N12002218WA0102501038
B2055584747743N12002216WA0102301034
B2055594747738N12002215WA0102001029
B2056004747734N12002215WA0101701025
B2056014747729N12002216WA0101501022
B2056024747726N12002216WA0101101021
B2056034747723N12002215WA0100901020
B2056034747723N12002215WA0100901020
B2056044747720N12002214WA0100601018
B2056054747717N12002213WA0100501017
B2056064747714N12002211WA0100201015
B2056074747711N12002209WA0100001012
B2056084747707N12002206WA0099701010
B2056094747704N12002202WA0099601007
B2056104747700N12002197WA0099301005
B2056114747697N12002191WA0099101002
B2056124747692N12002185WA0098800999
B2056134747688N12002180WA0098600995
B2056144747683N12002175WA0098300992
B2056154747678N12002170WA0098100990
B2056164747674N12002165WA0097800988
B2056174747670N12002161WA0097600986
B2056184747666N12002156WA0097300985
B2056194747662N12002153WA0097200984
B2056204747659N12002150WA0096900982
B2056214747654N12002146WA0096800979
B2056224747650N12002142WA0096500977
B2056234747645N12002138WA0096400976
B2056244747641N12002134WA0096100975
B2056254747637N12002131WA0096000975
B2056264747634N12002128WA0095800974
B2056274747631N12002124WA0095700974
B2056284747628N12002120WA0095500972
B2056294747625N12002117WA0095400970
B2056304747621N12002112WA0095200967
B2056314747618N12002107WA0095100965
B2056324747615N12002101WA0094900963
B2056334747613N12002094WA0094700960
B2056344747612N12002085WA0094500957
B2056354747611N12002076WA0094300954
B2056364747610N12002066WA0094100951
B2056374747610N12002055WA0093900948
B2056384747610N12002045WA0093600945
B2056394747609N12002034WA0093400942
B2056404747608N12002024WA0093200940
B2056414747607N12002015WA0093000938
B2056424747605N12002007WA0092800937
B2056434747602N12002000WA0092600935
B2056444747600N12001992WA0092300933
B2056454747597N12001985WA0092200931
B2056464747594N12001977WA0091900929
B2056474747592N12001969WA0091800927
B2056484747589N12001961WA0091500924
B2056494747587N12001954WA0091300922
B2056504747584N12001947WA0091100919
B2056514747582N12001940WA0090900916
B2056524747579N12001932WA0090600912
B2056534747575N12001924WA0090400908
B2056544747572N12001916WA0090100905
B2056554747569N12001908WA0089900902
B2056564747566N12001900WA0089500899
B2056574747564N12001892WA0089300895
B2056584747561N12001884WA0089000892
B2056594747558N12001875WA0088800889
B2057004747555N12001867WA0088400887
B2057014747552N12001860WA0088200885
B2057024747549N12001853WA0087900883
B2057034747546N12001846WA0087700881
B2057044747542N12001841WA0087400879
B2057054747539N12001836WA0087200876
B2057064747535N12001830WA0086900873
B2057074747532N12001823WA0086700870
B2057074747532N12001823WA0086700870
B2057084747529N12001816WA0086400868
B2057094747527N12001808WA0086200866
B2057104747526N12001800WA0085900864
B2057114747526N12001791WA0085800862
B2057124747526N12001781WA0085500859
B2057134747527N12001771WA0085300856
B2057144747528N12001761WA0085000853
B2057154747529N12001751WA0084800850
B2057164747531N12001742WA0084500848
B2057174747533N12001734WA0084300846
B2057184747535N12001724WA0084000843
B2057194747537N12001714WA0083800840
B2057204747540N12001704WA0083500837
B2057214747543N12001694WA0083300834
B2057224747546N12001685WA0083000832
B2057234747549N12001676WA0082800830
B2057244747551N12001667WA0082600828
B2057254747554N12001658WA0082400826
B2057264747556N12001648WA0082100824
B2057274747559N12001639WA0081900822
B2057284747561N12001629WA0081700820
B2057294747562N12001619WA0081500817
B2057304747564N12001608WA0081200815
B2057314747565N12001597WA0081000812
B2057324747567N12001586WA0080700809
B2057334747570N12001576WA0080600807
B2057344747573N12001567WA0080300807
B2057354747575N12001557WA0080200807
B2057364747576N12001548WA0080000808
B2057374747576N12001540WA0079900807
B2057384747576N12001531WA0079700806
B2057394747575N12001521WA0079600802
B2057404747574N12001511WA0079400799
B2057414747572N12001501WA0079200796
B2057424747569N12001491WA0079000794
B2057434747566N12001482WA0078900792
B2057444747564N12001473WA0078600790
B2057454747563N12001463WA0078500788
B2057464747563N12001453WA0078200785
B2057474747563N12001443WA0078100782
B2057484747564N12001432WA0077800779
B2057494747567N12001422WA0077600775
B2057504747569N12001411WA0077300773
B2057514747571N12001401WA0077100770
B2057524747573N12001390WA0076900767
B2057534747575N12001380WA0076700764
B2057544747577N12001369WA0076400760
B2057554747579N12001358WA0076100758
B2057564747581N12001348WA0075800755
B2057574747584N12001339WA0075600753
B2057584747587N12001330WA0075300751
B2057594747590N12001321WA0075100749
B2058004747593N12001312WA0074900748
B2058014747596N12001303WA0074700747
B2058024747598N12001295WA0074500748
B2058034747600N12001287WA0074400749
B2058044747601N12001279WA0074300750
B2058054747601N12001271WA0074200750
B2058064747601N12001263WA0074100750
B2058074747600N12001255WA0074000750
B2058084747599N12001246WA0074000749
B2058094747598N12001237WA0073900749
B2058104747597N12001228WA0073800750
B2058114747596N12001219WA0073800751
B2058114747596N12001219WA0073800751
B2058124747595N12001210WA0073800751
B2058134747593N12001202WA0073800750
B2058144747591N12001193WA0073700749
B2058154747590N12001183WA0073700748
B2058164747589N12001174WA0073700749
B2058174747589N12001167WA0073600750
B2058184747588N12001162WA0073600752
B2058194747587N12001157WA0073600752
B2058204747585N12001152WA0073600751
B2058214747583N12001147WA0073600748
B2058224747580N12001140WA0073500747
B2058234747578N12001134WA0073500747
B2058244747578N12001129WA0073500749
B2058254747577N12001124WA0073500751
B2058264747576N12001120WA0073500753
B2058274747575N12001117WA0073600753
B2058284747573N12001113WA0073600753
B2058294747570N12001109WA0073600753
B2058304747568N12001105WA0073700754
B2058314747566N12001100WA0073700756
B2058324747564N12001096WA0073800759
B2058334747562N12001092WA0073800760
B2058344747559N12001088WA0074000762
B2058354747557N12001084WA0074000765
B2058364747554N12001081WA0074200768
B2058374747551N12001078WA0074300771
B2058384747549N12001075WA0074500775
B2058394747546N12001073WA0074700779
B2058404747544N12001071WA0075000782
B2058414747541N12001069WA0075100786
B2058424747538N12001068WA0075400789
B2058434747534N12001068WA0075600791
B2058444747531N12001068WA0075900795
B2058454747528N12001068WA0076100798
B2058464747525N12001068WA0076400801
B2058474747522N12001065WA0076600804
B2058484747520N12001061WA0076900805
B2058494747517N12001055WA0077100805
B2058504747514N12001048WA0077300804
B2058514747512N12001038WA0077400803
B2058524747512N12001028WA0077600803
B2058534747515N12001018WA0077700802
B2058544747519N12001008WA0077800802
B2058554747524N12000999WA0077900804
B2058564747529N12000993WA0078000807
B2058574747534N12000990WA0078100810
B2058584747538N12000988WA0078300814
B2058594747542N12000986WA0078500817
B2059004747545N12000985WA0078700820
B2059014747550N12000985WA0078900821
B2059024747554N12000989WA0079100822
B2059034747558N12000994WA0079200823
B2059044747559N12001000WA0079500826
B2059054747560N12001005WA0079600830
B2059064747560N12001009WA0079900834
B2059074747561N12001012WA0080100839
B2059084747563N12001016WA0080400842
B2059094747563N12001020WA0080600844
B2059104747561N12001023WA0080800844
B2059114747558N12001024WA0081000845
B2059124747554N12001023WA0081200844
B2059134747549N12001020WA0081300844
B2059144747545N12001016WA0081400843
B2059154747541N12001012WA0081500842
B2059154747541N12001012WA0081500842
B2059164747537N12001008WA0081600840
B2059174747534N12001006WA0081600838
B2059184747530N12001004WA0081600837
B2059194747527N12001004WA0081600835
B2059204747524N12001005WA0081500833
B2059214747522N12001006WA0081500831
B2059224747519N12001006WA0081400829
B2059234747516N12001006WA0081300827
B2059244747512N12001003WA0081200824
B2059254747507N12000999WA0081100822
B2059264747502N12000993WA0080900819
B2059274747497N12000986WA0080800818
B2059284747494N12000979WA0080600816
B2059294747492N12000970WA0080500814
B2059304747491N12000961WA0080300811
B2059314747490N12000950WA0080200806
B2059324747491N12000939WA0079900802
B2059334747493N12000927WA0079700798
B2059344747496N12000917WA0079400795
B2059354747500N12000909WA0079200792
B2059364747506N12000904WA0078900789
B2059374747510N12000901WA0078800787
B2059384747515N12000899WA0078500786
B2059394747519N12000897WA0078300786
B2059404747522N12000896WA0078100785
B2059414747525N12000896WA0078000784
B2059424747528N12000897WA0077800782
B2059434747530N12000899WA0077600781
B2059444747532N12000901WA0077400780
B2059454747532N12000903WA0077300780
B2059464747531N12000906WA0077200779
B2059474747530N12000908WA0077100778
B2059484747529N12000911WA0076900777
B2059494747527N12000914WA0076800776
B2059504747525N12000917WA0076700775
B2059514747524N12000920WA0076500773
B2059524747521N12000923WA0076400772
B2059534747519N12000925WA0076300772
B2059544747517N12000927WA0076200772
B2059554747516N12000928WA0076100773
B2059564747515N12000929WA0076000773
B2059574747514N12000931WA0076000772
B2059584747513N12000934WA0075900770
B2059594747512N12000937WA0075800767
B2100004747510N12000939WA0075600764
B2100014747507N12000940WA0075500761
B2100024747504N12000940WA0075300759
B2100034747499N12000937WA0075200756
B2100044747494N12000933WA0074900753
B2100054747489N12000926WA0074800751
B2100064747485N12000917WA0074500748
B2100074747483N12000908WA0074400746
B2100084747481N12000899WA0074100744
B2100094747480N12000889WA0074000740
B2100104747480N12000878WA0073700736
B2100114747480N12000866WA0073500732
B2100124747481N12000855WA0073200728
B2100134747481N12000843WA0072900724
B2100144747481N12000832WA0072600720
B2100154747480N12000821WA0072400716
B2100164747480N12000810WA0072000713
B2100174747480N12000799WA0071800709
B2100184747480N12000789WA0071400706
B2100194747481N12000778WA0071200702
B2100194747481N12000778WA0071200702
B2100204747482N12000767WA0070800697
B2100214747484N12000755WA0070500692
B2100224747486N12000744WA0070100687
B2100234747489N12000733WA0069800683
B2100244747492N12000723WA0069400680
B2100254747496N12000713WA0069100676
B2100264747499N12000702WA0068700672
B2100274747502N12000691WA0068400668
B2100284747504N12000680WA0067900663
B2100294747507N12000669WA0067600659
B2100304747510N12000657WA0067200655
B2100314747512N12000647WA0066900652
B2100324747515N12000637WA0066500650
B2100334747517N12000627WA0066200647
B2100344747519N12000617WA0065800644
B2100354747520N12000606WA0065600640
B2100364747522N12000594WA0065200637
B2100374747523N12000582WA0064900634
B2100384747524N12000571WA0064500631
B2100394747526N12000560WA0064300630
B2100404747527N12000550WA0063900628
B2100414747529N12000540WA0063700626
B2100424747532N12000530WA0063400623
B2100434747534N12000519WA0063200619
B2100444747535N12000507WA0062800616
B2100454747537N12000496WA0062600613
B2100464747540N12000485WA0062300611
B2100474747542N12000475WA0062000609
B2100484747544N12000464WA0061700607
B2100494747546N12000454WA0061500605
B2100504747548N12000443WA0061200602
B2100514747549N12000431WA0061000599
B2100524747551N12000420WA0060700596
B2100534747553N12000409WA0060500594
B2100544747555N12000399WA0060200593
B2100554747556N12000388WA0060100591
B2100564747558N12000377WA0059800587
B2100574747559N12000366WA0059600584
B2100584747560N12000355WA0059300581
B2100594747562N12000344WA0059100580
B2101004747563N12000334WA0058800578
B2101014747564N12000324WA0058600576
B2101024747566N12000313WA0058400574
B2101034747568N12000303WA0058200572
B2101044747570N12000292WA0057900569
B2101054747571N12000281WA0057700566
B2101064747572N12000270WA0057500563
B2101074747574N12000259WA0057300560
B2101084747575N12000248WA0057000558
B2101094747577N12000238WA0056800556
B2101104747578N12000228WA0056500554
B2101114747579N12000218WA0056300552
B2101124747580N12000208WA0056100549
B2101134747581N12000198WA0055900546
B2101144747583N12000188WA0055600543
B2101154747584N12000178WA0055400540
B2101164747586N12000167WA0055100537
B2101174747588N12000157WA0054900534
B2101184747590N12000146WA0054600533
B2101194747592N12000137WA0054400531
B2101204747594N12000127WA0054100529
B2101214747596N12000118WA0053900527
B2101224747597N12000107WA0053600523
B2101234747599N12000096WA0053400520
B2101234747599N12000096WA0053400520
B2101244747601N12000085WA0053100516
B2101254747602N12000074WA0052900514
B2101264747603N12000063WA0052600512
B2101274747605N12000054WA0052500511
B2101284747606N12000043WA0052200508
B2101294747608N12000033WA0052000506
B2101304747610N12000022WA0051700503
B2101314747612N12000012WA0051500501
B2101324747614N12000002WA0051200499
B2101334747617N11959992WA0051000497
B2101344747619N11959983WA0050800494
B2101354747623N11959972WA0050600491
B2101364747626N11959962WA0050300487
B2101374747628N11959951WA0050000484
B2101384747631N11959941WA0049700480
B2101394747634N11959930WA0049500478
B2101404747636N11959920WA0049200475
B2101414747638N11959910WA0049000472
B2101424747641N11959900WA0048700469
B2101434747643N11959889WA0048400465
B2101444747646N11959878WA0048100462
B2101454747649N11959868WA0047800459
B2101464747652N11959858WA0047500456
B2101474747655N11959848WA0047300453
B2101484747658N11959837WA0046900450
B2101494747661N11959827WA0046700447
B2101504747664N11959818WA0046400445
B2101514747666N11959809WA0046100443
B2101524747669N11959800WA0045800440
B2101534747672N11959791WA0045600437
B2101544747674N11959782WA0045300434
B2101554747677N11959773WA0045100430
B2101564747680N11959763WA0044700428
B2101574747683N11959754WA0044500425
B2101584747686N11959746WA0044200423
B2101594747689N11959737WA0044000421
B2102004747692N11959729WA0043700418
B2102014747695N11959720WA0043500415
B2102024747699N11959711WA0043200412
B2102034747702N11959702WA0043000411
B2102044747704N11959693WA0042700409
B2102054747706N11959684WA0042500407
B2102064747707N11959674WA0042200405
B2102074747706N11959665WA0042000402
B2102084747706N11959656WA0041700400
B2102094747705N11959647WA0041500398
B2102104747704N11959638WA0041300396
B2102114747704N11959629WA0041100393
B2102124747703N11959618WA0040800391
B2102134747703N11959608WA0040600389
B2102144747702N11959599WA0040300388
B2102154747703N11959589WA0040200386
B2102164747704N11959580WA0039900385
B2102174747704N11959570WA0039800383
B2102184747705N11959560WA0039500381
B2102194747706N11959550WA0039400379
B2102204747707N11959540WA0039200377
B2102214747707N11959531WA0039000376
B2102224747707N11959522WA0038800375
B2102234747707N11959513WA0038700373
B2102244747707N11959503WA0038500372
B2102254747706N11959494WA0038300370
B2102264747706N11959484WA0038100368
B2102274747705N11959474WA0038000366
B2102274747705N11959474WA0038000366
B2102284747704N11959465WA0037800365
B2102294747703N11959456WA0037700365
B2102304747703N11959448WA0037500365
B2102314747704N11959439WA0037400364
B2102324747704N11959430WA0037300363
B2102334747705N11959420WA0037200361
B2102344747707N11959409WA0037000359
B2102354747709N11959399WA0036900359
B2102364747712N11959388WA0036800359
B2102374747715N11959379WA0036700359
B2102384747718N11959369WA0036600359
B2102394747722N11959360WA0036500359
B2102404747727N11959351WA0036400359
B2102414747732N11959341WA0036400359
B2102424747737N11959332WA0036300359
B2102434747742N11959323WA0036300360
B2102444747747N11959314WA0036300360
B2102454747752N11959305WA0036200359
B2102464747757N11959296WA0036200358
B2102474747762N11959287WA0036200358
B2102484747766N11959279WA0036200357
B2102494747771N11959270WA0036200357
B2102504747776N11959262WA0036100355
B2102514747782N11959253WA0036100354
B2102524747787N11959245WA0036000353
B2102534747793N11959238WA0036000353
B2102544747798N11959232WA0035900353
B2102554747803N11959226WA0035900354
B2102564747808N11959219WA0035900355
B2102574747812N11959212WA0035800355
B2102584747816N11959203WA0035800354
B2102594747820N11959196WA0035800354
B2103004747824N11959190WA0035800355
B2103014747827N11959184WA0035800355
B2103024747831N11959178WA0035800354
B2103034747835N11959171WA0035700352
B2103044747838N11959163WA0035700351
B2103054747841N11959156WA0035700350
B2103064747844N11959149WA0035600350
B2103074747846N11959142WA0035600350
B2103084747849N11959135WA0035500349
B2103094747852N11959127WA0035500348
B2103104747856N11959120WA0035400347
B2103114747859N11959114WA0035400347
B2103124747863N11959108WA0035300347
B2103134747867N11959102WA0035200345
B2103144747871N11959095WA0035100343
B2103154747874N11959087WA0035100342
B2103164747877N11959079WA0035000341
B2103174747880N11959071WA0034900340
B2103184747884N11959064WA0034800339
B2103194747888N11959057WA0034700338
B2103204747893N11959050WA0034600336
B2103214747897N11959043WA0034500334
B2103224747902N11959035WA0034300332
B2103234747906N11959028WA0034200329
B2103244747910N11959021WA0034000328
B2103254747914N11959014WA0033900326
B2103264747918N11959007WA0033700324
B2103274747923N11959000WA0033600322
B2103284747929N11958993WA0033400320
B2103294747934N11958987WA0033300319
B2103304747939N11958982WA0033100318
B2103314747945N11958976WA0033000317
B2103314747945N11958976WA0033000317
B2103324747950N11958970WA0032800316
B2103334747955N11958965WA0032700315
B2103344747961N11958961WA0032500314
B2103354747967N11958957WA0032400313
B2103364747972N11958953WA0032300312
B2103374747977N11958949WA0032200312
B2103384747983N11958944WA0032100311
B2103394747989N11958940WA0032000310
B2103404747995N11958936WA0031900308
B2103414748001N11958932WA0031800307
B2103424748007N11958928WA0031600305
B2103434748013N11958927WA0031500304
B2103444748019N11958926WA0031400302
B2103454748025N11958927WA0031300301
B2103464748030N11958929WA0031100300
B2103474748035N11958932WA0031000298
B2103484748039N11958937WA0030900296
B2103494748042N11958943WA0030800294
B2103504748044N11958949WA0030600293
B2103514748046N11958954WA0030500292
B2103524748047N11958959WA0030300292
B2103534748049N11958964WA0030200291
B2103544748051N11958969WA0030100289
B2103554748054N11958975WA0030000287
B2103564748057N11958980WA0029800285
B2103574748060N11958986WA0029700284
B2103584748063N11958991WA0029500282
B2103594748065N11958997WA0029400280
B2104004748066N11959003WA0029200278
B2104014748065N11959009WA0029000276
B2104024748063N11959013WA0028800273
B2104034748059N11959014WA0028700270
B2104044748056N11959012WA0028400269
B2104054748053N11959008WA0028300267
B2104064748051N11959004WA0028000266
B2104074748049N11959001WA0027900265
B2104084748047N11959001WA0027700264
B2104094748044N11959000WA0027600263
B2104104748042N11958999WA0027400262
B2104114748040N11958996WA0027300261
B2104124748038N11958994WA0027200260
B2104134748036N11958993WA0027100260
B2104144748034N11958993WA0026900258
B2104154748031N11958994WA0026800256
B2104164748029N11958994WA0026700255
B2104174748026N11958994WA0026600253
B2104184748022N11958996WA0026400251
B2104194748019N11958998WA0026300248
B2104204748016N11959002WA0026100247
B2104214748013N11959005WA0025900246
B2104224748010N11959008WA0025800245
B2104234748007N11959010WA0025700244
B2104244748005N11959013WA0025500243
B2104254748002N11959016WA0025400243
B2104264748000N11959019WA0025300241
B2104274747998N11959022WA0025200240
B2104284747995N11959024WA0025000238
B2104294747992N11959026WA0024900236
B2104304747989N11959028WA0024800235
B2104314747986N11959030WA0024700232
B2104324747984N11959034WA0024500230
B2104334747982N11959037WA0024400228
B2104344747979N11959041WA0024200227
B2104354747976N11959045WA0024100224
B2104354747976N11959045WA0024100224
B2104364747974N11959048WA0023900223
B2104374747972N11959050WA0023800222
B2104384747970N11959051WA0023700222
B2104394747969N11959053WA0023600222
B2104404747968N11959054WA0023500222
B2104414747968N11959055WA0023400222
B2104424747968N11959055WA0023300222
B2104434747968N11959056WA0023300222
B2104444747969N11959056WA0023200222
B2104454747969N11959057WA0023200222
B2104464747970N11959057WA0023100223
B2104474747970N11959058WA0023100223
B2104484747971N11959059WA0023100223
B2104494747971N11959060WA0023000223
B2104504747971N11959060WA0023000223
B2104514747972N11959060WA0023000223
B2104524747972N11959060WA0023000223
B2104534747973N11959061WA0023000223
B2104544747973N11959061WA0023000223
B2104554747973N11959061WA0022900223
B2104564747973N11959061WA0022900223
B2104574747973N11959060WA0022900223
B2104584747973N11959060WA0022900222
B2104594747973N11959060WA0022900223
B2105004747973N11959060WA0022900222
B2105014747973N11959060WA0022900222
B2105024747973N11959060WA0022900222
B2105034747973N11959060WA0022900222
B2105044747973N11959060WA0022900222
B2105054747973N11959060WA0022900222
B2105064747973N11959060WA0022900222
B2105074747973N11959060WA0022900222
B2105084747973N11959060WA0022900222
B2105094747973N11959060WA0022900222
B2105104747973N11959060WA0022900222
B2105114747972N11959060WA0022900222
B2105124747972N11959060WA0022900222
B2105134747972N11959060WA0022900222
B2105144747972N11959060WA0022900222
B2105154747971N11959060WA0022900221
B2105164747971N11959060WA0022900221
B2105174747971N11959060WA0022900221
B2105184747971N11959060WA0022900221
B2105194747971N11959060WA0022900221
B2105204747971N11959060WA0022900221
B2105214747971N11959060WA0022900221
B2105224747971N11959060WA0022900221
B2105234747971N11959060WA0022900221
B2105244747972N11959060WA0022900221
B2105254747972N11959060WA0022900221
B2105264747972N11959060WA0022900221
B2105274747972N11959060WA0022900221
B2105284747972N11959060WA0022900221
B2105294747971N11959060WA0022900221
B2105304747971N11959060WA0022900220
B2105314747971N11959061WA0022900220
B2105324747971N11959061WA0022900220
B2105334747972N11959061WA0022900220
B2105344747972N11959061WA0022900220
B2105354747972N11959061WA0022900220
B2105364747972N11959062WA0022900220
B2105374747973N11959063WA0022900220
B2105384747974N11959063WA0022900220
B2105394747974N11959063WA0022900221
B2105404747975N11959063WA0022900221
