AXFMSFP Flymaster Live, V1.0
HFFXA010
HFPLTPILOT:Maddy Huggins
HFGTYGLIDERTYPE:Advance Lightness 3 / Skywalk Cumeo
HFGIDGLIDERID:
HFDTM100GPSDATUM:WGS-1984
HFCIDCOMPETITIONID:410
HFCCLCOMPETITIONCLASS:
HOSITSITE:LAUNCH
HFGPS:UBLOXNEO6
HFPRSPRESSALTSENSOR:NA
HFRFWFIRMWAREVERSION:202g
HFRHWHARDWAREVERSION:1.0R2
HFFTYFRTYPE:FLYMASTER,LIVE
HFDTE170625
B2043144748242N12002373WA0109101122
B2043154748242N12002373WA0109101122
B2043164748241N12002374WA0109101122
B2043174748242N12002374WA0109101122
B2043184748242N12002375WA0109101122
B2043194748242N12002375WA0109101122
B2043204748241N12002376WA0109101122
B2043214748240N12002378WA0109101121
B2043224748240N12002381WA0109101120
B2043234748240N12002383WA0109001119
B2043244748239N12002385WA0109001118
B2043254748239N12002387WA0109001117
B2043264748239N12002390WA0108901117
B2043274748238N12002392WA0108901116
B2043284748236N12002395WA0108801115
B2043294748235N12002398WA0108801114
B2043304748234N12002403WA0108701114
B2043314748233N12002408WA0108701113
B2043324748231N12002413WA0108601111
B2043334748229N12002417WA0108501111
B2043344748226N12002422WA0108501111
B2043354748225N12002426WA0108501113
B2043364748226N12002429WA0108501117
B2043374748226N12002431WA0108601120
B2043384748226N12002434WA0108601120
B2043394748224N12002438WA0108701119
B2043404748223N12002443WA0108701117
B2043414748221N12002447WA0108701116
B2043424748220N12002449WA0108701118
B2043434748219N12002449WA0108701118
B2043444748217N12002450WA0108801118
B2043454748216N12002453WA0108701116
B2043464748214N12002458WA0108701112
B2043474748212N12002462WA0108701110
B2043484748209N12002463WA0108601108
B2043494748207N12002463WA0108601109
B2043504748206N12002462WA0108601111
B2043514748205N12002462WA0108501111
B2043524748204N12002461WA0108501111
B2043534748202N12002461WA0108501109
B2043544748200N12002461WA0108501107
B2043554748198N12002461WA0108401105
B2043564748194N12002463WA0108301103
B2043574748191N12002465WA0108301103
B2043584748189N12002467WA0108201103
B2043594748187N12002468WA0108201104
B2044004748186N12002469WA0108101105
B2044014748183N12002470WA0108101106
B2044024748180N12002472WA0108101106
B2044034748178N12002474WA0108101108
B2044044748176N12002476WA0108101112
B2044054748175N12002479WA0108201115
B2044064748175N12002482WA0108201117
B2044074748173N12002486WA0108301117
B2044084748171N12002489WA0108401118
B2044094748168N12002492WA0108501119
B2044104748166N12002495WA0108601120
B2044114748165N12002496WA0108601120
B2044124748163N12002498WA0108701120
B2044134748161N12002500WA0108801119
B2044144748158N12002503WA0108801116
B2044154748155N12002507WA0108801113
B2044164748152N12002512WA0108701112
B2044174748150N12002515WA0108701112
B2044184748147N12002517WA0108701111
B2044194748144N12002520WA0108601111
B2044194748144N12002520WA0108601111
B2044204748141N12002522WA0108601110
B2044214748138N12002525WA0108501109
B2044224748136N12002527WA0108501108
B2044234748133N12002529WA0108401106
B2044244748129N12002530WA0108401104
B2044254748125N12002532WA0108301102
B2044264748121N12002534WA0108201100
B2044274748118N12002536WA0108101101
B2044284748116N12002538WA0108001103
B2044294748113N12002540WA0108001105
B2044304748111N12002542WA0108001106
B2044314748109N12002544WA0108001106
B2044324748106N12002545WA0108001106
B2044334748102N12002547WA0108001106
B2044344748099N12002549WA0107901105
B2044354748095N12002550WA0107901106
B2044364748091N12002551WA0107901107
B2044374748088N12002551WA0107901108
B2044384748084N12002553WA0108001109
B2044394748081N12002554WA0108001110
B2044404748077N12002556WA0108001109
B2044414748072N12002558WA0108001109
B2044424748067N12002559WA0108101109
B2044434748063N12002560WA0108101111
B2044444748060N12002562WA0108101112
B2044454748056N12002564WA0108201113
B2044464748053N12002565WA0108201114
B2044474748049N12002565WA0108301115
B2044484748046N12002563WA0108301116
B2044494748042N12002561WA0108401116
B2044504748038N12002559WA0108401116
B2044514748035N12002557WA0108501115
B2044524748031N12002555WA0108501114
B2044534748027N12002554WA0108501113
B2044544748024N12002554WA0108501110
B2044554748021N12002555WA0108401107
B2044564748018N12002557WA0108401103
B2044574748014N12002558WA0108301100
B2044584748011N12002560WA0108101098
B2044594748008N12002561WA0108001095
B2045004748006N12002562WA0107801092
B2045014748003N12002564WA0107701089
B2045024747999N12002565WA0107501086
B2045034747996N12002566WA0107301083
B2045044747992N12002567WA0107101081
B2045054747988N12002567WA0106901079
B2045064747984N12002568WA0106701078
B2045074747980N12002569WA0106501077
B2045084747976N12002570WA0106301076
B2045094747972N12002571WA0106201075
B2045104747968N12002573WA0106001075
B2045114747965N12002576WA0105901075
B2045124747963N12002578WA0105701075
B2045134747961N12002581WA0105601076
B2045144747960N12002584WA0105501076
B2045154747958N12002587WA0105501075
B2045164747957N12002591WA0105401074
B2045174747956N12002596WA0105301073
B2045184747955N12002601WA0105201072
B2045194747954N12002606WA0105201073
B2045204747952N12002609WA0105101073
B2045214747950N12002611WA0105101073
B2045224747947N12002614WA0105001072
B2045234747945N12002617WA0104901071
B2045234747945N12002617WA0104901071
B2045244747942N12002620WA0104901070
B2045254747939N12002623WA0104801069
B2045264747936N12002624WA0104701069
B2045274747933N12002625WA0104701068
B2045284747930N12002626WA0104601066
B2045294747926N12002628WA0104501064
B2045304747922N12002630WA0104401061
B2045314747917N12002632WA0104401059
B2045324747913N12002633WA0104201058
B2045334747909N12002633WA0104101058
B2045344747905N12002634WA0104001058
B2045354747901N12002636WA0103901057
B2045364747897N12002637WA0103801055
B2045374747892N12002638WA0103801054
B2045384747887N12002637WA0103601053
B2045394747883N12002637WA0103601053
B2045404747880N12002636WA0103501053
B2045414747877N12002636WA0103401053
B2045424747873N12002635WA0103401052
B2045434747869N12002635WA0103301051
B2045444747865N12002636WA0103201049
B2045454747861N12002637WA0103101048
B2045464747858N12002637WA0103001047
B2045474747855N12002637WA0103001047
B2045484747852N12002637WA0102901046
B2045494747849N12002637WA0102801044
B2045504747845N12002637WA0102701042
B2045514747841N12002638WA0102601040
B2045524747837N12002641WA0102501038
B2045534747834N12002644WA0102401037
B2045544747831N12002647WA0102201036
B2045554747828N12002649WA0102101035
B2045564747826N12002651WA0102001033
B2045574747823N12002654WA0101901030
B2045584747820N12002656WA0101701026
B2045594747816N12002658WA0101601024
B2046004747813N12002659WA0101301021
B2046014747810N12002658WA0101201018
B2046024747806N12002658WA0100901015
B2046034747803N12002656WA0100801012
B2046044747799N12002653WA0100501009
B2046054747795N12002650WA0100301007
B2046064747791N12002645WA0100101004
B2046074747787N12002641WA0099901002
B2046084747784N12002637WA0099601000
B2046094747780N12002631WA0099400997
B2046104747777N12002624WA0099100995
B2046114747775N12002617WA0099000992
B2046124747772N12002610WA0098700990
B2046134747769N12002604WA0098500988
B2046144747766N12002599WA0098200986
B2046154747762N12002594WA0098000984
B2046164747757N12002589WA0097800981
B2046174747753N12002585WA0097600979
B2046184747748N12002580WA0097300979
B2046194747745N12002575WA0097200979
B2046204747742N12002569WA0097000978
B2046214747740N12002562WA0096800977
B2046224747737N12002556WA0096600975
B2046234747734N12002549WA0096500973
B2046244747731N12002541WA0096300972
B2046254747729N12002534WA0096200970
B2046264747726N12002526WA0096000969
B2046274747724N12002519WA0095900968
B2046274747724N12002519WA0095900968
B2046284747722N12002511WA0095700967
B2046294747719N12002503WA0095600967
B2046304747717N12002496WA0095500966
B2046314747715N12002489WA0095400967
B2046324747713N12002483WA0095300969
B2046334747711N12002478WA0095200970
B2046344747710N12002472WA0095200971
B2046354747710N12002465WA0095200971
B2046364747708N12002458WA0095100971
B2046374747705N12002452WA0095100970
B2046384747703N12002446WA0095100970
B2046394747700N12002442WA0095100971
B2046404747697N12002437WA0095000971
B2046414747694N12002430WA0095000971
B2046424747692N12002423WA0095000971
B2046434747691N12002415WA0095000971
B2046444747691N12002407WA0095000971
B2046454747693N12002399WA0095000971
B2046464747696N12002392WA0095000970
B2046474747700N12002385WA0094900968
B2046484747705N12002380WA0094900966
B2046494747711N12002376WA0094800963
B2046504747718N12002376WA0094700962
B2046514747723N12002377WA0094600961
B2046524747727N12002379WA0094500962
B2046534747731N12002382WA0094500962
B2046544747734N12002385WA0094400962
B2046554747736N12002390WA0094300961
B2046564747738N12002395WA0094200961
B2046574747739N12002400WA0094200960
B2046584747739N12002405WA0094100959
B2046594747739N12002411WA0094100959
B2047004747737N12002417WA0094000959
B2047014747734N12002420WA0093900958
B2047024747730N12002423WA0093900958
B2047034747727N12002425WA0093800959
B2047044747723N12002427WA0093800959
B2047054747720N12002429WA0093800960
B2047064747717N12002431WA0093800960
B2047074747714N12002432WA0093800960
B2047084747710N12002433WA0093800959
B2047094747707N12002434WA0093700959
B2047104747705N12002434WA0093700959
B2047114747703N12002435WA0093700960
B2047124747700N12002434WA0093700958
B2047134747697N12002433WA0093700956
B2047144747693N12002430WA0093600955
B2047154747689N12002427WA0093600956
B2047164747687N12002424WA0093500957
B2047174747685N12002419WA0093500958
B2047184747683N12002413WA0093500957
B2047194747680N12002406WA0093500955
B2047204747677N12002397WA0093400954
B2047214747673N12002390WA0093400954
B2047224747672N12002384WA0093400958
B2047234747671N12002380WA0093400961
B2047244747671N12002377WA0093400963
B2047254747670N12002373WA0093500962
B2047264747668N12002367WA0093500959
B2047274747665N12002359WA0093500956
B2047284747664N12002352WA0093400956
B2047294747664N12002345WA0093400957
B2047304747665N12002338WA0093400958
B2047314747667N12002331WA0093400957
B2047314747667N12002331WA0093400957
B2047324747669N12002323WA0093400955
B2047334747671N12002314WA0093300953
B2047344747673N12002306WA0093300952
B2047354747677N12002298WA0093200951
B2047364747681N12002290WA0093100950
B2047374747684N12002282WA0093100948
B2047384747686N12002272WA0093000947
B2047394747686N12002262WA0092900945
B2047404747686N12002253WA0092800944
B2047414747685N12002245WA0092700944
B2047424747683N12002239WA0092600944
B2047434747681N12002233WA0092500943
B2047444747677N12002228WA0092400940
B2047454747673N12002222WA0092300938
B2047464747669N12002217WA0092200935
B2047474747665N12002212WA0092100934
B2047484747662N12002208WA0091900932
B2047494747659N12002203WA0091800929
B2047504747656N12002199WA0091600926
B2047514747652N12002194WA0091500921
B2047524747648N12002189WA0091300917
B2047534747644N12002183WA0091100912
B2047544747640N12002175WA0090800910
B2047554747638N12002167WA0090600909
B2047564747636N12002160WA0090400909
B2047574747634N12002154WA0090200908
B2047584747632N12002149WA0090000906
B2047594747629N12002143WA0089900903
B2048004747626N12002137WA0089600901
B2048014747623N12002130WA0089500898
B2048024747620N12002124WA0089200897
B2048034747616N12002119WA0089100895
B2048044747613N12002115WA0088800894
B2048054747609N12002111WA0088700893
B2048064747605N12002107WA0088500891
B2048074747601N12002103WA0088400890
B2048084747597N12002098WA0088200889
B2048094747593N12002094WA0088100890
B2048104747591N12002089WA0087900891
B2048114747589N12002086WA0087900892
B2048124747587N12002081WA0087800892
B2048134747584N12002076WA0087700891
B2048144747581N12002071WA0087600891
B2048154747579N12002066WA0087600891
B2048164747576N12002060WA0087500891
B2048174747574N12002056WA0087500891
B2048184747571N12002051WA0087500890
B2048194747568N12002046WA0087400890
B2048204747566N12002039WA0087400890
B2048214747564N12002032WA0087400891
B2048224747562N12002026WA0087400891
B2048234747560N12002020WA0087400891
B2048244747556N12002014WA0087300890
B2048254747553N12002007WA0087300890
B2048264747551N12002000WA0087400892
B2048274747550N12001993WA0087400896
B2048284747549N12001985WA0087500900
B2048294747549N12001977WA0087500902
B2048304747547N12001969WA0087700903
B2048314747544N12001962WA0087700904
B2048324747541N12001956WA0087900906
B2048334747538N12001951WA0088000910
B2048344747536N12001948WA0088200915
B2048344747536N12001948WA0088200915
B2048354747534N12001946WA0088300919
B2048364747533N12001945WA0088500921
B2048374747530N12001943WA0088700922
B2048384747526N12001942WA0088900921
B2048394747522N12001943WA0089000923
B2048404747519N12001945WA0089300927
B2048414747516N12001949WA0089400932
B2048424747515N12001952WA0089700937
B2048434747515N12001956WA0089900941
B2048444747514N12001960WA0090200945
B2048454747511N12001962WA0090400947
B2048464747508N12001962WA0090700949
B2048474747506N12001961WA0091000952
B2048484747504N12001958WA0091300956
B2048494747501N12001954WA0091500959
B2048504747499N12001949WA0091800961
B2048514747495N12001944WA0092000962
B2048524747492N12001936WA0092300964
B2048534747490N12001926WA0092500966
B2048544747490N12001917WA0092800969
B2048554747490N12001907WA0093000971
B2048564747491N12001897WA0093300975
B2048574747494N12001889WA0093500980
B2048584747498N12001884WA0093800985
B2048594747503N12001880WA0094100990
B2049004747509N12001877WA0094400993
B2049014747515N12001876WA0094700996
B2049024747521N12001876WA0095000998
B2049034747526N12001879WA0095301001
B2049044747531N12001884WA0095601004
B2049054747535N12001889WA0095901009
B2049064747537N12001893WA0096201015
B2049074747538N12001898WA0096501021
B2049084747539N12001902WA0096901026
B2049094747538N12001907WA0097201031
B2049104747538N12001911WA0097701036
B2049114747537N12001913WA0098001041
B2049124747536N12001913WA0098501045
B2049134747535N12001914WA0098801046
B2049144747534N12001914WA0099301047
B2049154747532N12001915WA0099601046
B2049164747530N12001914WA0099901046
B2049174747527N12001910WA0100101044
B2049184747523N12001901WA0100301041
B2049194747521N12001891WA0100401040
B2049204747519N12001881WA0100601040
B2049214747519N12001873WA0100701043
B2049224747518N12001866WA0100801044
B2049234747515N12001858WA0100901045
B2049244747513N12001847WA0101001045
B2049254747510N12001837WA0101101047
B2049264747509N12001827WA0101301052
B2049274747509N12001818WA0101401057
B2049284747509N12001809WA0101601061
B2049294747510N12001799WA0101801064
B2049304747513N12001790WA0102001067
B2049314747516N12001781WA0102201071
B2049324747521N12001774WA0102501076
B2049334747525N12001769WA0102801082
B2049344747530N12001765WA0103101088
B2049354747536N12001762WA0103401092
B2049364747542N12001759WA0103801096
B2049374747549N12001757WA0104101099
B2049384747556N12001757WA0104501102
B2049384747556N12001757WA0104501102
B2049394747562N12001759WA0104801105
B2049404747567N12001761WA0105201109
B2049414747572N12001764WA0105501111
B2049424747576N12001768WA0105801114
B2049434747580N12001772WA0106101116
B2049444747583N12001776WA0106401119
B2049454747585N12001781WA0106701122
B2049464747584N12001784WA0107001124
B2049474747582N12001788WA0107201126
B2049484747581N12001790WA0107601129
B2049494747580N12001792WA0107801133
B2049504747578N12001794WA0108101136
B2049514747575N12001795WA0108401138
B2049524747572N12001796WA0108701139
B2049534747569N12001795WA0108901139
B2049544747565N12001793WA0109201141
B2049554747562N12001788WA0109401142
B2049564747560N12001783WA0109601143
B2049574747558N12001776WA0109801144
B2049584747558N12001769WA0110001145
B2049594747558N12001760WA0110201146
B2050004747559N12001752WA0110401147
B2050014747561N12001744WA0110501149
B2050024747564N12001736WA0110701151
B2050034747568N12001727WA0110901152
B2050044747574N12001720WA0111101153
B2050054747579N12001716WA0111201154
B2050064747583N12001713WA0111401156
B2050074747587N12001710WA0111501158
B2050084747591N12001707WA0111701160
B2050094747598N12001702WA0111801159
B2050104747605N12001698WA0111901159
B2050114747611N12001695WA0112001161
B2050124747615N12001693WA0112201162
B2050134747619N12001691WA0112301162
B2050144747625N12001688WA0112401161
B2050154747632N12001684WA0112401158
B2050164747639N12001683WA0112501157
B2050174747645N12001684WA0112501158
B2050184747650N12001686WA0112501158
B2050194747654N12001689WA0112601157
B2050204747658N12001692WA0112601157
B2050214747663N12001695WA0112601156
B2050224747668N12001699WA0112601157
B2050234747671N12001704WA0112601157
B2050244747673N12001710WA0112601158
B2050254747674N12001715WA0112701160
B2050264747674N12001720WA0112701161
B2050274747674N12001725WA0112801162
B2050284747674N12001731WA0112801161
B2050294747675N12001737WA0112901160
B2050304747676N12001741WA0112901159
B2050314747677N12001744WA0112901157
B2050324747678N12001747WA0112801153
B2050334747679N12001752WA0112801149
B2050344747680N12001758WA0112601143
B2050354747679N12001764WA0112501139
B2050364747677N12001768WA0112301136
B2050374747675N12001771WA0112201134
B2050384747672N12001772WA0111901131
B2050394747669N12001774WA0111801128
B2050404747665N12001776WA0111501124
B2050414747661N12001778WA0111301121
B2050424747657N12001780WA0111001118
B2050424747657N12001780WA0111001118
B2050434747654N12001781WA0110801118
B2050444747651N12001782WA0110601117
B2050454747648N12001783WA0110401116
B2050464747645N12001784WA0110201115
B2050474747641N12001785WA0110001113
B2050484747637N12001786WA0109801111
B2050494747634N12001786WA0109601109
B2050504747631N12001787WA0109401107
B2050514747627N12001788WA0109301105
B2050524747624N12001790WA0109001101
B2050534747620N12001793WA0108801098
B2050544747617N12001796WA0108601096
B2050554747614N12001798WA0108401094
B2050564747611N12001800WA0108201092
B2050574747608N12001801WA0108001091
B2050584747605N12001801WA0107801090
B2050594747602N12001802WA0107601087
B2051004747598N12001803WA0107401083
B2051014747594N12001804WA0107201080
B2051024747589N12001805WA0106901077
B2051034747584N12001805WA0106801076
B2051044747581N12001804WA0106501075
B2051054747577N12001803WA0106301074
B2051064747574N12001803WA0106101072
B2051074747570N12001803WA0105901070
B2051084747566N12001804WA0105701067
B2051094747561N12001806WA0105501064
B2051104747557N12001808WA0105301062
B2051114747553N12001810WA0105101060
B2051124747550N12001811WA0104901059
B2051134747547N12001813WA0104701058
B2051144747543N12001816WA0104501055
B2051154747539N12001819WA0104301053
B2051164747536N12001824WA0104101050
B2051174747535N12001830WA0104001051
B2051184747534N12001835WA0103801052
B2051194747532N12001839WA0103701054
B2051204747531N12001841WA0103701058
B2051214747531N12001843WA0103601058
B2051224747530N12001846WA0103601057
B2051234747530N12001854WA0103601052
B2051244747531N12001862WA0103501048
B2051254747531N12001870WA0103401046
B2051264747530N12001875WA0103301047
B2051274747529N12001879WA0103301047
B2051284747527N12001882WA0103201046
B2051294747526N12001888WA0103101044
B2051304747525N12001895WA0102901039
B2051314747524N12001901WA0102801035
B2051324747524N12001907WA0102601033
B2051334747525N12001913WA0102501031
B2051344747525N12001917WA0102201029
B2051354747527N12001922WA0102101027
B2051364747528N12001927WA0101901025
B2051374747530N12001932WA0101701023
B2051384747533N12001937WA0101501020
B2051394747536N12001939WA0101301019
B2051404747540N12001939WA0101101017
B2051414747545N12001938WA0100901014
B2051424747549N12001935WA0100701010
B2051434747554N12001932WA0100501006
B2051444747559N12001929WA0100201001
B2051454747563N12001925WA0100000997
B2051464747568N12001919WA0099600993
B2051464747568N12001919WA0099600993
B2051474747572N12001913WA0099400989
B2051484747577N12001906WA0099000986
B2051494747581N12001899WA0098700983
B2051504747584N12001892WA0098400981
B2051514747588N12001884WA0098100980
B2051524747590N12001875WA0097800979
B2051534747593N12001867WA0097600978
B2051544747596N12001858WA0097300977
B2051554747599N12001848WA0097100977
B2051564747601N12001836WA0096900977
B2051574747600N12001826WA0096800980
B2051584747599N12001817WA0096700986
B2051594747599N12001810WA0096600990
B2052004747598N12001804WA0096600993
B2052014747597N12001797WA0096600994
B2052024747595N12001791WA0096700995
B2052034747592N12001787WA0096700996
B2052044747588N12001783WA0096800996
B2052054747584N12001780WA0096800996
B2052064747580N12001778WA0096800996
B2052074747576N12001777WA0096900996
B2052084747571N12001778WA0096900996
B2052094747566N12001779WA0096900996
B2052104747562N12001782WA0097000998
B2052114747559N12001784WA0097001000
B2052124747558N12001786WA0097101004
B2052134747558N12001788WA0097201006
B2052144747559N12001790WA0097401006
B2052154747560N12001794WA0097401004
B2052164747561N12001800WA0097501001
B2052174747563N12001807WA0097500999
B2052184747565N12001811WA0097601000
B2052194747567N12001813WA0097601001
B2052204747570N12001814WA0097601000
B2052214747573N12001816WA0097600999
B2052224747576N12001819WA0097600996
B2052234747579N12001825WA0097600994
B2052244747581N12001831WA0097500993
B2052254747584N12001836WA0097500994
B2052264747586N12001839WA0097400995
B2052274747590N12001841WA0097400994
B2052284747593N12001843WA0097400993
B2052294747596N12001845WA0097300991
B2052304747599N12001850WA0097200988
B2052314747602N12001854WA0097100984
B2052324747605N12001858WA0097000981
B2052334747607N12001862WA0096900978
B2052344747608N12001867WA0096600974
B2052354747607N12001873WA0096500969
B2052364747605N12001879WA0096200964
B2052374747603N12001886WA0096000962
B2052384747600N12001891WA0095700961
B2052394747598N12001894WA0095600963
B2052404747597N12001897WA0095400964
B2052414747597N12001901WA0095300963
B2052424747596N12001906WA0095100961
B2052434747595N12001913WA0094900958
B2052444747594N12001920WA0094700957
B2052454747594N12001925WA0094600958
B2052464747594N12001929WA0094500959
B2052474747595N12001933WA0094400960
B2052484747594N12001937WA0094300959
B2052494747594N12001942WA0094300957
B2052504747593N12001948WA0094200956
B2052504747593N12001948WA0094200956
B2052514747592N12001953WA0094100955
B2052524747590N12001957WA0094000956
B2052534747587N12001959WA0093900955
B2052544747584N12001960WA0093900955
B2052554747580N12001961WA0093800955
B2052564747577N12001963WA0093700955
B2052574747574N12001964WA0093700954
B2052584747570N12001965WA0093600954
B2052594747566N12001966WA0093600953
B2053004747562N12001966WA0093500951
B2053014747558N12001965WA0093500949
B2053024747554N12001964WA0093400948
B2053034747550N12001963WA0093300947
B2053044747546N12001961WA0093200945
B2053054747541N12001960WA0093100944
B2053064747537N12001960WA0093000943
B2053074747533N12001959WA0092900943
B2053084747530N12001957WA0092800944
B2053094747527N12001956WA0092800944
B2053104747524N12001953WA0092700943
B2053114747521N12001950WA0092600941
B2053124747517N12001946WA0092500940
B2053134747514N12001941WA0092500938
B2053144747511N12001935WA0092400937
B2053154747509N12001928WA0092300936
B2053164747506N12001920WA0092200934
B2053174747504N12001913WA0092100932
B2053184747502N12001905WA0092000931
B2053194747500N12001898WA0091900930
B2053204747498N12001891WA0091700928
B2053214747496N12001884WA0091600926
B2053224747495N12001876WA0091500924
B2053234747494N12001867WA0091300920
B2053244747492N12001857WA0091100917
B2053254747491N12001848WA0091000915
B2053264747491N12001838WA0090800913
B2053274747491N12001830WA0090600912
B2053284747491N12001821WA0090400911
B2053294747492N12001813WA0090300910
B2053304747492N12001805WA0090100908
B2053314747492N12001797WA0089900906
B2053324747492N12001788WA0089700903
B2053334747491N12001779WA0089500900
B2053344747491N12001770WA0089300897
B2053354747490N12001761WA0089100895
B2053364747490N12001752WA0088900892
B2053374747488N12001742WA0088700890
B2053384747486N12001732WA0088500887
B2053394747485N12001722WA0088300884
B2053404747483N12001714WA0088000882
B2053414747482N12001706WA0087900880
B2053424747481N12001698WA0087600878
B2053434747479N12001689WA0087400873
B2053444747477N12001680WA0087100869
B2053454747475N12001670WA0086900865
B2053464747473N12001662WA0086600862
B2053474747471N12001653WA0086300859
B2053484747469N12001645WA0086000855
B2053494747467N12001636WA0085800851
B2053504747465N12001626WA0085400847
B2053514747463N12001615WA0085200843
B2053524747461N12001604WA0084800840
B2053534747460N12001594WA0084600838
B2053544747458N12001585WA0084200835
B2053544747458N12001585WA0084200835
B2053554747456N12001575WA0084000832
B2053564747455N12001565WA0083600829
B2053574747453N12001555WA0083400826
B2053584747451N12001545WA0083000823
B2053594747450N12001535WA0082800820
B2054004747450N12001524WA0082400817
B2054014747449N12001514WA0082200814
B2054024747448N12001504WA0081800811
B2054034747447N12001494WA0081600808
B2054044747445N12001484WA0081200805
B2054054747444N12001475WA0081000801
B2054064747443N12001465WA0080600798
B2054074747441N12001456WA0080400796
B2054084747440N12001446WA0080000793
B2054094747440N12001437WA0079800790
B2054104747440N12001427WA0079400787
B2054114747439N12001418WA0079200784
B2054124747439N12001408WA0078800781
B2054134747439N12001398WA0078600778
B2054144747439N12001389WA0078300777
B2054154747439N12001382WA0078100776
B2054164747439N12001374WA0077800774
B2054174747438N12001366WA0077600772
B2054184747439N12001357WA0077300770
B2054194747440N12001349WA0077100768
B2054204747441N12001341WA0076800767
B2054214747442N12001332WA0076700766
B2054224747443N12001324WA0076400764
B2054234747444N12001315WA0076300762
B2054244747444N12001305WA0076000760
B2054254747445N12001294WA0075900757
B2054264747444N12001284WA0075600757
B2054274747444N12001275WA0075500758
B2054284747444N12001265WA0075300760
B2054294747444N12001256WA0075200761
B2054304747444N12001247WA0075100763
B2054314747444N12001238WA0075100765
B2054324747444N12001231WA0075100768
B2054334747444N12001225WA0075100770
B2054344747443N12001219WA0075100770
B2054354747442N12001213WA0075100770
B2054364747440N12001206WA0075200770
B2054374747438N12001199WA0075200771
B2054384747436N12001194WA0075200773
B2054394747434N12001191WA0075300776
B2054404747432N12001187WA0075400777
B2054414747429N12001184WA0075400778
B2054424747425N12001181WA0075500778
B2054434747420N12001179WA0075600777
B2054444747416N12001179WA0075700777
B2054454747412N12001180WA0075700777
B2054464747409N12001183WA0075800778
B2054474747407N12001186WA0075800779
B2054484747405N12001190WA0075900780
B2054494747404N12001195WA0075900780
B2054504747404N12001201WA0076000780
B2054514747405N12001208WA0076000780
B2054524747407N12001214WA0076100781
B2054534747409N12001220WA0076200783
B2054544747412N12001225WA0076300785
B2054554747415N12001230WA0076300787
B2054564747420N12001234WA0076400789
B2054574747425N12001237WA0076500789
B2054584747430N12001239WA0076700791
B2054594747436N12001239WA0076700793
B2054594747436N12001239WA0076700793
B2055004747442N12001237WA0076900795
B2055014747447N12001233WA0077000797
B2055024747452N12001229WA0077200799
B2055034747456N12001223WA0077300801
B2055044747460N12001216WA0077400802
B2055054747464N12001208WA0077500803
B2055064747467N12001200WA0077700804
B2055074747470N12001191WA0077800805
B2055084747472N12001183WA0077900806
B2055094747473N12001174WA0078000807
B2055104747474N12001166WA0078100809
B2055114747473N12001158WA0078200810
B2055124747473N12001150WA0078300810
B2055134747471N12001143WA0078400810
B2055144747469N12001136WA0078500811
B2055154747466N12001131WA0078600811
B2055164747462N12001127WA0078700810
B2055174747459N12001124WA0078700810
B2055184747454N12001120WA0078800809
B2055194747450N12001119WA0078800808
B2055204747445N12001118WA0078900808
B2055214747442N12001119WA0078900810
B2055224747439N12001121WA0079000812
B2055234747437N12001121WA0079000812
B2055244747434N12001123WA0079100812
B2055254747431N12001125WA0079100810
B2055264747428N12001130WA0079100808
B2055274747426N12001135WA0079100807
B2055284747426N12001141WA0079100808
B2055294747426N12001147WA0079100808
B2055304747428N12001152WA0079100809
B2055314747430N12001158WA0079100809
B2055324747432N12001164WA0079100810
B2055334747435N12001170WA0079100809
B2055344747438N12001175WA0079200810
B2055354747442N12001180WA0079200811
B2055364747447N12001185WA0079200812
B2055374747451N12001190WA0079300815
B2055384747455N12001193WA0079300817
B2055394747460N12001195WA0079400818
B2055404747466N12001196WA0079500818
B2055414747473N12001194WA0079600817
B2055424747480N12001192WA0079600818
B2055434747485N12001189WA0079700819
B2055444747488N12001185WA0079800821
B2055454747492N12001181WA0079800822
B2055464747496N12001175WA0079900822
B2055474747501N12001168WA0080000821
B2055484747505N12001161WA0080000823
B2055494747508N12001153WA0080100826
B2055504747510N12001147WA0080200829
B2055514747513N12001140WA0080300832
B2055524747515N12001134WA0080400834
B2055534747516N12001127WA0080500835
B2055544747517N12001121WA0080700836
B2055554747517N12001114WA0080800837
B2055564747516N12001107WA0080900838
B2055574747515N12001101WA0081000839
B2055584747513N12001096WA0081100840
B2055594747511N12001091WA0081200842
B2056004747508N12001088WA0081400844
B2056014747505N12001087WA0081500844
B2056024747501N12001088WA0081600844
B2056034747497N12001091WA0081700843
B2056034747497N12001091WA0081700843
B2056044747493N12001097WA0081800842
B2056054747491N12001103WA0081900844
B2056064747490N12001108WA0082000846
B2056074747491N12001114WA0082100848
B2056084747492N12001121WA0082200848
B2056094747493N12001129WA0082300847
B2056104747496N12001136WA0082400847
B2056114747500N12001142WA0082400847
B2056124747505N12001145WA0082500848
B2056134747510N12001148WA0082600848
B2056144747516N12001150WA0082700849
B2056154747522N12001151WA0082700849
B2056164747528N12001151WA0082800849
B2056174747534N12001149WA0082800849
B2056184747541N12001147WA0082900850
B2056194747547N12001144WA0082900850
B2056204747552N12001139WA0083000850
B2056214747557N12001133WA0083000851
B2056224747562N12001126WA0083100851
B2056234747567N12001118WA0083100852
B2056244747570N12001111WA0083200854
B2056254747572N12001105WA0083200857
B2056264747573N12001098WA0083300858
B2056274747575N12001092WA0083400859
B2056284747576N12001085WA0083500860
B2056294747575N12001078WA0083600860
B2056304747573N12001072WA0083600861
B2056314747570N12001067WA0083700861
B2056324747567N12001064WA0083800864
B2056334747564N12001064WA0083900866
B2056344747561N12001065WA0084000867
B2056354747558N12001066WA0084100868
B2056364747556N12001069WA0084200868
B2056374747555N12001074WA0084300870
B2056384747554N12001079WA0084400871
B2056394747554N12001083WA0084500873
B2056404747554N12001088WA0084700876
B2056414747554N12001092WA0084800878
B2056424747555N12001096WA0084900879
B2056434747556N12001101WA0085000879
B2056444747558N12001107WA0085200878
B2056454747560N12001112WA0085200878
B2056464747564N12001117WA0085300878
B2056474747568N12001121WA0085400879
B2056484747572N12001123WA0085500879
B2056494747577N12001126WA0085500879
B2056504747583N12001127WA0085600879
B2056514747589N12001127WA0085600879
B2056524747596N12001125WA0085700876
B2056534747603N12001120WA0085700874
B2056544747610N12001114WA0085700872
B2056554747615N12001106WA0085600871
B2056564747620N12001097WA0085600870
B2056574747624N12001087WA0085500869
B2056584747629N12001078WA0085500869
B2056594747633N12001069WA0085400871
B2057004747636N12001062WA0085400874
B2057014747639N12001056WA0085400875
B2057024747642N12001048WA0085400876
B2057034747644N12001039WA0085400876
B2057044747645N12001030WA0085500877
B2057054747645N12001021WA0085500879
B2057064747644N12001013WA0085500880
B2057074747643N12001006WA0085600881
B2057074747643N12001006WA0085600881
B2057084747641N12001000WA0085600881
B2057094747637N12000994WA0085700880
B2057104747634N12000988WA0085700880
B2057114747630N12000985WA0085700878
B2057124747626N12000984WA0085800877
B2057134747622N12000985WA0085800876
B2057144747619N12000987WA0085700875
B2057154747616N12000990WA0085700873
B2057164747612N12000993WA0085700872
B2057174747609N12000997WA0085600871
B2057184747607N12001001WA0085600871
B2057194747604N12001001WA0085500871
B2057204747600N12001000WA0085500871
B2057214747596N12000996WA0085400869
B2057224747592N12000992WA0085400870
B2057234747588N12000990WA0085400871
B2057244747585N12000987WA0085300872
B2057254747583N12000983WA0085300874
B2057264747581N12000978WA0085400874
B2057274747579N12000972WA0085400874
B2057284747577N12000965WA0085400874
B2057294747575N12000958WA0085400874
B2057304747573N12000951WA0085400874
B2057314747571N12000945WA0085400875
B2057324747568N12000940WA0085400876
B2057334747564N12000935WA0085500877
B2057344747561N12000929WA0085500878
B2057354747559N12000922WA0085600879
B2057364747556N12000914WA0085600878
B2057374747553N12000906WA0085600878
B2057384747550N12000899WA0085700879
B2057394747549N12000892WA0085700880
B2057404747548N12000885WA0085700880
B2057414747547N12000877WA0085700879
B2057424747544N12000869WA0085700876
B2057434747541N12000861WA0085700873
B2057444747537N12000853WA0085700870
B2057454747534N12000845WA0085600869
B2057464747531N12000838WA0085500867
B2057474747528N12000830WA0085400865
B2057484747525N12000822WA0085300863
B2057494747521N12000813WA0085200860
B2057504747518N12000805WA0085000857
B2057514747513N12000797WA0084900855
B2057524747509N12000789WA0084700852
B2057534747506N12000782WA0084600850
B2057544747503N12000773WA0084400848
B2057554747499N12000766WA0084300846
B2057564747496N12000759WA0084000843
B2057574747493N12000753WA0083900841
B2057584747489N12000747WA0083600838
B2057594747486N12000740WA0083400834
B2058004747484N12000731WA0083200829
B2058014747482N12000723WA0082900826
B2058024747479N12000715WA0082600823
B2058034747478N12000708WA0082400820
B2058044747476N12000701WA0082100816
B2058054747475N12000693WA0081800811
B2058064747473N12000684WA0081500806
B2058074747472N12000674WA0081200802
B2058084747470N12000665WA0080800798
B2058094747468N12000657WA0080500795
B2058104747467N12000649WA0080200792
B2058114747464N12000641WA0079900788
B2058114747464N12000641WA0079900788
B2058124747462N12000633WA0079500784
B2058134747460N12000624WA0079200779
B2058144747458N12000614WA0078800774
B2058154747456N12000604WA0078500771
B2058164747454N12000595WA0078100768
B2058174747452N12000586WA0077800765
B2058184747451N12000578WA0077400761
B2058194747449N12000569WA0077100758
B2058204747447N12000560WA0076700754
B2058214747444N12000551WA0076400750
B2058224747442N12000542WA0076000747
B2058234747439N12000534WA0075700744
B2058244747437N12000526WA0075300741
B2058254747434N12000519WA0075100738
B2058264747431N12000512WA0074700734
B2058274747427N12000505WA0074400730
B2058284747424N12000499WA0074000727
B2058294747421N12000492WA0073800723
B2058304747418N12000485WA0073400720
B2058314747414N12000478WA0073100716
B2058324747411N12000470WA0072700712
B2058334747408N12000462WA0072400709
B2058344747405N12000453WA0072000705
B2058354747403N12000444WA0071700702
B2058364747402N12000434WA0071300698
B2058374747401N12000423WA0071100694
B2058384747400N12000412WA0070600691
B2058394747401N12000401WA0070400687
B2058404747402N12000390WA0070000684
B2058414747403N12000379WA0069700680
B2058424747406N12000368WA0069300677
B2058434747408N12000357WA0069000674
B2058444747409N12000346WA0068600670
B2058454747410N12000336WA0068300667
B2058464747412N12000325WA0067900664
B2058474747413N12000314WA0067700660
B2058484747415N12000303WA0067300656
B2058494747417N12000291WA0067000653
B2058504747419N12000280WA0066600649
B2058514747420N12000269WA0066300647
B2058524747422N12000258WA0065900644
B2058534747424N12000248WA0065700641
B2058544747426N12000237WA0065300637
B2058554747428N12000226WA0065000634
B2058564747430N12000215WA0064600631
B2058574747432N12000204WA0064400628
B2058584747434N12000193WA0064000625
B2058594747436N12000183WA0063700622
B2059004747438N12000172WA0063400619
B2059014747440N12000161WA0063100616
B2059024747442N12000150WA0062800612
B2059034747444N12000139WA0062500609
B2059044747446N12000128WA0062200606
B2059054747447N12000118WA0061900603
B2059064747449N12000107WA0061600601
B2059074747450N12000097WA0061300599
B2059084747451N12000087WA0061000597
B2059094747453N12000076WA0060800594
B2059104747455N12000066WA0060400592
B2059114747457N12000055WA0060200589
B2059124747458N12000045WA0059900587
B2059134747460N12000035WA0059700584
B2059144747462N12000024WA0059400581
B2059154747465N12000014WA0059200578
B2059154747465N12000014WA0059200578
B2059164747467N12000003WA0058800575
B2059174747469N11959993WA0058600572
B2059184747471N11959983WA0058300569
B2059194747474N11959974WA0058100567
B2059204747477N11959964WA0057700564
B2059214747479N11959954WA0057500562
B2059224747482N11959944WA0057200560
B2059234747486N11959934WA0057000558
B2059244747489N11959925WA0056700556
B2059254747492N11959916WA0056500556
B2059264747495N11959906WA0056300554
B2059274747498N11959896WA0056100553
B2059284747502N11959886WA0055900551
B2059294747505N11959875WA0055700550
B2059304747508N11959865WA0055500549
B2059314747511N11959855WA0055400548
B2059324747515N11959846WA0055200547
B2059334747519N11959837WA0055100546
B2059344747522N11959827WA0054900544
B2059354747525N11959817WA0054800541
B2059364747528N11959806WA0054600539
B2059374747530N11959796WA0054400537
B2059384747533N11959787WA0054200536
B2059394747536N11959777WA0054100535
B2059404747539N11959768WA0053900533
B2059414747542N11959757WA0053800531
B2059424747546N11959747WA0053600529
B2059434747549N11959736WA0053500527
B2059444747553N11959727WA0053300527
B2059454747556N11959717WA0053200526
B2059464747560N11959708WA0053000524
B2059474747564N11959698WA0052900522
B2059484747568N11959688WA0052700519
B2059494747572N11959678WA0052500518
B2059504747577N11959668WA0052300517
B2059514747581N11959658WA0052200517
B2059524747584N11959648WA0052100517
B2059534747588N11959638WA0052000516
B2059544747591N11959628WA0051800514
B2059554747595N11959618WA0051700512
B2059564747597N11959608WA0051500511
B2059574747599N11959598WA0051400510
B2059584747600N11959588WA0051300509
B2059594747600N11959579WA0051200508
B2100004747601N11959570WA0051000508
B2100014747601N11959561WA0050900507
B2100024747600N11959553WA0050800506
B2100034747599N11959544WA0050700504
B2100044747598N11959535WA0050600502
B2100054747596N11959528WA0050500501
B2100064747594N11959521WA0050300500
B2100074747592N11959515WA0050200499
B2100084747589N11959509WA0050100497
B2100094747587N11959503WA0050000496
B2100104747584N11959496WA0049800494
B2100114747582N11959488WA0049700492
B2100124747580N11959479WA0049600490
B2100134747579N11959470WA0049500488
B2100144747578N11959461WA0049300487
B2100154747578N11959452WA0049200486
B2100164747578N11959443WA0049000485
B2100174747579N11959433WA0048900483
B2100184747580N11959422WA0048800481
B2100194747581N11959412WA0048700481
B2100194747581N11959412WA0048700481
B2100204747582N11959403WA0048500480
B2100214747583N11959394WA0048400479
B2100224747585N11959384WA0048300479
B2100234747587N11959375WA0048200478
B2100244747590N11959365WA0048100477
B2100254747593N11959356WA0048000476
B2100264747596N11959347WA0047900475
B2100274747599N11959339WA0047800474
B2100284747603N11959330WA0047700473
B2100294747607N11959322WA0047600473
B2100304747612N11959314WA0047500472
B2100314747617N11959307WA0047500471
B2100324747623N11959302WA0047400470
B2100334747629N11959297WA0047300469
B2100344747635N11959292WA0047200469
B2100354747642N11959288WA0047100469
B2100364747648N11959284WA0047100468
B2100374747654N11959280WA0047000468
B2100384747660N11959277WA0046900468
B2100394747666N11959274WA0046900468
B2100404747673N11959272WA0046800467
B2100414747679N11959269WA0046800466
B2100424747686N11959266WA0046700466
B2100434747693N11959263WA0046700466
B2100444747699N11959261WA0046600466
B2100454747705N11959258WA0046600466
B2100464747711N11959256WA0046500466
B2100474747717N11959254WA0046500465
B2100484747725N11959253WA0046400463
B2100494747733N11959251WA0046400461
B2100504747740N11959250WA0046300460
B2100514747746N11959248WA0046300461
B2100524747752N11959246WA0046200462
B2100534747757N11959244WA0046100461
B2100544747763N11959243WA0046100459
B2100554747770N11959242WA0046000457
B2100564747776N11959241WA0045900455
B2100574747783N11959240WA0045800454
B2100584747789N11959238WA0045700453
B2100594747795N11959236WA0045600452
B2101004747801N11959233WA0045500450
B2101014747806N11959230WA0045400449
B2101024747812N11959226WA0045200447
B2101034747818N11959223WA0045100444
B2101044747825N11959219WA0045000443
B2101054747830N11959216WA0044900441
B2101064747836N11959212WA0044700440
B2101074747841N11959208WA0044600438
B2101084747847N11959203WA0044400435
B2101094747853N11959199WA0044300433
B2101104747860N11959195WA0044000431
B2101114747867N11959192WA0043900431
B2101124747874N11959189WA0043700431
B2101134747881N11959187WA0043600431
B2101144747887N11959186WA0043500431
B2101154747894N11959186WA0043400432
B2101164747901N11959185WA0043300431
B2101174747908N11959184WA0043200431
B2101184747915N11959182WA0043100430
B2101194747922N11959180WA0043100429
B2101204747929N11959178WA0043000429
B2101214747935N11959176WA0042900429
B2101224747942N11959174WA0042800429
B2101234747948N11959172WA0042800427
B2101234747948N11959172WA0042800427
B2101244747955N11959171WA0042700426
B2101254747961N11959170WA0042600425
B2101264747967N11959170WA0042600425
B2101274747973N11959171WA0042500424
B2101284747979N11959172WA0042400424
B2101294747986N11959173WA0042400423
B2101304747993N11959172WA0042300421
B2101314748000N11959170WA0042200420
B2101324748007N11959168WA0042100419
B2101334748013N11959165WA0042100417
B2101344748020N11959162WA0042000416
B2101354748026N11959158WA0041900413
B2101364748032N11959154WA0041700410
B2101374748038N11959148WA0041600407
B2101384748044N11959141WA0041400404
B2101394748050N11959134WA0041300401
B2101404748054N11959128WA0041100400
B2101414748059N11959121WA0040900398
B2101424748063N11959114WA0040700396
B2101434748066N11959106WA0040600394
B2101444748067N11959099WA0040400392
B2101454748068N11959092WA0040200391
B2101464748068N11959085WA0040000389
B2101474748068N11959079WA0039900388
B2101484748067N11959074WA0039700386
B2101494748065N11959070WA0039500385
B2101504748062N11959067WA0039300384
B2101514748059N11959066WA0039200382
B2101524748055N11959066WA0039000381
B2101534748053N11959069WA0038900379
B2101544748051N11959073WA0038700376
B2101554748049N11959076WA0038500373
B2101564748046N11959079WA0038300371
B2101574748044N11959080WA0038200369
B2101584748042N11959080WA0037900366
B2101594748039N11959080WA0037800363
B2102004748035N11959078WA0037500359
B2102014748031N11959076WA0037300356
B2102024748027N11959071WA0037100354
B2102034748025N11959066WA0036900354
B2102044748023N11959061WA0036700354
B2102054748022N11959055WA0036500353
B2102064748021N11959049WA0036300351
B2102074748019N11959043WA0036200348
B2102084748017N11959036WA0036000346
B2102094748015N11959030WA0035900345
B2102104748013N11959026WA0035700344
B2102114748011N11959022WA0035500342
B2102124748008N11959020WA0035300340
B2102134748004N11959018WA0035200338
B2102144748000N11959016WA0035000336
B2102154747996N11959016WA0034900337
B2102164747992N11959018WA0034700338
B2102174747990N11959019WA0034600338
B2102184747987N11959020WA0034500338
B2102194747984N11959021WA0034400337
B2102204747981N11959020WA0034300335
B2102214747978N11959018WA0034200333
B2102224747975N11959015WA0034100332
B2102234747973N11959010WA0034000331
B2102244747972N11959003WA0033800330
B2102254747972N11958996WA0033800329
B2102264747972N11958989WA0033600328
B2102274747974N11958982WA0033600328
B2102274747974N11958982WA0033600328
B2102284747976N11958974WA0033400326
B2102294747981N11958968WA0033300323
B2102304747986N11958962WA0033200322
B2102314747993N11958960WA0033100320
B2102324748000N11958960WA0032900319
B2102334748006N11958962WA0032800319
B2102344748011N11958965WA0032700319
B2102354748015N11958969WA0032600318
B2102364748019N11958976WA0032500315
B2102374748022N11958983WA0032400314
B2102384748023N11958991WA0032200312
B2102394748024N11958998WA0032100311
B2102404748024N11959003WA0032000311
B2102414748024N11959008WA0031900311
B2102424748023N11959012WA0031800310
B2102434748023N11959017WA0031700309
B2102444748023N11959023WA0031600306
B2102454748023N11959029WA0031500304
B2102464748023N11959035WA0031300302
B2102474748024N11959040WA0031200301
B2102484748024N11959044WA0031100299
B2102494748023N11959047WA0031000297
B2102504748021N11959051WA0030800294
B2102514748019N11959056WA0030700291
B2102524748018N11959061WA0030500289
B2102534748017N11959066WA0030400289
B2102544748016N11959070WA0030200288
B2102554748015N11959073WA0030100287
B2102564748012N11959076WA0029900285
B2102574748009N11959077WA0029800283
B2102584748006N11959077WA0029600281
B2102594748003N11959074WA0029500280
B2103004748001N11959071WA0029300278
B2103014748000N11959066WA0029200277
B2103024748000N11959060WA0029000276
B2103034748000N11959055WA0028800274
B2103044747999N11959049WA0028700271
B2103054747999N11959042WA0028500269
B2103064747997N11959037WA0028300267
B2103074747995N11959032WA0028200265
B2103084747993N11959029WA0028000263
B2103094747990N11959028WA0027900261
B2103104747987N11959028WA0027700260
B2103114747985N11959029WA0027600258
B2103124747983N11959031WA0027400257
B2103134747981N11959035WA0027200254
B2103144747980N11959040WA0027000251
B2103154747979N11959046WA0026900249
B2103164747980N11959052WA0026700247
B2103174747980N11959057WA0026600246
B2103184747980N11959062WA0026400245
B2103194747979N11959065WA0026200243
B2103204747976N11959069WA0026000240
B2103214747973N11959074WA0025900238
B2103224747970N11959077WA0025700238
B2103234747968N11959078WA0025600238
B2103244747965N11959077WA0025400237
B2103254747962N11959077WA0025300236
B2103264747959N11959078WA0025100232
B2103274747955N11959078WA0025000228
B2103284747951N11959079WA0024800227
B2103294747948N11959081WA0024700227
B2103304747946N11959084WA0024500226
B2103314747943N11959088WA0024400224
B2103314747943N11959088WA0024400224
B2103324747941N11959092WA0024300223
B2103334747938N11959096WA0024200222
B2103344747935N11959099WA0024000221
B2103354747934N11959102WA0024000220
B2103364747934N11959103WA0023800220
B2103374747934N11959103WA0023700220
B2103384747935N11959103WA0023600221
B2103394747935N11959103WA0023600222
B2103404747935N11959103WA0023500222
B2103414747935N11959103WA0023500222
B2103424747935N11959103WA0023400222
B2103434747935N11959103WA0023400222
B2103444747935N11959103WA0023300222
B2103454747935N11959103WA0023300222
B2103464747935N11959103WA0023200222
B2103474747935N11959104WA0023200222
B2103484747935N11959104WA0023200222
B2103494747935N11959104WA0023200222
B2103504747935N11959104WA0023200222
B2103514747935N11959104WA0023100222
B2103524747935N11959104WA0023100222
B2103534747935N11959104WA0023100222
B2103544747935N11959105WA0023100222
B2103554747935N11959105WA0023100222
B2103564747935N11959105WA0023100222
B2103574747935N11959105WA0023100222
B2103584747935N11959106WA0023100221
B2103594747936N11959106WA0023100223
B2104004747936N11959106WA0023100223
B2104014747936N11959106WA0023000223
B2104024747936N11959107WA0023000223
B2104034747936N11959107WA0023000223
B2104044747936N11959108WA0023000223
B2104054747936N11959108WA0023000223
B2104064747937N11959109WA0023000223
B2104074747936N11959110WA0023000223
B2104084747936N11959110WA0023000223
B2104094747936N11959111WA0023000223
B2104104747936N11959111WA0023000224
B2104114747936N11959111WA0023000223
B2104124747936N11959111WA0023000223
B2104134747936N11959112WA0023000223
B2104144747936N11959113WA0023000222
B2104154747936N11959114WA0023000222
B2104164747936N11959114WA0023000222
B2104174747936N11959113WA0023000222
B2104184747936N11959114WA0023000222
B2104194747936N11959113WA0023000221
B2104204747936N11959113WA0023000221
B2104214747935N11959113WA0023000221
B2104224747935N11959113WA0023000221
B2104234747935N11959114WA0023000221
B2104244747935N11959114WA0023000221
B2104254747935N11959114WA0023000220
B2104264747935N11959114WA0023000220
B2104274747935N11959114WA0023100220
B2104284747935N11959114WA0023000219
B2104294747935N11959114WA0023000219
B2104304747935N11959115WA0023000220
B2104314747935N11959115WA0023000219
B2104324747935N11959115WA0023000219
B2104334747935N11959115WA0023000219
B2104344747935N11959115WA0023000219
B2104354747935N11959115WA0023000219
