AXFMSFP Flymaster Live, V1.0
HFFXA010
HFPLTPILOT:Michael Prideaux
HFGTYGLIDERTYPE:Advance Lightness 3 / Advance Epsilon 9
HFGIDGLIDERID:
HFDTM100GPSDATUM:WGS-1984
HFCIDCOMPETITIONID:1001
HFCCLCOMPETITIONCLASS:
HOSITSITE:LAUNCH
HFGPS:UBLOXNEO6
HFPRSPRESSALTSENSOR:NA
HFRFWFIRMWAREVERSION:202g
HFRHWHARDWAREVERSION:1.0R2
HFFTYFRTYPE:FLYMASTER,LIVE
HFDTE170625
B2102284748292N12002307WA0109801115
B2102294748293N12002304WA0109801115
B2102304748294N12002302WA0109801116
B2102314748295N12002298WA0109801116
B2102324748297N12002295WA0109801116
B2102334748299N12002292WA0109801116
B2102344748300N12002289WA0109801116
B2102354748303N12002285WA0109701115
B2102364748305N12002282WA0109701114
B2102374748307N12002280WA0109701114
B2102384748310N12002276WA0109701114
B2102394748312N12002274WA0109701114
B2102404748314N12002271WA0109601114
B2102414748316N12002268WA0109601114
B2102424748318N12002265WA0109601114
B2102434748320N12002262WA0109601114
B2102444748322N12002260WA0109601114
B2102454748324N12002258WA0109601113
B2102464748325N12002257WA0109601113
B2102474748327N12002255WA0109601113
B2102484748328N12002254WA0109501114
B2102494748329N12002253WA0109501114
B2102504748330N12002252WA0109501114
B2102514748331N12002252WA0109501114
B2102524748332N12002252WA0109501115
B2102534748333N12002253WA0109501115
B2102544748333N12002254WA0109501115
B2102554748334N12002255WA0109501115
B2102564748335N12002257WA0109501115
B2102574748336N12002259WA0109501116
B2102584748336N12002261WA0109501115
B2102594748337N12002264WA0109401116
B2103004748338N12002266WA0109401116
B2103014748338N12002269WA0109401116
B2103024748338N12002271WA0109401116
B2103034748339N12002273WA0109401115
B2103044748340N12002275WA0109301115
B2103054748341N12002278WA0109301115
B2103064748341N12002281WA0109301115
B2103074748341N12002284WA0109201115
B2103084748341N12002289WA0109201114
B2103094748341N12002292WA0109101114
B2103104748341N12002297WA0109101113
B2103114748342N12002301WA0109001112
B2103124748343N12002305WA0109001111
B2103134748343N12002310WA0108901110
B2103144748343N12002314WA0108901110
B2103154748344N12002319WA0108801109
B2103164748343N12002324WA0108801109
B2103174748343N12002328WA0108701108
B2103184748343N12002332WA0108601108
B2103194748342N12002336WA0108501108
B2103204748341N12002339WA0108501107
B2103214748340N12002343WA0108401107
B2103224748340N12002347WA0108301106
B2103234748339N12002350WA0108201105
B2103244748338N12002354WA0108201106
B2103254748337N12002357WA0108101105
B2103264748336N12002359WA0108101105
B2103274748335N12002363WA0108001106
B2103284748334N12002366WA0107901105
B2103294748332N12002369WA0107901104
B2103304748330N12002372WA0107801104
B2103314748329N12002375WA0107701103
B2103314748329N12002375WA0107701103
B2103324748327N12002378WA0107701102
B2103334748326N12002381WA0107601101
B2103344748325N12002385WA0107501101
B2103354748323N12002389WA0107401101
B2103364748321N12002392WA0107401101
B2103374748320N12002397WA0107301101
B2103384748318N12002401WA0107301101
B2103394748317N12002406WA0107201100
B2103404748316N12002409WA0107101100
B2103414748314N12002414WA0107001100
B2103424748313N12002418WA0107001100
B2103434748312N12002423WA0106901100
B2103444748311N12002426WA0106901100
B2103454748310N12002430WA0106801100
B2103464748307N12002432WA0106701100
B2103474748307N12002435WA0106601100
B2103484748306N12002438WA0106601099
B2103494748305N12002441WA0106501099
B2103504748304N12002443WA0106401099
B2103514748303N12002448WA0106401098
B2103524748303N12002453WA0106301098
B2103534748304N12002457WA0106201097
B2103544748303N12002462WA0106201096
B2103554748303N12002466WA0106101096
B2103564748303N12002471WA0106001095
B2103574748302N12002475WA0105901094
B2103584748302N12002480WA0105901093
B2103594748301N12002483WA0105801093
B2104004748299N12002487WA0105701092
B2104014748298N12002491WA0105601091
B2104024748297N12002494WA0105601090
B2104034748296N12002498WA0105501089
B2104044748295N12002502WA0105401088
B2104054748295N12002506WA0105401087
B2104064748294N12002511WA0105301085
B2104074748293N12002515WA0105201085
B2104084748293N12002519WA0105201085
B2104094748293N12002523WA0105101083
B2104104748293N12002527WA0105001083
B2104114748294N12002529WA0104901083
B2104124748294N12002532WA0104901082
B2104134748294N12002535WA0104801081
B2104144748296N12002538WA0104701080
B2104154748297N12002541WA0104601078
B2104164748298N12002544WA0104601078
B2104174748299N12002546WA0104501077
B2104184748300N12002549WA0104401076
B2104194748301N12002552WA0104301075
B2104204748302N12002554WA0104301074
B2104214748302N12002556WA0104201073
B2104224748301N12002558WA0104101072
B2104234748301N12002561WA0104101071
B2104244748300N12002564WA0104001069
B2104254748299N12002567WA0103901068
B2104264748298N12002570WA0103901066
B2104274748296N12002573WA0103801065
B2104284748295N12002577WA0103801064
B2104294748294N12002581WA0103701062
B2104304748293N12002585WA0103601061
B2104314748293N12002588WA0103501060
B2104324748292N12002594WA0103501059
B2104334748291N12002598WA0103401058
B2104344748290N12002602WA0103301057
B2104354748290N12002605WA0103301057
B2104354748290N12002605WA0103301057
B2104364748291N12002609WA0103201055
B2104374748292N12002613WA0103101055
B2104384748292N12002618WA0103001054
B2104394748293N12002622WA0102901053
B2104404748294N12002626WA0102901052
B2104414748295N12002630WA0102801051
B2104424748295N12002634WA0102701051
B2104434748294N12002638WA0102601050
B2104444748294N12002641WA0102501049
B2104454748292N12002645WA0102501048
B2104464748291N12002650WA0102401047
B2104474748290N12002653WA0102301046
B2104484748288N12002658WA0102201045
B2104494748286N12002662WA0102101045
B2104504748285N12002666WA0102101044
B2104514748283N12002671WA0102001043
B2104524748282N12002676WA0101901043
B2104534748280N12002683WA0101801042
B2104544748279N12002688WA0101801043
B2104554748279N12002693WA0101701043
B2104564748279N12002699WA0101601043
B2104574748279N12002705WA0101501044
B2104584748278N12002709WA0101401044
B2104594748278N12002714WA0101301043
B2105004748278N12002719WA0101201043
B2105014748276N12002723WA0101101042
B2105024748274N12002728WA0101001042
B2105034748273N12002732WA0100901041
B2105044748271N12002737WA0100901040
B2105054748269N12002742WA0100801039
B2105064748267N12002746WA0100701037
B2105074748265N12002751WA0100601037
B2105084748262N12002757WA0100601036
B2105094748261N12002763WA0100501036
B2105104748259N12002768WA0100401035
B2105114748257N12002773WA0100301034
B2105124748256N12002777WA0100301034
B2105134748254N12002781WA0100201034
B2105144748252N12002784WA0100101033
B2105154748250N12002785WA0100101032
B2105164748249N12002787WA0100001031
B2105174748248N12002787WA0100001031
B2105184748247N12002789WA0099901029
B2105194748245N12002790WA0099901029
B2105204748244N12002791WA0099901028
B2105214748243N12002791WA0099801027
B2105224748242N12002792WA0099801026
B2105234748241N12002794WA0099701025
B2105244748241N12002795WA0099701024
B2105254748241N12002797WA0099601023
B2105264748241N12002799WA0099601022
B2105274748242N12002802WA0099501021
B2105284748242N12002804WA0099501020
B2105294748243N12002806WA0099401019
B2105304748244N12002807WA0099401018
B2105314748245N12002808WA0099401017
B2105324748246N12002808WA0099301017
B2105334748248N12002808WA0099301016
B2105344748249N12002809WA0099301016
B2105354748250N12002808WA0099201015
B2105364748251N12002808WA0099201015
B2105374748252N12002808WA0099201014
B2105384748254N12002807WA0099101013
B2105394748255N12002808WA0099101012
B2105404748256N12002808WA0099101012
B2105404748256N12002808WA0099101012
B2105414748258N12002807WA0099001011
B2105424748260N12002806WA0099001010
B2105434748262N12002804WA0099001009
B2105444748263N12002802WA0098901008
B2105454748265N12002801WA0098901008
B2105464748267N12002799WA0098901007
B2105474748268N12002797WA0098801006
B2105484748270N12002794WA0098801005
B2105494748271N12002792WA0098701004
B2105504748272N12002789WA0098701003
B2105514748274N12002787WA0098701002
B2105524748275N12002784WA0098601001
B2105534748276N12002780WA0098601000
B2105544748278N12002777WA0098500999
B2105554748279N12002774WA0098500998
B2105564748281N12002772WA0098400997
B2105574748283N12002769WA0098300997
B2105584748285N12002767WA0098300996
B2105594748288N12002765WA0098200996
B2106004748291N12002763WA0098200995
B2106014748294N12002762WA0098100995
B2106024748297N12002760WA0098000994
B2106034748300N12002758WA0098000994
B2106044748303N12002756WA0097900994
B2106054748305N12002754WA0097800994
B2106064748308N12002752WA0097800994
B2106074748310N12002751WA0097700993
B2106084748311N12002749WA0097700992
B2106094748314N12002746WA0097600991
B2106104748316N12002742WA0097500990
B2106114748318N12002739WA0097400990
B2106124748319N12002736WA0097400989
B2106134748321N12002732WA0097300988
B2106144748322N12002729WA0097300987
B2106154748324N12002726WA0097200986
B2106164748326N12002723WA0097100985
B2106174748328N12002720WA0097000984
B2106184748331N12002718WA0097000983
B2106194748334N12002716WA0096900982
B2106204748338N12002714WA0096800982
B2106214748340N12002713WA0096700982
B2106224748344N12002711WA0096700981
B2106234748348N12002711WA0096600981
B2106244748351N12002710WA0096500982
B2106254748355N12002709WA0096400982
B2106264748358N12002709WA0096400982
B2106274748361N12002707WA0096300981
B2106284748364N12002706WA0096200980
B2106294748367N12002703WA0096100979
B2106304748369N12002702WA0096100978
B2106314748371N12002700WA0096000977
B2106324748374N12002697WA0095900976
B2106334748375N12002695WA0095800975
B2106344748377N12002692WA0095800974
B2106354748380N12002689WA0095700974
B2106364748382N12002687WA0095600973
B2106374748383N12002684WA0095500973
B2106384748385N12002681WA0095400972
B2106394748388N12002678WA0095300972
B2106404748390N12002676WA0095300971
B2106414748391N12002674WA0095200971
B2106424748395N12002673WA0095100969
B2106434748396N12002671WA0095000967
B2106444748398N12002672WA0095000966
B2106444748398N12002672WA0095000966
B2106454748401N12002671WA0094900965
B2106464748403N12002671WA0094800964
B2106474748406N12002672WA0094700963
B2106484748409N12002674WA0094700963
B2106494748413N12002674WA0094600963
B2106504748416N12002675WA0094600962
B2106514748417N12002675WA0094500963
B2106524748420N12002675WA0094500963
B2106534748422N12002675WA0094400962
B2106544748424N12002674WA0094400961
B2106554748426N12002674WA0094300961
B2106564748428N12002675WA0094200960
B2106574748430N12002676WA0094200958
B2106584748431N12002677WA0094100957
B2106594748432N12002679WA0094100956
B2107004748433N12002680WA0094000954
B2107014748433N12002683WA0094000953
B2107024748433N12002687WA0093900952
B2107034748432N12002689WA0093900951
B2107044748431N12002691WA0093900950
B2107054748429N12002692WA0093800948
B2107064748426N12002693WA0093800947
B2107074748424N12002695WA0093700945
B2107084748422N12002695WA0093700943
B2107094748420N12002695WA0093700942
B2107104748418N12002693WA0093600940
B2107114748416N12002692WA0093600939
B2107124748414N12002691WA0093600937
B2107134748412N12002691WA0093500937
B2107144748411N12002690WA0093500936
B2107154748409N12002689WA0093500936
B2107164748408N12002689WA0093400935
B2107174748408N12002690WA0093400934
B2107184748408N12002690WA0093400933
B2107194748408N12002692WA0093300932
B2107204748407N12002696WA0093300932
B2107214748405N12002699WA0093200930
B2107224748404N12002702WA0093200930
B2107234748404N12002708WA0093100929
B2107244748402N12002712WA0093100928
B2107254748401N12002718WA0093000927
B2107264748400N12002724WA0092900926
B2107274748399N12002730WA0092900924
B2107284748398N12002735WA0092800923
B2107294748395N12002739WA0092700922
B2107304748393N12002742WA0092700921
B2107314748391N12002746WA0092600921
B2107324748387N12002749WA0092600921
B2107334748385N12002752WA0092500919
B2107344748383N12002755WA0092400919
B2107354748381N12002759WA0092400918
B2107364748379N12002762WA0092300918
B2107374748378N12002766WA0092200918
B2107384748378N12002770WA0092200918
B2107394748378N12002774WA0092100917
B2107404748378N12002779WA0092100916
B2107414748376N12002783WA0092000915
B2107424748375N12002787WA0091900915
B2107434748374N12002790WA0091800915
B2107444748372N12002794WA0091800914
B2107454748371N12002798WA0091700913
B2107464748370N12002801WA0091700912
B2107474748367N12002806WA0091600911
B2107474748367N12002806WA0091600911
B2107484748366N12002810WA0091600910
B2107494748366N12002814WA0091500909
B2107504748365N12002819WA0091400909
B2107514748365N12002822WA0091400907
B2107524748365N12002826WA0091300906
B2107534748366N12002829WA0091300905
B2107544748367N12002833WA0091200904
B2107554748368N12002837WA0091100902
B2107564748368N12002841WA0091100901
B2107574748370N12002845WA0091000900
B2107584748371N12002848WA0091000899
B2107594748373N12002851WA0090900898
B2108004748374N12002854WA0090900898
B2108014748375N12002858WA0090800898
B2108024748377N12002861WA0090800897
B2108034748377N12002865WA0090700897
B2108044748378N12002868WA0090600896
B2108054748379N12002872WA0090600895
B2108064748380N12002876WA0090500894
B2108074748381N12002880WA0090400893
B2108084748382N12002885WA0090400892
B2108094748383N12002889WA0090300892
B2108104748384N12002893WA0090300891
B2108114748385N12002897WA0090200890
B2108124748386N12002901WA0090100888
B2108134748387N12002905WA0090100887
B2108144748387N12002908WA0090000886
B2108154748389N12002911WA0089900885
B2108164748391N12002915WA0089900884
B2108174748392N12002919WA0089800883
B2108184748394N12002923WA0089800883
B2108194748395N12002927WA0089700882
B2108204748395N12002932WA0089600881
B2108214748395N12002937WA0089500879
B2108224748396N12002942WA0089500878
B2108234748396N12002946WA0089400877
B2108244748397N12002949WA0089300875
B2108254748398N12002952WA0089300874
B2108264748399N12002956WA0089200873
B2108274748400N12002960WA0089100872
B2108284748402N12002964WA0089000871
B2108294748402N12002968WA0088900869
B2108304748403N12002972WA0088900867
B2108314748405N12002976WA0088800866
B2108324748405N12002979WA0088700865
B2108334748406N12002983WA0088600864
B2108344748408N12002987WA0088600863
B2108354748408N12002991WA0088500862
B2108364748408N12002994WA0088400862
B2108374748409N12002999WA0088400862
B2108384748408N12003005WA0088300862
B2108394748408N12003010WA0088200862
B2108404748409N12003014WA0088200861
B2108414748409N12003019WA0088100861
B2108424748410N12003023WA0088000860
B2108434748413N12003026WA0087900859
B2108444748415N12003030WA0087800859
B2108454748417N12003033WA0087700859
B2108464748419N12003036WA0087700859
B2108474748422N12003038WA0087600858
B2108484748424N12003041WA0087500858
B2108494748427N12003044WA0087400858
B2108504748430N12003047WA0087300858
B2108514748433N12003051WA0087200857
B2108514748433N12003051WA0087200857
B2108524748437N12003053WA0087100855
B2108534748440N12003056WA0087000854
B2108544748443N12003058WA0086900853
B2108554748446N12003060WA0086800852
B2108564748450N12003061WA0086700850
B2108574748453N12003063WA0086600850
B2108584748456N12003064WA0086600850
B2108594748460N12003067WA0086400849
B2109004748464N12003069WA0086400849
B2109014748468N12003071WA0086300849
B2109024748473N12003074WA0086200848
B2109034748477N12003076WA0086100848
B2109044748481N12003079WA0086000847
B2109054748486N12003082WA0086000847
B2109064748489N12003085WA0085900846
B2109074748493N12003088WA0085800845
B2109084748496N12003092WA0085800844
B2109094748499N12003095WA0085700843
B2109104748502N12003099WA0085600842
B2109114748506N12003102WA0085500841
B2109124748508N12003105WA0085500841
B2109134748510N12003109WA0085400840
B2109144748512N12003113WA0085400838
B2109154748514N12003116WA0085300837
B2109164748517N12003120WA0085200835
B2109174748520N12003124WA0085100834
B2109184748522N12003127WA0085000833
B2109194748526N12003131WA0084900831
B2109204748528N12003135WA0084900830
B2109214748531N12003140WA0084800829
B2109224748533N12003144WA0084700829
B2109234748535N12003148WA0084600828
B2109244748538N12003153WA0084500828
B2109254748540N12003158WA0084400827
B2109264748543N12003162WA0084400826
B2109274748546N12003165WA0084300825
B2109284748549N12003168WA0084200824
B2109294748551N12003171WA0084100823
B2109304748554N12003174WA0084000823
B2109314748556N12003176WA0084000822
B2109324748559N12003177WA0083900822
B2109334748561N12003178WA0083900821
B2109344748565N12003178WA0083800820
B2109354748569N12003178WA0083800819
B2109364748573N12003178WA0083700819
B2109374748576N12003178WA0083700818
B2109384748580N12003178WA0083700818
B2109394748584N12003178WA0083600817
B2109404748587N12003179WA0083600816
B2109414748591N12003181WA0083600815
B2109424748595N12003183WA0083600815
B2109434748598N12003185WA0083500815
B2109444748601N12003187WA0083500814
B2109454748604N12003190WA0083500814
B2109464748607N12003193WA0083500814
B2109474748610N12003196WA0083400813
B2109484748613N12003198WA0083400812
B2109494748617N12003200WA0083400812
B2109504748620N12003202WA0083400812
B2109514748624N12003202WA0083300811
B2109524748628N12003203WA0083300811
B2109534748632N12003204WA0083300811
B2109544748635N12003204WA0083300811
B2109554748639N12003204WA0083200810
B2109554748639N12003204WA0083200810
B2109564748642N12003206WA0083200810
B2109574748646N12003206WA0083200811
B2109584748649N12003206WA0083200810
B2109594748653N12003206WA0083100810
B2110004748656N12003207WA0083100810
B2110014748659N12003208WA0083000810
B2110024748662N12003210WA0083000810
B2110034748666N12003211WA0082900810
B2110044748669N12003212WA0082900810
B2110054748672N12003215WA0082800810
B2110064748677N12003217WA0082800810
B2110074748682N12003218WA0082700810
B2110084748686N12003220WA0082700810
B2110094748690N12003221WA0082600810
B2110104748694N12003221WA0082600811
B2110114748698N12003223WA0082500811
B2110124748703N12003222WA0082500810
B2110134748707N12003222WA0082400810
B2110144748712N12003222WA0082300810
B2110154748716N12003222WA0082300809
B2110164748721N12003222WA0082200809
B2110174748725N12003222WA0082100808
B2110184748730N12003222WA0082100808
B2110194748735N12003223WA0082000807
B2110204748739N12003223WA0081900806
B2110214748744N12003223WA0081800806
B2110224748748N12003223WA0081700806
B2110234748751N12003223WA0081600807
B2110244748756N12003222WA0081600806
B2110254748760N12003222WA0081500806
B2110264748765N12003222WA0081400806
B2110274748770N12003222WA0081300805
B2110284748775N12003221WA0081200805
B2110294748779N12003221WA0081100805
B2110304748784N12003222WA0081000804
B2110314748787N12003223WA0080900804
B2110324748791N12003223WA0080800804
B2110334748794N12003223WA0080700804
B2110344748797N12003224WA0080700803
B2110354748800N12003223WA0080600802
B2110364748803N12003221WA0080500803
B2110374748804N12003219WA0080500802
B2110384748806N12003217WA0080400801
B2110394748808N12003214WA0080400800
B2110404748809N12003211WA0080300799
B2110414748810N12003207WA0080300799
B2110424748811N12003203WA0080200799
B2110434748811N12003199WA0080200798
B2110444748811N12003195WA0080100798
B2110454748811N12003192WA0080100796
B2110464748810N12003188WA0080100796
B2110474748809N12003185WA0080000795
B2110484748808N12003182WA0080000795
B2110494748806N12003179WA0079900795
B2110504748804N12003176WA0079900794
B2110514748802N12003174WA0079800794
B2110524748799N12003172WA0079800794
B2110534748797N12003171WA0079700793
B2110544748795N12003168WA0079700792
B2110554748791N12003166WA0079600792
B2110564748788N12003164WA0079600792
B2110574748786N12003161WA0079500792
B2110584748783N12003158WA0079500792
B2110594748781N12003154WA0079400792
B2110594748781N12003154WA0079400792
B2111004748778N12003150WA0079400792
B2111014748777N12003146WA0079300792
B2111024748775N12003140WA0079300792
B2111034748774N12003136WA0079200791
B2111044748773N12003130WA0079100791
B2111054748773N12003123WA0079100790
B2111064748774N12003118WA0079000790
B2111074748774N12003113WA0079000789
B2111084748773N12003109WA0078900789
B2111094748772N12003105WA0078800789
B2111104748771N12003101WA0078800788
B2111114748769N12003098WA0078800787
B2111124748767N12003095WA0078700787
B2111134748765N12003092WA0078600787
B2111144748761N12003091WA0078600787
B2111154748758N12003090WA0078500787
B2111164748755N12003089WA0078500787
B2111174748752N12003088WA0078400786
B2111184748749N12003087WA0078400786
B2111194748746N12003088WA0078300786
B2111204748742N12003088WA0078300785
B2111214748739N12003088WA0078200785
B2111224748735N12003088WA0078200785
B2111234748731N12003087WA0078100784
B2111244748728N12003087WA0078100784
B2111254748724N12003086WA0078000784
B2111264748719N12003086WA0078000783
B2111274748716N12003086WA0077900783
B2111284748711N12003086WA0077900783
B2111294748706N12003086WA0077800782
B2111304748702N12003087WA0077800781
B2111314748697N12003086WA0077700780
B2111324748692N12003084WA0077700780
B2111334748688N12003085WA0077600779
B2111344748685N12003085WA0077600779
B2111354748681N12003085WA0077500779
B2111364748677N12003085WA0077500778
B2111374748673N12003084WA0077400778
B2111384748669N12003084WA0077300777
B2111394748666N12003084WA0077300776
B2111404748663N12003083WA0077200775
B2111414748659N12003083WA0077100775
B2111424748656N12003083WA0077000773
B2111434748653N12003083WA0076900773
B2111444748650N12003082WA0076900772
B2111454748647N12003081WA0076700772
B2111464748644N12003079WA0076700771
B2111474748642N12003075WA0076500771
B2111484748641N12003071WA0076500771
B2111494748640N12003067WA0076300770
B2111504748638N12003061WA0076300770
B2111514748636N12003056WA0076100769
B2111524748635N12003052WA0076100768
B2111534748633N12003046WA0075900767
B2111544748631N12003041WA0075800765
B2111554748629N12003037WA0075700764
B2111564748628N12003033WA0075600764
B2111574748626N12003029WA0075400763
B2111584748624N12003024WA0075300763
B2111594748622N12003020WA0075200763
B2112004748621N12003015WA0075100764
B2112014748619N12003011WA0075000763
B2112024748618N12003008WA0074900763
B2112034748619N12003006WA0074800761
B2112034748619N12003006WA0074800761
B2112044748619N12003003WA0074700761
B2112054748621N12003002WA0074600761
B2112064748623N12003003WA0074500760
B2112074748626N12003004WA0074400760
B2112084748627N12003006WA0074300759
B2112094748629N12003006WA0074200756
B2112104748632N12003006WA0074200755
B2112114748636N12003007WA0074100754
B2112124748639N12003007WA0074000753
B2112134748642N12003007WA0073900752
B2112144748646N12003006WA0073900751
B2112154748649N12003004WA0073800751
B2112164748652N12003002WA0073700750
B2112174748656N12003000WA0073600749
B2112184748660N12002998WA0073600744
B2112194748664N12002995WA0073500743
B2112204748667N12002993WA0073400742
B2112214748670N12002989WA0073300739
B2112224748674N12002986WA0073200737
B2112234748677N12002982WA0073100736
B2112244748680N12002979WA0073000734
B2112254748684N12002975WA0072900733
B2112264748688N12002972WA0072800731
B2112274748693N12002968WA0072600729
B2112284748697N12002965WA0072500727
B2112294748701N12002962WA0072400726
B2112304748705N12002960WA0072300725
B2112314748709N12002957WA0072100724
B2112324748713N12002955WA0072000723
B2112334748717N12002953WA0071900722
B2112344748722N12002951WA0071700721
B2112354748726N12002949WA0071600720
B2112364748730N12002947WA0071500719
B2112374748735N12002945WA0071300718
B2112384748740N12002944WA0071200718
B2112394748744N12002942WA0071100717
B2112404748749N12002940WA0071000717
B2112414748753N12002939WA0070800716
B2112424748757N12002937WA0070700716
B2112434748761N12002936WA0070600715
B2112444748766N12002934WA0070500714
B2112454748769N12002933WA0070300713
B2112464748771N12002931WA0070200712
B2112474748774N12002930WA0070100711
B2112484748777N12002927WA0070000710
B2112494748780N12002926WA0069900709
B2112504748783N12002925WA0069800708
B2112514748786N12002925WA0069600706
B2112524748789N12002928WA0069600705
B2112534748791N12002930WA0069400704
B2112544748794N12002933WA0069400703
B2112554748797N12002934WA0069200703
B2112564748800N12002937WA0069200702
B2112574748804N12002937WA0069000700
B2112584748807N12002939WA0069000699
B2112594748810N12002940WA0068800698
B2113004748814N12002940WA0068800697
B2113014748817N12002940WA0068600695
B2113024748821N12002941WA0068500695
B2113034748824N12002941WA0068400692
B2113044748828N12002940WA0068300691
B2113054748832N12002939WA0068200690
B2113064748836N12002938WA0068100688
B2113074748839N12002937WA0068000687
B2113074748839N12002937WA0068000687
B2113084748843N12002937WA0067900686
B2113094748847N12002936WA0067700684
B2113104748851N12002935WA0067700683
B2113114748855N12002934WA0067500682
B2113124748859N12002933WA0067500681
B2113134748862N12002932WA0067300680
B2113144748865N12002931WA0067200678
B2113154748869N12002930WA0067100676
B2113164748873N12002928WA0067000674
B2113174748878N12002926WA0066900673
B2113184748883N12002925WA0066800670
B2113194748888N12002926WA0066700669
B2113204748894N12002926WA0066600667
B2113214748899N12002926WA0066500666
B2113224748904N12002926WA0066400665
B2113234748908N12002928WA0066300664
B2113244748911N12002929WA0066200663
B2113254748914N12002930WA0066100662
B2113264748916N12002933WA0066000660
B2113274748919N12002935WA0065900659
B2113284748921N12002939WA0065800658
B2113294748923N12002941WA0065700655
B2113304748926N12002943WA0065600654
B2113314748929N12002947WA0065500652
B2113324748932N12002950WA0065400650
B2113334748936N12002952WA0065300648
B2113344748940N12002955WA0065300646
B2113354748943N12002957WA0065200644
B2113364748946N12002959WA0065100643
B2113374748949N12002961WA0065000641
B2113384748952N12002962WA0064900640
B2113394748954N12002964WA0064800640
B2113404748957N12002966WA0064700638
B2113414748960N12002968WA0064600637
B2113424748964N12002970WA0064500635
B2113434748967N12002972WA0064400634
B2113444748971N12002973WA0064300632
B2113454748975N12002974WA0064200631
B2113464748979N12002975WA0064100630
B2113474748983N12002976WA0064000628
B2113484748987N12002978WA0063900627
B2113494748991N12002979WA0063800626
B2113504748995N12002981WA0063700625
B2113514749000N12002982WA0063600622
B2113524749003N12002986WA0063600621
B2113534749006N12002989WA0063400619
B2113544749009N12002990WA0063400619
B2113554749013N12002993WA0063300618
B2113564749017N12002994WA0063200617
B2113574749020N12002995WA0063100616
B2113584749023N12002994WA0063000614
B2113594749025N12002995WA0062900612
B2114004749027N12002996WA0062900611
B2114014749030N12002996WA0062800610
B2114024749033N12002996WA0062700608
B2114034749035N12002998WA0062600608
B2114044749039N12002999WA0062600608
B2114054749042N12003001WA0062500607
B2114064749045N12003003WA0062400606
B2114074749048N12003004WA0062300605
B2114084749052N12003003WA0062300605
B2114094749056N12003004WA0062200605
B2114104749060N12003004WA0062100606
B2114114749064N12003006WA0062000607
B2114114749064N12003006WA0062000607
B2114124749069N12003007WA0062000608
B2114134749074N12003008WA0061900609
B2114144749079N12003009WA0061800610
B2114154749084N12003011WA0061700611
B2114164749090N12003012WA0061600612
B2114174749095N12003014WA0061500612
B2114184749100N12003016WA0061400611
B2114194749104N12003018WA0061300611
B2114204749109N12003020WA0061200611
B2114214749114N12003023WA0061100611
B2114224749120N12003024WA0061000611
B2114234749125N12003025WA0060900611
B2114244749130N12003024WA0060800611
B2114254749134N12003024WA0060700611
B2114264749138N12003025WA0060600611
B2114274749141N12003025WA0060500612
B2114284749145N12003024WA0060400611
B2114294749149N12003024WA0060300610
B2114304749152N12003025WA0060200609
B2114314749156N12003027WA0060100608
B2114324749160N12003029WA0060000608
B2114334749164N12003030WA0059900607
B2114344749169N12003030WA0059900607
B2114354749172N12003030WA0059800606
B2114364749177N12003029WA0059700606
B2114374749180N12003029WA0059600605
B2114384749185N12003027WA0059500605
B2114394749189N12003027WA0059400604
B2114404749194N12003028WA0059400604
B2114414749197N12003030WA0059300603
B2114424749202N12003030WA0059200602
B2114434749206N12003030WA0059100601
B2114444749211N12003031WA0059100600
B2114454749214N12003032WA0059000600
B2114464749218N12003031WA0058900598
B2114474749223N12003030WA0058800598
B2114484749227N12003029WA0058800598
B2114494749232N12003030WA0058700597
B2114504749236N12003032WA0058700597
B2114514749240N12003034WA0058700596
B2114524749243N12003036WA0058700595
B2114534749247N12003038WA0058600594
B2114544749251N12003039WA0058600593
B2114554749254N12003040WA0058600592
B2114564749259N12003040WA0058600591
B2114574749262N12003041WA0058500591
B2114584749266N12003042WA0058500589
B2114594749270N12003042WA0058500588
B2115004749275N12003043WA0058500587
B2115014749280N12003044WA0058400585
B2115024749284N12003047WA0058400584
B2115034749289N12003048WA0058300582
B2115044749293N12003050WA0058300580
B2115054749298N12003052WA0058200579
B2115064749302N12003053WA0058200578
B2115074749306N12003055WA0058100577
B2115084749310N12003057WA0058100576
B2115094749315N12003059WA0058000575
B2115104749319N12003061WA0058000574
B2115114749323N12003063WA0057900573
B2115124749328N12003064WA0057800573
B2115134749332N12003065WA0057700572
B2115144749337N12003065WA0057700571
B2115144749337N12003065WA0057700571
B2115154749342N12003066WA0057600570
B2115164749347N12003066WA0057500568
B2115174749352N12003066WA0057500567
B2115184749357N12003066WA0057400567
B2115194749362N12003067WA0057300566
B2115204749367N12003066WA0057300565
B2115214749372N12003067WA0057200565
B2115224749377N12003066WA0057200564
B2115234749383N12003065WA0057100563
B2115244749388N12003064WA0057100563
B2115254749393N12003063WA0057000562
B2115264749399N12003061WA0057000562
B2115274749404N12003061WA0056900561
B2115284749408N12003061WA0056900560
B2115294749413N12003060WA0056800560
B2115304749418N12003059WA0056800559
B2115314749423N12003059WA0056700558
B2115324749427N12003060WA0056600557
B2115334749433N12003059WA0056600556
B2115344749438N12003058WA0056500555
B2115354749443N12003056WA0056400554
B2115364749447N12003055WA0056400554
B2115374749452N12003054WA0056300553
B2115384749457N12003053WA0056300552
B2115394749463N12003053WA0056200551
B2115404749467N12003051WA0056100551
B2115414749473N12003051WA0056000550
B2115424749478N12003051WA0056000549
B2115434749483N12003049WA0055900547
B2115444749488N12003048WA0055800546
B2115454749492N12003047WA0055700544
B2115464749497N12003045WA0055700543
B2115474749502N12003044WA0055600542
B2115484749506N12003044WA0055500541
B2115494749511N12003044WA0055500540
B2115504749515N12003046WA0055400539
B2115514749519N12003048WA0055300538
B2115524749523N12003050WA0055300537
B2115534749527N12003052WA0055200536
B2115544749531N12003053WA0055200535
B2115554749535N12003055WA0055100535
B2115564749539N12003055WA0055000534
B2115574749543N12003056WA0054900532
B2115584749547N12003058WA0054900532
B2115594749551N12003060WA0054800531
B2116004749555N12003062WA0054700530
B2116014749560N12003065WA0054600529
B2116024749564N12003067WA0054600528
B2116034749568N12003069WA0054500528
B2116044749573N12003069WA0054400527
B2116054749577N12003069WA0054400526
B2116064749582N12003069WA0054300525
B2116074749585N12003072WA0054300525
B2116084749590N12003075WA0054200524
B2116094749594N12003077WA0054200523
B2116104749597N12003081WA0054200523
B2116114749601N12003086WA0054100522
B2116124749605N12003091WA0054100521
B2116134749608N12003096WA0054000521
B2116144749612N12003102WA0054000520
B2116154749614N12003108WA0054000519
B2116164749616N12003114WA0054000518
B2116174749618N12003121WA0054000518
B2116174749618N12003121WA0054000518
B2116184749619N12003127WA0053900517
B2116194749619N12003133WA0053900517
B2116204749620N12003141WA0053900517
B2116214749621N12003148WA0054000516
B2116224749621N12003155WA0054000516
B2116234749622N12003163WA0054000515
B2116244749623N12003170WA0054000515
B2116254749624N12003177WA0054000514
B2116264749626N12003184WA0054000514
B2116274749627N12003190WA0054000514
B2116284749628N12003197WA0054000513
B2116294749629N12003205WA0054000512
B2116304749631N12003213WA0054000512
B2116314749632N12003221WA0054000511
B2116324749634N12003229WA0054000512
B2116334749635N12003237WA0054000511
B2116344749636N12003245WA0053900511
B2116354749635N12003252WA0053900510
B2116364749634N12003257WA0053900510
B2116374749633N12003261WA0053800510
B2116384749634N12003266WA0053800510
B2116394749635N12003272WA0053800509
B2116404749637N12003276WA0053800509
B2116414749639N12003279WA0053800508
B2116424749642N12003282WA0053800507
B2116434749646N12003285WA0053800507
B2116444749650N12003288WA0053800508
B2116454749654N12003290WA0053700508
B2116464749658N12003292WA0053700508
B2116474749663N12003293WA0053700509
B2116484749667N12003293WA0053700511
B2116494749671N12003292WA0053600512
B2116504749676N12003291WA0053600513
B2116514749680N12003290WA0053600514
B2116524749684N12003290WA0053600515
B2116534749689N12003291WA0053500515
B2116544749693N12003293WA0053500516
B2116554749698N12003296WA0053400517
B2116564749702N12003300WA0053400518
B2116574749705N12003304WA0053300518
B2116584749709N12003310WA0053300519
B2116594749712N12003317WA0053200520
B2117004749715N12003324WA0053200521
B2117014749719N12003330WA0053100522
B2117024749724N12003336WA0053100522
B2117034749728N12003341WA0053000523
B2117044749733N12003346WA0052900523
B2117054749738N12003351WA0052800523
B2117064749744N12003355WA0052800523
B2117074749749N12003360WA0052700522
B2117084749755N12003363WA0052600521
B2117094749760N12003367WA0052500520
B2117104749766N12003370WA0052400519
B2117114749772N12003372WA0052200518
B2117124749777N12003374WA0052200517
B2117134749783N12003377WA0052000517
B2117144749789N12003379WA0051900516
B2117154749794N12003381WA0051800516
B2117164749798N12003385WA0051700515
B2117174749803N12003389WA0051500514
B2117184749807N12003393WA0051500514
B2117194749811N12003399WA0051300513
B2117204749814N12003404WA0051200512
B2117214749818N12003410WA0051100512
B2117214749818N12003410WA0051100512
B2117224749821N12003416WA0051000511
B2117234749824N12003422WA0050900511
B2117244749827N12003429WA0050800510
B2117254749828N12003437WA0050600509
B2117264749830N12003444WA0050500509
B2117274749832N12003451WA0050400508
B2117284749834N12003458WA0050300508
B2117294749836N12003465WA0050200507
B2117304749838N12003472WA0050100506
B2117314749841N12003478WA0050000505
B2117324749844N12003485WA0049900504
B2117334749847N12003492WA0049800504
B2117344749849N12003498WA0049700503
B2117354749852N12003504WA0049600502
B2117364749854N12003509WA0049500501
B2117374749856N12003514WA0049300501
B2117384749857N12003517WA0049200501
B2117394749859N12003520WA0049100500
B2117404749861N12003523WA0049000498
B2117414749864N12003522WA0048900497
B2117424749866N12003520WA0048900496
B2117434749869N12003515WA0048800494
B2117444749871N12003510WA0048700492
B2117454749873N12003505WA0048600491
B2117464749875N12003499WA0048500489
B2117474749876N12003491WA0048400487
B2117484749877N12003484WA0048300485
B2117494749879N12003475WA0048200483
B2117504749881N12003467WA0048100481
B2117514749883N12003458WA0048000480
B2117524749884N12003449WA0048000479
B2117534749886N12003440WA0047800478
B2117544749888N12003431WA0047800477
B2117554749891N12003421WA0047600476
B2117564749894N12003412WA0047500476
B2117574749897N12003404WA0047400475
B2117584749901N12003394WA0047300474
B2117594749903N12003385WA0047100474
B2118004749906N12003375WA0047000472
B2118014749908N12003364WA0046900472
B2118024749909N12003353WA0046800472
B2118034749910N12003344WA0046600471
B2118044749910N12003333WA0046500471
B2118054749909N12003323WA0046300471
B2118064749908N12003314WA0046200471
B2118074749907N12003305WA0046100471
B2118084749905N12003296WA0046000471
B2118094749902N12003289WA0045800471
B2118104749896N12003283WA0045700470
B2118114749892N12003277WA0045600470
B2118124749888N12003270WA0045500469
B2118134749884N12003263WA0045300469
B2118144749880N12003256WA0045200468
B2118154749877N12003248WA0045100467
B2118164749874N12003239WA0045000465
B2118174749871N12003232WA0044800464
B2118184749869N12003223WA0044700463
B2118194749866N12003215WA0044500461
B2118204749862N12003207WA0044400460
B2118214749859N12003199WA0044300459
B2118224749857N12003193WA0044200457
B2118234749854N12003187WA0044000456
B2118244749850N12003181WA0043900454
B2118254749846N12003178WA0043700452
B2118254749846N12003178WA0043700452
B2118264749842N12003174WA0043600451
B2118274749837N12003172WA0043500449
B2118284749832N12003170WA0043400447
B2118294749828N12003170WA0043200446
B2118304749825N12003167WA0043100445
B2118314749822N12003165WA0043000444
B2118324749819N12003163WA0042900442
B2118334749817N12003160WA0042800441
B2118364749813N12003155WA0042500441
B2118374749813N12003152WA0042400440
B2118384749813N12003150WA0042400438
B2118394749817N12003148WA0042300437
B2118404749820N12003147WA0042200435
B2118414749825N12003144WA0042100434
B2118424749834N12003142WA0042100433
B2118434749843N12003139WA0041900430
B2118444749849N12003138WA0041900428
B2118454749854N12003138WA0041700426
B2118464749861N12003137WA0041700424
B2118474749869N12003135WA0041500422
B2118484749876N12003133WA0041500420
B2118494749884N12003130WA0041300418
B2118504749889N12003135WA0041200416
B2118514749895N12003139WA0041100414
B2118524749902N12003142WA0041000412
B2118534749909N12003144WA0040800410
B2118544749917N12003150WA0040700408
B2118554749925N12003152WA0040600406
B2118564749931N12003155WA0040500404
B2118574749938N12003163WA0040300402
B2118584749946N12003165WA0040200400
B2118594749954N12003168WA0040000399
B2119004749964N12003173WA0039900397
B2119014749976N12003181WA0039800398
B2119024749986N12003187WA0039700397
B2119034749995N12003193WA0039500396
B2119044750003N12003197WA0039400395
B2119054750010N12003200WA0039200393
B2119064750017N12003206WA0039100391
B2119074750024N12003210WA0038900389
B2119084750031N12003215WA0038800387
B2119094750037N12003221WA0038700385
B2119104750043N12003224WA0038600383
B2119114750048N12003230WA0038400381
B2119124750055N12003234WA0038300379
B2119134750062N12003236WA0038100376
B2119144750069N12003238WA0038000374
B2119154750075N12003240WA0037800372
B2119164750082N12003242WA0037700370
B2119174750089N12003243WA0037600368
B2119184750095N12003243WA0037500367
B2119194750102N12003243WA0037400365
B2119204750109N12003244WA0037300364
B2119214750116N12003244WA0037100363
B2119224750122N12003243WA0037100363
B2119234750129N12003242WA0036900361
B2119244750134N12003242WA0036900360
B2119254750140N12003242WA0036700359
B2119264750145N12003240WA0036600357
B2119274750150N12003240WA0036500357
B2119284750154N12003241WA0036400355
B2119294750156N12003241WA0036300353
B2119304750157N12003241WA0036200353
B2119314750160N12003239WA0036100352
B2119314750160N12003239WA0036100352
B2119324750161N12003240WA0036000351
B2119334750161N12003239WA0035900351
B2119344750162N12003238WA0035900350
B2119354750163N12003236WA0035800349
B2119364750164N12003234WA0035700349
B2119374750163N12003230WA0035700348
B2119384750163N12003224WA0035600347
B2119394750163N12003218WA0035600347
B2119404750162N12003209WA0035600345
B2119414750162N12003200WA0035600344
B2119424750161N12003191WA0035600344
B2119434750160N12003181WA0035600343
B2119444750159N12003171WA0035600342
B2119454750157N12003159WA0035600342
B2119464750155N12003146WA0035600340
B2119474750154N12003132WA0035700340
B2119484750153N12003120WA0035700339
B2119494750151N12003107WA0035700338
B2119504750150N12003094WA0035700337
B2119514750148N12003081WA0035700336
B2119524750147N12003068WA0035700336
B2119534750145N12003055WA0035700335
B2119544750144N12003042WA0035700334
B2119554750143N12003029WA0035700334
B2119564750141N12003016WA0035700333
B2119574750139N12003003WA0035700332
B2119584750138N12002991WA0035700331
B2119594750137N12002978WA0035600331
B2120004750135N12002966WA0035600330
B2120014750133N12002953WA0035600329
B2120024750132N12002940WA0035500328
B2120034750130N12002928WA0035500327
B2120044750128N12002916WA0035400326
B2120054750126N12002904WA0035400325
B2120064750124N12002891WA0035400324
B2120074750122N12002878WA0035300322
B2120084750121N12002864WA0035300321
B2120094750119N12002851WA0035200319
B2120104750118N12002837WA0035100318
B2120114750116N12002823WA0035100317
B2120124750115N12002810WA0035000316
B2120134750113N12002796WA0035000316
B2120144750110N12002783WA0035000315
B2120154750108N12002770WA0034900315
B2120164750105N12002756WA0034900314
B2120174750102N12002742WA0034900314
B2120184750099N12002729WA0034800314
B2120194750096N12002715WA0034800314
B2120204750094N12002701WA0034800314
B2120214750091N12002688WA0034800314
B2120224750088N12002675WA0034700314
B2120234750085N12002661WA0034700314
B2120244750082N12002647WA0034700314
B2120254750080N12002633WA0034700314
B2120264750078N12002619WA0034700314
B2120274750076N12002605WA0034700313
B2120284750073N12002591WA0034700313
B2120294750071N12002577WA0034700312
B2120304750069N12002562WA0034800312
B2120314750068N12002547WA0034800312
B2120324750066N12002532WA0034700311
B2120334750064N12002518WA0034700310
B2120344750062N12002504WA0034700310
B2120354750060N12002489WA0034700310
B2120364750058N12002474WA0034700309
B2120364750058N12002474WA0034700309
B2120374750057N12002460WA0034700309
B2120384750055N12002446WA0034700309
B2120394750053N12002432WA0034700308
B2120404750052N12002419WA0034700307
B2120414750051N12002405WA0034700307
B2120424750051N12002392WA0034700307
B2120434750051N12002379WA0034700307
B2120444750053N12002367WA0034700306
B2120454750054N12002355WA0034700306
B2120464750057N12002343WA0034700307
B2120474750060N12002332WA0034700307
B2120484750065N12002322WA0034700308
B2120494750070N12002313WA0034700309
B2120504750076N12002305WA0034700310
B2120514750082N12002297WA0034700310
B2120524750088N12002291WA0034700310
B2120534750096N12002285WA0034700311
B2120544750104N12002280WA0034700311
B2120554750112N12002275WA0034700312
B2120564750119N12002269WA0034600313
B2120574750125N12002262WA0034600314
B2120584750131N12002255WA0034600315
B2120594750136N12002247WA0034600315
B2121004750140N12002236WA0034600315
B2121014750144N12002226WA0034600315
B2121024750148N12002216WA0034600315
B2121034750150N12002205WA0034600316
B2121044750151N12002194WA0034600316
B2121054750151N12002182WA0034600316
B2121064750151N12002171WA0034600316
B2121074750151N12002159WA0034600316
B2121084750151N12002148WA0034600316
B2121094750150N12002136WA0034600316
B2121104750150N12002124WA0034600316
B2121114750148N12002112WA0034600316
B2121124750147N12002100WA0034600316
B2121134750146N12002088WA0034600316
B2121144750145N12002076WA0034600317
B2121154750145N12002064WA0034600317
B2121164750144N12002052WA0034600317
B2121174750145N12002040WA0034600317
B2121184750147N12002028WA0034600318
B2121194750148N12002016WA0034600319
B2121204750150N12002004WA0034600319
B2121214750153N12001991WA0034600319
B2121224750156N12001979WA0034600320
B2121234750160N12001967WA0034600321
B2121244750164N12001956WA0034700321
B2121254750167N12001944WA0034700321
B2121264750172N12001933WA0034700321
B2121274750175N12001921WA0034700321
B2121284750177N12001909WA0034800322
B2121294750180N12001896WA0034800322
B2121304750181N12001882WA0034800322
B2121314750181N12001869WA0034800322
B2121324750182N12001855WA0034900322
B2121334750181N12001842WA0034900322
B2121344750180N12001828WA0034900322
B2121354750180N12001815WA0035000322
B2121364750179N12001801WA0035000322
B2121374750178N12001787WA0035000322
B2121384750178N12001774WA0035000322
B2121394750177N12001761WA0035100322
B2121394750177N12001761WA0035100322
B2121404750177N12001747WA0035100323
B2121414750176N12001734WA0035100323
B2121424750175N12001721WA0035100323
B2121434750175N12001707WA0035100323
B2121444750174N12001694WA0035100323
B2121454750173N12001681WA0035100323
B2121464750172N12001667WA0035100324
B2121474750172N12001654WA0035100324
B2121484750171N12001640WA0035100324
B2121494750170N12001627WA0035100324
B2121504750169N12001613WA0035100324
B2121514750169N12001600WA0035100323
B2121524750168N12001587WA0035100323
B2121534750168N12001574WA0035100322
B2121544750167N12001560WA0035100322
B2121554750167N12001547WA0035000321
B2121564750166N12001533WA0035000321
B2121574750166N12001520WA0035000321
B2121584750166N12001506WA0035000320
B2121594750165N12001493WA0035000320
B2122004750165N12001479WA0035000319
B2122014750165N12001466WA0035000319
B2122024750165N12001452WA0035100319
B2122034750165N12001439WA0035100319
B2122044750164N12001426WA0035100318
B2122054750164N12001413WA0035100318
B2122064750163N12001399WA0035200317
B2122074750163N12001386WA0035200317
B2122084750161N12001373WA0035300317
B2122094750160N12001360WA0035300316
B2122104750159N12001347WA0035400316
B2122114750158N12001334WA0035400316
B2122124750158N12001322WA0035400317
B2122134750157N12001309WA0035400317
B2122144750156N12001296WA0035500317
B2122154750155N12001283WA0035500317
B2122164750154N12001270WA0035500318
B2122174750154N12001257WA0035500318
B2122184750153N12001244WA0035600319
B2122194750153N12001232WA0035600320
B2122204750152N12001219WA0035600321
B2122214750151N12001206WA0035600321
B2122224750151N12001193WA0035600322
B2122234750150N12001180WA0035600323
B2122244750149N12001167WA0035600324
B2122254750149N12001155WA0035600324
B2122264750148N12001143WA0035600325
B2122274750148N12001131WA0035600325
B2122284750147N12001119WA0035600326
B2122294750147N12001108WA0035600326
B2122304750146N12001096WA0035600326
B2122314750146N12001084WA0035600326
B2122324750146N12001073WA0035500327
B2122334750146N12001062WA0035500326
B2122344750147N12001051WA0035500326
B2122354750149N12001040WA0035500326
B2122364750152N12001029WA0035500326
B2122374750155N12001018WA0035500326
B2122384750159N12001006WA0035400327
B2122394750163N12000995WA0035400328
B2122404750167N12000984WA0035400329
B2122414750170N12000973WA0035400329
B2122424750174N12000961WA0035400330
B2122434750178N12000951WA0035300331
B2122434750178N12000951WA0035300331
B2122444750181N12000940WA0035300332
B2122454750185N12000930WA0035300333
B2122464750188N12000921WA0035300333
B2122474750192N12000911WA0035200334
B2122484750197N12000903WA0035200334
B2122494750202N12000896WA0035200335
B2122504750209N12000891WA0035100335
B2122514750216N12000888WA0035100336
B2122524750224N12000887WA0035100337
B2122534750232N12000887WA0035100338
B2122544750240N12000886WA0035100338
B2122554750248N12000886WA0035100340
B2122564750257N12000885WA0035100340
B2122574750265N12000884WA0035100341
B2122584750274N12000884WA0035100342
B2122594750282N12000884WA0035100343
B2123004750290N12000883WA0035100343
B2123014750298N12000882WA0035100343
B2123024750306N12000882WA0035100344
B2123034750313N12000881WA0035100344
B2123044750321N12000881WA0035100345
B2123054750329N12000881WA0035100345
B2123064750336N12000880WA0035100345
B2123074750343N12000880WA0035100346
B2123084750348N12000879WA0035100345
B2123094750354N12000879WA0035000344
B2123104750358N12000879WA0035000344
B2123114750362N12000880WA0035000344
B2123124750366N12000879WA0035000345
B2123134750369N12000880WA0034900346
B2123144750370N12000880WA0034900347
B2123154750372N12000880WA0034900346
B2123164750373N12000881WA0034900344
B2123174750374N12000880WA0034900344
B2123184750374N12000881WA0034900344
B2123194750375N12000880WA0034900345
B2123204750375N12000880WA0034800345
B2123214750375N12000880WA0034800345
B2123224750375N12000880WA0034800344
B2123234750375N12000880WA0034800345
B2123244750375N12000881WA0034800345
B2123254750375N12000881WA0034800344
B2123264750375N12000881WA0034800345
B2123274750376N12000882WA0034800344
B2123284750376N12000881WA0034800343
B2123294750375N12000882WA0034800344
B2123304750375N12000883WA0034800344
B2123314750376N12000883WA0034800342
B2123324750377N12000883WA0034800340
B2123334750379N12000882WA0034800338
B2123344750381N12000882WA0034800339
B2123354750383N12000882WA0034800339
B2123364750386N12000882WA0034700339
B2123374750388N12000881WA0034800340
B2123384750392N12000878WA0034800339
B2123394750396N12000874WA0034800342
B2123404750398N12000869WA0034800342
B2123414750399N12000864WA0034900341
B2123424750399N12000857WA0034900340
B2123434750398N12000847WA0034900337
B2123444750397N12000837WA0034900337
B2123454750397N12000827WA0034900336
B2123464750397N12000816WA0034900335
B2123464750397N12000816WA0034900335
B2123474750397N12000806WA0035000334
B2123484750397N12000794WA0035000334
B2123494750396N12000783WA0035000334
B2123504750396N12000771WA0035000333
B2123514750395N12000759WA0035000332
B2123524750395N12000746WA0035100333
B2123534750394N12000734WA0035100335
B2123544750393N12000722WA0035100337
B2123554750393N12000709WA0035200338
B2123564750393N12000696WA0035200339
B2123574750392N12000684WA0035200340
B2123584750391N12000672WA0035300340
B2123594750392N12000660WA0035300340
B2124004750392N12000647WA0035400342
B2124014750391N12000634WA0035400343
B2124024750391N12000622WA0035400345
B2124034750391N12000609WA0035400346
B2124044750390N12000596WA0035500347
B2124054750390N12000584WA0035500347
B2124064750389N12000571WA0035600349
B2124074750389N12000559WA0035600349
B2124084750388N12000547WA0035700350
B2124094750388N12000535WA0035700351
B2124104750388N12000522WA0035800352
B2124114750387N12000511WA0035800353
B2124124750387N12000499WA0035900354
B2124134750386N12000487WA0035900356
B2124144750386N12000475WA0036000357
B2124154750385N12000463WA0036000359
B2124164750384N12000451WA0036000360
B2124174750384N12000439WA0036100361
B2124184750383N12000427WA0036100360
B2124194750383N12000416WA0036200361
B2124204750383N12000404WA0036200362
B2124214750383N12000392WA0036300364
B2124224750383N12000380WA0036400365
B2124234750383N12000368WA0036400366
B2124244750383N12000357WA0036500366
B2124254750382N12000345WA0036500367
B2124264750382N12000333WA0036500367
B2124274750381N12000321WA0036600367
B2124284750381N12000309WA0036700367
B2124294750381N12000297WA0036700367
B2124304750381N12000285WA0036800368
B2124314750380N12000273WA0036800368
B2124324750380N12000261WA0036900368
B2124334750380N12000250WA0036900369
B2124344750380N12000238WA0037000369
B2124354750380N12000227WA0037000369
B2124364750380N12000215WA0037000369
B2124374750379N12000204WA0037000369
B2124384750379N12000192WA0037100370
B2124394750379N12000181WA0037100370
B2124404750378N12000169WA0037100370
B2124414750378N12000157WA0037100370
B2124424750378N12000146WA0037100370
B2124434750378N12000134WA0037100369
B2124444750377N12000122WA0037100369
B2124454750377N12000110WA0037100369
B2124464750377N12000098WA0037100369
B2124474750377N12000086WA0037100370
B2124484750376N12000074WA0037100370
B2124494750375N12000062WA0037100370
B2124504750375N12000050WA0037200371
B2124504750375N12000050WA0037200371
B2124514750374N12000037WA0037200372
B2124524750374N12000025WA0037200372
B2124534750373N12000012WA0037200372
B2124544750372N11959999WA0037200373
B2124554750371N11959986WA0037200372
B2124564750371N11959974WA0037200373
B2124574750370N11959961WA0037200373
B2124584750369N11959949WA0037300372
B2124594750368N11959937WA0037300372
B2125004750367N11959925WA0037300372
B2125014750366N11959913WA0037300373
B2125024750365N11959900WA0037300373
B2125034750364N11959888WA0037400373
B2125044750362N11959874WA0037400373
B2125054750361N11959861WA0037400373
B2125064750360N11959847WA0037500373
B2125074750358N11959834WA0037500374
B2125084750357N11959820WA0037600375
B2125094750355N11959806WA0037600375
B2125104750354N11959792WA0037700376
B2125114750352N11959779WA0037700376
B2125124750351N11959764WA0037800376
B2125134750351N11959750WA0037900377
B2125144750350N11959735WA0037900377
B2125154750349N11959721WA0038000378
B2125164750348N11959707WA0038100379
B2125174750347N11959692WA0038100380
B2125184750346N11959677WA0038200380
B2125194750345N11959663WA0038200381
B2125204750343N11959649WA0038300381
B2125214750342N11959634WA0038400381
B2125224750341N11959620WA0038500382
B2125234750341N11959605WA0038500382
B2125244750340N11959591WA0038600383
B2125254750341N11959577WA0038700384
B2125264750341N11959562WA0038800384
B2125274750342N11959547WA0038900384
B2125284750344N11959531WA0038900385
B2125294750347N11959518WA0039000387
B2125304750350N11959505WA0039100387
B2125314750353N11959491WA0039100387
B2125324750357N11959477WA0039200388
B2125334750360N11959464WA0039200388
B2125344750365N11959451WA0039300389
B2125354750370N11959438WA0039300389
B2125364750375N11959428WA0039400390
B2125374750381N11959418WA0039400391
B2125384750386N11959409WA0039400391
B2125394750392N11959400WA0039500391
B2125404750396N11959393WA0039500391
B2125414750399N11959388WA0039500391
B2125424750402N11959383WA0039500392
B2125434750405N11959379WA0039500393
B2125444750406N11959376WA0039400393
B2125454750408N11959374WA0039400394
B2125464750410N11959372WA0039400395
B2125474750411N11959371WA0039400396
B2125484750412N11959369WA0039400397
B2125494750413N11959369WA0039400398
B2125504750414N11959369WA0039400398
B2125514750413N11959368WA0039400399
B2125524750413N11959368WA0039400399
B2125534750413N11959367WA0039400399
B2125544750414N11959365WA0039400399
B2125544750414N11959365WA0039400399
B2125554750415N11959363WA0039400399
B2125564750418N11959360WA0039400399
B2125574750420N11959356WA0039400399
B2125584750423N11959350WA0039500400
B2125594750426N11959344WA0039500400
B2126004750430N11959337WA0039500400
B2126014750434N11959329WA0039500400
B2126024750439N11959321WA0039600400
B2126034750442N11959313WA0039600400
B2126044750446N11959304WA0039600400
B2126054750450N11959295WA0039600400
B2126064750453N11959286WA0039700401
B2126074750457N11959277WA0039700400
B2126084750460N11959268WA0039700399
B2126094750464N11959258WA0039700399
B2126104750467N11959248WA0039800398
B2126114750470N11959238WA0039800397
B2126124750473N11959228WA0039800397
B2126134750476N11959218WA0039800397
B2126144750478N11959209WA0039800397
B2126154750481N11959200WA0039800397
B2126164750483N11959192WA0039900397
B2126174750485N11959184WA0039900397
B2126184750486N11959178WA0039800398
B2126194750486N11959173WA0039800399
B2126204750485N11959167WA0039800399
B2126214750484N11959161WA0039800399
B2126224750481N11959157WA0039900399
B2126234750478N11959154WA0039900399
B2126244750474N11959152WA0039900399
B2126254750470N11959151WA0039900399
B2126264750465N11959150WA0039900399
B2126274750461N11959150WA0039900399
B2126284750456N11959149WA0039900400
B2126294750452N11959148WA0039900399
B2126304750448N11959144WA0039900399
B2126314750444N11959140WA0039900400
B2126324750441N11959135WA0039900400
B2126334750440N11959130WA0039900400
B2126344750438N11959123WA0039900400
B2126354750437N11959116WA0039900401
B2126364750436N11959108WA0039900401
B2126374750435N11959100WA0039900401
B2126384750432N11959093WA0039900400
B2126394750430N11959086WA0039900400
B2126404750427N11959079WA0039900400
B2126414750424N11959072WA0040000401
B2126424750420N11959066WA0040000401
B2126434750415N11959061WA0040100402
B2126444750410N11959057WA0040100402
B2126454750405N11959052WA0040100403
B2126464750400N11959049WA0040200404
B2126474750395N11959046WA0040200405
B2126484750390N11959042WA0040200405
B2126494750385N11959040WA0040200405
B2126504750379N11959037WA0040300406
B2126514750374N11959034WA0040300406
B2126524750369N11959030WA0040300407
B2126534750364N11959026WA0040300407
B2126544750359N11959023WA0040400407
B2126554750353N11959019WA0040400408
B2126564750348N11959016WA0040400407
B2126574750343N11959013WA0040300408
B2126584750337N11959008WA0040300408
B2126584750337N11959008WA0040300408
B2126594750332N11959003WA0040300408
B2127004750327N11958998WA0040300408
B2127014750322N11958992WA0040300409
B2127024750318N11958987WA0040300409
B2127034750313N11958982WA0040300409
B2127044750309N11958976WA0040300409
B2127054750305N11958971WA0040300410
B2127064750301N11958965WA0040300410
B2127074750297N11958959WA0040300411
B2127084750293N11958953WA0040300411
B2127094750289N11958947WA0040200411
B2127104750285N11958943WA0040200411
B2127114750282N11958940WA0040200411
B2127124750278N11958939WA0040200412
B2127134750275N11958939WA0040200412
B2127144750271N11958939WA0040300413
B2127154750266N11958941WA0040200414
B2127164750262N11958943WA0040200414
B2127174750259N11958946WA0040200414
B2127184750255N11958949WA0040200415
B2127194750251N11958954WA0040200414
B2127204750247N11958958WA0040200414
B2127214750243N11958960WA0040200414
B2127224750239N11958962WA0040100413
B2127234750235N11958964WA0040100413
B2127244750232N11958964WA0040000413
B2127254750229N11958964WA0040000413
B2127264750226N11958962WA0039900413
B2127274750224N11958958WA0039900412
B2127284750223N11958952WA0039800412
B2127294750224N11958945WA0039800411
B2127304750223N11958939WA0039700410
B2127314750223N11958934WA0039700409
B2127324750222N11958930WA0039700409
B2127334750221N11958927WA0039700409
B2127344750220N11958924WA0039600409
B2127354750219N11958923WA0039600408
B2127364750217N11958922WA0039600409
B2127374750215N11958921WA0039600408
B2127384750214N11958921WA0039500408
B2127394750213N11958920WA0039500408
B2127404750212N11958920WA0039500408
B2127414750211N11958920WA0039500407
B2127424750210N11958920WA0039500407
B2127434750210N11958920WA0039500407
B2127444750210N11958921WA0039500407
B2127454750210N11958920WA0039400406
B2127464750209N11958920WA0039400406
B2127474750209N11958920WA0039400406
B2127484750208N11958919WA0039400405
B2127494750208N11958918WA0039400404
B2127504750207N11958916WA0039400404
B2127514750206N11958916WA0039400404
B2127524750205N11958915WA0039400404
B2127534750204N11958915WA0039400404
B2127544750204N11958915WA0039400404
B2127554750204N11958915WA0039400404
B2127564750204N11958915WA0039400404
B2127574750205N11958915WA0039400403
B2127584750206N11958915WA0039400403
B2127594750206N11958916WA0039400403
B2128004750207N11958916WA0039400402
B2128014750208N11958917WA0039400402
B2128024750208N11958917WA0039400402
B2128024750208N11958917WA0039400402
B2128034750209N11958918WA0039400402
B2128044750209N11958917WA0039300402
B2128054750209N11958918WA0039300402
B2128064750209N11958917WA0039300401
B2128074750209N11958918WA0039300401
B2128084750208N11958918WA0039300401
B2128094750208N11958918WA0039300402
B2128104750208N11958918WA0039300402
B2128114750208N11958918WA0039300402
B2128124750208N11958918WA0039300402
B2128134750208N11958918WA0039400402
B2128144750207N11958918WA0039400402
B2128154750207N11958918WA0039400402
B2128164750207N11958919WA0039400402
B2128174750207N11958919WA0039400402
B2128184750207N11958919WA0039400401
B2128194750207N11958920WA0039400401
B2128204750207N11958919WA0039400401
B2128214750207N11958920WA0039400401
B2128224750207N11958921WA0039400401
B2128234750207N11958921WA0039400402
B2128244750207N11958920WA0039400401
B2128254750207N11958920WA0039400401
B2128264750207N11958920WA0039400402
B2128274750207N11958920WA0039400401
B2128284750207N11958919WA0039400401
B2128294750206N11958919WA0039300402
B2128304750206N11958918WA0039300402
B2128314750205N11958918WA0039300402
B2128324750205N11958918WA0039300401
B2128334750205N11958919WA0039300402
B2128344750204N11958920WA0039300402
B2128354750203N11958920WA0039300402
B2128364750202N11958921WA0039300401
B2128374750201N11958921WA0039300401
B2128384750200N11958921WA0039300402
B2128394750200N11958922WA0039300402
B2128404750200N11958923WA0039300402
B2128414750199N11958923WA0039300401
B2128424750199N11958923WA0039300401
B2128434750199N11958924WA0039300400
B2128444750198N11958925WA0039300399
B2128454750198N11958925WA0039300398
B2128464750198N11958924WA0039300397
B2128474750198N11958924WA0039300396
B2128484750197N11958924WA0039300395
B2128494750197N11958925WA0039300394
B2128504750197N11958926WA0039300393
B2128514750197N11958927WA0039300392
B2128524750197N11958927WA0039300391
B2128534750198N11958927WA0039300390
B2128544750198N11958926WA0039300390
B2128554750199N11958926WA0039300390
B2128564750199N11958926WA0039300390
B2128574750199N11958926WA0039300390
B2128584750200N11958925WA0039300390
B2128594750200N11958925WA0039300390
B2129004750199N11958924WA0039300390
B2129014750199N11958924WA0039300390
B2129024750199N11958924WA0039300390
B2129034750200N11958923WA0039300389
B2129044750201N11958923WA0039300389
B2129054750201N11958923WA0039300389
B2129064750202N11958922WA0039300389
