AXFMSFP Flymaster Live, V1.0
HFFXA010
HFPLTPILOT:Wade Lippincott
HFGTYGLIDERTYPE:Gin Race 5 / Gin Gto 3
HFGIDGLIDERID:
HFDTM100GPSDATUM:WGS-1984
HFCIDCOMPETITIONID:307
HFCCLCOMPETITIONCLASS:
HOSITSITE:LAUNCH
HFGPS:UBLOXNEO6
HFPRSPRESSALTSENSOR:NA
HFRFWFIRMWAREVERSION:202g
HFRHWHARDWAREVERSION:1.0R2
HFFTYFRTYPE:FLYMASTER,LIVE
HFDTE170625
B2044194748244N12002360WA0109301124
B2044204748244N12002360WA0109301123
B2044214748244N12002360WA0109301123
B2044224748244N12002360WA0109301123
B2044234748244N12002360WA0109301123
B2044244748244N12002360WA0109301124
B2044254748244N12002360WA0109301124
B2044264748244N12002360WA0109301124
B2044274748244N12002360WA0109301124
B2044284748245N12002360WA0109301124
B2044294748245N12002360WA0109301124
B2044304748245N12002360WA0109301124
B2044314748245N12002360WA0109301124
B2044324748245N12002360WA0109301124
B2044334748245N12002360WA0109301124
B2044344748245N12002360WA0109301124
B2044354748245N12002360WA0109301124
B2044364748245N12002360WA0109301124
B2044374748245N12002360WA0109301124
B2044384748245N12002360WA0109301124
B2044394748245N12002360WA0109301124
B2044404748245N12002360WA0109301124
B2044414748245N12002360WA0109301125
B2044424748245N12002360WA0109301125
B2044434748245N12002360WA0109301125
B2044444748245N12002360WA0109301125
B2044454748245N12002360WA0109301125
B2044464748245N12002360WA0109301125
B2044474748245N12002360WA0109301125
B2044484748245N12002360WA0109301125
B2044494748244N12002359WA0109301125
B2044504748244N12002360WA0109301125
B2044514748244N12002360WA0109301125
B2044524748244N12002360WA0109301125
B2044534748244N12002360WA0109301125
B2044544748244N12002360WA0109301125
B2044554748244N12002360WA0109301125
B2044564748244N12002360WA0109301125
B2044574748244N12002360WA0109301125
B2044584748244N12002360WA0109301125
B2044594748244N12002360WA0109301125
B2045004748244N12002360WA0109301125
B2045014748244N12002360WA0109301125
B2045024748244N12002360WA0109301125
B2045034748244N12002360WA0109301124
B2045044748245N12002361WA0109301124
B2045054748245N12002361WA0109301125
B2045064748244N12002362WA0109301124
B2045074748244N12002363WA0109301124
B2045084748244N12002365WA0109301124
B2045094748243N12002368WA0109301123
B2045104748243N12002371WA0109201122
B2045114748244N12002375WA0109201122
B2045124748244N12002379WA0109201121
B2045134748244N12002383WA0109101121
B2045144748244N12002387WA0109101120
B2045154748244N12002392WA0109001119
B2045164748243N12002397WA0109001118
B2045174748243N12002402WA0108901118
B2045184748243N12002407WA0108901118
B2045194748243N12002412WA0108901119
B2045204748243N12002417WA0108901119
B2045214748242N12002422WA0108901118
B2045224748241N12002428WA0108901117
B2045234748240N12002433WA0108901117
B2045234748240N12002433WA0108901117
B2045244748238N12002437WA0108901117
B2045254748236N12002441WA0108901117
B2045264748235N12002445WA0108801118
B2045274748233N12002449WA0108801117
B2045284748231N12002453WA0108801117
B2045294748228N12002456WA0108801117
B2045304748226N12002459WA0108801115
B2045314748223N12002460WA0108801115
B2045324748221N12002461WA0108801117
B2045334748219N12002462WA0108801118
B2045344748218N12002463WA0108801119
B2045354748216N12002464WA0108901120
B2045364748214N12002465WA0108901119
B2045374748211N12002464WA0108901118
B2045384748207N12002464WA0108801115
B2045394748202N12002464WA0108801113
B2045404748197N12002464WA0108801115
B2045414748194N12002464WA0108701115
B2045424748191N12002464WA0108801118
B2045434748189N12002464WA0108801122
B2045444748188N12002464WA0108901126
B2045454748185N12002465WA0109001129
B2045464748183N12002466WA0109201131
B2045474748182N12002470WA0109301133
B2045484748181N12002474WA0109401136
B2045494748181N12002478WA0109601139
B2045504748181N12002481WA0109801142
B2045514748180N12002483WA0109901144
B2045524748177N12002485WA0110101145
B2045534748173N12002486WA0110201144
B2045544748169N12002484WA0110301144
B2045554748165N12002478WA0110401145
B2045564748163N12002469WA0110501146
B2045574748163N12002459WA0110701149
B2045584748163N12002450WA0110801149
B2045594748165N12002441WA0110901149
B2046004748165N12002432WA0111101150
B2046014748163N12002423WA0111201151
B2046024748160N12002417WA0111301152
B2046034748155N12002415WA0111401151
B2046044748152N12002416WA0111401148
B2046054748148N12002419WA0111401148
B2046064748146N12002423WA0111501147
B2046074748145N12002429WA0111401146
B2046084748144N12002435WA0111401144
B2046094748145N12002442WA0111401142
B2046104748146N12002448WA0111401141
B2046114748148N12002452WA0111401143
B2046124748150N12002456WA0111401144
B2046134748152N12002460WA0111401145
B2046144748155N12002464WA0111401146
B2046154748159N12002469WA0111501146
B2046164748164N12002473WA0111501147
B2046174748169N12002477WA0111501149
B2046184748173N12002480WA0111701153
B2046194748178N12002482WA0111701156
B2046204748183N12002484WA0111901159
B2046214748188N12002488WA0112001161
B2046224748193N12002493WA0112201163
B2046234748195N12002501WA0112301166
B2046244748197N12002508WA0112501170
B2046254748198N12002515WA0112701173
B2046264748196N12002521WA0112901178
B2046274748194N12002524WA0113201182
B2046274748194N12002524WA0113201182
B2046284748192N12002526WA0113501187
B2046294748190N12002528WA0113701189
B2046304748189N12002531WA0114001191
B2046314748188N12002533WA0114101191
B2046324748187N12002535WA0114401190
B2046334748184N12002536WA0114501187
B2046344748181N12002536WA0114501183
B2046354748176N12002534WA0114501179
B2046364748171N12002530WA0114401174
B2046374748167N12002525WA0114401170
B2046384748162N12002520WA0114201166
B2046394748157N12002516WA0114101165
B2046404748153N12002513WA0114001166
B2046414748150N12002510WA0113901167
B2046424748148N12002508WA0113801167
B2046434748145N12002506WA0113801165
B2046444748141N12002504WA0113601162
B2046454748135N12002502WA0113501158
B2046464748130N12002500WA0113301156
B2046474748125N12002497WA0113201156
B2046484748120N12002495WA0113001156
B2046494748116N12002493WA0112901155
B2046504748112N12002490WA0112801153
B2046514748107N12002488WA0112601150
B2046524748102N12002484WA0112401147
B2046534748096N12002480WA0112201144
B2046544748090N12002477WA0112001143
B2046554748085N12002473WA0111801141
B2046564748079N12002470WA0111601141
B2046574748074N12002465WA0111501140
B2046584748069N12002460WA0111301141
B2046594748065N12002453WA0111201143
B2047004748060N12002448WA0111201144
B2047014748056N12002443WA0111101145
B2047024748051N12002440WA0111101146
B2047034748047N12002437WA0111101145
B2047044748043N12002435WA0111001144
B2047054748038N12002432WA0111001143
B2047064748034N12002427WA0110901143
B2047074748029N12002422WA0110801141
B2047084748024N12002417WA0110701140
B2047094748019N12002413WA0110701139
B2047104748014N12002410WA0110501137
B2047114748009N12002409WA0110501136
B2047124748004N12002409WA0110401136
B2047134748001N12002409WA0110301136
B2047144747997N12002411WA0110201135
B2047154747994N12002414WA0110201134
B2047164747990N12002417WA0110101133
B2047174747986N12002419WA0110001133
B2047184747984N12002421WA0109901135
B2047194747982N12002424WA0109901136
B2047204747981N12002426WA0109901136
B2047214747979N12002429WA0109901134
B2047224747975N12002429WA0109801132
B2047234747971N12002427WA0109701129
B2047244747967N12002422WA0109601128
B2047254747965N12002415WA0109601127
B2047264747964N12002408WA0109501126
B2047274747964N12002399WA0109401125
B2047284747965N12002390WA0109301123
B2047294747968N12002380WA0109201121
B2047304747972N12002371WA0109101119
B2047314747978N12002364WA0109001118
B2047314747978N12002364WA0109001118
B2047324747984N12002360WA0108801116
B2047334747990N12002358WA0108701115
B2047344747995N12002357WA0108601114
B2047354747999N12002358WA0108501113
B2047364748003N12002359WA0108401113
B2047374748006N12002361WA0108401112
B2047384748009N12002363WA0108301110
B2047394748013N12002367WA0108301108
B2047404748017N12002371WA0108101106
B2047414748021N12002375WA0108001104
B2047424748025N12002380WA0107901103
B2047434748027N12002384WA0107801103
B2047444748030N12002389WA0107701102
B2047454748032N12002394WA0107701101
B2047464748035N12002399WA0107601100
B2047474748038N12002405WA0107501100
B2047484748040N12002409WA0107401099
B2047494748043N12002414WA0107301099
B2047504748045N12002420WA0107201098
B2047514748047N12002427WA0107201096
B2047524748049N12002433WA0107001095
B2047534748050N12002439WA0107001094
B2047544748052N12002444WA0106901095
B2047554748054N12002449WA0106801096
B2047564748057N12002453WA0106801096
B2047574748060N12002457WA0106801095
B2047584748063N12002462WA0106701093
B2047594748067N12002468WA0106601091
B2048004748070N12002474WA0106501091
B2048014748073N12002479WA0106401090
B2048024748076N12002484WA0106401091
B2048034748079N12002488WA0106401091
B2048044748083N12002493WA0106301089
B2048054748086N12002498WA0106201087
B2048064748090N12002503WA0106101085
B2048074748093N12002508WA0106001084
B2048084748096N12002513WA0105901083
B2048094748099N12002519WA0105801082
B2048104748102N12002525WA0105701080
B2048114748104N12002531WA0105601078
B2048124748107N12002538WA0105401075
B2048134748110N12002545WA0105301073
B2048144748112N12002552WA0105101071
B2048154748114N12002560WA0105001069
B2048164748116N12002567WA0104801068
B2048174748118N12002574WA0104701068
B2048184748121N12002582WA0104501067
B2048194748123N12002589WA0104401066
B2048204748125N12002596WA0104301065
B2048214748128N12002603WA0104201066
B2048224748131N12002609WA0104101067
B2048234748134N12002614WA0104101069
B2048244748138N12002618WA0104101071
B2048254748142N12002622WA0104101073
B2048264748146N12002626WA0104201075
B2048274748150N12002630WA0104301078
B2048284748155N12002634WA0104401080
B2048294748160N12002638WA0104501083
B2048304748165N12002642WA0104601085
B2048314748169N12002647WA0104701088
B2048324748171N12002652WA0104901091
B2048334748172N12002658WA0105101093
B2048344748171N12002663WA0105301094
B2048344748171N12002663WA0105301094
B2048354748169N12002668WA0105401095
B2048364748166N12002668WA0105501096
B2048374748163N12002666WA0105701097
B2048384748159N12002662WA0105801098
B2048394748156N12002656WA0105901098
B2048404748153N12002648WA0106101099
B2048414748152N12002639WA0106201099
B2048424748152N12002629WA0106301101
B2048434748154N12002620WA0106401102
B2048444748158N12002612WA0106601105
B2048454748164N12002605WA0106801109
B2048464748170N12002600WA0107001112
B2048474748177N12002600WA0107201116
B2048484748182N12002603WA0107401119
B2048494748185N12002611WA0107601121
B2048504748187N12002618WA0107801124
B2048514748187N12002625WA0108001128
B2048524748187N12002630WA0108401133
B2048534748186N12002633WA0108601138
B2048544748186N12002636WA0109001141
B2048554748186N12002640WA0109201142
B2048564748184N12002644WA0109501144
B2048574748182N12002648WA0109701145
B2048584748178N12002649WA0109901146
B2048594748174N12002648WA0110101147
B2049004748170N12002643WA0110301148
B2049014748167N12002637WA0110501151
B2049024748165N12002629WA0110701153
B2049034748164N12002622WA0110901155
B2049044748164N12002615WA0111101158
B2049054748164N12002607WA0111301159
B2049064748164N12002598WA0111601162
B2049074748164N12002590WA0111701165
B2049084748165N12002581WA0112001168
B2049094748167N12002573WA0112201172
B2049104748171N12002566WA0112501175
B2049114748177N12002561WA0112701178
B2049124748183N12002560WA0113001181
B2049134748189N12002562WA0113201185
B2049144748194N12002566WA0113501188
B2049154748197N12002571WA0113701191
B2049164748198N12002576WA0114101195
B2049174748199N12002581WA0114301199
B2049184748197N12002585WA0114701201
B2049194748195N12002588WA0114901201
B2049204748191N12002590WA0115201200
B2049214748186N12002588WA0115401201
B2049224748181N12002585WA0115701204
B2049234748178N12002580WA0115901208
B2049244748177N12002574WA0116201212
B2049254748176N12002568WA0116401217
B2049264748177N12002560WA0116701219
B2049274748178N12002552WA0117001222
B2049284748180N12002544WA0117301223
B2049294748183N12002536WA0117501225
B2049304748188N12002530WA0117701227
B2049314748195N12002525WA0117901229
B2049324748201N12002523WA0118201232
B2049334748208N12002523WA0118401235
B2049344748214N12002525WA0118701238
B2049354748218N12002529WA0118901242
B2049364748222N12002533WA0119301246
B2049374748224N12002538WA0119501249
B2049384748225N12002543WA0119901252
B2049384748225N12002543WA0119901252
B2049394748226N12002549WA0120101255
B2049404748225N12002554WA0120501258
B2049414748223N12002559WA0120701260
B2049424748220N12002563WA0121001261
B2049434748216N12002564WA0121201263
B2049444748211N12002562WA0121501265
B2049454748208N12002557WA0121601266
B2049464748205N12002551WA0121901267
B2049474748203N12002544WA0122101270
B2049484748202N12002537WA0122301272
B2049494748201N12002531WA0122501275
B2049504748201N12002525WA0122801277
B2049514748200N12002519WA0123001279
B2049524748201N12002512WA0123301281
B2049534748203N12002504WA0123401283
B2049544748208N12002497WA0123701285
B2049554748213N12002492WA0123801287
B2049564748219N12002489WA0124001289
B2049574748225N12002488WA0124201292
B2049584748230N12002488WA0124501295
B2049594748234N12002491WA0124701298
B2050004748238N12002495WA0124901300
B2050014748241N12002500WA0125101302
B2050024748243N12002505WA0125301304
B2050034748244N12002511WA0125501307
B2050044748243N12002516WA0125801310
B2050054748242N12002520WA0126001312
B2050064748239N12002524WA0126201313
B2050074748235N12002527WA0126301314
B2050084748231N12002528WA0126501315
B2050094748227N12002528WA0126601317
B2050104748223N12002525WA0126901319
B2050114748221N12002521WA0127001321
B2050124748219N12002516WA0127201323
B2050134748217N12002511WA0127401324
B2050144748216N12002505WA0127601324
B2050154748214N12002500WA0127701325
B2050164748213N12002494WA0127801327
B2050174748211N12002489WA0127901328
B2050184748209N12002483WA0128101329
B2050194748208N12002477WA0128201331
B2050204748207N12002471WA0128301332
B2050214748207N12002464WA0128401333
B2050224748207N12002456WA0128501334
B2050234748209N12002448WA0128601335
B2050244748212N12002440WA0128701338
B2050254748216N12002433WA0128801340
B2050264748221N12002428WA0129001342
B2050274748227N12002425WA0129101345
B2050284748234N12002425WA0129301347
B2050294748239N12002426WA0129401350
B2050304748244N12002430WA0129601352
B2050314748247N12002434WA0129801355
B2050324748249N12002439WA0130101357
B2050334748251N12002444WA0130301359
B2050344748251N12002449WA0130501361
B2050354748251N12002454WA0130701362
B2050364748249N12002458WA0130901364
B2050374748246N12002462WA0131101366
B2050384748243N12002465WA0131301367
B2050394748239N12002466WA0131501368
B2050404748236N12002468WA0131601370
B2050414748233N12002469WA0131801371
B2050424748231N12002470WA0132001371
B2050424748231N12002470WA0132001371
B2050434748227N12002471WA0132101370
B2050444748223N12002470WA0132201369
B2050454748220N12002466WA0132201369
B2050464748218N12002459WA0132301370
B2050474748218N12002450WA0132301371
B2050484748220N12002441WA0132401370
B2050494748222N12002432WA0132401369
B2050504748224N12002424WA0132501369
B2050514748226N12002415WA0132501370
B2050524748229N12002406WA0132501371
B2050534748233N12002397WA0132601372
B2050544748235N12002389WA0132701375
B2050554748238N12002381WA0132801379
B2050564748240N12002374WA0132901383
B2050574748243N12002367WA0133101386
B2050584748247N12002362WA0133301388
B2050594748252N12002358WA0133401389
B2051004748259N12002356WA0133601391
B2051014748265N12002357WA0133701393
B2051024748269N12002361WA0133901396
B2051034748272N12002366WA0134101398
B2051044748274N12002370WA0134301402
B2051054748275N12002375WA0134501405
B2051064748276N12002380WA0134801408
B2051074748276N12002386WA0135001409
B2051084748275N12002392WA0135201411
B2051094748274N12002398WA0135401414
B2051104748272N12002402WA0135701418
B2051114748269N12002404WA0135901422
B2051124748267N12002404WA0136201425
B2051134748266N12002402WA0136401428
B2051144748264N12002400WA0136701428
B2051154748261N12002396WA0136901428
B2051164748258N12002391WA0137001427
B2051174748255N12002385WA0137101427
B2051184748253N12002379WA0137301428
B2051194748250N12002375WA0137401430
B2051204748248N12002372WA0137501431
B2051214748246N12002369WA0137601432
B2051224748244N12002364WA0137801432
B2051234748242N12002357WA0137801431
B2051244748241N12002349WA0137901429
B2051254748242N12002340WA0137901429
B2051264748244N12002330WA0137901429
B2051274748248N12002322WA0138001430
B2051284748252N12002314WA0138001431
B2051294748257N12002308WA0138101432
B2051304748263N12002302WA0138201433
B2051314748268N12002296WA0138201435
B2051324748274N12002292WA0138301436
B2051334748281N12002289WA0138401439
B2051344748287N12002288WA0138501442
B2051354748293N12002290WA0138601444
B2051364748299N12002294WA0138801445
B2051374748304N12002298WA0138901447
B2051384748308N12002303WA0139101449
B2051394748311N12002309WA0139201451
B2051404748313N12002316WA0139401453
B2051414748314N12002323WA0139601455
B2051424748314N12002330WA0139801457
B2051434748312N12002337WA0139901459
B2051444748311N12002343WA0140101462
B2051454748309N12002346WA0140301465
B2051464748308N12002348WA0140501468
B2051464748308N12002348WA0140501468
B2051474748306N12002348WA0140701471
B2051484748304N12002348WA0141001472
B2051494748301N12002347WA0141101472
B2051504748298N12002345WA0141301471
B2051514748295N12002341WA0141401471
B2051524748292N12002335WA0141501472
B2051534748290N12002329WA0141601474
B2051544748289N12002321WA0141801475
B2051554748290N12002312WA0141901475
B2051564748290N12002303WA0142001475
B2051574748292N12002292WA0142101475
B2051584748294N12002282WA0142201476
B2051594748297N12002271WA0142201477
B2052004748299N12002262WA0142301479
B2052014748301N12002252WA0142401481
B2052024748302N12002242WA0142601483
B2052034748303N12002232WA0142601484
B2052044748302N12002221WA0142801485
B2052054748302N12002211WA0142801487
B2052064748304N12002201WA0143001491
B2052074748306N12002191WA0143201494
B2052084748310N12002182WA0143401497
B2052094748315N12002174WA0143601498
B2052104748320N12002166WA0143801499
B2052114748327N12002161WA0143901500
B2052124748333N12002159WA0144101501
B2052134748339N12002159WA0144201501
B2052144748345N12002161WA0144301500
B2052154748352N12002164WA0144401497
B2052164748357N12002169WA0144401496
B2052174748361N12002175WA0144401496
B2052184748363N12002180WA0144501497
B2052194748364N12002185WA0144501500
B2052204748366N12002190WA0144701502
B2052214748368N12002195WA0144801504
B2052224748370N12002201WA0144901506
B2052234748373N12002207WA0145001508
B2052244748375N12002213WA0145201511
B2052254748378N12002219WA0145301513
B2052264748379N12002226WA0145501516
B2052274748380N12002233WA0145601520
B2052284748380N12002239WA0145901523
B2052294748379N12002244WA0146101527
B2052304748377N12002248WA0146401530
B2052314748375N12002250WA0146601534
B2052324748372N12002252WA0146901535
B2052334748369N12002252WA0147101536
B2052344748364N12002252WA0147301536
B2052354748360N12002253WA0147401538
B2052364748356N12002253WA0147701540
B2052374748354N12002252WA0147801543
B2052384748353N12002252WA0148101545
B2052394748350N12002251WA0148301546
B2052404748347N12002248WA0148501546
B2052414748343N12002245WA0148601545
B2052424748340N12002239WA0148701546
B2052434748338N12002232WA0148801547
B2052444748337N12002224WA0148901549
B2052454748337N12002216WA0149101550
B2052464748339N12002208WA0149201550
B2052474748341N12002198WA0149301549
B2052484748345N12002189WA0149301549
B2052494748350N12002181WA0149401550
B2052504748355N12002174WA0149501552
B2052504748355N12002174WA0149501552
B2052514748359N12002168WA0149601555
B2052524748363N12002161WA0149801559
B2052534748368N12002155WA0149901561
B2052544748373N12002151WA0150101563
B2052554748378N12002147WA0150201565
B2052564748385N12002145WA0150401567
B2052574748392N12002143WA0150501568
B2052584748399N12002141WA0150701570
B2052594748405N12002139WA0150801574
B2053004748410N12002138WA0151101579
B2053014748415N12002139WA0151401584
B2053024748419N12002142WA0151701588
B2053034748424N12002146WA0151901592
B2053044748428N12002153WA0152301596
B2053054748430N12002161WA0152501600
B2053064748431N12002169WA0152801603
B2053074748430N12002176WA0153101607
B2053084748429N12002181WA0153501611
B2053094748428N12002184WA0153701616
B2053104748426N12002186WA0154101619
B2053114748422N12002186WA0154401620
B2053124748418N12002185WA0154701621
B2053134748414N12002181WA0154901622
B2053144748411N12002176WA0155201624
B2053154748409N12002170WA0155401626
B2053164748409N12002161WA0155701627
B2053174748410N12002151WA0155801628
B2053184748412N12002142WA0156101630
B2053194748417N12002136WA0156201633
B2053204748422N12002132WA0156501635
B2053214748428N12002131WA0156601637
B2053224748434N12002134WA0156901639
B2053234748438N12002138WA0157101642
B2053244748442N12002143WA0157301646
B2053254748443N12002150WA0157601649
B2053264748443N12002156WA0157901652
B2053274748442N12002162WA0158101654
B2053284748440N12002166WA0158401657
B2053294748436N12002168WA0158601659
B2053304748433N12002168WA0158901660
B2053314748430N12002166WA0159101662
B2053324748427N12002162WA0159301664
B2053334748424N12002158WA0159501666
B2053344748421N12002155WA0159701667
B2053354748418N12002153WA0159901669
B2053364748416N12002151WA0160101670
B2053374748414N12002149WA0160301672
B2053384748412N12002145WA0160501672
B2053394748412N12002140WA0160601671
B2053404748412N12002134WA0160701670
B2053414748413N12002127WA0160801669
B2053424748415N12002122WA0160901668
B2053434748417N12002115WA0160901668
B2053444748421N12002109WA0161001667
B2053454748425N12002103WA0161001667
B2053464748430N12002098WA0161001666
B2053474748436N12002094WA0161001666
B2053484748442N12002090WA0161001667
B2053494748448N12002088WA0161001668
B2053504748454N12002087WA0161101668
B2053514748460N12002086WA0161101668
B2053524748468N12002087WA0161101668
B2053534748475N12002089WA0161101668
B2053544748481N12002093WA0161101668
B2053544748481N12002093WA0161101668
B2053554748487N12002097WA0161101669
B2053564748492N12002101WA0161201671
B2053574748495N12002106WA0161201673
B2053584748498N12002110WA0161401675
B2053594748501N12002115WA0161401676
B2054004748504N12002121WA0161501676
B2054014748508N12002127WA0161601677
B2054024748510N12002132WA0161701678
B2054034748512N12002138WA0161801680
B2054044748511N12002143WA0161901681
B2054054748509N12002149WA0162001682
B2054064748507N12002153WA0162101685
B2054074748505N12002156WA0162201688
B2054084748503N12002156WA0162401691
B2054094748500N12002155WA0162501694
B2054104748497N12002152WA0162701695
B2054114748493N12002147WA0162901696
B2054124748489N12002142WA0163001698
B2054134748486N12002136WA0163201700
B2054144748485N12002128WA0163401702
B2054154748484N12002120WA0163501704
B2054164748485N12002112WA0163701706
B2054174748487N12002105WA0163901707
B2054184748488N12002096WA0164101708
B2054194748490N12002087WA0164201708
B2054204748492N12002077WA0164301708
B2054214748494N12002068WA0164401710
B2054224748497N12002059WA0164601712
B2054234748502N12002051WA0164701714
B2054244748507N12002043WA0164901716
B2054254748512N12002035WA0165001716
B2054264748518N12002028WA0165101718
B2054274748525N12002022WA0165201720
B2054284748532N12002018WA0165401722
B2054294748539N12002017WA0165501723
B2054304748546N12002019WA0165701725
B2054314748552N12002023WA0165801726
B2054324748556N12002028WA0166001728
B2054334748558N12002033WA0166101731
B2054344748558N12002038WA0166301735
B2054354748557N12002043WA0166501738
B2054364748556N12002046WA0166801740
B2054374748554N12002050WA0166901742
B2054384748552N12002052WA0167201744
B2054394748549N12002054WA0167301745
B2054404748546N12002055WA0167601748
B2054414748543N12002055WA0167701750
B2054424748539N12002054WA0168001753
B2054434748535N12002051WA0168201756
B2054444748532N12002046WA0168401758
B2054454748528N12002041WA0168601760
B2054464748525N12002035WA0168901762
B2054474748523N12002028WA0169001764
B2054484748521N12002021WA0169301766
B2054494748521N12002012WA0169501768
B2054504748522N12002003WA0169701770
B2054514748525N12001994WA0169901772
B2054524748529N12001984WA0170101774
B2054534748533N12001975WA0170301775
B2054544748537N12001968WA0170501778
B2054554748543N12001961WA0170601780
B2054564748549N12001956WA0170901781
B2054574748556N12001952WA0171001782
B2054584748563N12001950WA0171201783
B2054594748570N12001950WA0171301785
B2054594748570N12001950WA0171301785
B2055004748577N12001950WA0171501788
B2055014748583N12001953WA0171701791
B2055024748588N12001957WA0171901793
B2055034748592N12001961WA0172101797
B2055044748594N12001964WA0172401801
B2055054748596N12001967WA0172601804
B2055064748597N12001970WA0172901807
B2055074748598N12001973WA0173101807
B2055084748598N12001978WA0173301807
B2055094748597N12001982WA0173501807
B2055104748595N12001987WA0173701808
B2055114748594N12001991WA0173801810
B2055124748592N12001994WA0174001813
B2055134748589N12001997WA0174201815
B2055144748587N12001999WA0174401818
B2055154748584N12002000WA0174601820
B2055164748583N12002003WA0174901823
B2055174748583N12002007WA0175001824
B2055184748583N12002012WA0175301825
B2055194748581N12002016WA0175401827
B2055204748578N12002019WA0175701829
B2055214748573N12002020WA0175801829
B2055224748567N12002017WA0175901831
B2055234748564N12002013WA0176101834
B2055244748562N12002009WA0176401839
B2055254748560N12002005WA0176601843
B2055264748558N12001999WA0176901844
B2055274748555N12001991WA0177001843
B2055284748551N12001981WA0177201843
B2055294748548N12001971WA0177301845
B2055304748545N12001963WA0177601848
B2055314748543N12001956WA0177801851
B2055324748541N12001950WA0178001852
B2055334748539N12001943WA0178201853
B2055344748537N12001936WA0178401850
B2055354748535N12001928WA0178501848
B2055364748531N12001921WA0178501846
B2055374748527N12001916WA0178501845
B2055384748524N12001914WA0178601844
B2055394748520N12001912WA0178601844
B2055404748518N12001912WA0178601844
B2055414748515N12001911WA0178701843
B2055424748511N12001910WA0178601841
B2055434748507N12001908WA0178601839
B2055444748502N12001906WA0178501836
B2055454748497N12001903WA0178401834
B2055464748491N12001900WA0178301833
B2055474748486N12001896WA0178201832
B2055484748481N12001893WA0178101830
B2055494748476N12001890WA0178001828
B2055504748471N12001886WA0177801825
B2055514748466N12001882WA0177601823
B2055524748460N12001878WA0177401819
B2055534748454N12001873WA0177201816
B2055544748447N12001868WA0176901813
B2055554748442N12001863WA0176801812
B2055564748437N12001857WA0176501812
B2055574748433N12001852WA0176401813
B2055584748429N12001848WA0176301813
B2055594748425N12001843WA0176201811
B2056004748421N12001838WA0176001807
B2056014748416N12001833WA0175901802
B2056024748410N12001827WA0175501797
B2056034748405N12001821WA0175301793
B2056034748405N12001821WA0175301793
B2056044748399N12001815WA0174901790
B2056054748395N12001809WA0174701788
B2056064748391N12001804WA0174501785
B2056074748386N12001798WA0174201781
B2056084748381N12001792WA0173901776
B2056094748375N12001785WA0173601770
B2056104748369N12001778WA0173101764
B2056114748362N12001771WA0172801761
B2056124748357N12001764WA0172401759
B2056134748352N12001757WA0172101757
B2056144748347N12001751WA0171801754
B2056154748342N12001744WA0171501750
B2056164748336N12001737WA0171001745
B2056174748329N12001730WA0170701740
B2056184748322N12001724WA0170301737
B2056194748316N12001718WA0170001735
B2056204748310N12001712WA0169601733
B2056214748305N12001706WA0169401730
B2056224748299N12001700WA0169001727
B2056234748293N12001694WA0168701723
B2056244748286N12001687WA0168301720
B2056254748280N12001679WA0168101718
B2056264748274N12001673WA0167701716
B2056274748269N12001667WA0167501716
B2056284748265N12001662WA0167201715
B2056294748261N12001657WA0167101713
B2056304748256N12001653WA0166801710
B2056314748251N12001648WA0166601705
B2056324748245N12001642WA0166201699
B2056334748239N12001635WA0165901695
B2056344748233N12001627WA0165501691
B2056354748228N12001619WA0165201690
B2056364748224N12001612WA0164901688
B2056374748219N12001605WA0164701686
B2056384748215N12001598WA0164301683
B2056394748209N12001591WA0164101679
B2056404748203N12001586WA0163701674
B2056414748198N12001580WA0163401671
B2056424748194N12001576WA0163101669
B2056434748190N12001571WA0162901669
B2056444748186N12001565WA0162601668
B2056454748182N12001560WA0162401667
B2056464748177N12001554WA0162201665
B2056474748172N12001548WA0162001664
B2056484748167N12001541WA0161701663
B2056494748163N12001534WA0161601663
B2056504748159N12001526WA0161401664
B2056514748154N12001519WA0161301663
B2056524748150N12001512WA0161201663
B2056534748145N12001504WA0161101663
B2056544748140N12001496WA0161001663
B2056554748136N12001488WA0160901663
B2056564748132N12001481WA0160901665
B2056574748128N12001474WA0160901668
B2056584748124N12001466WA0160901670
B2056594748121N12001459WA0161001673
B2057004748117N12001451WA0161101675
B2057014748113N12001443WA0161201678
B2057024748109N12001436WA0161301680
B2057034748105N12001429WA0161401682
B2057044748100N12001423WA0161501684
B2057054748096N12001418WA0161601687
B2057064748093N12001412WA0161901690
B2057074748090N12001407WA0162001693
B2057074748090N12001407WA0162001693
B2057084748087N12001401WA0162301695
B2057094748085N12001395WA0162501697
B2057104748082N12001389WA0162701700
B2057114748080N12001382WA0162901701
B2057124748077N12001375WA0163101703
B2057134748074N12001367WA0163301705
B2057144748073N12001359WA0163501708
B2057154748072N12001350WA0163701710
B2057164748072N12001339WA0163901711
B2057174748073N12001328WA0164101713
B2057184748076N12001318WA0164301713
B2057194748081N12001309WA0164401714
B2057204748087N12001302WA0164601715
B2057214748093N12001298WA0164701716
B2057224748099N12001297WA0164901717
B2057234748104N12001299WA0165001719
B2057244748108N12001301WA0165101721
B2057254748111N12001305WA0165301724
B2057264748111N12001308WA0165501727
B2057274748111N12001312WA0165701729
B2057284748109N12001315WA0165901728
B2057294748106N12001318WA0166001729
B2057304748102N12001319WA0166201730
B2057314748099N12001317WA0166301732
B2057324748096N12001314WA0166501734
B2057334748093N12001309WA0166601735
B2057344748089N12001302WA0166801736
B2057354748085N12001294WA0166901736
B2057364748080N12001285WA0167001737
B2057374748076N12001276WA0167101740
B2057384748073N12001267WA0167301743
B2057394748070N12001259WA0167501746
B2057404748067N12001251WA0167801749
B2057414748064N12001243WA0167901751
B2057424748060N12001235WA0168101751
B2057434748056N12001226WA0168301752
B2057444748053N12001218WA0168501754
B2057454748050N12001210WA0168601756
B2057464748047N12001202WA0168801758
B2057474748043N12001195WA0169001759
B2057484748040N12001188WA0169201760
B2057494748036N12001180WA0169301761
B2057504748033N12001171WA0169401762
B2057514748031N12001160WA0169501763
B2057524748030N12001149WA0169701764
B2057534748031N12001138WA0169801765
B2057544748033N12001127WA0169901767
B2057554748036N12001117WA0170101769
B2057564748041N12001108WA0170201771
B2057574748046N12001101WA0170401772
B2057584748052N12001094WA0170501774
B2057594748058N12001089WA0170701776
B2058004748064N12001083WA0170901777
B2058014748070N12001078WA0171001778
B2058024748076N12001074WA0171101778
B2058034748082N12001071WA0171201777
B2058044748089N12001068WA0171301776
B2058054748095N12001067WA0171301775
B2058064748101N12001067WA0171301775
B2058074748107N12001066WA0171401775
B2058084748112N12001066WA0171401775
B2058094748116N12001065WA0171501775
B2058104748120N12001066WA0171501774
B2058114748123N12001067WA0171501772
B2058114748123N12001067WA0171501772
B2058124748126N12001071WA0171401769
B2058134748129N12001075WA0171401767
B2058144748130N12001079WA0171301767
B2058154748132N12001082WA0171301768
B2058164748132N12001083WA0171301769
B2058174748131N12001084WA0171301769
B2058184748129N12001086WA0171301768
B2058194748127N12001089WA0171301766
B2058204748125N12001092WA0171201765
B2058214748124N12001095WA0171201766
B2058224748122N12001097WA0171201768
B2058234748120N12001098WA0171201769
B2058244748118N12001099WA0171201769
B2058254748114N12001100WA0171201769
B2058264748111N12001101WA0171201769
B2058274748107N12001101WA0171301771
B2058284748105N12001101WA0171301774
B2058294748102N12001101WA0171401778
B2058304748099N12001101WA0171601781
B2058314748096N12001103WA0171701783
B2058324748092N12001106WA0171901786
B2058334748089N12001108WA0172001789
B2058344748086N12001109WA0172201794
B2058354748084N12001107WA0172401797
B2058364748081N12001104WA0172701799
B2058374748077N12001100WA0172901801
B2058384748072N12001096WA0173101802
B2058394748068N12001090WA0173201804
B2058404748065N12001083WA0173501806
B2058414748062N12001074WA0173601808
B2058424748060N12001065WA0173801809
B2058434748059N12001055WA0173901811
B2058444748059N12001045WA0174101812
B2058454748061N12001036WA0174301814
B2058464748064N12001026WA0174501815
B2058474748067N12001017WA0174601816
B2058484748071N12001007WA0174801817
B2058494748074N12000998WA0174901818
B2058504748077N12000989WA0175101819
B2058514748081N12000981WA0175201820
B2058524748086N12000973WA0175401820
B2058534748092N12000967WA0175401820
B2058544748099N12000964WA0175601821
B2058554748106N12000964WA0175601822
B2058564748111N12000966WA0175701824
B2058574748116N12000968WA0175901827
B2058584748119N12000971WA0176001830
B2058594748123N12000975WA0176201832
B2059004748128N12000979WA0176401834
B2059014748132N12000984WA0176501835
B2059024748135N12000989WA0176701837
B2059034748138N12000994WA0176801840
B2059044748139N12000999WA0177101843
B2059054748139N12001004WA0177201846
B2059064748139N12001009WA0177501850
B2059074748138N12001013WA0177701853
B2059084748136N12001016WA0178001857
B2059094748135N12001018WA0178201860
B2059104748133N12001018WA0178601863
B2059114748129N12001019WA0178801865
B2059124748125N12001017WA0179101866
B2059134748121N12001013WA0179201869
B2059144748117N12001006WA0179501872
B2059154748115N12000996WA0179701876
B2059154748115N12000996WA0179701876
B2059164748115N12000987WA0180001879
B2059174748116N12000977WA0180301882
B2059184748117N12000968WA0180601883
B2059194748119N12000959WA0180801883
B2059204748121N12000948WA0181001881
B2059214748125N12000936WA0181101880
B2059224748130N12000926WA0181201880
B2059234748136N12000917WA0181301880
B2059244748143N12000911WA0181501881
B2059254748150N12000907WA0181601882
B2059264748157N12000904WA0181701884
B2059274748164N12000904WA0181801885
B2059284748170N12000905WA0182001887
B2059294748175N12000909WA0182101888
B2059304748179N12000913WA0182201889
B2059314748181N12000918WA0182301891
B2059324748184N12000923WA0182501892
B2059334748185N12000928WA0182601895
B2059344748186N12000932WA0182801898
B2059354748186N12000936WA0183001900
B2059364748185N12000941WA0183201903
B2059374748183N12000944WA0183301906
B2059384748180N12000945WA0183601908
B2059394748177N12000945WA0183701911
B2059404748172N12000942WA0184001913
B2059414748168N12000938WA0184201916
B2059424748164N12000932WA0184401920
B2059434748161N12000924WA0184601923
B2059444748159N12000914WA0184901926
B2059454748159N12000904WA0185101929
B2059464748160N12000894WA0185401932
B2059474748162N12000884WA0185701935
B2059484748164N12000875WA0185901937
B2059494748167N12000865WA0186201937
B2059504748172N12000856WA0186401937
B2059514748178N12000846WA0186501936
B2059524748185N12000838WA0186701937
B2059534748193N12000834WA0186801938
B2059544748200N12000832WA0187001942
B2059554748206N12000833WA0187101946
B2059564748210N12000834WA0187401950
B2059574748213N12000837WA0187601953
B2059584748214N12000840WA0187801955
B2059594748215N12000843WA0188001957
B2100004748214N12000846WA0188301959
B2100014748213N12000849WA0188401961
B2100024748211N12000851WA0188701964
B2100034748210N12000853WA0188901967
B2100044748208N12000856WA0189201968
B2100054748207N12000859WA0189301970
B2100064748205N12000863WA0189601971
B2100074748204N12000867WA0189701974
B2100084748202N12000869WA0190001976
B2100094748200N12000870WA0190201980
B2100104748196N12000868WA0190401982
B2100114748191N12000864WA0190601983
B2100124748186N12000858WA0190801986
B2100134748182N12000850WA0191001990
B2100144748180N12000842WA0191401995
B2100154748179N12000832WA0191602000
B2100164748180N12000822WA0192002003
B2100174748181N12000811WA0192202004
B2100184748183N12000799WA0192502004
B2100194748187N12000788WA0192702005
B2100194748187N12000788WA0192702005
B2100204748193N12000779WA0192902006
B2100214748199N12000772WA0193002007
B2100224748206N12000767WA0193302008
B2100234748213N12000764WA0193402010
B2100244748219N12000764WA0193602011
B2100254748224N12000765WA0193802013
B2100264748228N12000768WA0194002016
B2100274748230N12000770WA0194202018
B2100284748232N12000773WA0194402021
B2100294748233N12000777WA0194602022
B2100304748233N12000781WA0194802024
B2100314748234N12000785WA0195002027
B2100324748233N12000789WA0195202029
B2100334748233N12000792WA0195402032
B2100344748231N12000796WA0195702035
B2100354748229N12000799WA0195902037
B2100364748226N12000802WA0196102039
B2100374748223N12000805WA0196302042
B2100384748220N12000809WA0196602045
B2100394748218N12000812WA0196802049
B2100404748216N12000814WA0197102052
B2100414748213N12000816WA0197302055
B2100424748208N12000816WA0197602057
B2100434748203N12000815WA0197802059
B2100444748198N12000812WA0198002061
B2100454748194N12000806WA0198202065
B2100464748191N12000800WA0198602069
B2100474748188N12000793WA0198802072
B2100484748186N12000784WA0199102074
B2100494748182N12000776WA0199302075
B2100504748178N12000766WA0199502075
B2100514748175N12000757WA0199702077
B2100524748173N12000748WA0200002080
B2100534748172N12000737WA0200102083
B2100544748172N12000726WA0200402084
B2100554748172N12000714WA0200502083
B2100564748174N12000702WA0200702083
B2100574748176N12000690WA0200802085
B2100584748180N12000679WA0201002086
B2100594748185N12000670WA0201102088
B2101004748190N12000662WA0201302090
B2101014748195N12000656WA0201402091
B2101024748201N12000652WA0201602092
B2101034748207N12000648WA0201702092
B2101044748214N12000647WA0201802092
B2101054748220N12000647WA0201902093
B2101064748226N12000648WA0202102094
B2101074748232N12000651WA0202202096
B2101084748237N12000654WA0202302097
B2101094748241N12000659WA0202402099
B2101104748244N12000664WA0202602100
B2101114748246N12000670WA0202602101
B2101124748247N12000676WA0202802103
B2101134748247N12000681WA0202902106
B2101144748246N12000685WA0203102108
B2101154748244N12000688WA0203202110
B2101164748242N12000692WA0203402112
B2101174748240N12000695WA0203602113
B2101184748237N12000698WA0203802114
B2101194748234N12000701WA0203902115
B2101204748232N12000703WA0204102118
B2101214748230N12000705WA0204202121
B2101224748228N12000706WA0204502122
B2101234748226N12000707WA0204602124
B2101234748226N12000707WA0204602124
B2101244748222N12000708WA0204802124
B2101254748219N12000709WA0204902125
B2101264748214N12000710WA0205102127
B2101274748210N12000711WA0205202129
B2101284748207N12000710WA0205402132
B2101294748203N12000708WA0205602135
B2101304748198N12000706WA0205802137
B2101314748193N12000704WA0206002139
B2101324748189N12000702WA0206202141
B2101334748184N12000699WA0206302143
B2101344748180N12000697WA0206502145
B2101354748176N12000694WA0206702147
B2101364748173N12000690WA0206902147
B2101374748169N12000686WA0207002147
B2101384748164N12000681WA0207102146
B2101394748159N12000675WA0207102145
B2101404748155N12000669WA0207102144
B2101414748150N12000662WA0207202144
B2101424748146N12000656WA0207202143
B2101434748141N12000649WA0207202142
B2101444748135N12000643WA0207202141
B2101454748130N12000637WA0207102140
B2101464748125N12000630WA0207102139
B2101474748120N12000623WA0207102139
B2101484748116N12000616WA0207102139
B2101494748111N12000610WA0207002138
B2101504748106N12000603WA0207002138
B2101514748100N12000596WA0207002137
B2101524748095N12000589WA0206902136
B2101534748090N12000581WA0206802136
B2101544748085N12000574WA0206802136
B2101554748080N12000566WA0206702135
B2101564748075N12000558WA0206702135
B2101574748071N12000551WA0206702135
B2101584748066N12000543WA0206602134
B2101594748062N12000535WA0206602133
B2102004748058N12000527WA0206502132
B2102014748054N12000518WA0206502130
B2102024748049N12000510WA0206402128
B2102034748044N12000502WA0206302126
B2102044748040N12000494WA0206202125
B2102054748035N12000485WA0206102125
B2102064748030N12000477WA0206002124
B2102074748026N12000469WA0205902124
B2102084748021N12000462WA0205902124
B2102094748016N12000454WA0205802123
B2102104748012N12000445WA0205702122
B2102114748007N12000436WA0205702120
B2102124748003N12000427WA0205602120
B2102134748000N12000418WA0205502119
B2102144747996N12000409WA0205402118
B2102154747993N12000399WA0205302117
B2102164747989N12000389WA0205202115
B2102174747986N12000379WA0205102114
B2102184747982N12000369WA0205002113
B2102194747977N12000361WA0204902112
B2102204747973N12000354WA0204802112
B2102214747968N12000347WA0204802111
B2102224747963N12000340WA0204702110
B2102234747958N12000333WA0204602109
B2102244747953N12000326WA0204502108
B2102254747948N12000319WA0204402107
B2102264747943N12000312WA0204302106
B2102274747938N12000306WA0204202105
B2102274747938N12000306WA0204202105
B2102284747933N12000299WA0204102104
B2102294747928N12000292WA0204002103
B2102304747923N12000285WA0203902102
B2102314747919N12000279WA0203802101
B2102324747914N12000272WA0203702099
B2102334747909N12000265WA0203602098
B2102344747904N12000259WA0203502097
B2102354747899N12000253WA0203402096
B2102364747894N12000246WA0203202094
B2102374747889N12000240WA0203102093
B2102384747884N12000233WA0203002091
B2102394747879N12000225WA0202902088
B2102404747874N12000217WA0202702085
B2102414747869N12000209WA0202502083
B2102424747864N12000202WA0202302081
B2102434747860N12000194WA0202202078
B2102444747856N12000185WA0201902075
B2102454747852N12000176WA0201802072
B2102464747847N12000166WA0201502069
B2102474747843N12000157WA0201302066
B2102484747839N12000148WA0201002064
B2102494747836N12000139WA0200802062
B2102504747832N12000129WA0200602060
B2102514747828N12000120WA0200402057
B2102524747824N12000111WA0200102055
B2102534747820N12000102WA0199902053
B2102544747817N12000093WA0199602052
B2102554747814N12000084WA0199502050
B2102564747810N12000075WA0199202048
B2102574747806N12000066WA0199102044
B2102584747801N12000057WA0198802041
B2102594747795N12000048WA0198502038
B2103004747790N12000040WA0198202037
B2103014747785N12000031WA0198102036
B2103024747781N12000023WA0197802037
B2103034747778N12000014WA0197702037
B2103044747774N12000005WA0197602037
B2103054747770N11959996WA0197502034
B2103064747766N11959987WA0197302031
B2103074747761N11959978WA0197102028
B2103084747756N11959969WA0196902026
B2103094747751N11959962WA0196802025
B2103104747745N11959955WA0196602023
B2103114747740N11959948WA0196402023
B2103124747735N11959942WA0196302022
B2103134747731N11959935WA0196202021
B2103144747726N11959928WA0196002020
B2103154747721N11959920WA0195902018
B2103164747716N11959912WA0195702017
B2103174747711N11959904WA0195602016
B2103184747706N11959897WA0195502016
B2103194747702N11959890WA0195402016
B2103204747698N11959884WA0195302016
B2103214747694N11959877WA0195202015
B2103224747690N11959870WA0195102013
B2103234747685N11959862WA0195002011
B2103244747680N11959854WA0194802010
B2103254747676N11959845WA0194802009
B2103264747672N11959837WA0194702009
B2103274747668N11959829WA0194602009
B2103284747664N11959821WA0194502009
B2103294747659N11959814WA0194402007
B2103304747655N11959807WA0194302006
B2103314747650N11959799WA0194302004
B2103314747650N11959799WA0194302004
B2103324747645N11959792WA0194102003
B2103334747641N11959785WA0194102002
B2103344747636N11959778WA0193902002
B2103354747631N11959772WA0193902002
B2103364747626N11959766WA0193802001
B2103374747622N11959759WA0193702001
B2103384747617N11959753WA0193602000
B2103394747612N11959747WA0193601999
B2103404747607N11959741WA0193501998
B2103414747603N11959734WA0193401997
B2103424747599N11959726WA0193301996
B2103434747595N11959718WA0193201995
B2103444747591N11959709WA0193101994
B2103454747588N11959701WA0193001993
B2103464747585N11959693WA0192901992
B2103474747582N11959685WA0192801990
B2103484747580N11959676WA0192701989
B2103494747577N11959666WA0192601986
B2103504747574N11959657WA0192501983
B2103514747571N11959649WA0192301980
B2103524747567N11959642WA0192101978
B2103534747563N11959635WA0192001976
B2103544747559N11959628WA0191801974
B2103554747556N11959621WA0191601973
B2103564747552N11959613WA0191501971
B2103574747549N11959605WA0191301969
B2103584747545N11959598WA0191101967
B2103594747540N11959591WA0190901965
B2104004747536N11959585WA0190701964
B2104014747533N11959580WA0190601963
B2104024747529N11959574WA0190401962
B2104034747526N11959568WA0190301960
B2104044747522N11959563WA0190101957
B2104054747517N11959557WA0189901953
B2104064747511N11959551WA0189701951
B2104074747506N11959545WA0189501950
B2104084747502N11959538WA0189301950
B2104094747498N11959532WA0189201951
B2104104747495N11959526WA0189101950
B2104114747491N11959520WA0189001949
B2104124747486N11959514WA0188801947
B2104134747481N11959508WA0188701944
B2104144747477N11959502WA0188501942
B2104154747473N11959496WA0188401941
B2104164747469N11959491WA0188301941
B2104174747464N11959485WA0188201940
B2104184747460N11959480WA0188001939
B2104194747456N11959475WA0187901937
B2104204747451N11959469WA0187701936
B2104214747447N11959464WA0187601935
B2104224747442N11959458WA0187501933
B2104234747438N11959453WA0187401931
B2104244747433N11959448WA0187201930
B2104254747428N11959444WA0187101929
B2104264747424N11959441WA0186901927
B2104274747420N11959437WA0186801925
B2104284747415N11959431WA0186601923
B2104294747411N11959425WA0186501921
B2104304747407N11959417WA0186301918
B2104314747403N11959409WA0186101916
B2104324747400N11959401WA0185901914
B2104334747396N11959393WA0185701912
B2104344747393N11959384WA0185501910
B2104354747389N11959376WA0185401908
B2104354747389N11959376WA0185401908
B2104364747386N11959368WA0185101906
B2104374747382N11959360WA0185001903
B2104384747378N11959352WA0184701901
B2104394747374N11959344WA0184601899
B2104404747370N11959337WA0184401897
B2104414747366N11959330WA0184201896
B2104424747362N11959323WA0184001894
B2104434747358N11959317WA0183801892
B2104444747354N11959310WA0183601890
B2104454747349N11959304WA0183401888
B2104464747345N11959297WA0183201886
B2104474747341N11959291WA0183001883
B2104484747336N11959284WA0182801881
B2104494747332N11959277WA0182601879
B2104504747328N11959269WA0182401877
B2104514747324N11959262WA0182301876
B2104524747320N11959254WA0182001874
B2104534747317N11959247WA0181901872
B2104544747313N11959240WA0181701871
B2104554747309N11959233WA0181501869
B2104564747306N11959225WA0181301867
B2104574747302N11959217WA0181201864
B2104584747299N11959209WA0180901862
B2104594747295N11959201WA0180801860
B2105004747292N11959194WA0180501859
B2105014747289N11959187WA0180401857
B2105024747285N11959179WA0180201855
B2105034747282N11959172WA0180001853
B2105044747278N11959164WA0179801850
B2105054747274N11959157WA0179601848
B2105064747271N11959149WA0179401845
B2105074747267N11959142WA0179201843
B2105084747264N11959134WA0179001841
B2105094747260N11959126WA0178801839
B2105104747257N11959117WA0178601836
B2105114747255N11959108WA0178401834
B2105124747253N11959097WA0178101832
B2105134747251N11959088WA0178001829
B2105144747248N11959078WA0177701828
B2105154747246N11959069WA0177501825
B2105164747243N11959061WA0177301823
B2105174747239N11959053WA0177101821
B2105184747236N11959045WA0176901819
B2105194747232N11959037WA0176701817
B2105204747229N11959029WA0176501816
B2105214747226N11959022WA0176301814
B2105224747223N11959014WA0176101812
B2105234747220N11959005WA0175901810
B2105244747217N11958996WA0175701808
B2105254747214N11958988WA0175601806
B2105264747211N11958979WA0175301804
B2105274747208N11958971WA0175201802
B2105284747205N11958962WA0175001801
B2105294747202N11958954WA0174801799
B2105304747199N11958945WA0174601797
B2105314747196N11958937WA0174401794
B2105324747192N11958927WA0174201792
B2105334747189N11958918WA0174001790
B2105344747186N11958910WA0173801788
B2105354747183N11958902WA0173701787
B2105364747179N11958895WA0173501786
B2105374747176N11958888WA0173301784
B2105384747173N11958882WA0173101782
B2105394747169N11958874WA0173001779
B2105404747165N11958866WA0172701776
B2105404747165N11958866WA0172701776
B2105414747161N11958858WA0172501774
B2105424747157N11958850WA0172301772
B2105434747153N11958843WA0172101771
B2105444747149N11958836WA0171901770
B2105454747146N11958829WA0171801769
B2105464747142N11958822WA0171601767
B2105474747138N11958814WA0171401764
B2105484747134N11958807WA0171201762
B2105494747130N11958800WA0171101760
B2105504747126N11958792WA0170801757
B2105514747122N11958784WA0170701755
B2105524747119N11958775WA0170401752
B2105534747116N11958765WA0170301750
B2105544747113N11958756WA0170001749
B2105554747110N11958746WA0169801748
B2105564747107N11958738WA0169601747
B2105574747105N11958728WA0169501746
B2105584747104N11958718WA0169301744
B2105594747103N11958706WA0169201742
B2106004747102N11958695WA0169001739
B2106014747100N11958684WA0168801738
B2106024747098N11958674WA0168601736
B2106034747095N11958665WA0168501735
B2106044747092N11958657WA0168301733
B2106054747089N11958649WA0168201732
B2106064747085N11958641WA0168001730
B2106074747081N11958633WA0167901728
B2106084747077N11958626WA0167701727
B2106094747074N11958618WA0167501725
B2106104747070N11958609WA0167401724
B2106114747067N11958601WA0167201722
B2106124747063N11958592WA0167001720
B2106134747060N11958582WA0166901718
B2106144747056N11958573WA0166701716
B2106154747053N11958565WA0166601715
B2106164747050N11958555WA0166401713
B2106174747048N11958546WA0166301712
B2106184747045N11958536WA0166101709
B2106194747042N11958525WA0165901707
B2106204747040N11958515WA0165701705
B2106214747037N11958505WA0165601703
B2106224747034N11958495WA0165401702
B2106234747031N11958485WA0165201700
B2106244747029N11958475WA0165101699
B2106254747027N11958465WA0164901698
B2106264747025N11958454WA0164801697
B2106274747023N11958444WA0164601695
B2106284747021N11958435WA0164501694
B2106294747018N11958426WA0164401693
B2106304747015N11958418WA0164201692
B2106314747012N11958411WA0164101690
B2106324747008N11958403WA0163901689
B2106334747004N11958395WA0163801687
B2106344747000N11958388WA0163601685
B2106354746996N11958380WA0163501684
B2106364746993N11958373WA0163401683
B2106374746989N11958365WA0163301682
B2106384746986N11958357WA0163101680
B2106394746982N11958350WA0163001677
B2106404746977N11958342WA0162701676
B2106414746973N11958335WA0162601674
B2106424746969N11958328WA0162401673
B2106434746965N11958321WA0162301672
B2106444746961N11958314WA0162201671
B2106444746961N11958314WA0162201671
B2106454746957N11958306WA0162001669
B2106464746953N11958299WA0161901667
B2106474746949N11958291WA0161701666
B2106484746945N11958283WA0161601664
B2106494746942N11958275WA0161401663
B2106504746938N11958267WA0161301662
B2106514746934N11958259WA0161101660
B2106524746931N11958252WA0161001659
B2106534746927N11958245WA0160801657
B2106544746923N11958237WA0160701655
B2106554746918N11958228WA0160501653
B2106564746914N11958221WA0160301651
B2106574746909N11958213WA0160201650
B2106584746905N11958206WA0160001649
B2106594746900N11958198WA0159901647
B2107004746896N11958190WA0159701646
B2107014746892N11958182WA0159601645
B2107024746887N11958173WA0159401643
B2107034746883N11958165WA0159301642
B2107044746879N11958157WA0159101641
B2107054746875N11958149WA0159001639
B2107064746871N11958141WA0158901638
B2107074746867N11958133WA0158701636
B2107084746863N11958125WA0158601635
B2107094746859N11958117WA0158501634
B2107104746855N11958109WA0158301632
B2107114746851N11958101WA0158201631
B2107124746847N11958093WA0158001629
B2107134746843N11958086WA0157901628
B2107144746839N11958079WA0157701627
B2107154746835N11958071WA0157601625
B2107164746831N11958064WA0157501624
B2107174746827N11958057WA0157401623
B2107184746822N11958050WA0157201622
B2107194746819N11958042WA0157101620
B2107204746815N11958035WA0156901618
B2107214746811N11958027WA0156801617
B2107224746808N11958019WA0156601614
B2107234746804N11958010WA0156501612
B2107244746800N11958002WA0156301611
B2107254746797N11957994WA0156201610
B2107264746794N11957985WA0156001609
B2107274746790N11957977WA0155901608
B2107284746786N11957970WA0155801607
B2107294746782N11957962WA0155701606
B2107304746778N11957955WA0155501605
B2107314746775N11957947WA0155401604
B2107324746771N11957940WA0155301603
B2107334746767N11957933WA0155201602
B2107344746762N11957927WA0155101600
B2107354746757N11957921WA0155001599
B2107364746753N11957915WA0154901599
B2107374746748N11957909WA0154801599
B2107384746744N11957903WA0154701599
B2107394746741N11957896WA0154701599
B2107404746736N11957889WA0154601598
B2107414746732N11957882WA0154501598
B2107424746728N11957874WA0154501597
B2107434746724N11957866WA0154401596
B2107444746720N11957858WA0154301594
B2107454746716N11957850WA0154201593
B2107464746712N11957842WA0154101591
B2107474746707N11957835WA0154001590
B2107474746707N11957835WA0154001590
B2107484746702N11957828WA0153901588
B2107494746698N11957821WA0153801587
B2107504746694N11957814WA0153701586
B2107514746690N11957808WA0153601585
B2107524746685N11957801WA0153501584
B2107534746681N11957795WA0153401582
B2107544746677N11957787WA0153301581
B2107554746673N11957780WA0153201579
B2107564746669N11957772WA0153001577
B2107574746665N11957765WA0152901575
B2107584746662N11957757WA0152701574
B2107594746658N11957750WA0152601572
B2108004746655N11957743WA0152501571
B2108014746651N11957736WA0152401569
B2108024746647N11957729WA0152201566
B2108034746643N11957722WA0152101564
B2108044746639N11957715WA0151801560
B2108054746635N11957706WA0151701557
B2108064746631N11957697WA0151401555
B2108074746627N11957689WA0151201553
B2108084746623N11957681WA0151001551
B2108094746619N11957674WA0150901549
B2108104746614N11957666WA0150601547
B2108114746610N11957658WA0150401544
B2108124746605N11957649WA0150201541
B2108134746601N11957641WA0150001538
B2108144746596N11957633WA0149701536
B2108154746592N11957625WA0149501535
B2108164746588N11957617WA0149301534
B2108174746584N11957609WA0149201532
B2108184746580N11957601WA0148901529
B2108194746575N11957593WA0148801526
B2108204746570N11957585WA0148501524
B2108214746565N11957576WA0148301521
B2108224746560N11957568WA0148101520
B2108234746556N11957561WA0147901519
B2108244746551N11957554WA0147701517
B2108254746547N11957547WA0147501515
B2108264746542N11957540WA0147301511
B2108274746537N11957532WA0147101508
B2108284746533N11957524WA0146801506
B2108294746529N11957516WA0146601505
B2108304746525N11957509WA0146401504
B2108314746521N11957502WA0146301502
B2108324746517N11957494WA0146001499
B2108334746513N11957486WA0145801495
B2108344746508N11957478WA0145501491
B2108354746503N11957470WA0145301489
B2108364746499N11957463WA0145101486
B2108374746495N11957455WA0144901485
B2108384746491N11957448WA0144601482
B2108394746486N11957441WA0144401480
B2108404746482N11957434WA0144101477
B2108414746477N11957426WA0143901474
B2108424746472N11957419WA0143601471
B2108434746467N11957412WA0143501469
B2108444746463N11957405WA0143201468
B2108454746458N11957399WA0143001466
B2108464746453N11957392WA0142701463
B2108474746448N11957385WA0142601461
B2108484746443N11957378WA0142301458
B2108494746438N11957371WA0142101456
B2108504746434N11957364WA0141801454
B2108514746429N11957357WA0141601452
B2108514746429N11957357WA0141601452
B2108524746424N11957351WA0141401450
B2108534746419N11957343WA0141201448
B2108544746415N11957336WA0140901445
B2108554746410N11957328WA0140801443
B2108564746405N11957321WA0140501441
B2108574746400N11957315WA0140301439
B2108584746395N11957309WA0140101437
B2108594746390N11957303WA0139901435
B2109004746385N11957298WA0139701432
B2109014746379N11957293WA0139501430
B2109024746374N11957288WA0139201427
B2109034746368N11957282WA0139001425
B2109044746363N11957277WA0138701423
B2109054746358N11957270WA0138601421
B2109064746353N11957264WA0138301419
B2109074746348N11957257WA0138101417
B2109084746343N11957251WA0137901415
B2109094746337N11957245WA0137701412
B2109104746331N11957239WA0137401409
B2109114746325N11957233WA0137201407
B2109124746320N11957226WA0137001406
B2109134746315N11957219WA0136801406
B2109144746311N11957212WA0136601405
B2109154746306N11957205WA0136501404
B2109164746301N11957199WA0136301402
B2109174746295N11957193WA0136201400
B2109184746290N11957187WA0136001399
B2109194746284N11957181WA0135801397
B2109204746279N11957176WA0135601396
B2109214746273N11957171WA0135501395
B2109224746268N11957167WA0135301394
B2109234746263N11957164WA0135201393
B2109244746257N11957162WA0135001392
B2109254746251N11957161WA0134901390
B2109264746245N11957159WA0134701389
B2109274746240N11957156WA0134601388
B2109284746235N11957154WA0134501387
B2109294746230N11957152WA0134401386
B2109304746224N11957150WA0134301384
B2109314746218N11957148WA0134101381
B2109324746212N11957145WA0133901379
B2109334746206N11957140WA0133801377
B2109344746200N11957135WA0133601376
B2109354746195N11957130WA0133501375
B2109364746190N11957124WA0133301373
B2109374746184N11957118WA0133201371
B2109384746179N11957112WA0133001369
B2109394746173N11957105WA0132801366
B2109404746167N11957096WA0132601364
B2109414746162N11957087WA0132401363
B2109424746157N11957079WA0132301364
B2109434746153N11957070WA0132201364
B2109444746149N11957063WA0132101364
B2109454746144N11957055WA0132001363
B2109464746139N11957046WA0131901360
B2109474746134N11957038WA0131701358
B2109484746129N11957029WA0131601357
B2109494746124N11957021WA0131501355
B2109504746119N11957013WA0131301354
B2109514746114N11957005WA0131201352
B2109524746109N11956997WA0131001349
B2109534746103N11956988WA0130901346
B2109544746098N11956980WA0130701344
B2109554746093N11956971WA0130501343
B2109554746093N11956971WA0130501343
B2109564746089N11956962WA0130401342
B2109574746085N11956953WA0130301342
B2109584746081N11956944WA0130201342
B2109594746078N11956934WA0130101342
B2110004746074N11956924WA0130001341
B2110014746070N11956914WA0129901339
B2110024746067N11956905WA0129801338
B2110034746063N11956895WA0129701337
B2110044746059N11956887WA0129601336
B2110054746055N11956878WA0129501335
B2110064746050N11956870WA0129301333
B2110074746046N11956862WA0129301332
B2110084746042N11956854WA0129201331
B2110094746038N11956845WA0129101330
B2110104746034N11956837WA0128901327
B2110114746029N11956829WA0128801325
B2110124746025N11956820WA0128601323
B2110134746021N11956811WA0128501322
B2110144746016N11956803WA0128401320
B2110154746012N11956795WA0128301319
B2110164746007N11956788WA0128101317
B2110174746001N11956779WA0127901315
B2110184745996N11956771WA0127701312
B2110194745990N11956763WA0127601311
B2110204745984N11956756WA0127401310
B2110214745979N11956748WA0127301309
B2110224745974N11956741WA0127101309
B2110234745968N11956733WA0127001309
B2110244745963N11956724WA0126901308
B2110254745958N11956715WA0126801307
B2110264745953N11956705WA0126701307
B2110274745947N11956696WA0126601307
B2110284745941N11956687WA0126501308
B2110294745936N11956678WA0126501308
B2110304745930N11956670WA0126501309
B2110314745925N11956662WA0126501310
B2110324745921N11956655WA0126501310
B2110334745916N11956647WA0126501309
B2110344745910N11956639WA0126401307
B2110354745904N11956630WA0126301304
B2110364745898N11956622WA0126201303
B2110374745892N11956614WA0126201304
B2110384745888N11956606WA0126201304
B2110394745884N11956599WA0126201304
B2110404745879N11956592WA0126201303
B2110414745873N11956584WA0126101299
B2110424745866N11956575WA0126001295
B2110434745860N11956565WA0125901292
B2110444745855N11956556WA0125701292
B2110454745850N11956546WA0125701291
B2110464745844N11956537WA0125601291
B2110474745839N11956529WA0125501289
B2110484745832N11956520WA0125301286
B2110494745825N11956510WA0125201283
B2110504745819N11956500WA0125001281
B2110514745813N11956490WA0124901281
B2110524745806N11956480WA0124701282
B2110534745799N11956470WA0124701282
B2110544745792N11956461WA0124601283
B2110554745786N11956453WA0124601283
B2110564745780N11956444WA0124501283
B2110574745774N11956436WA0124501282
B2110584745768N11956428WA0124401280
B2110594745761N11956419WA0124401278
B2110594745761N11956419WA0124401278
B2111004745754N11956410WA0124201275
B2111014745747N11956403WA0124101274
B2111024745740N11956396WA0124001273
B2111034745735N11956390WA0123901273
B2111044745730N11956384WA0123801272
B2111054745724N11956378WA0123701270
B2111064745717N11956370WA0123501264
B2111074745711N11956361WA0123301260
B2111084745705N11956353WA0123101258
B2111094745699N11956345WA0122901257
B2111104745694N11956337WA0122701256
B2111114745690N11956328WA0122601255
B2111124745685N11956319WA0122401253
B2111134745679N11956308WA0122301250
B2111144745674N11956297WA0122001247
B2111154745668N11956286WA0121801246
B2111164745662N11956276WA0121601246
B2111174745657N11956267WA0121601245
B2111184745653N11956259WA0121501244
B2111194745649N11956250WA0121401243
B2111204745643N11956241WA0121301240
B2111214745637N11956232WA0121101237
B2111224745630N11956223WA0120901235
B2111234745624N11956216WA0120801234
B2111244745618N11956210WA0120601235
B2111254745613N11956203WA0120601235
B2111264745609N11956196WA0120601235
B2111274745604N11956188WA0120501234
B2111284745598N11956180WA0120401233
B2111294745590N11956173WA0120301232
B2111304745584N11956166WA0120201233
B2111314745578N11956159WA0120201234
B2111324745573N11956152WA0120201235
B2111334745568N11956145WA0120301237
B2111344745564N11956138WA0120401237
B2111354745559N11956130WA0120401235
B2111364745553N11956122WA0120401232
B2111374745547N11956115WA0120301229
B2111384745541N11956108WA0120201227
B2111394745535N11956100WA0120201226
B2111404745530N11956093WA0120101226
B2111414745525N11956086WA0120001225
B2111424745520N11956080WA0119901223
B2111434745514N11956074WA0119801219
B2111444745507N11956069WA0119601215
B2111454745501N11956062WA0119401212
B2111464745496N11956054WA0119201210
B2111474745492N11956045WA0119001209
B2111484745489N11956036WA0118801207
B2111494745485N11956027WA0118701205
B2111504745480N11956019WA0118401202
B2111514745475N11956010WA0118201199
B2111524745469N11956000WA0117901196
B2111534745463N11955991WA0117701193
B2111544745458N11955983WA0117401192
B2111554745453N11955974WA0117301192
B2111564745448N11955965WA0117101190
B2111574745443N11955956WA0116901188
B2111584745438N11955946WA0116601185
B2111594745432N11955937WA0116501182
B2112004745425N11955928WA0116201180
B2112014745419N11955920WA0116001177
B2112024745412N11955911WA0115701176
B2112034745407N11955902WA0115501174
B2112034745407N11955902WA0115501174
B2112044745401N11955893WA0115301172
B2112054745396N11955883WA0115101169
B2112064745390N11955874WA0114801166
B2112074745384N11955865WA0114601165
B2112084745378N11955856WA0114401164
B2112094745373N11955849WA0114301163
B2112104745368N11955843WA0114201163
B2112114745364N11955836WA0114101162
B2112124745359N11955829WA0114001161
B2112134745354N11955822WA0113901160
B2112144745350N11955815WA0113801159
B2112154745345N11955808WA0113701158
B2112164745340N11955801WA0113601157
B2112174745335N11955795WA0113501157
B2112184745330N11955790WA0113401156
B2112194745326N11955783WA0113401155
B2112204745321N11955776WA0113201153
B2112214745316N11955769WA0113101151
B2112224745310N11955761WA0113001150
B2112234745305N11955754WA0112901149
B2112244745301N11955747WA0112701148
B2112254745297N11955739WA0112701146
B2112264745293N11955732WA0112601145
B2112274745289N11955725WA0112501144
B2112284745285N11955719WA0112401143
B2112294745280N11955713WA0112301142
B2112304745274N11955707WA0112101141
B2112314745268N11955702WA0112001139
B2112324745262N11955697WA0111801137
B2112334745256N11955693WA0111601136
B2112344745251N11955690WA0111501135
B2112354745246N11955686WA0111401134
B2112364745241N11955681WA0111201133
B2112374745237N11955674WA0111101131
B2112384745232N11955667WA0110901129
B2112394745227N11955660WA0110801126
B2112404745222N11955653WA0110501124
B2112414745216N11955646WA0110401121
B2112424745211N11955640WA0110101119
B2112434745206N11955633WA0110001117
B2112444745202N11955626WA0109701115
B2112454745198N11955618WA0109601112
B2112464745194N11955611WA0109401109
B2112474745191N11955603WA0109101106
B2112484745187N11955596WA0108901103
B2112494745184N11955589WA0108601099
B2112504745180N11955582WA0108201095
B2112514745176N11955575WA0108001092
B2112524745172N11955567WA0107701089
B2112534745169N11955558WA0107301086
B2112544745165N11955550WA0106901083
B2112554745163N11955541WA0106601080
B2112564745160N11955534WA0106401078
B2112574745157N11955526WA0106001075
B2112584745153N11955518WA0105501070
B2112594745149N11955510WA0105201066
B2113004745145N11955503WA0104701063
B2113014745141N11955496WA0104401060
B2113024745136N11955490WA0104101057
B2113034745131N11955484WA0103701055
B2113044745126N11955479WA0103401054
B2113054745122N11955475WA0103101052
B2113064745116N11955472WA0102901051
B2113074745110N11955470WA0102501049
B2113074745110N11955470WA0102501049
B2113084745104N11955468WA0102301049
B2113094745098N11955465WA0102101050
B2113104745094N11955461WA0102001050
B2113114745089N11955455WA0101801049
B2113124745084N11955450WA0101701048
B2113134745078N11955445WA0101501046
B2113144745071N11955440WA0101401046
B2113154745066N11955436WA0101301046
B2113164745061N11955433WA0101201048
B2113174745055N11955432WA0101101047
B2113184745049N11955431WA0101101046
B2113194745044N11955431WA0101001045
B2113204745039N11955433WA0100901044
B2113214745036N11955435WA0100801045
B2113224745033N11955438WA0100801044
B2113234745031N11955441WA0100701041
B2113244745031N11955444WA0100601039
B2113254745032N11955448WA0100501037
B2113264745035N11955451WA0100401035
B2113274745038N11955453WA0100201033
B2113284745040N11955454WA0100101032
B2113294745042N11955453WA0100101031
B2113304745044N11955453WA0100001029
B2113314745049N11955453WA0099901027
B2113324745054N11955452WA0099801025
B2113334745059N11955450WA0099601024
B2113344745063N11955448WA0099601025
B2113354745065N11955445WA0099601025
B2113364745067N11955442WA0099601024
B2113374745070N11955439WA0099601022
B2113384745073N11955436WA0099501017
B2113394745078N11955432WA0099301014
B2113404745083N11955428WA0099201012
B2113414745087N11955424WA0099101010
B2113424745091N11955419WA0099001008
B2113434745096N11955415WA0098801006
B2113444745100N11955411WA0098701003
B2113454745105N11955409WA0098400999
B2113464745110N11955408WA0098300996
B2113474745114N11955409WA0098000994
B2113484745117N11955411WA0097800992
B2113494745120N11955413WA0097600991
B2113504745122N11955415WA0097400989
B2113514745124N11955417WA0097200986
B2113524745127N11955419WA0097000982
B2113534745131N11955422WA0096700978
B2113544745134N11955425WA0096500976
B2113554745138N11955428WA0096200973
B2113564745141N11955431WA0096000969
B2113574745144N11955435WA0095600965
B2113584745148N11955439WA0095400961
B2113594745152N11955444WA0095000957
B2114004745156N11955448WA0094700955
B2114014745159N11955453WA0094300953
B2114024745161N11955457WA0094100952
B2114034745163N11955461WA0093900950
B2114044745164N11955465WA0093700947
B2114054745166N11955470WA0093400943
B2114064745169N11955475WA0093200940
B2114074745173N11955480WA0092800936
B2114084745176N11955484WA0092600934
B2114094745179N11955488WA0092300932
B2114104745181N11955491WA0092200931
B2114114745184N11955495WA0092000930
B2114114745184N11955495WA0092000930
B2114124745186N11955499WA0091900927
B2114134745188N11955503WA0091700924
B2114144745191N11955506WA0091600920
B2114154745194N11955509WA0091400917
B2114164745198N11955512WA0091200914
B2114174745202N11955513WA0091000911
B2114184745206N11955513WA0090900909
B2114194745211N11955512WA0090600907
B2114204745215N11955508WA0090500906
B2114214745219N11955504WA0090300904
B2114224745223N11955499WA0090200904
B2114234745226N11955495WA0090000904
B2114244745229N11955490WA0089900903
B2114254745234N11955483WA0089800900
B2114264745238N11955477WA0089600896
B2114274745242N11955472WA0089500896
B2114284745247N11955468WA0089400899
B2114294745250N11955465WA0089200901
B2114304745253N11955462WA0089200903
B2114314745256N11955458WA0089200904
B2114324745258N11955453WA0089100906
B2114334745260N11955447WA0089100906
B2114344745263N11955442WA0089100906
B2114354745266N11955436WA0089000905
B2114364745268N11955432WA0089000905
B2114374745271N11955429WA0089000904
B2114384745274N11955426WA0088900903
B2114394745278N11955422WA0088900902
B2114404745281N11955417WA0088800901
B2114414745284N11955410WA0088800901
B2114424745285N11955403WA0088700900
B2114434745286N11955397WA0088600900
B2114444745288N11955390WA0088600899
B2114454745290N11955384WA0088500897
B2114464745293N11955378WA0088400895
B2114474745296N11955371WA0088300893
B2114484745299N11955364WA0088300892
B2114494745301N11955358WA0088100891
B2114504745303N11955352WA0088100891
B2114514745306N11955345WA0088000889
B2114524745308N11955338WA0087900889
B2114534745310N11955329WA0087800888
B2114544745310N11955320WA0087700886
B2114554745309N11955310WA0087600885
B2114564745306N11955301WA0087500884
B2114574745301N11955294WA0087400883
B2114584745297N11955289WA0087300883
B2114594745293N11955284WA0087300882
B2115004745288N11955279WA0087200882
B2115014745282N11955275WA0087200881
B2115024745276N11955271WA0087100879
B2115034745270N11955269WA0087000878
B2115044745265N11955269WA0086900878
B2115054745261N11955271WA0086800877
B2115064745257N11955273WA0086800876
B2115074745254N11955275WA0086700875
B2115084745252N11955277WA0086600873
B2115094745250N11955281WA0086500872
B2115104745250N11955285WA0086400870
B2115114745251N11955289WA0086200869
B2115124745251N11955294WA0086100868
B2115134745251N11955296WA0086000867
B2115144745251N11955298WA0085900866
B2115144745251N11955298WA0085900866
B2115154745252N11955300WA0085800866
B2115164745253N11955300WA0085700865
B2115174745254N11955300WA0085600865
B2115184745254N11955300WA0085600865
B2115194745254N11955299WA0085500865
B2115204745254N11955298WA0085500866
B2115214745255N11955297WA0085400865
B2115224745255N11955297WA0085400866
B2115234745255N11955296WA0085400866
B2115244745255N11955296WA0085300866
B2115254745255N11955296WA0085300867
B2115264745255N11955296WA0085300867
B2115274745255N11955297WA0085300867
B2115284745255N11955297WA0085300867
B2115294745255N11955297WA0085300867
B2115304745255N11955297WA0085300867
B2115314745255N11955296WA0085200867
B2115324745255N11955296WA0085200867
B2115334745255N11955296WA0085200868
B2115344745255N11955296WA0085200867
B2115354745255N11955296WA0085200867
B2115364745256N11955295WA0085200867
B2115374745256N11955295WA0085200867
B2115384745256N11955295WA0085200868
B2115394745257N11955294WA0085200868
B2115404745257N11955294WA0085200868
B2115414745257N11955293WA0085200868
B2115424745257N11955292WA0085200868
B2115434745257N11955292WA0085200868
B2115444745256N11955291WA0085200868
B2115454745256N11955291WA0085200868
B2115464745257N11955291WA0085200868
B2115474745257N11955291WA0085200869
B2115484745257N11955291WA0085200869
B2115494745257N11955291WA0085200869
B2115504745257N11955290WA0085200869
B2115514745257N11955290WA0085200869
B2115524745257N11955289WA0085200869
B2115534745257N11955288WA0085200869
B2115544745257N11955287WA0085200869
B2115554745257N11955286WA0085200869
B2115564745257N11955286WA0085200869
B2115574745257N11955285WA0085200869
B2115584745257N11955284WA0085100869
B2115594745257N11955283WA0085100869
B2116004745257N11955282WA0085100869
B2116014745257N11955282WA0085100869
B2116024745257N11955281WA0085100869
B2116034745257N11955280WA0085100869
B2116044745257N11955279WA0085100869
B2116054745257N11955278WA0085100869
B2116064745257N11955277WA0085100869
B2116074745257N11955277WA0085100869
B2116084745257N11955276WA0085100869
B2116094745257N11955275WA0085100869
B2116104745258N11955274WA0085100869
B2116114745258N11955273WA0085100869
B2116124745258N11955272WA0085100869
B2116134745258N11955271WA0085100869
B2116144745258N11955270WA0085100869
B2116154745257N11955269WA0085100869
B2116164745257N11955269WA0085100869
B2116174745257N11955268WA0085100869
