AXFMSFP Flymaster Live, V1.0
HFFXA010
HFPLTPILOT:Wyatt Brown
HFGTYGLIDERTYPE:Bogdanfly Corvo / Ozone Alpina 4
HFGIDGLIDERID:
HFDTM100GPSDATUM:WGS-1984
HFCIDCOMPETITIONID:1717
HFCCLCOMPETITIONCLASS:
HOSITSITE:LAUNCH
HFGPS:UBLOXNEO6
HFPRSPRESSALTSENSOR:NA
HFRFWFIRMWAREVERSION:202g
HFRHWHARDWAREVERSION:1.0R2
HFFTYFRTYPE:FLYMASTER,LIVE
HFDTE170625
B1957494748237N12002322WA0109501129
B1957504748235N12002323WA0109501129
B1957514748233N12002325WA0109501128
B1957524748231N12002326WA0109401128
B1957534748227N12002327WA0109401127
B1957544748224N12002327WA0109301126
B1957554748221N12002327WA0109301127
B1957564748219N12002328WA0109301129
B1957574748218N12002328WA0109401133
B1957584748217N12002329WA0109401135
B1957594748216N12002329WA0109501136
B1958004748214N12002331WA0109501136
B1958014748213N12002334WA0109601136
B1958024748212N12002339WA0109601136
B1958034748211N12002343WA0109701137
B1958044748210N12002345WA0109701139
B1958054748208N12002346WA0109801139
B1958064748206N12002344WA0109801138
B1958074748203N12002340WA0109801137
B1958084748201N12002335WA0109901138
B1958094748200N12002329WA0109901139
B1958104748199N12002323WA0110001141
B1958114748198N12002317WA0110101142
B1958124748196N12002312WA0110101142
B1958134748193N12002309WA0110201142
B1958144748190N12002309WA0110301142
B1958154748186N12002310WA0110301141
B1958164748183N12002314WA0110301140
B1958174748181N12002319WA0110201138
B1958184748180N12002324WA0110201137
B1958194748180N12002330WA0110201136
B1958204748180N12002336WA0110201136
B1958214748181N12002343WA0110101135
B1958224748181N12002350WA0110101135
B1958234748182N12002356WA0110101135
B1958244748183N12002363WA0110101135
B1958254748185N12002370WA0110101135
B1958264748186N12002376WA0110001136
B1958274748187N12002381WA0110101137
B1958284748188N12002386WA0110101139
B1958294748188N12002390WA0110101139
B1958304748188N12002393WA0110201140
B1958314748187N12002396WA0110201138
B1958324748185N12002398WA0110101136
B1958334748181N12002400WA0110101132
B1958344748177N12002400WA0110001131
B1958354748173N12002397WA0109901131
B1958364748170N12002392WA0109901131
B1958374748167N12002388WA0109801132
B1958384748165N12002383WA0109801132
B1958394748164N12002378WA0109801131
B1958404748162N12002371WA0109701129
B1958414748161N12002363WA0109601126
B1958424748160N12002354WA0109501124
B1958434748160N12002346WA0109401124
B1958444748159N12002339WA0109301123
B1958444748159N12002339WA0109301123
B1958454748159N12002331WA0109301124
B1958464748160N12002323WA0109201123
B1958474748160N12002314WA0109201122
B1958484748159N12002305WA0109101121
B1958494748158N12002297WA0109001121
B1958504748156N12002291WA0109001121
B1958514748154N12002285WA0108901122
B1958524748152N12002281WA0108901123
B1958534748149N12002278WA0108901123
B1958544748146N12002275WA0108901121
B1958554748142N12002274WA0108801119
B1958564748137N12002273WA0108701117
B1958574748133N12002273WA0108601117
B1958584748129N12002274WA0108601118
B1958594748126N12002275WA0108601119
B1959004748122N12002275WA0108501118
B1959014748118N12002273WA0108501117
B1959024748114N12002272WA0108401115
B1959034748109N12002270WA0108401113
B1959044748104N12002269WA0108201111
B1959054748100N12002268WA0108201110
B1959064748096N12002266WA0108001109
B1959074748092N12002264WA0108001107
B1959084748089N12002263WA0107801105
B1959094748085N12002263WA0107701103
B1959104748081N12002263WA0107501099
B1959114748077N12002264WA0107401096
B1959124748073N12002264WA0107101094
B1959134748069N12002264WA0107001091
B1959144748064N12002265WA0106701088
B1959154748059N12002267WA0106501084
B1959164748055N12002271WA0106301081
B1959174748051N12002274WA0106101080
B1959184748047N12002275WA0105901080
B1959194748044N12002275WA0105801080
B1959204748041N12002275WA0105601079
B1959214748037N12002276WA0105501077
B1959224748032N12002279WA0105201074
B1959234748027N12002280WA0105101072
B1959244748022N12002282WA0104901072
B1959254748018N12002282WA0104801073
B1959264748015N12002284WA0104701073
B1959274748012N12002285WA0104601073
B1959284748008N12002287WA0104501072
B1959294748002N12002288WA0104401070
B1959304747996N12002288WA0104201068
B1959314747991N12002288WA0104101069
B1959324747987N12002290WA0104101071
B1959334747985N12002291WA0104101072
B1959344747981N12002291WA0104101073
B1959354747977N12002292WA0104001072
B1959364747972N12002292WA0104001071
B1959374747966N12002293WA0103901071
B1959384747962N12002294WA0103901072
B1959394747960N12002295WA0103901074
B1959404747957N12002295WA0103901074
B1959414747954N12002296WA0103901073
B1959424747950N12002297WA0103901070
B1959434747945N12002298WA0103801066
B1959444747940N12002299WA0103601063
B1959454747936N12002300WA0103501062
B1959464747932N12002300WA0103401062
B1959474747928N12002299WA0103401061
B1959474747928N12002299WA0103401061
B1959484747924N12002299WA0103301061
B1959494747919N12002297WA0103201060
B1959504747915N12002296WA0103101059
B1959514747911N12002294WA0103101061
B1959524747907N12002292WA0103001063
B1959534747903N12002290WA0103001065
B1959544747900N12002287WA0103101066
B1959554747896N12002284WA0103101067
B1959564747893N12002280WA0103101066
B1959574747890N12002273WA0103101064
B1959584747887N12002266WA0103001062
B1959594747884N12002259WA0103001060
B2000004747882N12002251WA0102901059
B2000014747880N12002245WA0102901058
B2000024747879N12002238WA0102801058
B2000034747878N12002231WA0102801058
B2000044747878N12002224WA0102701056
B2000054747877N12002216WA0102601054
B2000064747876N12002207WA0102501052
B2000074747876N12002198WA0102401050
B2000084747875N12002190WA0102301049
B2000094747874N12002182WA0102201049
B2000104747874N12002175WA0102101049
B2000114747874N12002167WA0102101049
B2000124747874N12002159WA0102001048
B2000134747874N12002150WA0101901048
B2000144747875N12002141WA0101901047
B2000154747875N12002132WA0101801048
B2000164747876N12002123WA0101801048
B2000174747878N12002114WA0101801049
B2000184747880N12002106WA0101801050
B2000194747882N12002098WA0101801052
B2000204747885N12002091WA0101801053
B2000214747889N12002086WA0101901053
B2000224747894N12002083WA0101901052
B2000234747900N12002080WA0101901050
B2000244747906N12002079WA0101801049
B2000254747912N12002079WA0101801048
B2000264747918N12002079WA0101801047
B2000274747924N12002081WA0101701047
B2000284747929N12002085WA0101701046
B2000294747933N12002090WA0101701046
B2000304747935N12002094WA0101701047
B2000314747937N12002097WA0101701050
B2000324747938N12002100WA0101801053
B2000334747940N12002103WA0101801054
B2000344747941N12002108WA0101801054
B2000354747942N12002115WA0101801052
B2000364747943N12002122WA0101801051
B2000374747944N12002129WA0101801053
B2000384747944N12002133WA0101901057
B2000394747944N12002134WA0102001061
B2000404747945N12002136WA0102101062
B2000414747945N12002139WA0102201062
B2000424747946N12002145WA0102301061
B2000434747946N12002151WA0102301060
B2000444747947N12002157WA0102301062
B2000454747948N12002160WA0102401066
B2000464747950N12002162WA0102501069
B2000474747952N12002165WA0102601071
B2000484747953N12002169WA0102801072
B2000494747955N12002174WA0102901073
B2000504747956N12002179WA0103001074
B2000514747958N12002182WA0103101075
B2000514747958N12002182WA0103101075
B2000524747959N12002185WA0103201076
B2000534747959N12002189WA0103301075
B2000544747959N12002194WA0103301073
B2000554747960N12002201WA0103301071
B2000564747961N12002207WA0103401071
B2000574747962N12002213WA0103401071
B2000584747963N12002219WA0103401072
B2000594747964N12002224WA0103501072
B2001004747964N12002230WA0103501072
B2001014747965N12002236WA0103501071
B2001024747965N12002242WA0103501070
B2001034747965N12002249WA0103501069
B2001044747962N12002255WA0103401068
B2001054747959N12002261WA0103401067
B2001064747955N12002265WA0103301066
B2001074747952N12002268WA0103301067
B2001084747949N12002270WA0103301068
B2001094747945N12002270WA0103301067
B2001104747940N12002267WA0103201065
B2001114747937N12002262WA0103201061
B2001124747934N12002254WA0103101058
B2001134747933N12002245WA0103001056
B2001144747932N12002237WA0102801054
B2001154747932N12002229WA0102701053
B2001164747933N12002220WA0102601051
B2001174747933N12002211WA0102501048
B2001184747935N12002201WA0102301046
B2001194747937N12002192WA0102101044
B2001204747939N12002183WA0102001043
B2001214747940N12002175WA0101901043
B2001224747942N12002167WA0101801043
B2001234747944N12002159WA0101701042
B2001244747947N12002150WA0101601041
B2001254747950N12002142WA0101501040
B2001264747954N12002133WA0101401040
B2001274747959N12002125WA0101301041
B2001284747963N12002119WA0101301043
B2001294747968N12002115WA0101301046
B2001304747972N12002114WA0101401048
B2001314747976N12002115WA0101401048
B2001324747980N12002118WA0101401048
B2001334747983N12002123WA0101401048
B2001344747984N12002127WA0101401048
B2001354747985N12002132WA0101501047
B2001364747985N12002136WA0101501047
B2001374747984N12002140WA0101501047
B2001384747981N12002144WA0101401046
B2001394747977N12002146WA0101401046
B2001404747973N12002145WA0101401047
B2001414747969N12002143WA0101501049
B2001424747965N12002140WA0101501052
B2001434747962N12002136WA0101601054
B2001444747959N12002132WA0101701054
B2001454747955N12002127WA0101701054
B2001464747952N12002120WA0101801054
B2001474747951N12002111WA0101801053
B2001484747951N12002101WA0101801052
B2001494747953N12002091WA0101801051
B2001504747957N12002082WA0101801050
B2001514747963N12002077WA0101701049
B2001524747969N12002077WA0101701048
B2001534747974N12002079WA0101701049
B2001544747978N12002082WA0101701049
B2001544747978N12002082WA0101701049
B2001554747981N12002085WA0101701051
B2001564747983N12002088WA0101801052
B2001574747985N12002091WA0101801052
B2001584747988N12002096WA0101801052
B2001594747990N12002103WA0101801050
B2002004747992N12002110WA0101801049
B2002014747993N12002116WA0101801052
B2002024747994N12002119WA0101901057
B2002034747994N12002121WA0102001061
B2002044747994N12002124WA0102101062
B2002054747994N12002128WA0102201061
B2002064747993N12002134WA0102201060
B2002074747990N12002139WA0102201059
B2002084747987N12002141WA0102301061
B2002094747984N12002140WA0102301061
B2002104747980N12002137WA0102301061
B2002114747976N12002132WA0102401061
B2002124747972N12002126WA0102401061
B2002134747971N12002117WA0102401060
B2002144747971N12002107WA0102401058
B2002154747972N12002096WA0102401057
B2002164747974N12002086WA0102401057
B2002174747977N12002078WA0102401058
B2002184747982N12002073WA0102401058
B2002194747989N12002070WA0102401057
B2002204747995N12002071WA0102401057
B2002214748000N12002073WA0102401059
B2002224748004N12002077WA0102401061
B2002234748006N12002082WA0102501063
B2002244748007N12002087WA0102601064
B2002254748007N12002092WA0102601064
B2002264748005N12002096WA0102701065
B2002274748002N12002098WA0102701065
B2002284747999N12002098WA0102801065
B2002294747995N12002096WA0102801065
B2002304747991N12002093WA0102901065
B2002314747986N12002088WA0102901064
B2002324747982N12002081WA0102901064
B2002334747979N12002075WA0102901064
B2002344747976N12002070WA0102901064
B2002354747972N12002065WA0102901063
B2002364747968N12002060WA0102901061
B2002374747964N12002056WA0102901059
B2002384747960N12002052WA0102801057
B2002394747956N12002049WA0102701054
B2002404747952N12002049WA0102501050
B2002414747948N12002050WA0102401046
B2002424747943N12002051WA0102101042
B2002434747937N12002051WA0101901039
B2002444747932N12002053WA0101701037
B2002454747927N12002055WA0101501034
B2002464747923N12002059WA0101201032
B2002474747919N12002062WA0101101031
B2002484747916N12002064WA0100901031
B2002494747912N12002065WA0100701029
B2002504747909N12002067WA0100501026
B2002514747905N12002071WA0100301022
B2002524747901N12002076WA0100001019
B2002534747897N12002082WA0099801016
B2002544747894N12002087WA0099601016
B2002554747891N12002091WA0099401015
B2002564747888N12002096WA0099301015
B2002574747885N12002100WA0099101014
B2002574747885N12002100WA0099101014
B2002584747881N12002104WA0099001013
B2002594747878N12002110WA0098801011
B2003004747875N12002117WA0098601009
B2003014747872N12002122WA0098501010
B2003024747869N12002127WA0098401010
B2003034747866N12002131WA0098401012
B2003044747864N12002134WA0098301012
B2003054747862N12002138WA0098301012
B2003064747858N12002142WA0098201009
B2003074747854N12002146WA0098101007
B2003084747850N12002150WA0098001008
B2003094747848N12002153WA0098001008
B2003104747845N12002156WA0097901009
B2003114747842N12002161WA0097901007
B2003124747838N12002165WA0097801003
B2003134747834N12002170WA0097701000
B2003144747829N12002173WA0097500997
B2003154747824N12002178WA0097300994
B2003164747821N12002182WA0097100992
B2003174747817N12002187WA0097000991
B2003184747813N12002192WA0096800990
B2003194747809N12002196WA0096700989
B2003204747805N12002200WA0096600988
B2003214747800N12002205WA0096500986
B2003224747795N12002209WA0096300984
B2003234747790N12002213WA0096200983
B2003244747785N12002218WA0096000983
B2003254747780N12002222WA0095900982
B2003264747775N12002227WA0095800982
B2003274747770N12002231WA0095700982
B2003284747765N12002236WA0095600983
B2003294747761N12002239WA0095600984
B2003304747758N12002242WA0095600986
B2003314747755N12002245WA0095600987
B2003324747751N12002247WA0095600988
B2003334747747N12002251WA0095600987
B2003344747743N12002254WA0095600988
B2003354747739N12002257WA0095700989
B2003364747735N12002260WA0095700990
B2003374747732N12002262WA0095700991
B2003384747728N12002265WA0095800992
B2003394747725N12002268WA0095800993
B2003404747721N12002271WA0095900995
B2003414747718N12002273WA0096000997
B2003424747715N12002273WA0096101000
B2003434747711N12002272WA0096201003
B2003444747706N12002272WA0096401005
B2003454747702N12002274WA0096501007
B2003464747699N12002277WA0096701009
B2003474747697N12002281WA0096801012
B2003484747695N12002284WA0097001015
B2003494747693N12002287WA0097201017
B2003504747689N12002290WA0097401017
B2003514747686N12002294WA0097501018
B2003524747682N12002297WA0097601019
B2003534747678N12002300WA0097701020
B2003544747674N12002301WA0097901022
B2003554747670N12002300WA0098001022
B2003564747665N12002299WA0098201024
B2003574747659N12002298WA0098301025
B2003584747654N12002297WA0098501029
B2003594747648N12002296WA0098601032
B2004004747644N12002294WA0098901036
B2004004747644N12002294WA0098901036
B2004014747640N12002291WA0099001039
B2004024747637N12002285WA0099301041
B2004034747636N12002276WA0099501042
B2004044747635N12002266WA0099701042
B2004054747636N12002256WA0099801043
B2004064747638N12002247WA0100001045
B2004074747642N12002240WA0100101047
B2004084747648N12002234WA0100301047
B2004094747654N12002231WA0100401048
B2004104747659N12002230WA0100601049
B2004114747664N12002233WA0100701052
B2004124747667N12002238WA0100901055
B2004134747667N12002244WA0101101059
B2004144747666N12002249WA0101401063
B2004154747664N12002253WA0101601068
B2004164747661N12002256WA0101901072
B2004174747658N12002258WA0102101075
B2004184747653N12002259WA0102401076
B2004194747647N12002257WA0102601076
B2004204747643N12002251WA0102801076
B2004214747640N12002243WA0103001077
B2004224747639N12002233WA0103201078
B2004234747640N12002223WA0103301078
B2004244747642N12002213WA0103501079
B2004254747646N12002204WA0103601080
B2004264747650N12002198WA0103801082
B2004274747655N12002195WA0103901083
B2004284747661N12002193WA0104101084
B2004294747666N12002194WA0104201085
B2004304747670N12002196WA0104401087
B2004314747674N12002200WA0104501090
B2004324747676N12002204WA0104701092
B2004334747676N12002209WA0104801095
B2004344747676N12002214WA0105101098
B2004354747674N12002218WA0105201101
B2004364747671N12002221WA0105501103
B2004374747668N12002226WA0105601105
B2004384747665N12002230WA0105901108
B2004394747661N12002233WA0106001111
B2004404747656N12002234WA0106301115
B2004414747652N12002231WA0106501116
B2004424747647N12002224WA0106701114
B2004434747645N12002215WA0106801113
B2004444747644N12002206WA0106901114
B2004454747646N12002197WA0107001114
B2004464747649N12002189WA0107201114
B2004474747654N12002182WA0107201112
B2004484747660N12002177WA0107301112
B2004494747666N12002174WA0107301111
B2004504747672N12002174WA0107401112
B2004514747676N12002177WA0107401114
B2004524747679N12002180WA0107601118
B2004534747681N12002184WA0107701121
B2004544747681N12002188WA0107901125
B2004554747682N12002194WA0108001127
B2004564747682N12002200WA0108201131
B2004574747681N12002205WA0108401135
B2004584747679N12002210WA0108701139
B2004594747676N12002213WA0108801141
B2005004747672N12002216WA0109101141
B2005014747666N12002216WA0109201141
B2005024747660N12002214WA0109401141
B2005034747655N12002209WA0109501143
B2005034747655N12002209WA0109501143
B2005044747650N12002202WA0109701145
B2005054747647N12002193WA0109901147
B2005064747647N12002184WA0110101149
B2005074747648N12002177WA0110201149
B2005084747652N12002171WA0110301148
B2005094747658N12002168WA0110401147
B2005104747663N12002169WA0110501148
B2005114747665N12002171WA0110601151
B2005124747665N12002173WA0110801155
B2005134747665N12002177WA0110901158
B2005144747663N12002181WA0111101159
B2005154747661N12002186WA0111201160
B2005164747657N12002190WA0111401160
B2005174747652N12002191WA0111501161
B2005184747646N12002190WA0111601162
B2005194747641N12002186WA0111701164
B2005204747637N12002180WA0111901165
B2005214747634N12002173WA0112001166
B2005224747631N12002166WA0112101167
B2005234747629N12002159WA0112201168
B2005244747627N12002152WA0112301168
B2005254747627N12002144WA0112401168
B2005264747628N12002135WA0112501168
B2005274747631N12002127WA0112501166
B2005284747635N12002119WA0112501165
B2005294747639N12002113WA0112601164
B2005304747643N12002108WA0112601164
B2005314747649N12002105WA0112601164
B2005324747654N12002104WA0112601163
B2005334747660N12002104WA0112601161
B2005344747664N12002106WA0112601161
B2005354747668N12002110WA0112501161
B2005364747669N12002115WA0112601163
B2005374747668N12002119WA0112601165
B2005384747666N12002122WA0112601166
B2005394747664N12002125WA0112701166
B2005404747661N12002128WA0112701166
B2005414747657N12002132WA0112701165
B2005424747652N12002134WA0112701164
B2005434747647N12002135WA0112701163
B2005444747641N12002133WA0112701163
B2005454747637N12002128WA0112701161
B2005464747633N12002120WA0112601160
B2005474747631N12002110WA0112601158
B2005484747631N12002101WA0112501157
B2005494747632N12002092WA0112401156
B2005504747634N12002086WA0112401157
B2005514747636N12002080WA0112401158
B2005524747638N12002075WA0112401159
B2005534747640N12002070WA0112401159
B2005544747642N12002066WA0112301158
B2005554747646N12002064WA0112301156
B2005564747651N12002064WA0112201154
B2005574747656N12002065WA0112101150
B2005584747661N12002068WA0112001148
B2005594747664N12002072WA0111901146
B2006004747667N12002075WA0111701145
B2006014747670N12002080WA0111601143
B2006024747673N12002085WA0111401141
B2006034747675N12002091WA0111301140
B2006044747676N12002098WA0111201139
B2006054747677N12002104WA0111101140
B2006064747677N12002110WA0111001141
B2006074747676N12002115WA0111001143
B2006074747676N12002115WA0111001143
B2006084747675N12002121WA0110901144
B2006094747674N12002126WA0110901145
B2006104747672N12002132WA0110901146
B2006114747669N12002137WA0110901147
B2006124747666N12002142WA0111001149
B2006134747663N12002146WA0111001151
B2006144747658N12002148WA0111101152
B2006154747653N12002147WA0111201153
B2006164747647N12002144WA0111201153
B2006174747641N12002138WA0111301153
B2006184747637N12002128WA0111301153
B2006194747637N12002118WA0111401153
B2006204747639N12002108WA0111401153
B2006214747643N12002101WA0111401152
B2006224747647N12002097WA0111501153
B2006234747651N12002096WA0111501153
B2006244747655N12002097WA0111501153
B2006254747659N12002100WA0111501152
B2006264747662N12002103WA0111601152
B2006274747665N12002107WA0111601153
B2006284747666N12002112WA0111601154
B2006294747667N12002116WA0111701156
B2006304747669N12002120WA0111701159
B2006314747670N12002123WA0111801161
B2006324747672N12002127WA0111901163
B2006334747673N12002131WA0112001164
B2006344747674N12002135WA0112101165
B2006354747674N12002140WA0112201164
B2006364747673N12002145WA0112201164
B2006374747671N12002150WA0112201163
B2006384747667N12002153WA0112301163
B2006394747663N12002154WA0112301162
B2006404747657N12002153WA0112301162
B2006414747652N12002150WA0112301162
B2006424747648N12002145WA0112301162
B2006434747644N12002139WA0112301161
B2006444747642N12002131WA0112301160
B2006454747641N12002123WA0112301158
B2006464747642N12002114WA0112301157
B2006474747645N12002108WA0112201156
B2006484747649N12002104WA0112201159
B2006494747651N12002102WA0112301162
B2006504747653N12002100WA0112401164
B2006514747655N12002097WA0112401165
B2006524747658N12002094WA0112501165
B2006534747661N12002090WA0112501164
B2006544747664N12002086WA0112501164
B2006554747668N12002082WA0112501164
B2006564747672N12002080WA0112501163
B2006574747677N12002080WA0112501163
B2006584747680N12002081WA0112601165
B2006594747684N12002083WA0112601167
B2007004747686N12002086WA0112701169
B2007014747689N12002088WA0112801170
B2007024747692N12002091WA0112801170
B2007034747695N12002095WA0112901170
B2007044747697N12002099WA0112901169
B2007054747698N12002103WA0112901169
B2007064747698N12002107WA0112901169
B2007074747698N12002112WA0113001169
B2007084747698N12002117WA0113001169
B2007094747698N12002123WA0113001170
B2007104747697N12002127WA0113001171
B2007104747697N12002127WA0113001171
B2007114747696N12002131WA0113101172
B2007124747694N12002134WA0113101173
B2007134747693N12002138WA0113201173
B2007144747690N12002142WA0113201172
B2007154747688N12002146WA0113201171
B2007164747685N12002150WA0113201171
B2007174747682N12002154WA0113201171
B2007184747679N12002158WA0113201171
B2007194747675N12002161WA0113201170
B2007204747671N12002163WA0113201170
B2007214747667N12002164WA0113201169
B2007224747662N12002164WA0113201167
B2007234747658N12002163WA0113101166
B2007244747654N12002161WA0113101165
B2007254747649N12002156WA0113001163
B2007264747645N12002149WA0112901161
B2007274747642N12002142WA0112801160
B2007284747640N12002136WA0112801161
B2007294747639N12002129WA0112801162
B2007304747639N12002122WA0112701162
B2007314747640N12002114WA0112701161
B2007324747642N12002107WA0112601160
B2007334747646N12002102WA0112601159
B2007344747650N12002099WA0112501159
B2007354747654N12002099WA0112501159
B2007364747658N12002100WA0112501160
B2007374747661N12002102WA0112501161
B2007384747664N12002104WA0112501161
B2007394747667N12002106WA0112401160
B2007404747671N12002108WA0112401157
B2007414747675N12002110WA0112301155
B2007424747679N12002113WA0112201154
B2007434747682N12002118WA0112101154
B2007444747684N12002122WA0112101155
B2007454747685N12002127WA0112101157
B2007464747687N12002130WA0112101157
B2007474747690N12002133WA0112101159
B2007484747692N12002137WA0112101160
B2007494747695N12002143WA0112101161
B2007504747696N12002148WA0112201162
B2007514747698N12002154WA0112201164
B2007524747699N12002161WA0112301165
B2007534747700N12002167WA0112401167
B2007544747702N12002172WA0112501169
B2007554747703N12002177WA0112601172
B2007564747704N12002183WA0112701174
B2007574747705N12002189WA0112801175
B2007584747706N12002196WA0112901176
B2007594747707N12002203WA0113001178
B2008004747707N12002210WA0113201181
B2008014747707N12002216WA0113301184
B2008024747706N12002221WA0113601187
B2008034747706N12002227WA0113701188
B2008044747705N12002233WA0113901190
B2008054747704N12002239WA0114101192
B2008064747702N12002245WA0114301194
B2008074747700N12002250WA0114501198
B2008084747697N12002254WA0114701201
B2008094747692N12002256WA0114901203
B2008104747687N12002256WA0115101205
B2008114747681N12002252WA0115301206
B2008124747678N12002244WA0115501208
B2008134747676N12002234WA0115701209
B2008134747676N12002234WA0115701209
B2008144747677N12002225WA0115901210
B2008154747680N12002217WA0116001212
B2008164747684N12002210WA0116301216
B2008174747689N12002206WA0116401218
B2008184747694N12002206WA0116701220
B2008194747700N12002208WA0116801221
B2008204747704N12002212WA0117101222
B2008214747707N12002217WA0117201226
B2008224747708N12002223WA0117501229
B2008234747707N12002229WA0117701232
B2008244747705N12002235WA0118001235
B2008254747702N12002239WA0118101238
B2008264747697N12002240WA0118401240
B2008274747692N12002238WA0118601241
B2008284747688N12002232WA0118801241
B2008294747685N12002224WA0119001242
B2008304747685N12002214WA0119201243
B2008314747687N12002206WA0119301245
B2008324747690N12002199WA0119501247
B2008334747695N12002194WA0119701249
B2008344747701N12002192WA0119901251
B2008354747707N12002193WA0120001253
B2008364747711N12002196WA0120301255
B2008374747713N12002202WA0120401257
B2008384747714N12002209WA0120701260
B2008394747712N12002215WA0120801263
B2008404747710N12002220WA0121101266
B2008414747707N12002223WA0121301270
B2008424747703N12002225WA0121601272
B2008434747698N12002224WA0121701272
B2008444747693N12002220WA0122001272
B2008454747689N12002214WA0122101272
B2008464747686N12002207WA0122301273
B2008474747685N12002199WA0122401274
B2008484747684N12002191WA0122601276
B2008494747682N12002183WA0122701279
B2008504747682N12002176WA0122901281
B2008514747683N12002169WA0123101284
B2008524747687N12002162WA0123301286
B2008534747692N12002158WA0123401287
B2008544747698N12002157WA0123701290
B2008554747703N12002159WA0123801293
B2008564747707N12002164WA0124101296
B2008574747708N12002171WA0124301300
B2008584747708N12002176WA0124601303
B2008594747707N12002181WA0124701305
B2009004747705N12002184WA0125001307
B2009014747702N12002188WA0125201308
B2009024747699N12002190WA0125401307
B2009034747695N12002191WA0125501306
B2009044747690N12002190WA0125601303
B2009054747685N12002184WA0125601300
B2009064747681N12002175WA0125601299
B2009074747680N12002165WA0125601299
B2009084747681N12002157WA0125701302
B2009094747682N12002150WA0125801305
B2009104747685N12002143WA0125901306
B2009114747688N12002136WA0126001308
B2009124747692N12002130WA0126101309
B2009134747697N12002125WA0126201311
B2009144747701N12002121WA0126301315
B2009154747706N12002118WA0126501319
B2009164747709N12002118WA0126801324
B2009174747713N12002119WA0126901327
B2009174747713N12002119WA0126901327
B2009184747716N12002121WA0127201329
B2009194747719N12002126WA0127401331
B2009204747720N12002132WA0127601333
B2009214747718N12002136WA0127801336
B2009224747715N12002139WA0128001338
B2009234747710N12002140WA0128201338
B2009244747705N12002139WA0128401338
B2009254747701N12002136WA0128501339
B2009264747697N12002131WA0128701340
B2009274747694N12002123WA0128801340
B2009284747693N12002113WA0128901340
B2009294747694N12002103WA0129001341
B2009304747697N12002095WA0129201343
B2009314747701N12002090WA0129301345
B2009324747706N12002089WA0129401346
B2009334747710N12002089WA0129501348
B2009344747714N12002090WA0129701350
B2009354747718N12002093WA0129801351
B2009364747721N12002097WA0130001353
B2009374747723N12002102WA0130101354
B2009384747725N12002108WA0130301355
B2009394747725N12002112WA0130401357
B2009404747724N12002115WA0130501358
B2009414747721N12002116WA0130601357
B2009424747717N12002116WA0130701354
B2009434747712N12002114WA0130601349
B2009444747706N12002109WA0130601347
B2009454747702N12002103WA0130601347
B2009464747700N12002096WA0130601347
B2009474747697N12002088WA0130601347
B2009484747693N12002080WA0130601348
B2009494747689N12002073WA0130601349
B2009504747686N12002065WA0130601351
B2009514747686N12002056WA0130601352
B2009524747688N12002047WA0130701351
B2009534747693N12002038WA0130701349
B2009544747698N12002032WA0130701350
B2009554747703N12002029WA0130701352
B2009564747708N12002031WA0130701353
B2009574747712N12002035WA0130801354
B2009584747715N12002040WA0130901357
B2009594747715N12002045WA0130901360
B2010004747714N12002049WA0131101363
B2010014747711N12002053WA0131201365
B2010024747706N12002054WA0131401367
B2010034747702N12002053WA0131501369
B2010044747697N12002049WA0131701371
B2010054747692N12002042WA0131801371
B2010064747687N12002034WA0131901372
B2010074747684N12002025WA0132001373
B2010084747684N12002015WA0132201376
B2010094747687N12002006WA0132301377
B2010104747693N12001998WA0132401376
B2010114747699N12001993WA0132501378
B2010124747705N12001992WA0132701381
B2010134747709N12001993WA0132801383
B2010144747713N12001997WA0133001383
B2010154747716N12002002WA0133101383
B2010164747718N12002008WA0133201384
B2010174747719N12002014WA0133301386
B2010184747718N12002019WA0133501388
B2010194747715N12002023WA0133601390
B2010204747711N12002025WA0133801391
B2010204747711N12002025WA0133801391
B2010214747705N12002025WA0133901393
B2010224747701N12002022WA0134001394
B2010234747697N12002016WA0134101395
B2010244747695N12002008WA0134301395
B2010254747693N12001998WA0134301394
B2010264747692N12001988WA0134401394
B2010274747693N12001978WA0134501396
B2010284747694N12001969WA0134601398
B2010294747697N12001962WA0134701401
B2010304747701N12001957WA0134901403
B2010314747706N12001953WA0135001404
B2010324747711N12001952WA0135201405
B2010334747716N12001954WA0135201405
B2010344747721N12001957WA0135401406
B2010354747725N12001961WA0135501407
B2010364747726N12001966WA0135601409
B2010374747726N12001972WA0135701411
B2010384747725N12001977WA0135901412
B2010394747723N12001981WA0136001414
B2010404747719N12001984WA0136101415
B2010414747715N12001984WA0136201416
B2010424747710N12001983WA0136401417
B2010434747705N12001980WA0136501417
B2010444747701N12001974WA0136601417
B2010454747697N12001967WA0136601416
B2010464747694N12001958WA0136701416
B2010474747694N12001949WA0136801418
B2010484747695N12001940WA0136901420
B2010494747698N12001933WA0137001422
B2010504747701N12001927WA0137101423
B2010514747706N12001921WA0137201423
B2010524747711N12001918WA0137301422
B2010534747717N12001916WA0137301422
B2010544747722N12001917WA0137401423
B2010554747727N12001919WA0137501424
B2010564747731N12001923WA0137501425
B2010574747733N12001928WA0137601426
B2010584747734N12001934WA0137701428
B2010594747733N12001941WA0137801429
B2011004747731N12001947WA0137901430
B2011014747729N12001952WA0138001432
B2011024747726N12001956WA0138101433
B2011034747724N12001958WA0138201433
B2011044747720N12001958WA0138301432
B2011054747716N12001956WA0138301428
B2011064747711N12001955WA0138201425
B2011074747706N12001955WA0138201423
B2011084747701N12001952WA0138201422
B2011094747697N12001947WA0138101422
B2011104747694N12001939WA0138101421
B2011114747693N12001931WA0138001421
B2011124747693N12001922WA0138001420
B2011134747694N12001913WA0138001420
B2011144747696N12001905WA0137901421
B2011154747699N12001898WA0137901421
B2011164747702N12001892WA0137901421
B2011174747707N12001887WA0137901421
B2011184747713N12001883WA0137901420
B2011194747719N12001882WA0137801420
B2011204747723N12001882WA0137801421
B2011214747728N12001883WA0137801422
B2011224747732N12001885WA0137801423
B2011234747736N12001888WA0137901424
B2011234747736N12001888WA0137901424
B2011244747739N12001892WA0137901426
B2011254747742N12001897WA0138001428
B2011264747743N12001902WA0138001429
B2011274747744N12001908WA0138101431
B2011284747745N12001914WA0138201432
B2011294747745N12001919WA0138301434
B2011304747747N12001923WA0138401435
B2011314747748N12001926WA0138401435
B2011324747751N12001930WA0138501434
B2011334747754N12001935WA0138501431
B2011344747757N12001940WA0138401427
B2011354747759N12001945WA0138301423
B2011364747762N12001949WA0138201420
B2011374747765N12001955WA0138101416
B2011384747768N12001960WA0137801412
B2011394747771N12001967WA0137601407
B2011404747774N12001974WA0137301403
B2011414747776N12001981WA0137101400
B2011424747779N12001987WA0136801396
B2011434747782N12001994WA0136601393
B2011444747785N12002001WA0136201389
B2011454747788N12002008WA0136001385
B2011464747791N12002015WA0135601382
B2011474747794N12002022WA0135401378
B2011484747798N12002029WA0135001374
B2011494747803N12002036WA0134701370
B2011504747807N12002042WA0134301366
B2011514747810N12002049WA0134101363
B2011524747814N12002055WA0133701362
B2011534747816N12002059WA0133501361
B2011544747819N12002063WA0133201359
B2011554747823N12002068WA0133001356
B2011564747826N12002074WA0132701353
B2011574747829N12002082WA0132401349
B2011584747833N12002089WA0132101347
B2011594747837N12002094WA0131901347
B2012004747840N12002099WA0131701348
B2012014747843N12002103WA0131501348
B2012024747845N12002108WA0131301347
B2012034747848N12002113WA0131201344
B2012044747852N12002120WA0130901341
B2012054747856N12002127WA0130701337
B2012064747860N12002135WA0130501334
B2012074747863N12002142WA0130301334
B2012084747866N12002148WA0130101334
B2012094747869N12002153WA0130001335
B2012104747872N12002157WA0129801334
B2012114747875N12002162WA0129701333
B2012124747878N12002167WA0129601330
B2012134747882N12002172WA0129401327
B2012144747885N12002178WA0129301325
B2012154747889N12002183WA0129101324
B2012164747892N12002188WA0128901322
B2012174747896N12002193WA0128801319
B2012184747900N12002200WA0128501316
B2012194747905N12002207WA0128301312
B2012204747909N12002213WA0128101309
B2012214747913N12002219WA0127901308
B2012224747916N12002224WA0127601307
B2012234747919N12002229WA0127501305
B2012244747923N12002235WA0127301303
B2012254747926N12002241WA0127101300
B2012264747931N12002246WA0126801298
B2012264747931N12002246WA0126801298
B2012274747935N12002251WA0126701296
B2012284747939N12002256WA0126401295
B2012294747943N12002260WA0126301294
B2012304747948N12002264WA0126101291
B2012314747953N12002269WA0125901287
B2012324747959N12002274WA0125601282
B2012334747964N12002280WA0125301279
B2012344747969N12002286WA0125001276
B2012354747974N12002290WA0124801273
B2012364747980N12002294WA0124501270
B2012374747986N12002299WA0124301267
B2012384747991N12002304WA0124001264
B2012394747996N12002310WA0123701261
B2012404748002N12002316WA0123401259
B2012414748007N12002321WA0123201257
B2012424748013N12002326WA0123001257
B2012434748018N12002330WA0122801257
B2012444748022N12002335WA0122701257
B2012454748026N12002340WA0122501257
B2012464748030N12002345WA0122401255
B2012474748034N12002351WA0122301253
B2012484748039N12002356WA0122101251
B2012494748044N12002362WA0121901250
B2012504748049N12002367WA0121801250
B2012514748053N12002372WA0121701249
B2012524748058N12002376WA0121501248
B2012534748063N12002382WA0121401247
B2012544748069N12002388WA0121301246
B2012554748074N12002393WA0121201247
B2012564748079N12002398WA0121101247
B2012574748084N12002403WA0121101249
B2012584748089N12002409WA0121101249
B2012594748095N12002414WA0121101250
B2013004748100N12002418WA0121101251
B2013014748106N12002423WA0121101253
B2013024748112N12002426WA0121101254
B2013034748118N12002429WA0121101256
B2013044748124N12002431WA0121201257
B2013054748130N12002433WA0121301258
B2013064748136N12002435WA0121401260
B2013074748142N12002436WA0121401261
B2013084748148N12002436WA0121501262
B2013094748155N12002437WA0121601264
B2013104748161N12002437WA0121701265
B2013114748167N12002437WA0121801266
B2013124748173N12002437WA0121901268
B2013134748180N12002437WA0122001269
B2013144748186N12002436WA0122101269
B2013154748193N12002434WA0122201270
B2013164748199N12002433WA0122301271
B2013174748206N12002433WA0122401271
B2013184748212N12002435WA0122501272
B2013194748217N12002440WA0122501273
B2013204748222N12002446WA0122601273
B2013214748225N12002453WA0122701275
B2013224748229N12002458WA0122801277
B2013234748231N12002463WA0122901279
B2013244748234N12002469WA0123101281
B2013254748236N12002475WA0123101281
B2013264748238N12002483WA0123301281
B2013274748241N12002490WA0123301282
B2013284748243N12002497WA0123401285
B2013294748246N12002503WA0123501286
B2013294748246N12002503WA0123501286
B2013304748248N12002509WA0123701288
B2013314748250N12002516WA0123801291
B2013324748252N12002522WA0124001293
B2013334748254N12002528WA0124201296
B2013344748256N12002533WA0124401298
B2013354748258N12002538WA0124501300
B2013364748260N12002545WA0124701300
B2013374748260N12002552WA0124801301
B2013384748260N12002559WA0125001302
B2013394748260N12002566WA0125101304
B2013404748260N12002572WA0125301307
B2013414748259N12002576WA0125501310
B2013424748258N12002580WA0125701313
B2013434748255N12002581WA0125901314
B2013444748251N12002582WA0126101315
B2013454748248N12002580WA0126201318
B2013464748244N12002578WA0126401321
B2013474748241N12002576WA0126601325
B2013484748238N12002573WA0126901330
B2013494748237N12002568WA0127201334
B2013504748238N12002560WA0127501336
B2013514748243N12002551WA0127701337
B2013524748249N12002545WA0128001339
B2013534748257N12002544WA0128201343
B2013544748263N12002549WA0128501348
B2013554748267N12002557WA0128701352
B2013564748268N12002564WA0129101355
B2013574748267N12002570WA0129401360
B2013584748266N12002574WA0129801365
B2013594748264N12002576WA0130101369
B2014004748261N12002578WA0130501373
B2014014748257N12002578WA0130801376
B2014024748253N12002575WA0131201379
B2014034748251N12002569WA0131401382
B2014044748250N12002560WA0131801384
B2014054748254N12002551WA0132101387
B2014064748260N12002543WA0132401390
B2014074748268N12002541WA0132701394
B2014084748275N12002544WA0133101398
B2014094748280N12002551WA0133401402
B2014104748282N12002559WA0133801406
B2014114748282N12002566WA0134101411
B2014124748280N12002570WA0134501415
B2014134748278N12002573WA0134801420
B2014144748275N12002573WA0135301424
B2014154748272N12002571WA0135601427
B2014164748268N12002566WA0136001429
B2014174748266N12002558WA0136301432
B2014184748267N12002549WA0136701436
B2014194748271N12002540WA0137001440
B2014204748277N12002534WA0137401443
B2014214748284N12002531WA0137701447
B2014224748291N12002532WA0138101452
B2014234748296N12002536WA0138401457
B2014244748299N12002542WA0138901461
B2014254748300N12002550WA0139201464
B2014264748299N12002556WA0139601468
B2014274748297N12002560WA0139901472
B2014284748295N12002562WA0140401476
B2014294748291N12002562WA0140701480
B2014304748287N12002558WA0141101482
B2014314748284N12002552WA0141401485
B2014324748284N12002543WA0141801490
B2014324748284N12002543WA0141801490
B2014334748288N12002535WA0142101493
B2014344748294N12002528WA0142501495
B2014354748302N12002526WA0142801499
B2014364748308N12002528WA0143201503
B2014374748313N12002534WA0143501507
B2014384748316N12002541WA0143901510
B2014394748316N12002548WA0144201514
B2014404748315N12002553WA0144601519
B2014414748312N12002557WA0144901523
B2014424748310N12002559WA0145401526
B2014434748306N12002560WA0145701530
B2014444748304N12002558WA0146101533
B2014454748302N12002552WA0146401536
B2014464748303N12002543WA0146801538
B2014474748307N12002534WA0147001541
B2014484748314N12002530WA0147401545
B2014494748321N12002530WA0147701548
B2014504748327N12002535WA0148101551
B2014514748332N12002541WA0148301555
B2014524748334N12002548WA0148701560
B2014534748335N12002553WA0149001565
B2014544748335N12002558WA0149501569
B2014554748332N12002563WA0149801573
B2014564748328N12002565WA0150201574
B2014574748323N12002564WA0150401576
B2014584748319N12002558WA0150801579
B2014594748318N12002549WA0151001581
B2015004748320N12002540WA0151401584
B2015014748325N12002533WA0151601587
B2015024748332N12002529WA0152001590
B2015034748339N12002530WA0152301594
B2015044748345N12002535WA0152601598
B2015054748349N12002543WA0152901601
B2015064748350N12002551WA0153201604
B2015074748350N12002558WA0153501609
B2015084748349N12002564WA0153901614
B2015094748347N12002567WA0154201619
B2015104748344N12002570WA0154701622
B2015114748339N12002570WA0154901623
B2015124748333N12002568WA0155301625
B2015134748328N12002562WA0155501626
B2015144748325N12002553WA0155801629
B2015154748325N12002543WA0156101633
B2015164748326N12002535WA0156401636
B2015174748330N12002527WA0156701639
B2015184748334N12002519WA0157001642
B2015194748338N12002511WA0157301645
B2015204748342N12002503WA0157601649
B2015214748346N12002495WA0157901654
B2015224748351N12002489WA0158301658
B2015234748357N12002485WA0158601662
B2015244748363N12002484WA0159001665
B2015254748370N12002484WA0159301667
B2015264748376N12002488WA0159601671
B2015274748380N12002493WA0159901676
B2015284748381N12002499WA0160301680
B2015294748379N12002505WA0160601683
B2015304748374N12002509WA0161001685
B2015314748368N12002508WA0161201687
B2015324748362N12002504WA0161601690
B2015334748359N12002496WA0161801694
B2015344748359N12002486WA0162201698
B2015354748362N12002477WA0162501703
B2015364748366N12002469WA0162901707
B2015364748366N12002469WA0162901707
B2015374748372N12002465WA0163201711
B2015384748379N12002464WA0163601715
B2015394748384N12002467WA0163901718
B2015404748388N12002471WA0164301723
B2015414748390N12002476WA0164601728
B2015424748391N12002480WA0165101733
B2015434748389N12002483WA0165501738
B2015444748385N12002486WA0165901740
B2015454748380N12002487WA0166201743
B2015464748375N12002486WA0166601747
B2015474748371N12002482WA0166901751
B2015484748366N12002476WA0167401754
B2015494748362N12002469WA0167701757
B2015504748360N12002461WA0168101763
B2015514748360N12002452WA0168401768
B2015524748361N12002443WA0168901772
B2015534748364N12002434WA0169201776
B2015544748369N12002426WA0169701780
B2015554748375N12002421WA0170001784
B2015564748382N12002418WA0170501787
B2015574748389N12002419WA0170801791
B2015584748394N12002422WA0171201795
B2015594748397N12002426WA0171601799
B2016004748399N12002431WA0172001804
B2016014748399N12002437WA0172301807
B2016024748397N12002443WA0172801811
B2016034748394N12002447WA0173101815
B2016044748391N12002450WA0173601820
B2016054748388N12002450WA0173901826
B2016064748384N12002447WA0174501830
B2016074748379N12002441WA0174801833
B2016084748376N12002432WA0175201833
B2016094748373N12002422WA0175501836
B2016104748374N12002413WA0175901840
B2016114748378N12002404WA0176101843
B2016124748384N12002399WA0176501844
B2016134748390N12002398WA0176701846
B2016144748396N12002400WA0177101851
B2016154748398N12002403WA0177401857
B2016164748399N12002406WA0177901863
B2016174748400N12002409WA0178201868
B2016184748400N12002412WA0178701872
B2016194748399N12002416WA0179001875
B2016204748397N12002419WA0179401878
B2016214748393N12002421WA0179701880
B2016224748388N12002418WA0180101883
B2016234748384N12002412WA0180301885
B2016244748381N12002404WA0180701887
B2016254748379N12002394WA0181001890
B2016264748380N12002386WA0181401895
B2016274748383N12002378WA0181601899
B2016284748388N12002374WA0182001901
B2016294748394N12002374WA0182301904
B2016304748399N12002377WA0182601906
B2016314748402N12002381WA0182901911
B2016324748403N12002386WA0183301916
B2016334748403N12002389WA0183601921
B2016344748401N12002391WA0184001924
B2016354748397N12002393WA0184301927
B2016364748393N12002394WA0184701930
B2016374748388N12002391WA0185001933
B2016384748383N12002386WA0185401936
B2016394748380N12002378WA0185701939
B2016394748380N12002378WA0185701939
B2016404748379N12002368WA0186101943
B2016414748381N12002359WA0186301946
B2016424748385N12002352WA0186701948
B2016434748391N12002347WA0186901949
B2016444748397N12002345WA0187201952
B2016454748402N12002346WA0187501955
B2016464748407N12002349WA0187801959
B2016474748410N12002353WA0188101963
B2016484748413N12002357WA0188501967
B2016494748414N12002360WA0188801972
B2016504748414N12002364WA0189201977
B2016514748413N12002368WA0189501980
B2016524748410N12002371WA0189901982
B2016534748406N12002373WA0190101985
B2016544748401N12002373WA0190501989
B2016554748397N12002370WA0190801993
B2016564748394N12002363WA0191201996
B2016574748393N12002353WA0191501998
B2016584748395N12002343WA0191802000
B2016594748398N12002335WA0192102005
B2017004748402N12002329WA0192502010
B2017014748408N12002327WA0192802013
B2017024748414N12002328WA0193202015
B2017034748419N12002331WA0193402017
B2017044748422N12002336WA0193802021
B2017054748422N12002340WA0194102026
B2017064748421N12002344WA0194502030
B2017074748418N12002348WA0194702033
B2017084748414N12002350WA0195102036
B2017094748410N12002348WA0195402039
B2017104748405N12002341WA0195802041
B2017114748403N12002332WA0196002043
B2017124748405N12002322WA0196402047
B2017134748409N12002314WA0196602049
B2017144748415N12002308WA0197002052
B2017154748421N12002306WA0197202056
B2017164748427N12002307WA0197602060
B2017174748430N12002310WA0197802064
B2017184748433N12002314WA0198202067
B2017194748434N12002319WA0198502071
B2017204748434N12002325WA0198902073
B2017214748432N12002330WA0199102076
B2017224748430N12002334WA0199502079
B2017234748427N12002336WA0199702082
B2017244748423N12002337WA0200002083
B2017254748418N12002336WA0200202084
B2017264748413N12002333WA0200502085
B2017274748408N12002326WA0200702087
B2017284748406N12002317WA0201002090
B2017294748405N12002308WA0201202093
B2017304748406N12002300WA0201502096
B2017314748409N12002292WA0201702099
B2017324748412N12002286WA0202002101
B2017334748417N12002280WA0202202103
B2017344748423N12002277WA0202502104
B2017354748429N12002277WA0202602105
B2017364748434N12002280WA0202902107
B2017374748438N12002285WA0203002109
B2017384748439N12002291WA0203302112
B2017394748439N12002295WA0203502115
B2017404748438N12002300WA0203702116
B2017414748437N12002305WA0203902117
B2017424748435N12002310WA0204102118
B2017434748433N12002314WA0204302120
B2017434748433N12002314WA0204302120
B2017444748431N12002317WA0204502122
B2017454748428N12002320WA0204702125
B2017464748425N12002322WA0204902127
B2017474748421N12002322WA0205002128
B2017484748417N12002320WA0205302129
B2017494748413N12002316WA0205402130
B2017504748410N12002310WA0205602131
B2017514748408N12002302WA0205702132
B2017524748408N12002293WA0205902134
B2017534748410N12002283WA0206002135
B2017544748414N12002275WA0206102136
B2017554748419N12002268WA0206302138
B2017564748425N12002263WA0206402140
B2017574748430N12002261WA0206602142
B2017584748436N12002260WA0206802145
B2017594748441N12002262WA0206902148
B2018004748445N12002266WA0207102149
B2018014748448N12002271WA0207302150
B2018024748449N12002277WA0207402150
B2018034748450N12002282WA0207502152
B2018044748449N12002287WA0207702154
B2018054748448N12002291WA0207802156
B2018064748446N12002294WA0208002157
B2018074748442N12002297WA0208102157
B2018084748439N12002299WA0208302157
B2018094748436N12002301WA0208302159
B2018104748433N12002303WA0208502160
B2018114748430N12002304WA0208602162
B2018124748426N12002303WA0208702162
B2018134748422N12002300WA0208802160
B2018144748417N12002295WA0208802159
B2018154748413N12002287WA0208902158
B2018164748410N12002277WA0208902158
B2018174748409N12002268WA0208902159
B2018184748410N12002259WA0209002160
B2018194748412N12002250WA0209102160
B2018204748414N12002240WA0209102160
B2018214748416N12002231WA0209102161
B2018224748420N12002223WA0209202163
B2018234748424N12002218WA0209302165
B2018244748429N12002215WA0209402167
B2018254748434N12002214WA0209502168
B2018264748440N12002215WA0209602169
B2018274748445N12002217WA0209702171
B2018284748449N12002222WA0209802172
B2018294748451N12002229WA0209902173
B2018304748452N12002236WA0210002174
B2018314748452N12002243WA0210102176
B2018324748451N12002248WA0210302179
B2018334748448N12002250WA0210402180
B2018344748445N12002251WA0210502180
B2018354748440N12002251WA0210602179
B2018364748435N12002248WA0210602177
B2018374748429N12002244WA0210702177
B2018384748425N12002236WA0210702177
B2018394748423N12002228WA0210702177
B2018404748423N12002218WA0210802176
B2018414748424N12002207WA0210802175
B2018424748427N12002198WA0210802175
B2018434748432N12002191WA0210802176
B2018444748437N12002187WA0210902178
B2018454748443N12002186WA0210902180
B2018464748449N12002186WA0211002182
B2018474748455N12002187WA0211102184
B2018474748455N12002187WA0211102184
B2018484748460N12002187WA0211202185
B2018494748465N12002186WA0211302185
B2018504748470N12002186WA0211402186
B2018514748474N12002189WA0211402186
B2018524748476N12002194WA0211502185
B2018534748477N12002200WA0211502184
B2018544748477N12002206WA0211502183
B2018554748476N12002210WA0211502184
B2018564748474N12002213WA0211502184
B2018574748471N12002215WA0211502183
B2018584748467N12002216WA0211502181
B2018594748463N12002217WA0211402179
B2019004748459N12002218WA0211302177
B2019014748455N12002219WA0211302176
B2019024748451N12002220WA0211202175
B2019034748447N12002222WA0211202175
B2019044748443N12002223WA0211102174
B2019054748439N12002224WA0211102173
B2019064748435N12002226WA0211002172
B2019074748430N12002228WA0210902170
B2019084748425N12002229WA0210802169
B2019094748420N12002229WA0210702167
B2019104748415N12002229WA0210602167
B2019114748410N12002228WA0210502166
B2019124748404N12002226WA0210402165
B2019134748399N12002225WA0210302164
B2019144748393N12002224WA0210202162
B2019154748387N12002223WA0210102162
B2019164748381N12002221WA0210002161
B2019174748376N12002219WA0210002161
B2019184748371N12002216WA0209902160
B2019194748365N12002213WA0209802159
B2019204748359N12002210WA0209702157
B2019214748352N12002207WA0209602156
B2019224748347N12002205WA0209502158
B2019234748343N12002203WA0209502160
B2019244748339N12002202WA0209502162
B2019254748335N12002201WA0209502163
B2019264748331N12002200WA0209502163
B2019274748325N12002198WA0209502161
B2019284748320N12002196WA0209502160
B2019294748315N12002193WA0209402159
B2019304748311N12002189WA0209402158
B2019314748306N12002183WA0209402158
B2019324748302N12002177WA0209302158
B2019334748298N12002171WA0209302158
B2019344748294N12002165WA0209302159
B2019354748291N12002159WA0209302160
B2019364748289N12002154WA0209302160
B2019374748288N12002151WA0209302159
B2019384748286N12002147WA0209302157
B2019394748284N12002142WA0209202154
B2019404748281N12002135WA0209102150
B2019414748277N12002127WA0209002148
B2019424748274N12002120WA0208802146
B2019434748273N12002113WA0208702146
B2019444748272N12002106WA0208602145
B2019454748272N12002098WA0208502142
B2019464748271N12002088WA0208302139
B2019474748268N12002077WA0208202137
B2019484748264N12002069WA0208002137
B2019494748259N12002063WA0207902139
B2019504748255N12002060WA0207902141
B2019514748251N12002057WA0207902142
B2019514748251N12002057WA0207902142
B2019524748247N12002053WA0207802141
B2019534748242N12002048WA0207802139
B2019544748235N12002044WA0207702137
B2019554748229N12002040WA0207602138
B2019564748224N12002036WA0207602139
B2019574748220N12002032WA0207502140
B2019584748217N12002025WA0207502139
B2019594748215N12002017WA0207402138
B2020004748215N12002009WA0207402136
B2020014748218N12002002WA0207302135
B2020024748221N12001997WA0207202134
B2020034748225N12001995WA0207202133
B2020044748229N12001995WA0207102132
B2020054748233N12001997WA0207002130
B2020064748236N12002002WA0206902129
B2020074748238N12002009WA0206802128
B2020084748239N12002017WA0206702127
B2020094748239N12002023WA0206702128
B2020104748237N12002030WA0206602128
B2020114748234N12002036WA0206502127
B2020124748231N12002041WA0206502126
B2020134748227N12002047WA0206402125
B2020144748222N12002053WA0206302123
B2020154748217N12002058WA0206202123
B2020164748212N12002061WA0206202123
B2020174748206N12002063WA0206102123
B2020184748200N12002065WA0206002122
B2020194748194N12002066WA0206002121
B2020204748187N12002068WA0205902119
B2020214748181N12002068WA0205802117
B2020224748174N12002067WA0205602115
B2020234748168N12002066WA0205502113
B2020244748161N12002064WA0205402112
B2020254748156N12002060WA0205302110
B2020264748150N12002055WA0205102108
B2020274748146N12002050WA0205002107
B2020284748141N12002044WA0204902105
B2020294748136N12002039WA0204702103
B2020304748131N12002033WA0204602101
B2020314748128N12002026WA0204502100
B2020324748126N12002018WA0204302098
B2020334748125N12002010WA0204102096
B2020344748126N12002002WA0203902093
B2020354748128N12001995WA0203802091
B2020364748130N12001989WA0203602089
B2020374748132N12001983WA0203502087
B2020384748134N12001977WA0203202085
B2020394748137N12001971WA0203102082
B2020404748139N12001964WA0202802079
B2020414748142N12001958WA0202602077
B2020424748144N12001952WA0202402075
B2020434748147N12001946WA0202202074
B2020444748149N12001940WA0202002072
B2020454748152N12001935WA0201902071
B2020464748155N12001930WA0201602069
B2020474748158N12001926WA0201502067
B2020484748161N12001921WA0201302065
B2020494748165N12001917WA0201102062
B2020504748169N12001912WA0200902058
B2020514748174N12001907WA0200702055
B2020524748179N12001903WA0200402053
B2020534748183N12001900WA0200202052
B2020544748187N12001896WA0200002051
B2020544748187N12001896WA0200002051
B2020554748191N12001892WA0199802050
B2020564748194N12001887WA0199602049
B2020574748196N12001881WA0199502046
B2020584748198N12001874WA0199302045
B2020594748200N12001868WA0199102043
B2021004748204N12001863WA0198902041
B2021014748208N12001859WA0198802039
B2021024748213N12001856WA0198502038
B2021034748217N12001855WA0198402038
B2021044748220N12001854WA0198302041
B2021054748223N12001854WA0198302043
B2021064748226N12001854WA0198302044
B2021074748230N12001855WA0198202044
B2021084748234N12001855WA0198202046
B2021094748237N12001857WA0198302049
B2021104748239N12001858WA0198402053
B2021114748240N12001860WA0198402054
B2021124748242N12001863WA0198502054
B2021134748246N12001864WA0198502053
B2021144748251N12001866WA0198502052
B2021154748256N12001868WA0198502052
B2021164748259N12001871WA0198502053
B2021174748262N12001875WA0198602055
B2021184748265N12001878WA0198702056
B2021194748266N12001883WA0198702055
B2021204748266N12001889WA0198702053
B2021214748263N12001896WA0198702051
B2021224748258N12001900WA0198602049
B2021234748252N12001900WA0198602048
B2021244748248N12001897WA0198502048
B2021254748244N12001890WA0198502046
B2021264748241N12001882WA0198402045
B2021274748239N12001874WA0198302044
B2021284748237N12001865WA0198302044
B2021294748236N12001857WA0198302044
B2021304748235N12001848WA0198202044
B2021314748234N12001840WA0198202044
B2021324748234N12001831WA0198102042
B2021334748235N12001821WA0198102041
B2021344748236N12001812WA0198002040
B2021354748238N12001804WA0198002040
B2021364748241N12001798WA0197902040
B2021374748244N12001792WA0197902039
B2021384748248N12001789WA0197802038
B2021394748252N12001786WA0197802037
B2021404748256N12001785WA0197602035
B2021414748260N12001783WA0197602033
B2021424748265N12001781WA0197402032
B2021434748269N12001780WA0197302029
B2021444748274N12001780WA0197202027
B2021454748279N12001779WA0197102026
B2021464748283N12001779WA0196902025
B2021474748286N12001779WA0196802025
B2021484748290N12001779WA0196702025
B2021494748294N12001779WA0196702025
B2021504748297N12001779WA0196602025
B2021514748301N12001779WA0196602027
B2021524748305N12001779WA0196602028
B2021534748308N12001780WA0196602031
B2021544748311N12001779WA0196702034
B2021554748314N12001778WA0196702036
B2021564748317N12001777WA0196802038
B2021574748321N12001777WA0196902040
B2021584748324N12001778WA0197002042
B2021584748324N12001778WA0197002042
B2021594748327N12001780WA0197102042
B2022004748331N12001783WA0197202043
B2022014748334N12001788WA0197302043
B2022024748337N12001794WA0197402044
B2022034748337N12001801WA0197402045
B2022044748335N12001808WA0197502046
B2022054748331N12001814WA0197602046
B2022064748325N12001818WA0197702047
B2022074748319N12001820WA0197802050
B2022084748313N12001818WA0197902052
B2022094748308N12001814WA0198002053
B2022104748304N12001807WA0198102054
B2022114748300N12001800WA0198202053
B2022124748298N12001792WA0198202052
B2022134748296N12001783WA0198302050
B2022144748296N12001773WA0198202048
B2022154748298N12001763WA0198202047
B2022164748299N12001754WA0198202047
B2022174748302N12001747WA0198302049
B2022184748304N12001740WA0198302051
B2022194748306N12001734WA0198402051
B2022204748308N12001728WA0198402053
B2022214748311N12001725WA0198502054
B2022224748314N12001723WA0198602055
B2022234748317N12001723WA0198602055
B2022244748320N12001724WA0198702055
B2022254748324N12001726WA0198702056
B2022264748326N12001728WA0198802057
B2022274748329N12001731WA0198902058
B2022284748332N12001734WA0198902058
B2022294748336N12001738WA0199002057
B2022304748341N12001743WA0199002056
B2022314748346N12001747WA0199002057
B2022324748350N12001750WA0199102059
B2022334748353N12001753WA0199102062
B2022344748357N12001757WA0199202063
B2022354748361N12001763WA0199302064
B2022364748363N12001770WA0199302064
B2022374748364N12001778WA0199402064
B2022384748364N12001786WA0199502064
B2022394748362N12001794WA0199502063
B2022404748360N12001801WA0199502062
B2022414748358N12001808WA0199502061
B2022424748356N12001814WA0199502060
B2022434748353N12001820WA0199502060
B2022444748349N12001824WA0199502060
B2022454748345N12001827WA0199402059
B2022464748340N12001829WA0199402057
B2022474748333N12001828WA0199302054
B2022484748327N12001825WA0199202052
B2022494748322N12001821WA0199102051
B2022504748319N12001815WA0199002050
B2022514748315N12001808WA0199002048
B2022524748312N12001800WA0198802045
B2022534748308N12001791WA0198702042
B2022544748304N12001783WA0198502040
B2022554748302N12001776WA0198402039
B2022564748300N12001770WA0198302040
B2022574748300N12001764WA0198202041
B2022584748301N12001759WA0198102041
B2022594748302N12001752WA0198102040
B2023004748303N12001745WA0198002039
B2023014748305N12001737WA0197902038
B2023024748306N12001730WA0197902039
B2023024748306N12001730WA0197902039
B2023034748306N12001723WA0197902040
B2023044748306N12001717WA0197902042
B2023054748307N12001711WA0197902045
B2023064748309N12001706WA0198002047
B2023074748311N12001703WA0198002049
B2023084748315N12001701WA0198202051
B2023094748319N12001703WA0198302054
B2023104748322N12001707WA0198402056
B2023114748324N12001713WA0198502057
B2023124748323N12001720WA0198702059
B2023134748321N12001727WA0198802059
B2023144748316N12001733WA0198902059
B2023154748310N12001736WA0199002060
B2023164748304N12001738WA0199002059
B2023174748298N12001737WA0199102059
B2023184748294N12001734WA0199102059
B2023194748289N12001728WA0199202058
B2023204748285N12001721WA0199202057
B2023214748283N12001714WA0199202058
B2023224748283N12001707WA0199202060
B2023234748283N12001702WA0199302063
B2023244748284N12001699WA0199402065
B2023254748285N12001695WA0199502066
B2023264748287N12001691WA0199602065
B2023274748290N12001686WA0199602064
B2023284748293N12001682WA0199702063
B2023294748296N12001678WA0199702064
B2023304748298N12001674WA0199802067
B2023314748299N12001670WA0199902068
B2023324748301N12001664WA0200002069
B2023334748302N12001656WA0200002068
B2023344748304N12001649WA0200102069
B2023354748307N12001643WA0200102070
B2023364748309N12001638WA0200202072
B2023374748312N12001635WA0200302072
B2023384748314N12001634WA0200302073
B2023394748317N12001636WA0200402073
B2023404748319N12001640WA0200502073
B2023414748320N12001645WA0200502074
B2023424748321N12001650WA0200602077
B2023434748321N12001655WA0200702080
B2023444748319N12001658WA0200902083
B2023454748316N12001663WA0201002084
B2023464748312N12001667WA0201102083
B2023474748305N12001670WA0201102082
B2023484748298N12001671WA0201202081
B2023494748291N12001670WA0201202081
B2023504748283N12001667WA0201202080
B2023514748276N12001661WA0201302080
B2023524748271N12001653WA0201302078
B2023534748267N12001644WA0201302078
B2023544748266N12001635WA0201302079
B2023554748266N12001627WA0201302079
B2023564748267N12001619WA0201302079
B2023574748268N12001613WA0201302079
B2023584748270N12001608WA0201302079
B2023594748273N12001604WA0201302078
B2024004748278N12001602WA0201302076
B2024014748283N12001601WA0201202075
B2024024748288N12001599WA0201202076
B2024034748292N12001596WA0201202078
B2024044748296N12001594WA0201202080
B2024054748299N12001593WA0201302082
B2024054748299N12001593WA0201302082
B2024064748302N12001591WA0201302084
B2024074748306N12001590WA0201402084
B2024084748311N12001589WA0201402085
B2024094748315N12001587WA0201502086
B2024104748319N12001586WA0201602087
B2024114748323N12001584WA0201702090
B2024124748327N12001582WA0201802092
B2024134748331N12001579WA0201902093
B2024144748335N12001575WA0202002095
B2024154748339N12001572WA0202102096
B2024164748343N12001568WA0202302098
B2024174748346N12001564WA0202402099
B2024184748351N12001559WA0202502100
B2024194748355N12001555WA0202602100
B2024204748360N12001551WA0202702101
B2024214748364N12001547WA0202802102
B2024224748367N12001544WA0203002104
B2024234748370N12001541WA0203102105
B2024244748374N12001537WA0203202105
B2024254748377N12001533WA0203302105
B2024264748381N12001529WA0203302104
B2024274748386N12001525WA0203402105
B2024284748390N12001522WA0203502107
B2024294748394N12001518WA0203602110
B2024304748397N12001514WA0203802112
B2024314748400N12001509WA0203902115
B2024324748404N12001506WA0204102118
B2024334748408N12001504WA0204202120
B2024344748412N12001504WA0204402122
B2024354748417N12001505WA0204602124
B2024364748421N12001507WA0204802127
B2024374748424N12001510WA0204902129
B2024384748427N12001513WA0205202131
B2024394748429N12001517WA0205302134
B2024404748429N12001523WA0205602135
B2024414748426N12001529WA0205702135
B2024424748422N12001533WA0205902136
B2024434748417N12001535WA0206002137
B2024444748412N12001534WA0206202139
B2024454748406N12001531WA0206302140
B2024464748401N12001525WA0206402140
B2024474748397N12001519WA0206502141
B2024484748393N12001511WA0206702142
B2024494748392N12001503WA0206802143
B2024504748392N12001493WA0206902144
B2024514748392N12001483WA0207002147
B2024524748393N12001475WA0207302151
B2024534748394N12001467WA0207402154
B2024544748396N12001460WA0207602157
B2024554748399N12001454WA0207802158
B2024564748403N12001450WA0208002159
B2024574748408N12001448WA0208102161
B2024584748411N12001449WA0208402164
B2024594748414N12001451WA0208502166
B2025004748417N12001455WA0208702168
B2025014748418N12001460WA0208902170
B2025024748419N12001464WA0209202173
B2025034748418N12001468WA0209302176
B2025044748416N12001472WA0209602177
B2025054748414N12001476WA0209702178
B2025064748411N12001479WA0209902178
B2025074748407N12001482WA0210002179
B2025084748403N12001484WA0210202180
B2025094748399N12001485WA0210302180
B2025094748399N12001485WA0210302180
B2025104748393N12001483WA0210402180
B2025114748387N12001479WA0210502178
B2025124748382N12001472WA0210502178
B2025134748378N12001463WA0210602179
B2025144748375N12001454WA0210702181
B2025154748374N12001444WA0210802184
B2025164748373N12001435WA0210902186
B2025174748374N12001425WA0211002188
B2025184748376N12001416WA0211202189
B2025194748378N12001407WA0211302191
B2025204748381N12001400WA0211502192
B2025214748385N12001394WA0211602193
B2025224748389N12001388WA0211702192
B2025234748393N12001381WA0211802191
B2025244748394N12001371WA0211802191
B2025254748393N12001361WA0211902189
B2025264748390N12001350WA0211802187
B2025274748387N12001341WA0211802186
B2025284748384N12001333WA0211802187
B2025294748382N12001326WA0211802187
B2025304748379N12001320WA0211802186
B2025314748376N12001314WA0211802183
B2025324748372N12001308WA0211702180
B2025334748367N12001300WA0211602175
B2025344748362N12001291WA0211302170
B2025354748356N12001283WA0211102165
B2025364748350N12001276WA0210802162
B2025374748345N12001271WA0210702161
B2025384748342N12001266WA0210502161
B2025394748339N12001261WA0210402159
B2025404748335N12001256WA0210102156
B2025414748331N12001250WA0210002151
B2025424748325N12001244WA0209602146
B2025434748320N12001237WA0209402143
B2025444748314N12001231WA0209102140
B2025454748309N12001226WA0208902138
B2025464748303N12001220WA0208602135
B2025474748298N12001214WA0208402133
B2025484748293N12001208WA0208102129
B2025494748288N12001202WA0207902126
B2025504748282N12001197WA0207502124
B2025514748276N12001192WA0207302121
B2025524748270N12001187WA0207002119
B2025534748264N12001183WA0206802117
B2025544748258N12001178WA0206502114
B2025554748251N12001173WA0206302110
B2025564748245N12001168WA0206002107
B2025574748238N12001163WA0205702104
B2025584748231N12001157WA0205402102
B2025594748225N12001151WA0205202101
B2026004748219N12001145WA0205002099
B2026014748213N12001140WA0204802097
B2026024748207N12001134WA0204502094
B2026034748201N12001128WA0204302091
B2026044748194N12001122WA0204002088
B2026054748188N12001116WA0203802085
B2026064748181N12001110WA0203502082
B2026074748174N12001104WA0203302079
B2026084748167N12001098WA0203002076
B2026094748161N12001091WA0202802073
B2026104748154N12001084WA0202402070
B2026114748148N12001077WA0202202069
B2026124748142N12001071WA0202002067
B2026134748136N12001065WA0201802067
B2026134748136N12001065WA0201802067
B2026144748130N12001059WA0201602065
B2026154748125N12001053WA0201402063
B2026164748119N12001045WA0201202061
B2026174748114N12001037WA0201002057
B2026184748107N12001030WA0200702054
B2026194748101N12001023WA0200502051
B2026204748095N12001016WA0200202049
B2026214748090N12001008WA0200002047
B2026224748085N12001001WA0199802046
B2026234748079N12000995WA0199602044
B2026244748074N12000989WA0199302041
B2026254748068N12000984WA0199102039
B2026264748062N12000977WA0198902036
B2026274748056N12000971WA0198702033
B2026284748050N12000965WA0198402031
B2026294748044N12000959WA0198202029
B2026304748039N12000953WA0198002028
B2026314748033N12000947WA0197802025
B2026324748027N12000941WA0197602023
B2026334748021N12000935WA0197402020
B2026344748014N12000929WA0197102017
B2026354748008N12000923WA0196902015
B2026364748002N12000918WA0196602013
B2026374747996N12000913WA0196502011
B2026384747990N12000908WA0196202008
B2026394747984N12000902WA0196002005
B2026404747978N12000895WA0195702003
B2026414747973N12000890WA0195502001
B2026424747967N12000885WA0195301999
B2026434747962N12000879WA0195101997
B2026444747956N12000873WA0194801993
B2026454747950N12000866WA0194601990
B2026464747943N12000859WA0194301987
B2026474747937N12000852WA0194101985
B2026484747931N12000846WA0193801983
B2026494747925N12000839WA0193701981
B2026504747920N12000831WA0193401979
B2026514747914N12000824WA0193201976
B2026524747908N12000818WA0192901974
B2026534747902N12000811WA0192701971
B2026544747895N12000804WA0192401969
B2026554747889N12000797WA0192301966
B2026564747882N12000790WA0192001966
B2026574747877N12000783WA0191901965
B2026584747871N12000776WA0191601964
B2026594747866N12000769WA0191501963
B2027004747860N12000762WA0191301960
B2027014747854N12000755WA0191101956
B2027024747848N12000749WA0190801953
B2027034747842N12000742WA0190601951
B2027044747837N12000734WA0190401949
B2027054747832N12000726WA0190201947
B2027064747827N12000718WA0189901944
B2027074747821N12000710WA0189801941
B2027084747816N12000702WA0189501939
B2027094747811N12000694WA0189301937
B2027104747805N12000687WA0189101936
B2027114747800N12000680WA0188901934
B2027124747794N12000673WA0188701931
B2027134747788N12000667WA0188501929
B2027144747782N12000660WA0188201927
B2027154747776N12000653WA0188001925
B2027164747769N12000647WA0187801924
B2027164747769N12000647WA0187801924
B2027174747763N12000642WA0187701923
B2027184747757N12000636WA0187501922
B2027194747751N12000631WA0187301921
B2027204747744N12000625WA0187101919
B2027214747737N12000619WA0187001918
B2027224747730N12000613WA0186801917
B2027234747723N12000607WA0186701916
B2027244747717N12000600WA0186601916
B2027254747711N12000594WA0186501917
B2027264747705N12000587WA0186401917
B2027274747699N12000580WA0186301916
B2027284747693N12000573WA0186201915
B2027294747687N12000566WA0186101913
B2027304747680N12000560WA0186001911
B2027314747674N12000554WA0185901910
B2027324747668N12000549WA0185701910
B2027334747662N12000544WA0185701909
B2027344747656N12000539WA0185601908
B2027354747651N12000533WA0185501906
B2027364747645N12000527WA0185301905
B2027374747640N12000522WA0185201903
B2027384747634N12000517WA0185101902
B2027394747629N12000510WA0185001902
B2027404747625N12000503WA0184901902
B2027414747621N12000495WA0184901901
B2027424747616N12000487WA0184701900
B2027434747612N12000478WA0184701898
B2027444747607N12000469WA0184501896
B2027454747603N12000459WA0184401895
B2027464747598N12000450WA0184301894
B2027474747594N12000440WA0184201894
B2027484747590N12000431WA0184101894
B2027494747586N12000422WA0184101893
B2027504747582N12000413WA0183901892
B2027514747578N12000403WA0183901891
B2027524747573N12000394WA0183801890
B2027534747569N12000384WA0183701889
B2027544747565N12000375WA0183601888
B2027554747560N12000366WA0183501888
B2027564747556N12000357WA0183401887
B2027574747551N12000348WA0183301885
B2027584747545N12000340WA0183201884
B2027594747540N12000332WA0183101883
B2028004747535N12000324WA0183001883
B2028014747531N12000316WA0183001883
B2028024747526N12000309WA0182901882
B2028034747521N12000300WA0182801881
B2028044747516N12000292WA0182701880
B2028054747511N12000283WA0182701878
B2028064747505N12000275WA0182501877
B2028074747500N12000267WA0182501878
B2028084747494N12000259WA0182401878
B2028094747489N12000251WA0182401878
B2028104747484N12000242WA0182301877
B2028114747479N12000234WA0182201875
B2028124747473N12000225WA0182101874
B2028134747468N12000217WA0182101874
B2028144747463N12000208WA0182001873
B2028154747458N12000200WA0181901873
B2028164747452N12000192WA0181901872
B2028174747447N12000184WA0181801870
B2028184747442N12000175WA0181701869
B2028194747436N12000166WA0181601868
B2028194747436N12000166WA0181601868
B2028204747431N12000158WA0181501868
B2028214747425N12000149WA0181501867
B2028224747420N12000141WA0181401866
B2028234747414N12000132WA0181301865
B2028244747408N12000124WA0181201865
B2028254747403N12000115WA0181101863
B2028264747397N12000107WA0181001862
B2028274747391N12000100WA0181001862
B2028284747385N12000092WA0180901862
B2028294747379N12000086WA0180801861
B2028304747373N12000079WA0180701861
B2028314747367N12000071WA0180701860
B2028324747361N12000064WA0180601860
B2028334747356N12000055WA0180501859
B2028344747350N12000048WA0180501858
B2028354747344N12000041WA0180401857
B2028364747339N12000034WA0180301856
B2028374747333N12000026WA0180201854
B2028384747327N12000019WA0180101853
B2028394747321N12000011WA0180001852
B2028404747316N12000003WA0179901851
B2028414747310N11959996WA0179901849
B2028424747304N11959989WA0179701848
B2028434747299N11959982WA0179701847
B2028444747293N11959975WA0179501846
B2028454747288N11959968WA0179401844
B2028464747282N11959962WA0179301843
B2028474747276N11959956WA0179201841
B2028484747270N11959950WA0179101839
B2028494747265N11959943WA0179001838
B2028504747259N11959936WA0178801837
B2028514747253N11959929WA0178701835
B2028524747247N11959922WA0178501833
B2028534747241N11959916WA0178401831
B2028544747235N11959909WA0178201830
B2028554747230N11959903WA0178101828
B2028564747224N11959896WA0178001827
B2028574747219N11959889WA0177801825
B2028584747214N11959882WA0177701823
B2028594747208N11959876WA0177501821
B2029004747203N11959870WA0177301819
B2029014747197N11959866WA0177201817
B2029024747191N11959861WA0177001815
B2029034747185N11959857WA0176901813
B2029044747180N11959854WA0176701812
B2029054747175N11959852WA0176501811
B2029064747170N11959850WA0176301808
B2029074747164N11959846WA0176201805
B2029084747158N11959841WA0175901802
B2029094747152N11959835WA0175701798
B2029104747145N11959828WA0175401796
B2029114747140N11959821WA0175301797
B2029124747137N11959814WA0175101798
B2029134747134N11959809WA0175001798
B2029144747130N11959803WA0174901797
B2029154747125N11959798WA0174701794
B2029164747119N11959792WA0174501790
B2029174747113N11959785WA0174301786
B2029184747107N11959778WA0174001784
B2029194747102N11959772WA0173901783
B2029204747097N11959767WA0173701783
B2029214747092N11959763WA0173601781
B2029224747086N11959758WA0173301779
B2029234747080N11959753WA0173201775
B2029234747080N11959753WA0173201775
B2029244747074N11959747WA0172901772
B2029254747069N11959741WA0172701770
B2029264747063N11959736WA0172501770
B2029274747058N11959731WA0172401770
B2029284747052N11959726WA0172201768
B2029294747046N11959719WA0172101767
B2029304747040N11959712WA0171901764
B2029314747033N11959705WA0171701762
B2029324747028N11959698WA0171601762
B2029334747022N11959691WA0171401761
B2029344747017N11959684WA0171301760
B2029354747012N11959677WA0171201759
B2029364747007N11959670WA0171001757
B2029374747002N11959664WA0170901756
B2029384746996N11959659WA0170701753
B2029394746990N11959653WA0170601750
B2029404746984N11959648WA0170301747
B2029414746978N11959642WA0170201744
B2029424746972N11959637WA0169901742
B2029434746965N11959631WA0169801740
B2029444746959N11959624WA0169501738
B2029454746953N11959617WA0169401737
B2029464746947N11959609WA0169201736
B2029474746942N11959601WA0169101735
B2029484746936N11959594WA0168901734
B2029494746931N11959587WA0168801733
B2029504746925N11959581WA0168601732
B2029514746920N11959574WA0168501731
B2029524746914N11959567WA0168401730
B2029534746908N11959560WA0168301728
B2029544746903N11959553WA0168101727
B2029554746897N11959546WA0168001726
B2029564746891N11959540WA0167901726
B2029574746886N11959533WA0167801725
B2029584746881N11959526WA0167701725
B2029594746876N11959519WA0167701726
B2030004746872N11959512WA0167601725
B2030014746867N11959505WA0167501724
B2030024746862N11959499WA0167501723
B2030034746857N11959492WA0167401722
B2030044746853N11959485WA0167301721
B2030054746848N11959479WA0167201721
B2030064746843N11959475WA0167101720
B2030074746839N11959470WA0167101720
B2030084746834N11959464WA0167001720
B2030094746829N11959459WA0166901719
B2030104746825N11959454WA0166901719
B2030114746820N11959450WA0166801718
B2030124746815N11959445WA0166801718
B2030134746811N11959441WA0166701717
B2030144746806N11959437WA0166601716
B2030154746801N11959433WA0166601715
B2030164746796N11959428WA0166501715
B2030174746792N11959423WA0166401714
B2030184746787N11959419WA0166401713
B2030194746783N11959414WA0166301712
B2030204746778N11959410WA0166201711
B2030214746774N11959405WA0166101710
B2030224746769N11959400WA0166001708
B2030234746765N11959395WA0166001707
B2030244746760N11959391WA0165801706
B2030254746755N11959386WA0165801705
B2030264746751N11959382WA0165701703
B2030274746747N11959377WA0165601702
B2030274746747N11959377WA0165601702
B2030284746742N11959372WA0165401701
B2030294746737N11959367WA0165301699
B2030304746733N11959363WA0165201697
B2030314746728N11959359WA0165101696
B2030324746723N11959356WA0164901694
B2030334746719N11959352WA0164801692
B2030344746714N11959348WA0164701691
B2030354746710N11959344WA0164601689
B2030364746706N11959339WA0164401687
B2030374746701N11959335WA0164301685
B2030384746697N11959331WA0164101683
B2030394746692N11959326WA0163901681
B2030404746688N11959321WA0163701678
B2030414746683N11959317WA0163601676
B2030424746678N11959313WA0163301674
B2030434746674N11959308WA0163201672
B2030444746669N11959304WA0162901669
B2030454746665N11959299WA0162801667
B2030464746660N11959296WA0162501664
B2030474746655N11959292WA0162401662
B2030484746651N11959288WA0162101659
B2030494746646N11959284WA0161901656
B2030504746641N11959280WA0161601654
B2030514746637N11959276WA0161501651
B2030524746632N11959273WA0161201648
B2030534746627N11959269WA0161001645
B2030544746621N11959266WA0160701642
B2030554746616N11959262WA0160501639
B2030564746610N11959259WA0160201636
B2030574746605N11959255WA0160001634
B2030584746600N11959252WA0159701632
B2030594746595N11959248WA0159501631
B2031004746590N11959245WA0159201629
B2031014746585N11959242WA0159101626
B2031024746580N11959239WA0158801623
B2031034746574N11959235WA0158501619
B2031044746569N11959232WA0158201615
B2031054746563N11959228WA0158001612
B2031064746558N11959224WA0157601609
B2031074746552N11959221WA0157401606
B2031084746547N11959217WA0157101603
B2031094746541N11959214WA0156801599
B2031104746536N11959212WA0156501597
B2031114746532N11959210WA0156301595
B2031124746527N11959208WA0156001592
B2031134746523N11959204WA0155801590
B2031144746518N11959201WA0155501586
B2031154746513N11959197WA0155301583
B2031164746508N11959194WA0154901580
B2031174746503N11959191WA0154701576
B2031184746498N11959189WA0154301573
B2031194746492N11959187WA0154101570
B2031204746487N11959183WA0153801567
B2031214746482N11959178WA0153501564
B2031224746477N11959174WA0153201562
B2031234746472N11959171WA0153001560
B2031244746467N11959169WA0152701557
B2031254746462N11959167WA0152401555
B2031264746457N11959163WA0152101552
B2031274746452N11959158WA0151901548
B2031284746447N11959154WA0151501545
B2031294746441N11959150WA0151301543
B2031304746436N11959146WA0151001541
B2031314746431N11959143WA0150801538
B2031314746431N11959143WA0150801538
B2031324746425N11959140WA0150501536
B2031334746419N11959137WA0150201533
B2031344746414N11959134WA0149901530
B2031354746408N11959132WA0149701527
B2031364746402N11959129WA0149401524
B2031374746396N11959126WA0149101521
B2031384746390N11959123WA0148801519
B2031394746385N11959120WA0148601516
B2031404746380N11959117WA0148301514
B2031414746375N11959114WA0148101512
B2031424746370N11959110WA0147801508
B2031434746365N11959106WA0147501505
B2031444746359N11959102WA0147201501
B2031454746353N11959098WA0146901497
B2031464746348N11959095WA0146601495
B2031474746342N11959091WA0146301492
B2031484746337N11959088WA0146001490
B2031494746332N11959085WA0145801487
B2031504746326N11959082WA0145501485
B2031514746320N11959079WA0145201482
B2031524746314N11959076WA0144901479
B2031534746308N11959074WA0144701476
B2031544746302N11959071WA0144301474
B2031554746296N11959069WA0144101472
B2031564746290N11959066WA0143801470
B2031574746284N11959064WA0143601467
B2031584746278N11959062WA0143301465
B2031594746272N11959060WA0143101463
B2032004746266N11959058WA0142801460
B2032014746260N11959055WA0142601458
B2032024746254N11959052WA0142301456
B2032034746249N11959050WA0142101454
B2032044746243N11959047WA0141901453
B2032054746238N11959045WA0141701450
B2032064746232N11959043WA0141401447
B2032074746226N11959041WA0141201444
B2032084746221N11959039WA0140901442
B2032094746215N11959037WA0140701440
B2032104746210N11959036WA0140501438
B2032114746204N11959034WA0140301435
B2032124746198N11959033WA0140001433
B2032134746192N11959031WA0139801430
B2032144746186N11959029WA0139501428
B2032154746180N11959027WA0139401427
B2032164746174N11959025WA0139101425
B2032174746169N11959023WA0139001423
B2032184746163N11959021WA0138701422
B2032194746158N11959019WA0138601421
B2032204746152N11959016WA0138401419
B2032214746147N11959014WA0138301418
B2032224746142N11959012WA0138101417
B2032234746136N11959010WA0137901415
B2032244746130N11959007WA0137801413
B2032254746124N11959004WA0137601412
B2032264746119N11959001WA0137401411
B2032274746113N11958998WA0137301410
B2032284746108N11958995WA0137101407
B2032294746102N11958992WA0137001405
B2032304746096N11958989WA0136701402
B2032314746091N11958985WA0136601400
B2032324746086N11958982WA0136401398
B2032334746080N11958979WA0136201396
B2032344746075N11958977WA0136001394
B2032354746069N11958975WA0135801391
B2032354746069N11958975WA0135801391
B2032364746064N11958973WA0135501388
B2032374746058N11958972WA0135401386
B2032384746052N11958970WA0135101385
B2032394746047N11958968WA0135001383
B2032404746042N11958966WA0134801382
B2032414746036N11958964WA0134601379
B2032424746030N11958962WA0134301377
B2032434746024N11958961WA0134201374
B2032444746018N11958960WA0133901371
B2032454746012N11958959WA0133801369
B2032464746006N11958958WA0133501367
B2032474746000N11958957WA0133401365
B2032484745994N11958957WA0133101363
B2032494745988N11958956WA0133001361
B2032504745983N11958955WA0132701359
B2032514745977N11958955WA0132601358
B2032524745972N11958955WA0132301356
B2032534745966N11958954WA0132201354
B2032544745960N11958953WA0132001351
B2032554745954N11958952WA0131801349
B2032564745948N11958951WA0131501346
B2032574745943N11958951WA0131401344
B2032584745938N11958950WA0131101342
B2032594745933N11958949WA0131001341
B2033004745928N11958948WA0130801339
B2033014745923N11958946WA0130601336
B2033024745918N11958945WA0130301333
B2033034745912N11958945WA0130101330
B2033044745907N11958945WA0129901327
B2033054745901N11958944WA0129701325
B2033064745895N11958943WA0129401323
B2033074745890N11958942WA0129201320
B2033084745884N11958941WA0128901317
B2033094745878N11958940WA0128701315
B2033104745872N11958939WA0128501313
B2033114745867N11958938WA0128301310
B2033124745861N11958937WA0128001308
B2033134745855N11958937WA0127801305
B2033144745849N11958937WA0127501302
B2033154745843N11958938WA0127301299
B2033164745837N11958938WA0127001297
B2033174745831N11958938WA0126801295
B2033184745826N11958938WA0126501292
B2033194745820N11958938WA0126301290
B2033204745814N11958938WA0126001287
B2033214745808N11958938WA0125801284
B2033224745803N11958938WA0125501281
B2033234745797N11958939WA0125301280
B2033244745791N11958939WA0125001278
B2033254745786N11958938WA0124801277
B2033264745780N11958937WA0124601278
B2033274745775N11958936WA0124501276
B2033284745770N11958934WA0124201275
B2033294745765N11958933WA0124101273
B2033304745759N11958932WA0123801270
B2033314745754N11958931WA0123701268
B2033324745748N11958930WA0123401266
B2033334745743N11958929WA0123301264
B2033344745737N11958928WA0123001262
B2033354745732N11958928WA0122801261
B2033364745727N11958927WA0122601258
B2033374745721N11958926WA0122401256
B2033384745715N11958925WA0122201252
B2033394745709N11958924WA0122001249
B2033394745709N11958924WA0122001249
B2033404745703N11958923WA0121701247
B2033414745697N11958923WA0121501245
B2033424745692N11958922WA0121301244
B2033434745686N11958921WA0121101241
B2033444745681N11958920WA0120801239
B2033454745675N11958919WA0120601236
B2033464745669N11958919WA0120401233
B2033474745663N11958918WA0120201230
B2033484745657N11958918WA0119901228
B2033494745651N11958918WA0119701226
B2033504745645N11958917WA0119401224
B2033514745639N11958916WA0119201221
B2033524745633N11958915WA0118901218
B2033534745627N11958915WA0118701214
B2033544745620N11958915WA0118401210
B2033554745613N11958915WA0118201207
B2033564745606N11958915WA0117801204
B2033574745599N11958914WA0117601202
B2033584745593N11958914WA0117301200
B2033594745586N11958913WA0117101197
B2034004745579N11958912WA0116801194
B2034014745572N11958910WA0116501190
B2034024745565N11958908WA0116201185
B2034034745558N11958906WA0115901180
B2034044745550N11958904WA0115501176
B2034054745543N11958902WA0115201172
B2034064745536N11958900WA0114801168
B2034074745529N11958898WA0114501166
B2034084745522N11958896WA0114101162
B2034094745515N11958894WA0113801159
B2034104745508N11958892WA0113401155
B2034114745500N11958891WA0113101150
B2034124745493N11958891WA0112701147
B2034134745487N11958892WA0112501146
B2034144745481N11958892WA0112201145
B2034154745476N11958891WA0112001146
B2034164745470N11958888WA0111801145
B2034174745465N11958887WA0111601144
B2034184745459N11958886WA0111401143
B2034194745453N11958887WA0111201141
B2034204745446N11958887WA0111001139
B2034214745440N11958886WA0110801138
B2034224745435N11958884WA0110701139
B2034234745431N11958882WA0110601140
B2034244745427N11958880WA0110501140
B2034254745423N11958880WA0110401140
B2034264745419N11958880WA0110301138
B2034274745414N11958880WA0110201136
B2034284745410N11958881WA0110101134
B2034294745405N11958882WA0110001134
B2034304745401N11958882WA0109901134
B2034314745396N11958881WA0109801134
B2034324745391N11958880WA0109701132
B2034334745385N11958879WA0109601130
B2034344745378N11958878WA0109401128
B2034354745371N11958878WA0109301126
B2034364745365N11958876WA0109201126
B2034374745359N11958874WA0109101127
B2034384745355N11958871WA0109001128
B2034394745350N11958868WA0109001127
B2034404745345N11958866WA0108801124
B2034414745338N11958864WA0108701120
B2034424745331N11958863WA0108401115
B2034424745331N11958863WA0108401115
B2034434745324N11958862WA0108201111
B2034444745318N11958862WA0107901108
B2034454745312N11958862WA0107801107
B2034464745306N11958862WA0107501105
B2034474745301N11958860WA0107401103
B2034484745295N11958858WA0107101101
B2034494745289N11958857WA0107001098
B2034504745281N11958855WA0106701093
B2034514745274N11958852WA0106401089
B2034524745266N11958851WA0106101087
B2034534745260N11958849WA0105901086
B2034544745255N11958847WA0105701084
B2034554745248N11958844WA0105501082
B2034564745241N11958842WA0105201078
B2034574745234N11958840WA0105101075
B2034584745227N11958838WA0104801073
B2034594745221N11958835WA0104601072
B2035004745215N11958832WA0104401070
B2035014745209N11958829WA0104201068
B2035024745203N11958826WA0104001064
B2035034745196N11958823WA0103801060
B2035044745189N11958821WA0103501057
B2035054745183N11958817WA0103301053
B2035064745176N11958814WA0103001050
B2035074745170N11958811WA0102801047
B2035084745163N11958808WA0102501044
B2035094745157N11958806WA0102301042
B2035104745151N11958803WA0102001039
B2035114745145N11958799WA0101901037
B2035124745139N11958794WA0101601034
B2035134745133N11958788WA0101401031
B2035144745126N11958783WA0101101029
B2035154745120N11958779WA0100901027
B2035164745113N11958775WA0100701026
B2035174745107N11958771WA0100501025
B2035184745101N11958768WA0100301024
B2035194745095N11958764WA0100201023
B2035204745089N11958760WA0099901021
B2035214745083N11958756WA0099801020
B2035224745076N11958752WA0099601019
B2035234745069N11958749WA0099501019
B2035244745062N11958745WA0099401020
B2035254745055N11958743WA0099301020
B2035264745047N11958741WA0099201019
B2035274745040N11958739WA0099101019
B2035284745032N11958736WA0099001018
B2035294745026N11958734WA0099001018
B2035304745020N11958731WA0098901019
B2035314745014N11958728WA0098901019
B2035324745008N11958725WA0098801017
B2035334745002N11958721WA0098701016
B2035344744995N11958717WA0098601014
B2035354744988N11958713WA0098601014
B2035364744983N11958710WA0098501015
B2035374744977N11958707WA0098501016
B2035384744972N11958706WA0098501016
B2035394744966N11958704WA0098501016
B2035404744961N11958703WA0098401016
B2035414744955N11958702WA0098401016
B2035424744949N11958701WA0098401018
B2035434744945N11958701WA0098501019
B2035444744941N11958701WA0098501021
B2035454744937N11958701WA0098601021
B2035464744933N11958702WA0098601021
B2035464744933N11958702WA0098601021
B2035474744929N11958704WA0098601019
B2035484744926N11958707WA0098501018
B2035494744924N11958711WA0098501017
B2035504744923N11958714WA0098501016
B2035514744924N11958717WA0098401015
B2035524744926N11958719WA0098401015
B2035534744928N11958719WA0098301015
B2035544744930N11958719WA0098301015
B2035554744932N11958717WA0098301015
B2035564744936N11958715WA0098301014
B2035574744940N11958711WA0098201012
B2035584744945N11958706WA0098101011
B2035594744948N11958701WA0098101011
B2036004744952N11958695WA0098001010
B2036014744955N11958688WA0097901009
B2036024744958N11958680WA0097901008
B2036034744961N11958671WA0097701005
B2036044744964N11958661WA0097601004
B2036054744966N11958653WA0097501003
B2036064744968N11958645WA0097401002
B2036074744970N11958636WA0097301001
B2036084744972N11958627WA0097200999
B2036094744974N11958618WA0097100996
B2036104744977N11958610WA0097000994
B2036114744980N11958604WA0096800993
B2036124744982N11958600WA0096700993
B2036134744985N11958595WA0096600992
B2036144744988N11958591WA0096500991
B2036154744993N11958587WA0096300989
B2036164744998N11958582WA0096200988
B2036174745001N11958577WA0096100988
B2036184745005N11958572WA0096100990
B2036194745009N11958567WA0096000991
B2036204745012N11958561WA0096000993
B2036214745015N11958556WA0096000994
B2036224745017N11958552WA0096000996
B2036234745018N11958548WA0096100996
B2036244745020N11958544WA0096100996
B2036254745023N11958539WA0096000994
B2036264745026N11958535WA0096000991
B2036274745028N11958532WA0095900990
B2036284745031N11958529WA0095900988
B2036294745033N11958525WA0095800987
B2036304745036N11958522WA0095700985
B2036314745040N11958519WA0095600982
B2036324745043N11958515WA0095400979
B2036334745046N11958511WA0095300978
B2036344745047N11958506WA0095200977
B2036354745049N11958499WA0095100975
B2036364745050N11958492WA0094900973
B2036374745053N11958487WA0094700970
B2036384745055N11958482WA0094600966
B2036394745059N11958479WA0094400964
B2036404745062N11958474WA0094200962
B2036414745064N11958470WA0094000960
B2036424745067N11958466WA0093900958
B2036434745071N11958462WA0093600956
B2036444745075N11958460WA0093500956
B2036454745077N11958461WA0093300956
B2036464745079N11958464WA0093200955
B2036474745080N11958468WA0093100955
B2036484745081N11958472WA0093000955
B2036494745082N11958475WA0092900957
B2036504745084N11958475WA0092900959
B2036504745084N11958475WA0092900959
B2036514745086N11958473WA0092900960
B2036524745090N11958470WA0092900959
B2036534745094N11958466WA0092800958
B2036544745098N11958462WA0092700958
B2036554745101N11958457WA0092700960
B2036564745104N11958453WA0092700962
B2036574745107N11958449WA0092800964
B2036584745111N11958444WA0092800965
B2036594745115N11958438WA0092800965
B2037004745118N11958434WA0092800966
B2037014745121N11958429WA0092900967
B2037024745123N11958424WA0092900968
B2037034745124N11958419WA0093000968
B2037044745127N11958414WA0093000966
B2037054745130N11958411WA0092900964
B2037064745132N11958408WA0092900961
B2037074745135N11958406WA0092800959
B2037084745137N11958403WA0092700957
B2037094745139N11958401WA0092600955
B2037104745141N11958400WA0092500952
B2037114745143N11958399WA0092400948
B2037124745145N11958398WA0092200944
B2037134745148N11958397WA0092000941
B2037144745151N11958395WA0091900940
B2037154745153N11958394WA0091700939
B2037164745155N11958394WA0091600938
B2037174745158N11958394WA0091400936
B2037184745161N11958394WA0091300933
B2037194745164N11958394WA0091000931
B2037204745167N11958395WA0090900930
B2037214745169N11958396WA0090700931
B2037224745169N11958397WA0090700932
B2037234745169N11958398WA0090600931
B2037244745170N11958401WA0090500929
B2037254745172N11958403WA0090400925
B2037264745175N11958407WA0090200920
B2037274745178N11958411WA0090000919
B2037284745178N11958415WA0089900920
B2037294745178N11958417WA0089800922
B2037304745177N11958420WA0089700922
B2037314745177N11958422WA0089600921
B2037324745178N11958425WA0089500918
B2037334745180N11958429WA0089300913
B2037344745181N11958433WA0089200911
B2037354745183N11958436WA0089000910
B2037364745183N11958439WA0088900909
B2037374745184N11958441WA0088800909
B2037384745183N11958442WA0088700909
B2037394745183N11958442WA0088600909
B2037404745182N11958442WA0088500909
B2037414745182N11958442WA0088500909
B2037424745181N11958442WA0088400909
B2037434745181N11958442WA0088400908
B2037444745181N11958442WA0088300908
B2037454745181N11958442WA0088300908
B2037464745181N11958442WA0088300908
B2037474745181N11958442WA0088200908
B2037484745181N11958442WA0088200908
B2037494745181N11958442WA0088200908
B2037504745181N11958442WA0088200908
B2037514745181N11958442WA0088100908
B2037524745181N11958442WA0088100908
B2037534745181N11958442WA0088100908
B2037544745181N11958442WA0088100908
B2037544745181N11958442WA0088100908
B2037554745181N11958442WA0088100908
B2037564745181N11958442WA0088100908
B2037574745181N11958442WA0088100907
B2037584745181N11958442WA0088100907
B2037594745180N11958442WA0088100907
B2038004745180N11958442WA0088100907
B2038014745180N11958442WA0088100907
B2038024745180N11958442WA0088100907
B2038034745180N11958442WA0088100907
B2038044745180N11958442WA0088100907
B2038054745180N11958442WA0088100907
B2038064745180N11958442WA0088100907
B2038074745180N11958442WA0088100907
B2038084745180N11958442WA0088100907
B2038094745180N11958442WA0088100907
B2038104745180N11958442WA0088100906
B2038114745180N11958442WA0088100906
B2038124745180N11958442WA0088100906
B2038134745179N11958442WA0088100906
B2038144745179N11958442WA0088100906
B2038154745179N11958442WA0088100906
B2038164745179N11958443WA0088100906
B2038174745179N11958443WA0088100906
B2038184745179N11958443WA0088100906
B2038194745178N11958443WA0088100906
B2038204745178N11958443WA0088100906
B2038214745178N11958443WA0088100906
B2038224745177N11958443WA0088100906
B2038234745177N11958443WA0088100906
B2038244745177N11958443WA0088100906
B2038254745177N11958443WA0088100906
B2038264745177N11958443WA0088100906
B2038274745177N11958443WA0088100906
B2038284745177N11958443WA0088100906
B2038294745177N11958443WA0088100906
B2038304745177N11958443WA0088100906
B2038314745177N11958443WA0088100906
B2038324745177N11958443WA0088100906
B2038334745177N11958443WA0088100906
B2038344745177N11958443WA0088100906
B2038354745177N11958443WA0088100906
B2038364745177N11958443WA0088100906
B2038374745176N11958443WA0088100906
B2038384745176N11958443WA0088100906
B2038394745176N11958443WA0088100906
B2038404745176N11958443WA0088100906
B2038414745176N11958443WA0088100906
B2038424745176N11958443WA0088100906
B2038434745176N11958444WA0088100906
B2038444745176N11958444WA0088100906
B2038454745177N11958445WA0088100906
B2038464745177N11958445WA0088100906
B2038474745177N11958446WA0088100906
B2038484745177N11958447WA0088100906
B2038494745177N11958447WA0088100907
B2038504745177N11958448WA0088100907
B2038514745177N11958449WA0088100906
B2038524745177N11958450WA0088100906
B2038534745177N11958450WA0088100907
B2038544745177N11958451WA0088100906
B2038554745177N11958452WA0088100907
B2038564745177N11958453WA0088100906
B2038574745177N11958453WA0088100906
B2038584745177N11958453WA0088200906
B2038594745177N11958453WA0088200906
