AXFMSFP Flymaster Live, V1.0
HFFXA010
HFPLTPILOT:John Cassidy
HFGTYGLIDERTYPE:Advance Sigma 11 / Lightness
HFGIDGLIDERID:
HFDTM100GPSDATUM:WGS-1984
HFCIDCOMPETITIONID:696969
HFCCLCOMPETITIONCLASS:
HOSITSITE:Cove Launch
HFGPS:UBLOXNEO6
HFPRSPRESSALTSENSOR:NA
HFRFWFIRMWAREVERSION:202g
HFRHWHARDWAREVERSION:1.0R2
HFFTYFRTYPE:FLYMASTER,LIVE
HFDTE070925
B1810593838056N11203633WA0249702670
B1811003838056N11203633WA0249702670
B1811013838056N11203633WA0249702670
B1811023838056N11203633WA0249702670
B1811033838056N11203632WA0249702670
B1811043838056N11203632WA0249702670
B1811053838056N11203632WA0249702670
B1811063838056N11203632WA0249702670
B1811073838056N11203632WA0249702670
B1811083838056N11203632WA0249702670
B1811093838056N11203632WA0249702670
B1811103838056N11203632WA0249702670
B1811113838056N11203632WA0249702670
B1811123838056N11203632WA0249702670
B1811133838056N11203632WA0249702670
B1811143838056N11203632WA0249702670
B1811153838056N11203632WA0249702670
B1811163838056N11203632WA0249702670
B1811173838056N11203632WA0249702670
B1811183838056N11203632WA0249702670
B1811193838056N11203632WA0249702670
B1811203838056N11203633WA0249702670
B1811213838056N11203633WA0249702670
B1811223838056N11203633WA0249702670
B1811233838056N11203632WA0249702670
B1811243838056N11203632WA0249702670
B1811253838055N11203632WA0249702671
B1811263838056N11203632WA0249702670
B1811273838055N11203632WA0249702670
B1811283838055N11203633WA0249702670
B1811293838056N11203634WA0249702669
B1811303838056N11203636WA0249702669
B1811313838057N11203639WA0249702669
B1811323838057N11203642WA0249702668
B1811333838057N11203645WA0249702668
B1811343838058N11203649WA0249702669
B1811353838059N11203652WA0249802670
B1811363838059N11203653WA0249902674
B1811373838058N11203654WA0250002679
B1811383838057N11203654WA0250202683
B1811393838057N11203655WA0250402683
B1811403838057N11203657WA0250502684
B1811413838057N11203660WA0250702685
B1811423838056N11203662WA0250802686
B1811433838055N11203664WA0250902689
B1811443838053N11203664WA0251202693
B1811453838052N11203663WA0251302696
B1811463838051N11203663WA0251502698
B1811473838050N11203663WA0251602698
B1811483838049N11203664WA0251802697
B1811493838047N11203666WA0251902696
B1811503838046N11203668WA0252002696
B1811513838044N11203669WA0252002697
B1811523838042N11203670WA0252102697
B1811533838040N11203671WA0252202699
B1811543838038N11203671WA0252302700
B1811553838036N11203671WA0252402702
B1811563838035N11203672WA0252602705
B1811573838033N11203672WA0252702707
B1811583838031N11203673WA0252902708
B1811593838030N11203673WA0252902709
B1812003838028N11203674WA0253102710
B1812013838027N11203675WA0253202710
B1812013838027N11203675WA0253202710
B1812023838026N11203676WA0253302710
B1812033838024N11203676WA0253302710
B1812043838022N11203678WA0253402708
B1812053838021N11203679WA0253402707
B1812063838019N11203681WA0253402706
B1812073838017N11203683WA0253402706
B1812083838015N11203685WA0253402707
B1812093838014N11203687WA0253402708
B1812103838013N11203688WA0253502711
B1812113838012N11203688WA0253602713
B1812123838011N11203689WA0253702715
B1812133838009N11203689WA0253702715
B1812143838007N11203691WA0253802713
B1812153838004N11203693WA0253802712
B1812163838001N11203694WA0253802713
B1812173838000N11203694WA0253902716
B1812183837999N11203694WA0254002718
B1812193837998N11203693WA0254002720
B1812203837997N11203693WA0254102720
B1812213837995N11203694WA0254102719
B1812223837992N11203696WA0254202717
B1812233837990N11203698WA0254202717
B1812243837988N11203700WA0254202718
B1812253837986N11203700WA0254302720
B1812263837984N11203700WA0254302721
B1812273837983N11203700WA0254402723
B1812283837981N11203700WA0254502724
B1812293837979N11203700WA0254502724
B1812303837977N11203700WA0254602723
B1812313837975N11203702WA0254602722
B1812323837973N11203703WA0254602721
B1812333837970N11203704WA0254602722
B1812343837968N11203704WA0254702722
B1812353837966N11203703WA0254702723
B1812363837964N11203702WA0254702723
B1812373837961N11203701WA0254802724
B1812383837959N11203701WA0254802723
B1812393837956N11203699WA0254802723
B1812403837952N11203696WA0254802722
B1812413837949N11203693WA0254802722
B1812423837947N11203691WA0254802724
B1812433837946N11203691WA0254902725
B1812443837946N11203693WA0254902724
B1812453837947N11203697WA0254902723
B1812463837947N11203700WA0254902722
B1812473837946N11203704WA0254802721
B1812483837946N11203707WA0254802722
B1812493837945N11203709WA0254802722
B1812503837945N11203710WA0254802723
B1812513837946N11203711WA0254802722
B1812523837946N11203714WA0254802721
B1812533837946N11203717WA0254702719
B1812543837946N11203720WA0254702717
B1812553837946N11203724WA0254602716
B1812563837946N11203727WA0254502714
B1812573837946N11203730WA0254502714
B1812583837946N11203733WA0254402714
B1812593837947N11203736WA0254402714
B1813003837950N11203738WA0254302716
B1813013837954N11203741WA0254302717
B1813023837959N11203744WA0254302717
B1813033837964N11203746WA0254302719
B1813043837969N11203748WA0254402721
B1813043837969N11203748WA0254402721
B1813053837975N11203749WA0254402723
B1813063837982N11203749WA0254502725
B1813073837990N11203749WA0254602726
B1813083837998N11203748WA0254702727
B1813093838006N11203747WA0254702728
B1813103838014N11203746WA0254802729
B1813113838022N11203745WA0254902730
B1813123838031N11203744WA0255002731
B1813133838038N11203744WA0255102733
B1813143838046N11203744WA0255202735
B1813153838053N11203743WA0255302737
B1813163838060N11203741WA0255402738
B1813173838068N11203738WA0255502738
B1813183838076N11203733WA0255602736
B1813193838084N11203727WA0255602734
B1813203838093N11203722WA0255602732
B1813213838100N11203720WA0255602731
B1813223838108N11203719WA0255602730
B1813233838114N11203720WA0255502728
B1813243838120N11203722WA0255502727
B1813253838125N11203725WA0255402726
B1813263838129N11203728WA0255402725
B1813273838131N11203732WA0255302722
B1813283838131N11203736WA0255202719
B1813293838129N11203740WA0255102716
B1813303838126N11203743WA0255002715
B1813313838123N11203746WA0254902716
B1813323838121N11203747WA0254802718
B1813333838120N11203749WA0254802720
B1813343838118N11203750WA0254802721
B1813353838116N11203751WA0254802722
B1813363838113N11203752WA0254702721
B1813373838110N11203752WA0254702721
B1813383838106N11203752WA0254702721
B1813393838102N11203751WA0254702722
B1813403838098N11203749WA0254702723
B1813413838094N11203748WA0254802724
B1813423838092N11203746WA0254802726
B1813433838090N11203745WA0254902728
B1813443838088N11203744WA0255002730
B1813453838087N11203743WA0255102733
B1813463838086N11203742WA0255302737
B1813473838085N11203742WA0255402739
B1813483838083N11203742WA0255602742
B1813493838082N11203741WA0255702744
B1813503838080N11203740WA0255902747
B1813513838078N11203738WA0256102748
B1813523838076N11203737WA0256302750
B1813533838073N11203735WA0256402753
B1813543838071N11203734WA0256702756
B1813553838069N11203733WA0256902759
B1813563838067N11203733WA0257102761
B1813573838067N11203733WA0257302762
B1813583838065N11203735WA0257502764
B1813593838063N11203736WA0257602766
B1814003838061N11203737WA0257902768
B1814013838059N11203738WA0258002771
B1814023838057N11203739WA0258302775
B1814033838055N11203739WA0258502778
B1814043838053N11203738WA0258702781
B1814053838051N11203738WA0258902783
B1814063838048N11203738WA0259202785
B1814073838046N11203739WA0259402788
B1814073838046N11203739WA0259402788
B1814083838045N11203740WA0259702789
B1814093838042N11203739WA0259802790
B1814103838039N11203738WA0260002789
B1814113838037N11203736WA0260102788
B1814123838034N11203736WA0260202787
B1814133838032N11203736WA0260302785
B1814143838029N11203736WA0260302784
B1814153838026N11203735WA0260302783
B1814163838023N11203733WA0260302782
B1814173838020N11203730WA0260302781
B1814183838018N11203729WA0260302780
B1814193838015N11203727WA0260302778
B1814203838012N11203726WA0260202776
B1814213838009N11203725WA0260202774
B1814223838006N11203723WA0260102772
B1814233838002N11203722WA0260002770
B1814243838000N11203721WA0259902770
B1814253837998N11203720WA0259802770
B1814263837996N11203719WA0259702770
B1814273837995N11203719WA0259702769
B1814283837992N11203720WA0259602767
B1814293837990N11203720WA0259502765
B1814303837987N11203721WA0259402764
B1814313837984N11203721WA0259302763
B1814323837982N11203721WA0259202763
B1814333837981N11203722WA0259102762
B1814343837980N11203723WA0259002761
B1814353837979N11203723WA0259002760
B1814363837978N11203724WA0258802759
B1814373837976N11203725WA0258802756
B1814383837974N11203726WA0258602754
B1814393837972N11203727WA0258502752
B1814403837971N11203728WA0258302751
B1814413837971N11203730WA0258202750
B1814423837972N11203732WA0258102749
B1814433837972N11203735WA0258002747
B1814443837973N11203738WA0257802744
B1814453837971N11203741WA0257702741
B1814463837969N11203743WA0257502739
B1814473837967N11203745WA0257402738
B1814483837966N11203746WA0257202738
B1814493837965N11203747WA0257202739
B1814503837963N11203748WA0257002739
B1814513837962N11203749WA0257002738
B1814523837961N11203751WA0256802736
B1814533837961N11203753WA0256702736
B1814543837963N11203756WA0256602737
B1814553837967N11203759WA0256602736
B1814563837973N11203762WA0256402734
B1814573837982N11203763WA0256302732
B1814583837991N11203763WA0256202730
B1814593838000N11203763WA0256102729
B1815003838008N11203762WA0256002729
B1815013838014N11203762WA0255902729
B1815023838021N11203763WA0255802728
B1815033838026N11203766WA0255702726
B1815043838032N11203770WA0255602723
B1815053838035N11203775WA0255502721
B1815063838036N11203779WA0255302720
B1815073838035N11203781WA0255202718
B1815083838033N11203782WA0255002716
B1815093838030N11203781WA0254902714
B1815103838026N11203781WA0254702712
B1815103838026N11203781WA0254702712
B1815113838023N11203781WA0254602711
B1815123838021N11203781WA0254502710
B1815133838018N11203781WA0254402710
B1815143838016N11203779WA0254302710
B1815153838014N11203776WA0254202710
B1815163838011N11203773WA0254102709
B1815173838008N11203770WA0254002707
B1815183838005N11203767WA0253902706
B1815193838002N11203763WA0253802705
B1815203838000N11203759WA0253702705
B1815213837998N11203756WA0253602705
B1815223837996N11203753WA0253502705
B1815233837994N11203751WA0253502704
B1815243837991N11203749WA0253402703
B1815253837989N11203747WA0253302702
B1815263837986N11203745WA0253202701
B1815273837983N11203743WA0253202700
B1815283837980N11203741WA0253102699
B1815293837976N11203739WA0253002699
B1815303837973N11203737WA0253002699
B1815313837970N11203734WA0252902699
B1815323837968N11203732WA0252902700
B1815333837965N11203730WA0252802700
B1815343837962N11203728WA0252802700
B1815353837959N11203727WA0252802700
B1815363837955N11203725WA0252802700
B1815373837952N11203723WA0252702699
B1815383837949N11203721WA0252702699
B1815393837946N11203719WA0252702699
B1815403837943N11203716WA0252702701
B1815413837941N11203713WA0252702703
B1815423837939N11203710WA0252802704
B1815433837938N11203708WA0252802705
B1815443837936N11203705WA0252902705
B1815453837933N11203704WA0252902704
B1815463837930N11203702WA0252902703
B1815473837927N11203699WA0252902704
B1815483837924N11203696WA0252902705
B1815493837922N11203693WA0253002707
B1815503837920N11203690WA0253002709
B1815513837918N11203688WA0253102710
B1815523837917N11203686WA0253202712
B1815533837915N11203685WA0253302712
B1815543837914N11203683WA0253302713
B1815553837913N11203681WA0253402714
B1815563837912N11203680WA0253502714
B1815573837910N11203679WA0253502715
B1815583837909N11203678WA0253602715
B1815593837907N11203677WA0253702715
B1816003837905N11203676WA0253702715
B1816013837903N11203674WA0253702715
B1816023837901N11203672WA0253802715
B1816033837898N11203669WA0253802716
B1816043837896N11203666WA0253902717
B1816053837895N11203663WA0253902718
B1816063837893N11203660WA0254002719
B1816073837891N11203658WA0254102720
B1816083837890N11203656WA0254102722
B1816093837888N11203654WA0254202723
B1816103837886N11203652WA0254302724
B1816113837885N11203650WA0254402725
B1816123837883N11203648WA0254502726
B1816133837881N11203646WA0254502726
B1816133837881N11203646WA0254502726
B1816143837878N11203643WA0254602726
B1816153837876N11203639WA0254602726
B1816163837873N11203636WA0254702726
B1816173837870N11203632WA0254702726
B1816183837868N11203630WA0254802727
B1816193837866N11203627WA0254802729
B1816203837864N11203625WA0254902730
B1816213837862N11203622WA0255002731
B1816223837860N11203620WA0255102732
B1816233837858N11203617WA0255102733
B1816243837857N11203614WA0255202733
B1816253837855N11203612WA0255302734
B1816263837853N11203610WA0255402735
B1816273837851N11203608WA0255402736
B1816283837849N11203606WA0255502736
B1816293837846N11203603WA0255602736
B1816303837844N11203601WA0255602736
B1816313837842N11203598WA0255702737
B1816323837840N11203595WA0255702737
B1816333837838N11203591WA0255802737
B1816343837835N11203587WA0255802736
B1816353837833N11203583WA0255802736
B1816363837830N11203580WA0255802736
B1816373837828N11203577WA0255902736
B1816383837826N11203574WA0255902737
B1816393837824N11203571WA0255902738
B1816403837821N11203568WA0256002738
B1816413837819N11203566WA0256002737
B1816423837816N11203563WA0256002736
B1816433837813N11203560WA0256002736
B1816443837811N11203558WA0256002735
B1816453837808N11203555WA0256002734
B1816463837805N11203552WA0255902734
B1816473837802N11203550WA0255902734
B1816483837800N11203548WA0255902734
B1816493837798N11203546WA0255902734
B1816503837797N11203547WA0255902734
B1816513837796N11203550WA0255902733
B1816523837798N11203556WA0255802730
B1816533837802N11203562WA0255802727
B1816543837808N11203568WA0255702727
B1816553837814N11203573WA0255602727
B1816563837819N11203576WA0255602729
B1816573837823N11203580WA0255602731
B1816583837827N11203584WA0255602731
B1816593837830N11203589WA0255602731
B1817003837833N11203594WA0255602730
B1817013837836N11203599WA0255602731
B1817023837840N11203603WA0255602732
B1817033837844N11203607WA0255602732
B1817043837849N11203610WA0255602732
B1817053837855N11203614WA0255602730
B1817063837861N11203619WA0255502728
B1817073837867N11203623WA0255502727
B1817083837871N11203627WA0255402727
B1817093837875N11203631WA0255402726
B1817103837877N11203636WA0255402726
B1817113837878N11203640WA0255302724
B1817123837877N11203643WA0255302723
B1817133837875N11203646WA0255202722
B1817143837873N11203646WA0255102720
B1817153837870N11203645WA0255102719
B1817163837867N11203642WA0255002718
B1817163837867N11203642WA0255002718
B1817173837865N11203638WA0254902717
B1817183837862N11203634WA0254802716
B1817193837860N11203630WA0254802716
B1817203837857N11203628WA0254702716
B1817213837855N11203625WA0254702716
B1817223837854N11203623WA0254602717
B1817233837852N11203621WA0254602716
B1817243837850N11203619WA0254502715
B1817253837847N11203616WA0254502713
B1817263837844N11203614WA0254402712
B1817273837841N11203611WA0254402711
B1817283837839N11203608WA0254302713
B1817293837837N11203605WA0254302715
B1817303837835N11203603WA0254302716
B1817313837834N11203601WA0254302716
B1817323837831N11203600WA0254302715
B1817333837829N11203600WA0254302715
B1817343837827N11203599WA0254302715
B1817353837825N11203598WA0254302715
B1817363837822N11203597WA0254302715
B1817373837819N11203595WA0254302715
B1817383837816N11203591WA0254302715
B1817393837813N11203587WA0254302715
B1817403837811N11203583WA0254302716
B1817413837808N11203579WA0254302717
B1817423837805N11203576WA0254302718
B1817433837802N11203574WA0254302719
B1817443837800N11203571WA0254402720
B1817453837797N11203568WA0254402720
B1817463837794N11203565WA0254502720
B1817473837792N11203562WA0254502719
B1817483837788N11203559WA0254502718
B1817493837785N11203556WA0254402716
B1817503837780N11203552WA0254402714
B1817513837776N11203548WA0254402714
B1817523837773N11203546WA0254402716
B1817533837770N11203544WA0254402718
B1817543837768N11203546WA0254402718
B1817553837767N11203549WA0254402717
B1817563837768N11203555WA0254302714
B1817573837772N11203562WA0254302711
B1817583837778N11203566WA0254202710
B1817593837785N11203568WA0254102710
B1818003837792N11203569WA0254102712
B1818013837798N11203570WA0254102713
B1818023837803N11203571WA0254102715
B1818033837809N11203572WA0254102715
B1818043837815N11203574WA0254102715
B1818053837821N11203576WA0254102716
B1818063837827N11203578WA0254102716
B1818073837833N11203580WA0254202717
B1818083837839N11203583WA0254202718
B1818093837844N11203587WA0254202718
B1818103837850N11203590WA0254302719
B1818113837856N11203593WA0254302719
B1818123837862N11203595WA0254302720
B1818133837867N11203598WA0254402722
B1818143837872N11203600WA0254502724
B1818153837875N11203603WA0254602726
B1818163837879N11203607WA0254602726
B1818173837882N11203612WA0254702726
B1818183837885N11203616WA0254802728
B1818193837888N11203619WA0254902730
B1818193837888N11203619WA0254902730
B1818203837889N11203622WA0255002732
B1818213837890N11203624WA0255102733
B1818223837889N11203627WA0255202733
B1818233837886N11203628WA0255302734
B1818243837883N11203629WA0255402735
B1818253837880N11203629WA0255502736
B1818263837877N11203627WA0255602738
B1818273837874N11203623WA0255702738
B1818283837871N11203618WA0255802739
B1818293837868N11203611WA0255902739
B1818303837865N11203604WA0255902740
B1818313837863N11203598WA0256102742
B1818323837861N11203592WA0256202745
B1818333837859N11203586WA0256302748
B1818343837857N11203581WA0256402750
B1818353837855N11203576WA0256602751
B1818363837852N11203572WA0256702753
B1818373837849N11203567WA0256902754
B1818383837846N11203562WA0257002755
B1818393837843N11203557WA0257102756
B1818403837841N11203553WA0257302759
B1818413837839N11203549WA0257402761
B1818423837836N11203545WA0257502763
B1818433837834N11203540WA0257702764
B1818443837831N11203536WA0257802765
B1818453837829N11203530WA0258002766
B1818463837828N11203525WA0258102766
B1818473837826N11203519WA0258202766
B1818483837824N11203513WA0258202765
B1818493837821N11203508WA0258302763
B1818503837818N11203505WA0258302761
B1818513837814N11203501WA0258302759
B1818523837811N11203498WA0258302758
B1818533837807N11203495WA0258202757
B1818543837803N11203493WA0258202755
B1818553837799N11203491WA0258102753
B1818563837795N11203492WA0258102751
B1818573837790N11203493WA0258002749
B1818583837787N11203496WA0257902749
B1818593837786N11203501WA0257802749
B1819003837786N11203507WA0257702749
B1819013837788N11203512WA0257702749
B1819023837791N11203516WA0257702750
B1819033837795N11203519WA0257602752
B1819043837799N11203522WA0257602753
B1819053837803N11203525WA0257702755
B1819063837808N11203527WA0257702757
B1819073837813N11203527WA0257802758
B1819083837819N11203527WA0257802759
B1819093837824N11203526WA0257902759
B1819103837830N11203526WA0257902760
B1819113837835N11203528WA0258002762
B1819123837840N11203531WA0258102763
B1819133837842N11203536WA0258202764
B1819143837844N11203541WA0258202765
B1819153837843N11203545WA0258302767
B1819163837842N11203547WA0258402769
B1819173837838N11203548WA0258602771
B1819183837834N11203547WA0258702771
B1819193837830N11203543WA0258802772
B1819203837826N11203537WA0258902774
B1819213837824N11203531WA0259002777
B1819223837823N11203525WA0259202780
B1819223837823N11203525WA0259202780
B1819233837822N11203520WA0259302782
B1819243837820N11203515WA0259502783
B1819253837818N11203509WA0259602783
B1819263837815N11203502WA0259702783
B1819273837812N11203496WA0259802783
B1819283837809N11203490WA0259902784
B1819293837806N11203483WA0260002784
B1819303837804N11203477WA0260002785
B1819313837803N11203470WA0260102786
B1819323837800N11203464WA0260202786
B1819333837797N11203458WA0260302785
B1819343837793N11203453WA0260302785
B1819353837789N11203448WA0260402786
B1819363837785N11203444WA0260402788
B1819373837781N11203440WA0260502790
B1819383837777N11203437WA0260602792
B1819393837774N11203435WA0260702794
B1819403837771N11203435WA0260802794
B1819413837769N11203438WA0260902793
B1819423837770N11203443WA0260902791
B1819433837773N11203448WA0260902790
B1819443837777N11203452WA0260902790
B1819453837781N11203455WA0261002791
B1819463837785N11203457WA0261002792
B1819473837789N11203459WA0261002792
B1819483837793N11203462WA0261002790
B1819493837798N11203466WA0261002787
B1819503837804N11203471WA0260902783
B1819513837809N11203477WA0260802781
B1819523837814N11203481WA0260702781
B1819533837817N11203485WA0260702783
B1819543837818N11203488WA0260702784
B1819553837818N11203491WA0260602784
B1819563837818N11203495WA0260602783
B1819573837817N11203499WA0260602783
B1819583837816N11203503WA0260502781
B1819593837814N11203507WA0260502779
B1820003837811N11203508WA0260402778
B1820013837808N11203508WA0260302776
B1820023837805N11203505WA0260202775
B1820033837803N11203499WA0260102774
B1820043837800N11203493WA0260102772
B1820053837798N11203486WA0259902771
B1820063837795N11203480WA0259902770
B1820073837792N11203474WA0259702769
B1820083837790N11203468WA0259702769
B1820093837788N11203463WA0259602768
B1820103837785N11203458WA0259502767
B1820113837782N11203453WA0259402766
B1820123837779N11203448WA0259302764
B1820133837775N11203442WA0259202763
B1820143837771N11203437WA0259102763
B1820153837767N11203433WA0259002763
B1820163837763N11203430WA0259002762
B1820173837759N11203426WA0258902761
B1820183837755N11203421WA0258802759
B1820193837749N11203416WA0258602756
B1820203837743N11203411WA0258602754
B1820213837737N11203408WA0258402755
B1820223837732N11203407WA0258402758
B1820233837730N11203408WA0258402761
B1820243837728N11203410WA0258402763
B1820243837728N11203410WA0258402763
B1820253837726N11203412WA0258402762
B1820263837725N11203415WA0258402759
B1820273837726N11203419WA0258302756
B1820283837727N11203422WA0258202753
B1820293837730N11203426WA0258102752
B1820303837734N11203428WA0258102751
B1820313837738N11203431WA0257902749
B1820323837742N11203434WA0257802748
B1820333837746N11203439WA0257702746
B1820343837749N11203444WA0257602744
B1820353837752N11203449WA0257502744
B1820363837755N11203453WA0257402744
B1820373837759N11203456WA0257302745
B1820383837762N11203459WA0257302745
B1820393837765N11203462WA0257202745
B1820403837769N11203466WA0257202745
B1820413837773N11203470WA0257102744
B1820423837777N11203475WA0257002742
B1820433837781N11203480WA0257002741
B1820443837786N11203485WA0256902742
B1820453837789N11203489WA0256902743
B1820463837793N11203494WA0256902746
B1820473837797N11203497WA0256902748
B1820483837801N11203500WA0257002748
B1820493837804N11203503WA0257002748
B1820503837809N11203507WA0257002746
B1820513837814N11203512WA0256902743
B1820523837819N11203518WA0256902740
B1820533837824N11203523WA0256802739
B1820543837826N11203528WA0256802740
B1820553837828N11203531WA0256702740
B1820563837829N11203535WA0256702740
B1820573837831N11203539WA0256602738
B1820583837833N11203545WA0256602736
B1820593837836N11203551WA0256502734
B1821003837838N11203557WA0256402732
B1821013837840N11203563WA0256302731
B1821023837841N11203570WA0256202730
B1821033837843N11203576WA0256102729
B1821043837845N11203583WA0256002728
B1821053837847N11203589WA0255902728
B1821063837849N11203595WA0255802729
B1821073837850N11203600WA0255802730
B1821083837851N11203604WA0255802732
B1821093837853N11203607WA0255802733
B1821103837855N11203611WA0255802733
B1821113837857N11203616WA0255702732
B1821123837859N11203621WA0255702731
B1821133837861N11203627WA0255702731
B1821143837862N11203633WA0255702731
B1821153837863N11203638WA0255702735
B1821163837864N11203642WA0255802739
B1821173837864N11203645WA0255902742
B1821183837864N11203648WA0256002743
B1821193837864N11203653WA0256002742
B1821203837864N11203660WA0256102740
B1821213837865N11203666WA0256102738
B1821223837865N11203673WA0256102737
B1821233837865N11203678WA0256102737
B1821243837866N11203682WA0256002737
B1821253837868N11203686WA0256002736
B1821263837871N11203691WA0256002734
B1821263837871N11203691WA0256002734
B1821273837875N11203696WA0255902731
B1821283837881N11203701WA0255802729
B1821293837887N11203704WA0255702727
B1821303837893N11203706WA0255602726
B1821313837900N11203707WA0255502726
B1821323837906N11203708WA0255502725
B1821333837913N11203709WA0255402723
B1821343837921N11203711WA0255302720
B1821353837929N11203713WA0255102718
B1821363837936N11203716WA0255002716
B1821373837943N11203717WA0254902715
B1821383837950N11203719WA0254802715
B1821393837955N11203721WA0254702714
B1821403837959N11203724WA0254602713
B1821413837962N11203729WA0254502710
B1821423837963N11203734WA0254302708
B1821433837962N11203738WA0254202706
B1821443837960N11203740WA0254102704
B1821453837957N11203739WA0253902703
B1821463837953N11203737WA0253802701
B1821473837950N11203733WA0253602700
B1821483837946N11203729WA0253502699
B1821493837943N11203725WA0253402698
B1821503837941N11203722WA0253302697
B1821513837938N11203718WA0253102696
B1821523837935N11203715WA0253002694
B1821533837931N11203711WA0252802691
B1821543837927N11203707WA0252702689
B1821553837924N11203704WA0252502688
B1821563837920N11203701WA0252402688
B1821573837918N11203699WA0252302689
B1821583837915N11203698WA0252202689
B1821593837914N11203697WA0252102690
B1822003837912N11203696WA0252102690
B1822013837910N11203695WA0252002689
B1822023837907N11203695WA0252002689
B1822033837904N11203693WA0251902687
B1822043837900N11203691WA0251802685
B1822053837895N11203689WA0251702683
B1822063837891N11203687WA0251602681
B1822073837886N11203686WA0251502680
B1822083837882N11203684WA0251402679
B1822093837878N11203681WA0251202678
B1822103837874N11203679WA0251102676
B1822113837870N11203676WA0251002675
B1822123837865N11203672WA0250902673
B1822133837861N11203668WA0250802671
B1822143837856N11203663WA0250702670
B1822153837852N11203659WA0250502669
B1822163837847N11203654WA0250402668
B1822173837844N11203649WA0250302668
B1822183837840N11203644WA0250202667
B1822193837836N11203639WA0250102666
B1822203837833N11203634WA0250002665
B1822213837829N11203629WA0249902664
B1822223837826N11203624WA0249802662
B1822233837822N11203620WA0249702661
B1822243837818N11203615WA0249602660
B1822253837814N11203611WA0249502658
B1822263837809N11203606WA0249402656
B1822273837804N11203602WA0249302655
B1822283837799N11203598WA0249202655
B1822293837795N11203594WA0249102655
B1822303837791N11203590WA0249002656
B1822303837791N11203590WA0249002656
B1822313837787N11203588WA0249002656
B1822323837783N11203585WA0248902656
B1822333837779N11203583WA0248902657
B1822343837776N11203581WA0248902658
B1822353837774N11203579WA0248902658
B1822363837771N11203578WA0248802657
B1822373837768N11203577WA0248802656
B1822383837763N11203577WA0248802653
B1822393837758N11203576WA0248702650
B1822403837753N11203575WA0248602649
B1822413837748N11203574WA0248502649
B1822423837744N11203574WA0248502650
B1822433837740N11203574WA0248402651
B1822443837736N11203573WA0248402652
B1822453837731N11203572WA0248402653
B1822463837727N11203570WA0248402654
B1822473837723N11203568WA0248402653
B1822483837718N11203564WA0248402652
B1822493837713N11203560WA0248302649
B1822503837708N11203555WA0248302646
B1822513837702N11203551WA0248202645
B1822523837697N11203548WA0248102644
B1822533837692N11203547WA0248002644
B1822543837686N11203547WA0248002643
B1822553837681N11203550WA0247902642
B1822563837677N11203554WA0247802641
B1822573837675N11203559WA0247702639
B1822583837676N11203566WA0247602637
B1822593837679N11203571WA0247502635
B1823003837682N11203575WA0247402634
B1823013837685N11203579WA0247302634
B1823023837688N11203582WA0247202635
B1823033837691N11203585WA0247202635
B1823043837695N11203588WA0247102636
B1823053837698N11203591WA0247102637
B1823063837702N11203593WA0247102637
B1823073837706N11203596WA0247002636
B1823083837711N11203599WA0247002635
B1823093837717N11203602WA0247002635
B1823103837722N11203604WA0246902635
B1823113837728N11203605WA0246902637
B1823123837732N11203606WA0247002637
B1823133837736N11203608WA0246902636
B1823143837740N11203612WA0246902633
B1823153837744N11203618WA0246802629
B1823163837750N11203622WA0246702626
B1823173837755N11203626WA0246602627
B1823183837760N11203630WA0246602628
B1823193837763N11203633WA0246502629
B1823203837766N11203637WA0246502629
B1823213837769N11203641WA0246402628
B1823223837773N11203645WA0246402627
B1823233837776N11203650WA0246302625
B1823243837780N11203655WA0246202623
B1823253837784N11203661WA0246102621
B1823263837788N11203666WA0246002620
B1823273837792N11203670WA0245902619
B1823283837796N11203674WA0245802618
B1823293837801N11203678WA0245702618
B1823303837805N11203682WA0245602617
B1823313837809N11203686WA0245502615
B1823323837814N11203690WA0245402614
B1823333837819N11203693WA0245302613
B1823333837819N11203693WA0245302613
B1823343837823N11203697WA0245202611
B1823353837828N11203701WA0245102610
B1823363837832N11203705WA0245002608
B1823373837836N11203710WA0244902607
B1823383837840N11203714WA0244802605
B1823393837845N11203719WA0244602603
B1823403837850N11203723WA0244502602
B1823413837855N11203727WA0244402601
B1823423837859N11203732WA0244302601
B1823433837864N11203737WA0244202601
B1823443837867N11203743WA0244102602
B1823453837870N11203747WA0244102603
B1823463837874N11203752WA0244002604
B1823473837877N11203756WA0244002604
B1823483837881N11203760WA0244002604
B1823493837885N11203765WA0244002604
B1823503837888N11203770WA0243902604
B1823513837892N11203775WA0243902603
B1823523837895N11203779WA0243902603
B1823533837899N11203784WA0243802602
B1823543837903N11203789WA0243802601
B1823553837907N11203794WA0243702600
B1823563837911N11203799WA0243702599
B1823573837915N11203805WA0243602598
B1823583837918N11203811WA0243502597
B1823593837919N11203818WA0243402595
B1824003837919N11203825WA0243402594
B1824013837919N11203832WA0243202592
B1824023837917N11203839WA0243202591
B1824033837916N11203846WA0243002590
B1824043837914N11203852WA0243002590
B1824053837912N11203858WA0242902590
B1824063837911N11203864WA0242802590
B1824073837909N11203870WA0242702590
B1824083837906N11203876WA0242702589
B1824093837904N11203882WA0242602589
B1824103837901N11203888WA0242602589
B1824113837899N11203893WA0242502590
B1824123837896N11203898WA0242502591
B1824133837894N11203902WA0242502592
B1824143837891N11203907WA0242502592
B1824153837888N11203911WA0242502592
B1824163837885N11203916WA0242502592
B1824173837882N11203920WA0242502593
B1824183837878N11203924WA0242602595
B1824193837875N11203927WA0242602596
B1824203837872N11203930WA0242602597
B1824213837869N11203934WA0242702597
B1824223837865N11203937WA0242702597
B1824233837862N11203940WA0242802598
B1824243837858N11203943WA0242802599
B1824253837855N11203947WA0242902599
B1824263837852N11203951WA0242902601
B1824273837849N11203954WA0243002602
B1824283837846N11203958WA0243102603
B1824293837842N11203961WA0243202604
B1824303837839N11203964WA0243202605
B1824313837835N11203968WA0243302606
B1824323837831N11203971WA0243402607
B1824333837828N11203973WA0243502610
B1824343837826N11203975WA0243602613
B1824353837824N11203977WA0243802616
B1824363837823N11203979WA0243902618
B1824363837823N11203979WA0243902618
B1824373837822N11203981WA0244102620
B1824383837821N11203984WA0244202621
B1824393837821N11203986WA0244402622
B1824403837821N11203989WA0244502623
B1824413837821N11203991WA0244602624
B1824423837819N11203993WA0244702624
B1824433837817N11203995WA0244802624
B1824443837816N11203997WA0244902624
B1824453837815N11204000WA0245002623
B1824463837814N11204003WA0245002624
B1824473837814N11204006WA0245102625
B1824483837814N11204010WA0245202627
B1824493837813N11204012WA0245302629
B1824503837811N11204015WA0245402630
B1824513837809N11204018WA0245502630
B1824523837806N11204021WA0245502631
B1824533837803N11204024WA0245602632
B1824543837800N11204026WA0245702633
B1824553837798N11204029WA0245802634
B1824563837796N11204031WA0245902634
B1824573837793N11204034WA0246002634
B1824583837792N11204037WA0246002635
B1824593837790N11204039WA0246102636
B1825003837789N11204041WA0246202636
B1825013837787N11204044WA0246202637
B1825023837786N11204047WA0246302637
B1825033837784N11204050WA0246302636
B1825043837782N11204053WA0246302635
B1825053837781N11204056WA0246402635
B1825063837779N11204059WA0246402635
B1825073837778N11204062WA0246402635
B1825083837777N11204064WA0246402635
B1825093837776N11204066WA0246402635
B1825103837775N11204068WA0246402635
B1825113837774N11204071WA0246402634
B1825123837772N11204073WA0246402634
B1825133837771N11204076WA0246402633
B1825143837770N11204079WA0246402633
B1825153837769N11204083WA0246302632
B1825163837768N11204086WA0246302632
B1825173837766N11204088WA0246302632
B1825183837765N11204090WA0246302631
B1825193837763N11204092WA0246202631
B1825203837761N11204094WA0246202629
B1825213837760N11204096WA0246102628
B1825223837758N11204099WA0246102626
B1825233837757N11204103WA0246002624
B1825243837755N11204107WA0245902621
B1825253837754N11204111WA0245702618
B1825263837753N11204115WA0245602615
B1825273837752N11204121WA0245402612
B1825283837753N11204128WA0245302607
B1825293837754N11204135WA0245002603
B1825303837754N11204142WA0244902601
B1825313837752N11204146WA0244702600
B1825323837750N11204149WA0244502598
B1825333837747N11204152WA0244302596
B1825343837745N11204155WA0244102594
B1825353837743N11204159WA0243802591
B1825363837741N11204163WA0243702589
B1825373837740N11204166WA0243402588
B1825383837738N11204169WA0243202587
B1825393837737N11204172WA0243002586
B1825393837737N11204172WA0243002586
B1825403837736N11204174WA0242902584
B1825413837734N11204177WA0242702581
B1825423837733N11204181WA0242502579
B1825433837731N11204184WA0242302577
B1825443837729N11204186WA0242102576
B1825453837728N11204189WA0241902574
B1825463837727N11204192WA0241802571
B1825473837725N11204195WA0241502568
B1825483837723N11204200WA0241302564
B1825493837721N11204205WA0241002559
B1825503837719N11204211WA0240802555
B1825513837716N11204215WA0240502553
B1825523837714N11204220WA0240302551
B1825533837712N11204224WA0240002549
B1825543837710N11204228WA0239802546
B1825553837708N11204232WA0239502542
B1825563837706N11204237WA0239302538
B1825573837703N11204243WA0239002534
B1825583837701N11204248WA0238702531
B1825593837699N11204253WA0238402529
B1826003837697N11204258WA0238202527
B1826013837696N11204263WA0237902525
B1826023837694N11204268WA0237702521
B1826033837694N11204274WA0237402519
B1826043837694N11204280WA0237202517
B1826053837695N11204285WA0236902516
B1826063837695N11204290WA0236702516
B1826073837696N11204294WA0236502515
B1826083837696N11204299WA0236302513
B1826093837696N11204305WA0236102510
B1826103837696N11204311WA0235902507
B1826113837696N11204316WA0235702505
B1826123837696N11204321WA0235502503
B1826133837697N11204327WA0235302500
B1826143837697N11204332WA0235102497
B1826153837697N11204339WA0234802493
B1826163837698N11204345WA0234602489
B1826173837699N11204351WA0234302487
B1826183837699N11204356WA0234102485
B1826193837700N11204361WA0233802484
B1826203837701N11204366WA0233602481
B1826213837703N11204372WA0233302479
B1826223837705N11204378WA0233102475
B1826233837706N11204383WA0232802472
B1826243837707N11204389WA0232602469
B1826253837708N11204395WA0232302466
B1826263837709N11204401WA0232102463
B1826273837710N11204408WA0231702459
B1826283837711N11204415WA0231502455
B1826293837712N11204421WA0231202453
B1826303837714N11204426WA0231002451
B1826313837715N11204431WA0230702449
B1826323837715N11204436WA0230502445
B1826333837716N11204442WA0230102441
B1826343837716N11204449WA0229902436
B1826353837717N11204456WA0229502433
B1826363837718N11204462WA0229302430
B1826373837719N11204469WA0229002428
B1826383837721N11204476WA0228702424
B1826393837722N11204483WA0228402421
B1826403837723N11204490WA0228102418
B1826413837725N11204497WA0227802415
B1826423837726N11204505WA0227502412
B1826423837726N11204505WA0227502412
B1826433837727N11204512WA0227202408
B1826443837728N11204520WA0227002406
B1826453837728N11204528WA0226602403
B1826463837728N11204535WA0226402402
B1826473837728N11204541WA0226202402
B1826483837728N11204546WA0226002402
B1826493837729N11204550WA0225802403
B1826503837729N11204554WA0225702404
B1826513837729N11204557WA0225502404
B1826523837730N11204562WA0225502403
B1826533837731N11204566WA0225302402
B1826543837733N11204572WA0225202400
B1826553837735N11204577WA0225002397
B1826563837736N11204584WA0224902394
B1826573837737N11204590WA0224702391
B1826583837737N11204597WA0224502388
B1826593837736N11204603WA0224302385
B1827003837734N11204609WA0224102382
B1827013837732N11204614WA0223902379
B1827023837731N11204619WA0223702378
B1827033837729N11204623WA0223502377
B1827043837728N11204627WA0223402377
B1827053837726N11204631WA0223202376
B1827063837725N11204634WA0223102375
B1827073837724N11204637WA0222902375
B1827083837723N11204640WA0222802375
B1827093837722N11204643WA0222702374
B1827103837721N11204645WA0222602372
B1827113837720N11204648WA0222502370
B1827123837720N11204651WA0222302368
B1827133837720N11204656WA0222202367
B1827143837720N11204661WA0222102364
B1827153837721N11204666WA0221902364
B1827163837721N11204669WA0221802364
B1827173837721N11204671WA0221702364
B1827183837719N11204671WA0221602363
B1827193837718N11204672WA0221502361
B1827203837716N11204674WA0221402360
B1827213837716N11204678WA0221302357
B1827223837716N11204684WA0221202355
B1827233837717N11204690WA0221002354
B1827243837718N11204695WA0220902355
B1827253837717N11204698WA0220902357
B1827263837717N11204700WA0220902360
B1827273837717N11204702WA0220902364
B1827283837719N11204703WA0220902366
B1827293837720N11204704WA0221002368
B1827303837721N11204705WA0221002369
B1827313837721N11204706WA0221102369
B1827323837720N11204707WA0221202370
B1827333837719N11204709WA0221202370
B1827343837719N11204711WA0221302372
B1827353837719N11204713WA0221402373
B1827363837718N11204716WA0221502376
B1827373837717N11204718WA0221602379
B1827383837716N11204720WA0221702380
B1827393837715N11204722WA0221802382
B1827403837714N11204724WA0221902384
B1827413837713N11204727WA0222102385
B1827423837713N11204730WA0222202387
B1827433837713N11204733WA0222402389
B1827443837713N11204735WA0222502391
B1827453837713N11204738WA0222602392
B1827453837713N11204738WA0222602392
B1827463837714N11204741WA0222702393
B1827473837716N11204745WA0222902393
B1827483837718N11204749WA0223002394
B1827493837721N11204752WA0223102394
B1827503837723N11204754WA0223202396
B1827513837724N11204756WA0223302397
B1827523837722N11204756WA0223302396
B1827533837718N11204755WA0223402394
B1827543837715N11204752WA0223402394
B1827553837712N11204749WA0223502395
B1827563837710N11204744WA0223502397
B1827573837708N11204740WA0223602399
B1827583837707N11204737WA0223702399
B1827593837705N11204736WA0223702397
B1828003837703N11204737WA0223702393
B1828013837701N11204740WA0223702390
B1828023837699N11204743WA0223602389
B1828033837697N11204746WA0223602389
B1828043837696N11204748WA0223602390
B1828053837695N11204750WA0223602392
B1828063837694N11204751WA0223602394
B1828073837694N11204752WA0223702396
B1828083837694N11204753WA0223702396
B1828093837695N11204756WA0223802395
B1828103837696N11204760WA0223802393
B1828113837697N11204764WA0223702391
B1828123837698N11204767WA0223702390
B1828133837698N11204771WA0223702390
B1828143837698N11204773WA0223602389
B1828153837697N11204775WA0223602387
B1828163837696N11204777WA0223502384
B1828173837695N11204780WA0223402380
B1828183837695N11204785WA0223202376
B1828193837695N11204790WA0223002372
B1828203837695N11204794WA0222902370
B1828213837696N11204797WA0222702369
B1828223837698N11204800WA0222502368
B1828233837701N11204803WA0222302366
B1828243837705N11204807WA0222202363
B1828253837710N11204811WA0221902359
B1828263837715N11204815WA0221802357
B1828273837720N11204819WA0221502355
B1828283837725N11204822WA0221402354
B1828293837729N11204826WA0221202353
B1828303837734N11204828WA0221002353
B1828313837739N11204831WA0220902353
B1828323837744N11204834WA0220802353
B1828333837751N11204837WA0220702352
B1828343837758N11204841WA0220602352
B1828353837764N11204845WA0220502352
B1828363837770N11204849WA0220402353
B1828373837775N11204853WA0220402354
B1828383837779N11204856WA0220402355
B1828393837784N11204859WA0220402355
B1828403837789N11204862WA0220302355
B1828413837793N11204866WA0220302354
B1828423837798N11204871WA0220302353
B1828433837803N11204876WA0220202352
B1828443837807N11204882WA0220202351
B1828453837812N11204887WA0220102351
B1828463837817N11204892WA0220102352
B1828473837821N11204897WA0220102353
B1828473837821N11204897WA0220102353
B1828483837825N11204902WA0220102354
B1828493837828N11204907WA0220102354
B1828503837832N11204912WA0220102354
B1828513837835N11204918WA0220102354
B1828523837839N11204924WA0220102354
B1828533837842N11204929WA0220102356
B1828543837845N11204935WA0220102358
B1828553837847N11204939WA0220202360
B1828563837850N11204943WA0220302362
B1828573837853N11204946WA0220302363
B1828583837856N11204949WA0220402363
B1828593837859N11204952WA0220502363
B1829003837862N11204956WA0220502363
B1829013837864N11204961WA0220602364
B1829023837864N11204965WA0220602365
B1829033837864N11204969WA0220702366
B1829043837864N11204972WA0220702367
B1829053837864N11204976WA0220802368
B1829063837863N11204981WA0220902368
B1829073837863N11204985WA0221002369
B1829083837862N11204990WA0221002371
B1829093837861N11204993WA0221102373
B1829103837860N11204996WA0221202375
B1829113837859N11204999WA0221402377
B1829123837857N11205001WA0221502380
B1829133837856N11205003WA0221702383
B1829143837854N11205005WA0221802386
B1829153837852N11205005WA0222002389
B1829163837850N11205004WA0222202392
B1829173837848N11205001WA0222402394
B1829183837848N11204995WA0222602396
B1829193837850N11204987WA0222802396
B1829203837855N11204979WA0222902395
B1829213837863N11204975WA0223102394
B1829223837872N11204977WA0223202395
B1829233837878N11204983WA0223302396
B1829243837881N11204990WA0223402397
B1829253837881N11204997WA0223602400
B1829263837881N11205003WA0223802404
B1829273837880N11205006WA0224002408
B1829283837879N11205009WA0224202411
B1829293837879N11205012WA0224402414
B1829303837877N11205014WA0224602416
B1829313837875N11205017WA0224802416
B1829323837872N11205020WA0224902417
B1829333837869N11205022WA0225202419
B1829343837865N11205023WA0225302422
B1829353837863N11205022WA0225602425
B1829363837860N11205020WA0225702427
B1829373837858N11205016WA0226002429
B1829383837856N11205013WA0226102430
B1829393837853N11205011WA0226302431
B1829403837850N11205010WA0226402430
B1829413837847N11205008WA0226602430
B1829423837844N11205007WA0226702430
B1829433837840N11205005WA0226802431
B1829443837838N11205004WA0226902433
B1829453837836N11205004WA0227002435
B1829463837835N11205004WA0227202437
B1829473837833N11205003WA0227302438
B1829483837831N11205002WA0227402439
B1829493837829N11205002WA0227502440
B1829493837829N11205002WA0227502440
B1829503837827N11205002WA0227602440
B1829513837825N11205003WA0227802441
B1829523837823N11205003WA0227802442
B1829533837821N11205002WA0228002443
B1829543837819N11205002WA0228002443
B1829553837817N11205002WA0228102443
B1829563837814N11205002WA0228202443
B1829573837811N11205002WA0228202441
B1829583837808N11205001WA0228202439
B1829593837805N11205001WA0228202438
B1830003837803N11205003WA0228202438
B1830013837801N11205007WA0228202439
B1830023837801N11205012WA0228202440
B1830033837801N11205018WA0228302441
B1830043837803N11205023WA0228302443
B1830053837805N11205028WA0228402445
B1830063837807N11205032WA0228502447
B1830073837808N11205036WA0228602448
B1830083837810N11205040WA0228602450
B1830093837813N11205045WA0228702450
B1830103837816N11205050WA0228802451
B1830113837818N11205054WA0228902452
B1830123837820N11205059WA0228902452
B1830133837822N11205064WA0229002453
B1830143837823N11205069WA0229102455
B1830153837823N11205074WA0229202457
B1830163837823N11205079WA0229302459
B1830173837824N11205082WA0229402461
B1830183837826N11205086WA0229502461
B1830193837828N11205090WA0229502458
B1830203837828N11205097WA0229502454
B1830213837828N11205106WA0229402448
B1830223837826N11205114WA0229402446
B1830233837826N11205120WA0229302446
B1830243837826N11205124WA0229202448
B1830253837828N11205126WA0229202448
B1830263837830N11205129WA0229202445
B1830273837832N11205134WA0229002440
B1830283837832N11205142WA0228902435
B1830293837831N11205149WA0228702430
B1830303837828N11205155WA0228502428
B1830313837826N11205159WA0228302427
B1830323837823N11205161WA0228202427
B1830333837820N11205164WA0228002427
B1830343837818N11205167WA0227902425
B1830353837816N11205171WA0227702423
B1830363837812N11205176WA0227602420
B1830373837809N11205179WA0227402418
B1830383837806N11205181WA0227302419
B1830393837805N11205182WA0227202418
B1830403837804N11205185WA0227102417
B1830413837803N11205188WA0226902413
B1830423837799N11205190WA0226702408
B1830433837795N11205192WA0226502403
B1830443837791N11205193WA0226302401
B1830453837788N11205193WA0226002399
B1830463837784N11205191WA0225902398
B1830473837781N11205190WA0225602396
B1830483837777N11205189WA0225502394
B1830493837773N11205188WA0225202391
B1830503837769N11205188WA0225102388
B1830513837766N11205189WA0224802386
B1830523837763N11205190WA0224602385
B1830523837763N11205190WA0224602385
B1830533837760N11205192WA0224402383
B1830543837758N11205194WA0224202381
B1830553837755N11205198WA0224002378
B1830563837752N11205202WA0223802375
B1830573837750N11205207WA0223602373
B1830583837749N11205211WA0223402372
B1830593837749N11205215WA0223202370
B1831003837748N11205220WA0223002368
B1831013837748N11205225WA0222802366
B1831023837747N11205232WA0222602363
B1831033837747N11205238WA0222302360
B1831043837746N11205244WA0222202358
B1831053837745N11205250WA0221902357
B1831063837744N11205254WA0221802356
B1831073837744N11205260WA0221602355
B1831083837744N11205265WA0221402353
B1831093837743N11205271WA0221202351
B1831103837743N11205277WA0221002349
B1831113837743N11205283WA0220802347
B1831123837743N11205289WA0220702345
B1831133837743N11205295WA0220502343
B1831143837743N11205301WA0220302342
B1831153837743N11205307WA0220102341
B1831163837743N11205313WA0220002339
B1831173837743N11205320WA0219802337
B1831183837743N11205326WA0219602335
B1831193837742N11205333WA0219402333
B1831203837742N11205339WA0219302332
B1831213837742N11205346WA0219102330
B1831223837741N11205352WA0219002329
B1831233837741N11205358WA0218802328
B1831243837740N11205364WA0218702326
B1831253837739N11205370WA0218502324
B1831263837737N11205375WA0218302322
B1831273837736N11205380WA0218102321
B1831283837735N11205385WA0218002321
B1831293837734N11205390WA0217902321
B1831303837734N11205395WA0217802322
B1831313837733N11205400WA0217702323
B1831323837732N11205403WA0217702323
B1831333837730N11205406WA0217602323
B1831343837729N11205409WA0217602322
B1831353837727N11205414WA0217502320
B1831363837726N11205420WA0217402318
B1831373837725N11205427WA0217302316
B1831383837723N11205433WA0217202315
B1831393837722N11205438WA0217102316
B1831403837720N11205441WA0217102317
B1831413837719N11205444WA0217002319
B1831423837718N11205447WA0217002320
B1831433837718N11205451WA0217002320
B1831443837717N11205454WA0217002320
B1831453837716N11205456WA0217002321
B1831463837715N11205459WA0217002321
B1831473837713N11205461WA0217002321
B1831483837712N11205464WA0217002321
B1831493837710N11205468WA0217002320
B1831503837709N11205471WA0217002320
B1831513837708N11205474WA0217002321
B1831523837706N11205476WA0216902320
B1831533837705N11205478WA0216902318
B1831543837702N11205480WA0216802315
B1831553837699N11205483WA0216702310
B1831553837699N11205483WA0216702310
B1831563837695N11205486WA0216602307
B1831573837692N11205490WA0216402304
B1831583837689N11205493WA0216302302
B1831593837686N11205496WA0216202300
B1832003837684N11205499WA0216002299
B1832013837681N11205502WA0215902296
B1832023837677N11205505WA0215702293
B1832033837674N11205509WA0215502291
B1832043837672N11205513WA0215402292
B1832053837670N11205515WA0215302294
B1832063837668N11205515WA0215302294
B1832073837666N11205513WA0215102293
B1832083837663N11205512WA0215102291
B1832093837659N11205514WA0214902288
B1832103837655N11205516WA0214802286
B1832113837652N11205519WA0214702285
B1832123837649N11205520WA0214602285
B1832133837646N11205521WA0214402284
B1832143837644N11205522WA0214402283
B1832153837641N11205524WA0214202279
B1832163837638N11205527WA0214102276
B1832173837635N11205530WA0213902273
B1832183837632N11205533WA0213702271
B1832193837629N11205536WA0213502270
B1832203837626N11205539WA0213402268
B1832213837623N11205542WA0213202266
B1832223837621N11205544WA0213102265
B1832233837618N11205546WA0212902263
B1832243837614N11205549WA0212702260
B1832253837610N11205551WA0212502257
B1832263837606N11205553WA0212402255
B1832273837602N11205555WA0212102253
B1832283837599N11205557WA0212002252
B1832293837595N11205559WA0211802251
B1832303837592N11205562WA0211702250
B1832313837589N11205565WA0211502248
B1832323837587N11205568WA0211302247
B1832333837584N11205571WA0211202245
B1832343837581N11205574WA0211002244
B1832353837578N11205578WA0210802243
B1832363837576N11205581WA0210702242
B1832373837574N11205584WA0210602242
B1832383837573N11205587WA0210502242
B1832393837571N11205590WA0210402241
B1832403837568N11205593WA0210302240
B1832413837565N11205596WA0210202239
B1832423837561N11205599WA0210102238
B1832433837558N11205600WA0210002238
B1832443837555N11205601WA0209902238
B1832453837552N11205601WA0209802236
B1832463837549N11205601WA0209702235
B1832473837546N11205601WA0209602233
B1832483837542N11205600WA0209502231
B1832493837539N11205598WA0209302228
B1832503837535N11205595WA0209202225
B1832513837531N11205593WA0209002223
B1832523837526N11205592WA0208902220
B1832533837522N11205591WA0208702218
B1832543837518N11205590WA0208502215
B1832553837514N11205589WA0208302213
B1832563837509N11205590WA0208102210
B1832573837505N11205591WA0207902207
B1832583837501N11205592WA0207802206
B1832583837501N11205592WA0207802206
B1832593837497N11205594WA0207502205
B1833003837493N11205596WA0207402204
B1833013837490N11205598WA0207202202
B1833023837486N11205601WA0207102200
B1833033837481N11205603WA0206902198
B1833043837477N11205605WA0206702196
B1833053837474N11205609WA0206502195
B1833063837472N11205613WA0206402194
B1833073837471N11205617WA0206202192
B1833083837469N11205621WA0206102190
B1833093837467N11205624WA0205802188
B1833103837465N11205627WA0205702185
B1833113837463N11205630WA0205402182
B1833123837460N11205633WA0205302178
B1833133837457N11205638WA0205002174
B1833143837454N11205642WA0204802171
B1833153837453N11205646WA0204502169
B1833163837451N11205650WA0204302166
B1833173837449N11205654WA0204002164
B1833183837446N11205659WA0203802161
B1833193837444N11205664WA0203502158
B1833203837442N11205668WA0203302156
B1833213837440N11205673WA0203002154
B1833223837438N11205678WA0202802152
B1833233837435N11205683WA0202502148
B1833243837433N11205688WA0202302145
B1833253837431N11205693WA0202002143
B1833263837429N11205698WA0201802140
B1833273837427N11205703WA0201502138
B1833283837426N11205709WA0201302136
B1833293837425N11205714WA0201102134
B1833303837424N11205720WA0200902132
B1833313837423N11205724WA0200602129
B1833323837422N11205729WA0200402126
B1833333837420N11205735WA0200102123
B1833343837420N11205740WA0199902120
B1833353837419N11205746WA0199602117
B1833363837418N11205751WA0199402114
B1833373837417N11205756WA0199102111
B1833383837416N11205761WA0198902108
B1833393837416N11205766WA0198602104
B1833403837415N11205772WA0198302101
B1833413837415N11205777WA0198002097
B1833423837415N11205782WA0197802095
B1833433837415N11205788WA0197502093
B1833443837415N11205793WA0197202090
B1833453837416N11205799WA0196902087
B1833463837417N11205805WA0196702086
B1833473837420N11205811WA0196502087
B1833483837423N11205814WA0196402090
B1833493837426N11205816WA0196202090
B1833503837429N11205818WA0196102089
B1833513837433N11205821WA0196002086
B1833523837437N11205826WA0195902083
B1833533837441N11205832WA0195702080
B1833543837444N11205838WA0195502078
B1833553837448N11205844WA0195302076
B1833563837451N11205850WA0195202074
B1833573837454N11205856WA0195002072
B1833583837457N11205862WA0194802070
B1833593837460N11205868WA0194602069
B1834003837463N11205875WA0194502067
B1834013837465N11205882WA0194302067
B1834013837465N11205882WA0194302067
B1834023837468N11205889WA0194202068
B1834033837470N11205895WA0194102069
B1834043837472N11205901WA0194102069
B1834053837475N11205906WA0194002069
B1834063837479N11205911WA0193902068
B1834073837483N11205916WA0193802066
B1834083837487N11205923WA0193802066
B1834093837490N11205931WA0193702067
B1834103837491N11205939WA0193702069
B1834113837491N11205945WA0193702072
B1834123837492N11205951WA0193702073
B1834133837492N11205956WA0193802074
B1834143837492N11205962WA0193802073
B1834153837490N11205968WA0193802072
B1834163837488N11205974WA0193802070
B1834173837485N11205980WA0193702069
B1834183837482N11205986WA0193702068
B1834193837480N11205991WA0193702068
B1834203837477N11205997WA0193602068
B1834213837473N11206002WA0193602069
B1834223837470N11206006WA0193602070
B1834233837466N11206011WA0193702071
B1834243837462N11206015WA0193702072
B1834253837460N11206020WA0193702074
B1834263837458N11206025WA0193802076
B1834273837458N11206031WA0193902077
B1834283837460N11206037WA0193902075
B1834293837463N11206043WA0193902072
B1834303837468N11206049WA0193902070
B1834313837473N11206053WA0193802068
B1834323837479N11206057WA0193802066
B1834333837484N11206058WA0193702064
B1834343837490N11206057WA0193602063
B1834353837495N11206055WA0193502060
B1834363837501N11206053WA0193502058
B1834373837507N11206053WA0193402057
B1834383837513N11206053WA0193302056
B1834393837519N11206053WA0193202055
B1834403837525N11206054WA0193202055
B1834413837530N11206055WA0193102054
B1834423837536N11206056WA0193002053
B1834433837541N11206058WA0192902052
B1834443837547N11206060WA0192902052
B1834453837553N11206061WA0192802052
B1834463837559N11206063WA0192802051
B1834473837564N11206063WA0192702052
B1834483837569N11206063WA0192702052
B1834493837574N11206062WA0192602052
B1834503837579N11206060WA0192602053
B1834513837584N11206059WA0192602053
B1834523837589N11206057WA0192602053
B1834533837594N11206055WA0192602053
B1834543837599N11206054WA0192602053
B1834553837605N11206052WA0192602054
B1834563837610N11206051WA0192602055
B1834573837615N11206050WA0192602056
B1834583837620N11206049WA0192702058
B1834593837625N11206047WA0192702059
B1835003837629N11206044WA0192802060
B1835013837635N11206042WA0192802059
B1835023837640N11206038WA0192802057
B1835033837646N11206032WA0192802056
B1835043837651N11206023WA0192802054
B1835043837651N11206023WA0192802054
B1835053837653N11206013WA0192802054
B1835063837652N11206004WA0192702055
B1835073837649N11205998WA0192802057
B1835083837645N11205995WA0192802059
B1835093837642N11205993WA0192902062
B1835103837639N11205992WA0192902065
B1835113837635N11205991WA0193002066
B1835123837632N11205990WA0193102067
B1835133837628N11205990WA0193202068
B1835143837624N11205990WA0193302069
B1835153837620N11205990WA0193402070
B1835163837616N11205991WA0193502072
B1835173837613N11205992WA0193602073
B1835183837610N11205995WA0193602072
B1835193837606N11205998WA0193702072
B1835203837603N11206002WA0193702071
B1835213837600N11206007WA0193802071
B1835223837598N11206013WA0193802070
B1835233837596N11206019WA0193802071
B1835243837595N11206025WA0193802072
B1835253837594N11206031WA0193902073
B1835263837594N11206037WA0193902073
B1835273837594N11206044WA0193902073
B1835283837596N11206051WA0193902072
B1835293837601N11206057WA0193902071
B1835303837607N11206060WA0193902069
B1835313837614N11206058WA0193902068
B1835323837619N11206051WA0193902067
B1835333837619N11206041WA0193802064
B1835343837616N11206032WA0193702062
B1835353837610N11206026WA0193702062
B1835363837603N11206024WA0193602064
B1835373837598N11206025WA0193702066
B1835383837594N11206025WA0193702069
B1835393837590N11206026WA0193702070
B1835403837587N11206027WA0193702068
B1835413837583N11206029WA0193702066
B1835423837578N11206031WA0193702063
B1835433837574N11206035WA0193602060
B1835443837570N11206040WA0193502058
B1835453837568N11206045WA0193402059
B1835463837567N11206050WA0193402059
B1835473837567N11206054WA0193302059
B1835483837566N11206059WA0193202057
B1835493837566N11206065WA0193102054
B1835503837564N11206071WA0193002051
B1835513837562N11206077WA0192802047
B1835523837560N11206083WA0192602044
B1835533837558N11206087WA0192402042
B1835543837556N11206090WA0192302042
B1835553837554N11206092WA0192102040
B1835563837552N11206094WA0192002037
B1835573837548N11206096WA0191802033
B1835583837544N11206098WA0191602030
B1835593837541N11206101WA0191302027
B1836003837537N11206103WA0191102025
B1836013837534N11206105WA0190902022
B1836023837531N11206108WA0190702019
B1836033837528N11206110WA0190402016
B1836043837525N11206113WA0190202013
B1836053837522N11206116WA0189902011
B1836063837519N11206120WA0189802008
B1836063837519N11206120WA0189802008
B1836073837517N11206125WA0189502005
B1836083837515N11206129WA0189302002
B1836093837512N11206134WA0189002000
B1836103837510N11206139WA0188801997
B1836113837509N11206144WA0188501995
B1836123837507N11206148WA0188301993
B1836133837506N11206153WA0188001990
B1836143837504N11206159WA0187801987
B1836153837502N11206164WA0187501985
B1836163837501N11206169WA0187301983
B1836173837500N11206174WA0187101981
B1836183837498N11206180WA0186901979
B1836193837497N11206186WA0186601977
B1836203837495N11206191WA0186401975
B1836213837493N11206196WA0186201973
B1836223837492N11206201WA0186001972
B1836233837491N11206206WA0185801972
B1836243837490N11206211WA0185701971
B1836253837489N11206215WA0185501970
B1836263837489N11206219WA0185401968
B1836273837488N11206224WA0185201966
B1836283837486N11206229WA0185001963
B1836293837485N11206234WA0184801961
B1836303837483N11206240WA0184601959
B1836313837482N11206245WA0184401956
B1836323837480N11206251WA0184201953
B1836333837478N11206256WA0184001950
B1836343837475N11206261WA0183801947
B1836353837472N11206266WA0183601945
B1836363837469N11206270WA0183401944
B1836373837467N11206275WA0183201942
B1836383837465N11206280WA0183001941
B1836393837463N11206284WA0182801941
B1836403837461N11206289WA0182701939
B1836413837459N11206294WA0182401936
B1836423837456N11206299WA0182301933
B1836433837454N11206303WA0182101931
B1836443837452N11206308WA0181901929
B1836453837450N11206313WA0181701928
B1836463837448N11206317WA0181501926
B1836473837446N11206322WA0181301923
B1836483837443N11206327WA0181101921
B1836493837441N11206332WA0180901918
B1836503837438N11206337WA0180701917
B1836513837436N11206342WA0180501916
B1836523837433N11206346WA0180401915
B1836533837430N11206349WA0180201915
B1836543837427N11206353WA0180101913
B1836553837423N11206357WA0179901911
B1836563837419N11206362WA0179801908
B1836573837415N11206366WA0179501905
B1836583837411N11206370WA0179401903
B1836593837409N11206375WA0179201901
B1837003837407N11206379WA0179001900
B1837013837405N11206383WA0178801899
B1837023837402N11206387WA0178701897
B1837033837399N11206393WA0178501893
B1837043837396N11206398WA0178301890
B1837053837393N11206404WA0178001888
B1837063837390N11206409WA0177901886
B1837073837388N11206414WA0177701885
B1837083837385N11206418WA0177501884
B1837083837385N11206418WA0177501884
B1837093837382N11206422WA0177301881
B1837103837378N11206427WA0177101878
B1837113837374N11206432WA0176901874
B1837123837369N11206437WA0176701871
B1837133837365N11206443WA0176401870
B1837143837362N11206448WA0176301871
B1837153837359N11206453WA0176201873
B1837163837358N11206457WA0176101876
B1837173837357N11206462WA0176101877
B1837183837358N11206467WA0176001877
B1837193837360N11206472WA0176001875
B1837203837364N11206476WA0175901874
B1837213837369N11206477WA0175801872
B1837223837374N11206473WA0175701869
B1837233837378N11206465WA0175501865
B1837243837377N11206455WA0175401861
B1837253837373N11206447WA0175201859
B1837263837367N11206442WA0175101858
B1837273837361N11206441WA0174901859
B1837283837356N11206442WA0174801859
B1837293837352N11206444WA0174701860
B1837303837348N11206446WA0174701861
B1837313837345N11206449WA0174601860
B1837323837342N11206453WA0174501858
B1837333837339N11206457WA0174401856
B1837343837335N11206461WA0174301855
B1837353837332N11206465WA0174201853
B1837363837327N11206470WA0174101853
B1837373837323N11206474WA0174001854
B1837383837319N11206479WA0174001855
B1837393837316N11206484WA0174001857
B1837403837315N11206489WA0174001859
B1837413837314N11206495WA0174001860
B1837423837314N11206501WA0174001860
B1837433837314N11206508WA0174001860
B1837443837315N11206515WA0174001859
B1837453837314N11206522WA0174001860
B1837463837314N11206528WA0174001862
B1837473837314N11206533WA0174101863
B1837483837314N11206538WA0174101864
B1837493837313N11206543WA0174201864
B1837503837312N11206550WA0174201863
B1837513837310N11206557WA0174201861
B1837523837308N11206564WA0174201860
B1837533837306N11206571WA0174201861
B1837543837303N11206576WA0174201861
B1837553837300N11206581WA0174201862
B1837563837297N11206585WA0174201863
B1837573837294N11206588WA0174201864
B1837583837290N11206591WA0174301865
B1837593837287N11206593WA0174301865
B1838003837283N11206593WA0174401865
B1838013837280N11206591WA0174401866
B1838023837276N11206590WA0174401865
B1838033837272N11206588WA0174401865
B1838043837268N11206587WA0174401863
B1838053837263N11206586WA0174401862
B1838063837258N11206586WA0174401860
B1838073837253N11206586WA0174301859
B1838083837248N11206586WA0174301858
B1838093837243N11206587WA0174201858
B1838103837239N11206587WA0174201859
B1838113837235N11206588WA0174201860
B1838113837235N11206588WA0174201860
B1838123837233N11206590WA0174201861
B1838133837230N11206592WA0174201862
B1838143837227N11206596WA0174201860
B1838153837224N11206601WA0174201858
B1838163837221N11206605WA0174101856
B1838173837218N11206609WA0174101855
B1838183837215N11206613WA0174001854
B1838193837214N11206617WA0173901853
B1838203837212N11206621WA0173901851
B1838213837212N11206626WA0173801850
B1838223837211N11206631WA0173701848
B1838233837210N11206635WA0173601848
B1838243837208N11206639WA0173501847
B1838253837207N11206642WA0173401847
B1838263837205N11206645WA0173401846
B1838273837203N11206648WA0173301845
B1838283837201N11206651WA0173201844
B1838293837199N11206654WA0173101844
B1838303837197N11206657WA0173101844
B1838313837196N11206660WA0173001844
B1838323837194N11206663WA0172901844
B1838333837192N11206666WA0172901843
B1838343837189N11206669WA0172901843
B1838353837187N11206671WA0172801844
B1838363837185N11206674WA0172801845
B1838373837183N11206677WA0172801846
B1838383837183N11206680WA0172801847
B1838393837182N11206684WA0172901848
B1838403837181N11206687WA0172901849
B1838413837181N11206690WA0172901848
B1838423837180N11206694WA0172901848
B1838433837178N11206697WA0172901847
B1838443837176N11206701WA0172901846
B1838453837175N11206705WA0172901846
B1838463837173N11206708WA0172901846
B1838473837172N11206711WA0172901846
B1838483837172N11206715WA0172901845
B1838493837172N11206720WA0172801845
B1838503837173N11206725WA0172801845
B1838513837173N11206730WA0172801845
B1838523837174N11206734WA0172801846
B1838533837174N11206737WA0172801846
B1838543837174N11206741WA0172801846
B1838553837173N11206744WA0172801846
B1838563837171N11206747WA0172801846
B1838573837169N11206749WA0172801846
B1838583837167N11206752WA0172801845
B1838593837164N11206757WA0172701843
B1839003837162N11206763WA0172701842
B1839013837160N11206767WA0172701843
B1839023837160N11206770WA0172701846
B1839033837161N11206772WA0172701847
B1839043837164N11206774WA0172701847
B1839053837168N11206775WA0172601843
B1839063837174N11206775WA0172601841
B1839073837179N11206773WA0172501840
B1839083837183N11206768WA0172501840
B1839093837186N11206759WA0172501840
B1839103837185N11206750WA0172401840
B1839113837181N11206742WA0172401840
B1839123837176N11206737WA0172401840
B1839133837170N11206736WA0172301839
B1839143837165N11206737WA0172301840
B1839143837165N11206737WA0172301840
B1839153837162N11206738WA0172301841
B1839163837158N11206739WA0172301841
B1839173837155N11206740WA0172301840
B1839183837151N11206743WA0172301838
B1839193837147N11206748WA0172201835
B1839203837144N11206753WA0172201835
B1839213837143N11206757WA0172101837
B1839223837143N11206761WA0172201841
B1839233837145N11206763WA0172201844
B1839243837148N11206766WA0172301845
B1839253837153N11206768WA0172301845
B1839263837158N11206769WA0172401845
B1839273837163N11206768WA0172401845
B1839283837167N11206766WA0172401845
B1839293837170N11206763WA0172501844
B1839303837173N11206756WA0172501842
B1839313837175N11206748WA0172501839
B1839323837174N11206738WA0172401836
B1839333837172N11206730WA0172401835
B1839343837168N11206723WA0172301834
B1839353837163N11206720WA0172201833
B1839363837158N11206718WA0172201832
B1839373837154N11206718WA0172101832
B1839383837149N11206718WA0172101833
B1839393837146N11206718WA0172101835
B1839403837143N11206719WA0172101837
B1839413837141N11206719WA0172101837
B1839423837139N11206721WA0172101837
B1839433837136N11206724WA0172101836
B1839443837135N11206729WA0172101834
B1839453837134N11206735WA0172001834
B1839463837135N11206741WA0172001835
B1839473837137N11206747WA0172101837
B1839483837139N11206751WA0172101839
B1839493837142N11206755WA0172101839
B1839503837145N11206759WA0172101839
B1839513837149N11206765WA0172101838
B1839523837153N11206771WA0172201839
B1839533837156N11206776WA0172201841
B1839543837158N11206781WA0172201843
B1839553837158N11206786WA0172301845
B1839563837157N11206790WA0172401845
B1839573837156N11206795WA0172401845
B1839583837155N11206801WA0172501843
B1839593837155N11206807WA0172401842
B1840003837155N11206812WA0172401841
B1840013837155N11206816WA0172401841
B1840023837156N11206819WA0172401840
B1840033837157N11206822WA0172401839
B1840043837160N11206825WA0172301836
B1840053837163N11206828WA0172201832
B1840063837168N11206831WA0172101828
B1840073837173N11206834WA0171901825
B1840083837178N11206836WA0171801824
B1840093837182N11206837WA0171701824
B1840103837186N11206838WA0171601823
B1840113837191N11206839WA0171501822
B1840123837196N11206840WA0171401820
B1840133837201N11206841WA0171201819
B1840143837206N11206841WA0171101818
B1840153837211N11206840WA0171001818
B1840163837216N11206839WA0170901817
B1840173837221N11206838WA0170901817
B1840173837221N11206838WA0170901817
B1840183837225N11206837WA0170801816
B1840193837230N11206837WA0170701816
B1840203837234N11206838WA0170701815
B1840213837238N11206839WA0170601814
B1840223837243N11206840WA0170501813
B1840233837248N11206842WA0170401810
B1840243837253N11206843WA0170301808
B1840253837259N11206845WA0170201806
B1840263837264N11206847WA0170101804
B1840273837269N11206849WA0169901802
B1840283837274N11206851WA0169801801
B1840293837278N11206852WA0169601799
B1840303837281N11206854WA0169501798
B1840313837284N11206858WA0169301795
B1840323837286N11206863WA0169201792
B1840333837288N11206868WA0169001789
B1840343837288N11206874WA0168801787
B1840353837289N11206879WA0168601785
B1840363837289N11206885WA0168401782
B1840373837289N11206891WA0168201779
B1840383837289N11206897WA0168001777
B1840393837289N11206903WA0167801776
B1840403837289N11206908WA0167701776
B1840413837289N11206913WA0167501776
B1840423837289N11206917WA0167401775
B1840433837289N11206923WA0167201773
B1840443837290N11206928WA0167101771
B1840453837290N11206934WA0166901770
B1840463837290N11206940WA0166801770
B1840473837289N11206946WA0166701770
B1840483837288N11206951WA0166601770
B1840493837286N11206957WA0166501770
B1840503837285N11206962WA0166401769
B1840513837283N11206968WA0166301769
B1840523837281N11206974WA0166301770
B1840533837280N11206979WA0166201770
B1840543837278N11206985WA0166201769
B1840553837275N11206991WA0166101767
B1840563837271N11206997WA0166001767
B1840573837268N11207002WA0165901767
B1840583837265N11207007WA0165901769
B1840593837263N11207010WA0165901771
B1841003837261N11207014WA0165901772
B1841013837260N11207018WA0165901772
B1841023837258N11207022WA0165901770
B1841033837256N11207028WA0165801767
B1841043837252N11207033WA0165801765
B1841053837248N11207038WA0165701765
B1841063837244N11207042WA0165701766
B1841073837240N11207044WA0165701768
B1841083837235N11207046WA0165601769
B1841093837230N11207048WA0165701769
B1841103837225N11207050WA0165701770
B1841113837220N11207053WA0165701771
B1841123837216N11207055WA0165701772
B1841133837213N11207057WA0165801773
B1841143837209N11207059WA0165801773
B1841153837205N11207061WA0165801772
B1841163837200N11207063WA0165801770
B1841173837195N11207066WA0165801769
B1841183837190N11207069WA0165801769
B1841193837185N11207070WA0165701768
B1841203837180N11207071WA0165701769
B1841203837180N11207071WA0165701769
B1841213837176N11207071WA0165701769
B1841223837171N11207070WA0165701768
B1841233837165N11207069WA0165601766
B1841243837160N11207066WA0165601764
B1841253837155N11207064WA0165501762
B1841263837150N11207062WA0165401761
B1841273837145N11207060WA0165301759
B1841283837140N11207058WA0165201757
B1841293837135N11207056WA0165101755
B1841303837131N11207053WA0165001752
B1841313837126N11207050WA0164801750
B1841323837122N11207047WA0164701748
B1841333837118N11207044WA0164501747
B1841343837114N11207040WA0164401744
B1841353837110N11207036WA0164201742
B1841363837107N11207033WA0164101741
B1841373837104N11207028WA0163901740
B1841383837103N11207024WA0163801738
B1841393837101N11207019WA0163601736
B1841403837099N11207014WA0163501733
B1841413837097N11207008WA0163201729
B1841423837095N11207000WA0163101726
B1841433837095N11206993WA0162901724
B1841443837095N11206985WA0162701722
B1841453837094N11206978WA0162501720
B1841463837094N11206971WA0162401717
B1841473837093N11206963WA0162101714
B1841483837093N11206954WA0162001711
B1841493837094N11206946WA0161701709
B1841503837095N11206939WA0161601708
B1841513837097N11206932WA0161401707
B1841523837098N11206925WA0161201706
B1841533837100N11206919WA0161001704
B1841543837104N11206913WA0160901702
B1841553837108N11206909WA0160701700
B1841563837113N11206907WA0160601698
B1841573837117N11206905WA0160401697
B1841583837122N11206903WA0160201695
B1841593837127N11206901WA0160001693
B1842003837133N11206900WA0159901691
B1842013837138N11206901WA0159701689
B1842023837143N11206903WA0159601688
B1842033837147N11206905WA0159501688
B1842043837151N11206906WA0159401689
B1842053837155N11206905WA0159201688
B1842063837159N11206904WA0159201686
B1842073837164N11206904WA0159001684
B1842083837169N11206905WA0158901683
B1842093837172N11206909WA0158801683
B1842103837173N11206914WA0158701681
B1842113837173N11206920WA0158601679
B1842123837170N11206925WA0158601679
B1842133837166N11206927WA0158401679
B1842143837161N11206928WA0158401678
B1842153837157N11206929WA0158301678
B1842163837154N11206931WA0158201677
B1842173837152N11206935WA0158101675
B1842183837152N11206940WA0158001673
B1842193837153N11206945WA0157801672
B1842203837154N11206949WA0157701672
B1842213837155N11206952WA0157601672
B1842223837156N11206955WA0157601671
B1842233837157N11206958WA0157401670
B1842233837157N11206958WA0157401670
B1842243837157N11206962WA0157301668
B1842253837157N11206965WA0157201666
B1842263837158N11206968WA0157001665
B1842273837158N11206969WA0156901664
B1842283837158N11206969WA0156901665
B1842293837158N11206968WA0156801664
B1842303837158N11206968WA0156701665
B1842313837158N11206968WA0156601665
B1842323837158N11206968WA0156601665
B1842333837158N11206968WA0156501665
B1842343837158N11206969WA0156501665
B1842353837158N11206969WA0156401665
B1842363837158N11206969WA0156401665
B1842373837158N11206969WA0156401665
B1842383837158N11206969WA0156401665
B1842393837158N11206969WA0156301665
B1842403837158N11206969WA0156301665
B1842413837158N11206969WA0156301665
B1842423837158N11206969WA0156301665
B1842433837158N11206969WA0156301665
B1842443837158N11206969WA0156301665
B1842453837158N11206969WA0156301665
B1842463837158N11206969WA0156201665
B1842473837158N11206969WA0156201666
B1842483837158N11206969WA0156201665
B1842493837158N11206969WA0156201666
B1842503837157N11206968WA0156201665
B1842513837157N11206968WA0156201666
B1842523837157N11206968WA0156201666
B1842533837157N11206967WA0156201666
B1842543837157N11206967WA0156201666
B1842553837157N11206967WA0156201667
B1842563837157N11206967WA0156201667
B1842573837157N11206967WA0156201667
B1842583837157N11206967WA0156201667
B1842593837157N11206967WA0156201667
B1843003837157N11206967WA0156201667
B1843013837157N11206967WA0156201667
B1843023837157N11206966WA0156201667
B1843033837157N11206966WA0156201666
B1843043837157N11206966WA0156201666
B1843053837157N11206966WA0156201666
B1843063837157N11206966WA0156201666
B1843073837157N11206966WA0156201666
B1843083837157N11206966WA0156201666
B1843093837157N11206966WA0156201666
B1843103837157N11206966WA0156201666
B1843113837157N11206966WA0156201666
B1843123837157N11206966WA0156201666
B1843133837157N11206966WA0156201666
B1843143837156N11206965WA0156201666
B1843153837156N11206964WA0156201666
B1843163837156N11206964WA0156201667
B1843173837155N11206963WA0156201667
B1843183837155N11206962WA0156201667
B1843193837155N11206961WA0156201667
B1843203837154N11206961WA0156201667
B1843213837154N11206960WA0156201667
B1843223837154N11206959WA0156201667
B1843233837153N11206959WA0156201667
B1843243837153N11206958WA0156201667
B1843253837153N11206957WA0156201667
B1843263837153N11206957WA0156201667
B1843273837152N11206956WA0156201667
