AXFMSFP Flymaster Live, V1.0
HFFXA010
HFPLTPILOT:Mike Brown
HFGTYGLIDERTYPE:Advance Iota Dls / Niviuk Arrow
HFGIDGLIDERID:
HFDTM100GPSDATUM:WGS-1984
HFCIDCOMPETITIONID:603
HFCCLCOMPETITIONCLASS:
HOSITSITE:Cove Launch
HFGPS:UBLOXNEO6
HFPRSPRESSALTSENSOR:NA
HFRFWFIRMWAREVERSION:202g
HFRHWHARDWAREVERSION:1.0R2
HFFTYFRTYPE:FLYMASTER,LIVE
HFDTE070925
B1806473838048N11203622WA0249902673
B1806483838048N11203623WA0249902673
B1806493838048N11203625WA0249902673
B1806503838049N11203626WA0249802673
B1806513838049N11203628WA0249802672
B1806523838050N11203630WA0249802673
B1806533838051N11203631WA0249802673
B1806543838052N11203633WA0249802674
B1806553838052N11203634WA0249802675
B1806563838051N11203634WA0249902676
B1806573838050N11203635WA0249902678
B1806583838050N11203636WA0249902678
B1806593838050N11203637WA0249902679
B1807003838051N11203639WA0249902680
B1807013838051N11203640WA0250002680
B1807023838051N11203642WA0250002680
B1807033838050N11203644WA0250102681
B1807043838050N11203646WA0250102681
B1807053838050N11203647WA0250202682
B1807063838050N11203648WA0250202684
B1807073838050N11203649WA0250302685
B1807083838050N11203650WA0250402687
B1807093838049N11203651WA0250502688
B1807103838048N11203653WA0250602689
B1807113838046N11203656WA0250602689
B1807123838045N11203658WA0250702690
B1807133838043N11203660WA0250802693
B1807143838042N11203661WA0250902696
B1807153838042N11203662WA0251002698
B1807163838042N11203664WA0251102700
B1807173838041N11203666WA0251202701
B1807183838040N11203668WA0251402702
B1807193838039N11203670WA0251502704
B1807203838038N11203671WA0251702707
B1807213838036N11203671WA0251802709
B1807223838034N11203671WA0252002710
B1807233838032N11203672WA0252102712
B1807243838030N11203674WA0252302713
B1807253838028N11203676WA0252402714
B1807263838027N11203679WA0252602716
B1807273838027N11203681WA0252702719
B1807283838027N11203682WA0252902725
B1807293838026N11203682WA0253102729
B1807303838025N11203681WA0253302731
B1807313838024N11203682WA0253502733
B1807323838022N11203683WA0253802733
B1807333838020N11203686WA0253902733
B1807343838018N11203690WA0254102734
B1807353838016N11203693WA0254302737
B1807363838015N11203695WA0254502741
B1807373838013N11203696WA0254602747
B1807383838012N11203697WA0254902751
B1807393838011N11203697WA0255102755
B1807403838010N11203698WA0255402757
B1807413838008N11203700WA0255602760
B1807423838006N11203702WA0255902762
B1807433838004N11203703WA0256102765
B1807443838003N11203705WA0256402768
B1807453838001N11203707WA0256602772
B1807463838000N11203708WA0257002776
B1807473837998N11203708WA0257202779
B1807483837996N11203708WA0257502782
B1807493837995N11203708WA0257702784
B1807503837995N11203710WA0258002785
B1807503837995N11203710WA0258002785
B1807513837995N11203712WA0258202785
B1807523837996N11203715WA0258502785
B1807533837997N11203718WA0258702786
B1807543838001N11203722WA0258902786
B1807553838006N11203725WA0259002786
B1807563838012N11203726WA0259202786
B1807573838020N11203724WA0259302785
B1807583838028N11203720WA0259402784
B1807593838035N11203712WA0259502783
B1808003838039N11203703WA0259602783
B1808013838039N11203692WA0259602781
B1808023838037N11203684WA0259702779
B1808033838034N11203679WA0259702779
B1808043838032N11203677WA0259702780
B1808053838030N11203677WA0259702781
B1808063838029N11203677WA0259702781
B1808073838028N11203676WA0259702782
B1808083838026N11203676WA0259802782
B1808093838023N11203675WA0259802780
B1808103838020N11203675WA0259802780
B1808113838018N11203675WA0259802780
B1808123838016N11203677WA0259902781
B1808133838015N11203679WA0259902782
B1808143838015N11203681WA0259902782
B1808153838015N11203683WA0259902783
B1808163838015N11203685WA0260002783
B1808173838014N11203686WA0260002783
B1808183838013N11203687WA0260002781
B1808193838011N11203688WA0260002779
B1808203838008N11203689WA0260002776
B1808213838006N11203689WA0260002776
B1808223838004N11203689WA0259902776
B1808233838002N11203689WA0259902777
B1808243837999N11203687WA0259902777
B1808253837995N11203686WA0259902778
B1808263837992N11203686WA0259902779
B1808273837990N11203685WA0259902781
B1808283837987N11203684WA0259902783
B1808293837985N11203681WA0259902784
B1808303837982N11203678WA0260002784
B1808313837979N11203677WA0260102784
B1808323837976N11203676WA0260102782
B1808333837972N11203676WA0260102779
B1808343837968N11203676WA0260102779
B1808353837965N11203676WA0260102778
B1808363837962N11203675WA0260002777
B1808373837959N11203675WA0260002776
B1808383837955N11203675WA0260002775
B1808393837952N11203675WA0259902774
B1808403837948N11203674WA0259902772
B1808413837944N11203674WA0259802771
B1808423837941N11203674WA0259702771
B1808433837938N11203675WA0259702771
B1808443837935N11203674WA0259602771
B1808453837932N11203674WA0259502771
B1808463837929N11203674WA0259502770
B1808473837926N11203674WA0259402768
B1808483837923N11203674WA0259402768
B1808493837920N11203674WA0259302767
B1808503837916N11203673WA0259202766
B1808513837912N11203671WA0259202766
B1808523837909N11203669WA0259102768
B1808533837907N11203668WA0259102771
B1808533837907N11203668WA0259102771
B1808543837905N11203666WA0259102773
B1808553837903N11203664WA0259102773
B1808563837900N11203662WA0259202773
B1808573837897N11203661WA0259202772
B1808583837893N11203661WA0259202771
B1808593837889N11203661WA0259202771
B1809003837886N11203660WA0259202774
B1809013837884N11203659WA0259202776
B1809023837883N11203658WA0259302777
B1809033837881N11203657WA0259302776
B1809043837878N11203657WA0259302774
B1809053837874N11203658WA0259302771
B1809063837871N11203660WA0259302768
B1809073837867N11203662WA0259202768
B1809083837865N11203663WA0259202769
B1809093837863N11203664WA0259102770
B1809103837862N11203664WA0259102771
B1809113837861N11203665WA0259102771
B1809123837859N11203665WA0259102770
B1809133837856N11203666WA0259102769
B1809143837852N11203667WA0259102768
B1809153837849N11203669WA0259002768
B1809163837846N11203670WA0259002770
B1809173837843N11203671WA0259102773
B1809183837841N11203671WA0259102777
B1809193837839N11203671WA0259202780
B1809203837837N11203670WA0259302783
B1809213837834N11203669WA0259402786
B1809223837832N11203669WA0259502787
B1809233837829N11203670WA0259602789
B1809243837828N11203671WA0259802790
B1809253837826N11203672WA0259902792
B1809263837826N11203673WA0260002793
B1809273837826N11203676WA0260102793
B1809283837828N11203679WA0260302792
B1809293837833N11203683WA0260302791
B1809303837840N11203683WA0260402790
B1809313837847N11203680WA0260402789
B1809323837854N11203673WA0260502789
B1809333837858N11203665WA0260502790
B1809343837861N11203656WA0260502792
B1809353837863N11203647WA0260602795
B1809363837862N11203638WA0260702796
B1809373837860N11203631WA0260702797
B1809383837856N11203625WA0260802797
B1809393837852N11203620WA0260902797
B1809403837848N11203617WA0261002799
B1809413837844N11203615WA0261102801
B1809423837840N11203613WA0261202803
B1809433837837N11203612WA0261302804
B1809443837835N11203612WA0261402805
B1809453837833N11203613WA0261502805
B1809463837831N11203615WA0261602805
B1809473837829N11203618WA0261702804
B1809483837828N11203621WA0261702803
B1809493837827N11203625WA0261802802
B1809503837828N11203629WA0261802802
B1809513837830N11203633WA0261802803
B1809523837835N11203635WA0261802802
B1809533837841N11203637WA0261902800
B1809543837848N11203637WA0261902799
B1809553837856N11203633WA0261902799
B1809563837862N11203626WA0261902798
B1809563837862N11203626WA0261902798
B1809573837866N11203616WA0261802797
B1809583837869N11203606WA0261802796
B1809593837869N11203597WA0261802795
B1810003837866N11203589WA0261702793
B1810013837862N11203583WA0261702792
B1810023837858N11203580WA0261602792
B1810033837855N11203579WA0261602792
B1810043837852N11203578WA0261502791
B1810053837849N11203576WA0261502791
B1810063837846N11203575WA0261502791
B1810073837843N11203574WA0261502790
B1810083837839N11203574WA0261402789
B1810093837835N11203573WA0261402789
B1810103837831N11203571WA0261402790
B1810113837828N11203568WA0261402790
B1810123837825N11203564WA0261302790
B1810133837823N11203561WA0261302789
B1810143837819N11203557WA0261302788
B1810153837816N11203553WA0261302786
B1810163837811N11203547WA0261202784
B1810173837808N11203541WA0261102782
B1810183837805N11203534WA0261002783
B1810193837802N11203527WA0261002784
B1810203837800N11203521WA0260902784
B1810213837798N11203516WA0260902784
B1810223837794N11203511WA0260902784
B1810233837790N11203506WA0260802782
B1810243837785N11203502WA0260802782
B1810253837782N11203497WA0260802784
B1810263837779N11203492WA0260702785
B1810273837778N11203486WA0260702786
B1810283837776N11203480WA0260702787
B1810293837774N11203472WA0260802786
B1810303837772N11203463WA0260802784
B1810313837770N11203454WA0260702783
B1810323837767N11203445WA0260702782
B1810333837763N11203438WA0260702782
B1810343837760N11203431WA0260702783
B1810353837757N11203425WA0260702784
B1810363837754N11203419WA0260702785
B1810373837751N11203414WA0260702786
B1810383837747N11203408WA0260702786
B1810393837743N11203403WA0260702787
B1810403837739N11203398WA0260702788
B1810413837735N11203394WA0260702788
B1810423837731N11203391WA0260802789
B1810433837727N11203389WA0260802789
B1810443837723N11203387WA0260802789
B1810453837720N11203387WA0260802789
B1810463837718N11203388WA0260902788
B1810473837718N11203392WA0260902787
B1810483837720N11203396WA0260902784
B1810493837724N11203401WA0260802783
B1810503837728N11203403WA0260802784
B1810513837732N11203405WA0260802786
B1810523837735N11203406WA0260802788
B1810533837738N11203407WA0260802788
B1810543837741N11203409WA0260802786
B1810553837745N11203413WA0260802784
B1810563837750N11203416WA0260802783
B1810573837753N11203419WA0260802784
B1810583837756N11203422WA0260802786
B1810593837758N11203425WA0260802788
B1810593837758N11203425WA0260802788
B1811003837759N11203429WA0260802790
B1811013837759N11203432WA0260802790
B1811023837759N11203437WA0260802790
B1811033837759N11203441WA0260902791
B1811043837760N11203446WA0260902792
B1811053837761N11203450WA0261002793
B1811063837762N11203453WA0261002794
B1811073837763N11203457WA0261102795
B1811083837765N11203460WA0261102795
B1811093837767N11203465WA0261102793
B1811103837769N11203470WA0261202792
B1811113837770N11203476WA0261202791
B1811123837770N11203481WA0261202790
B1811133837770N11203486WA0261202791
B1811143837770N11203490WA0261202792
B1811153837769N11203492WA0261202793
B1811163837767N11203494WA0261202794
B1811173837765N11203495WA0261202795
B1811183837761N11203495WA0261302795
B1811193837756N11203494WA0261302796
B1811203837752N11203492WA0261402798
B1811213837747N11203490WA0261402800
B1811223837743N11203488WA0261502802
B1811233837740N11203485WA0261502804
B1811243837736N11203484WA0261602804
B1811253837731N11203484WA0261702804
B1811263837727N11203485WA0261802804
B1811273837722N11203486WA0261802804
B1811283837717N11203486WA0261902806
B1811293837712N11203485WA0262002808
B1811303837708N11203484WA0262102810
B1811313837703N11203483WA0262102811
B1811323837699N11203482WA0262302811
B1811333837695N11203482WA0262302811
B1811343837690N11203483WA0262402812
B1811353837685N11203483WA0262502812
B1811363837681N11203484WA0262602814
B1811373837677N11203485WA0262602817
B1811383837674N11203485WA0262802819
B1811393837671N11203485WA0262902822
B1811403837669N11203485WA0263002823
B1811413837666N11203485WA0263102823
B1811423837663N11203486WA0263302824
B1811433837661N11203488WA0263402824
B1811443837659N11203490WA0263502825
B1811453837657N11203492WA0263602826
B1811463837656N11203494WA0263702827
B1811473837656N11203498WA0263802826
B1811483837657N11203503WA0263902826
B1811493837660N11203506WA0263902827
B1811503837665N11203507WA0264002828
B1811513837671N11203505WA0264102828
B1811523837677N11203501WA0264202830
B1811533837682N11203496WA0264202831
B1811543837685N11203488WA0264302832
B1811553837687N11203478WA0264402832
B1811563837688N11203468WA0264502832
B1811573837687N11203460WA0264502834
B1811583837684N11203454WA0264602835
B1811593837680N11203451WA0264702834
B1812003837676N11203449WA0264802835
B1812013837672N11203449WA0264802834
B1812013837672N11203449WA0264802834
B1812023837669N11203450WA0264902835
B1812033837665N11203451WA0265002835
B1812043837661N11203452WA0265002837
B1812053837657N11203451WA0265102838
B1812063837653N11203450WA0265202840
B1812073837650N11203450WA0265302842
B1812083837646N11203450WA0265402843
B1812093837642N11203450WA0265502844
B1812103837637N11203449WA0265602844
B1812113837633N11203448WA0265602845
B1812123837628N11203446WA0265702846
B1812133837624N11203445WA0265802847
B1812143837620N11203445WA0265902848
B1812153837615N11203446WA0266002848
B1812163837610N11203447WA0266102849
B1812173837606N11203448WA0266102850
B1812183837602N11203449WA0266302852
B1812193837599N11203450WA0266302854
B1812203837596N11203450WA0266402855
B1812213837593N11203452WA0266502856
B1812223837590N11203453WA0266602856
B1812233837587N11203456WA0266702857
B1812243837585N11203459WA0266802857
B1812253837584N11203463WA0266902858
B1812263837583N11203467WA0267002859
B1812273837585N11203471WA0267002861
B1812283837588N11203474WA0267102861
B1812293837592N11203476WA0267202862
B1812303837597N11203476WA0267302863
B1812313837602N11203473WA0267402863
B1812323837606N11203468WA0267502864
B1812333837610N11203461WA0267602864
B1812343837612N11203453WA0267602866
B1812353837612N11203444WA0267702867
B1812363837609N11203437WA0267802867
B1812373837606N11203430WA0267902867
B1812383837601N11203425WA0268002867
B1812393837596N11203421WA0268002868
B1812403837590N11203419WA0268102868
B1812413837585N11203419WA0268102869
B1812423837580N11203419WA0268202870
B1812433837575N11203421WA0268302872
B1812443837572N11203423WA0268402875
B1812453837569N11203425WA0268502879
B1812463837567N11203426WA0268602883
B1812473837566N11203428WA0268702887
B1812483837564N11203431WA0268902889
B1812493837563N11203434WA0269102891
B1812503837562N11203438WA0269302892
B1812513837563N11203443WA0269402894
B1812523837566N11203448WA0269602897
B1812533837571N11203451WA0269802899
B1812543837576N11203454WA0270002901
B1812553837582N11203455WA0270102903
B1812563837588N11203453WA0270402906
B1812573837593N11203448WA0270502907
B1812583837597N11203442WA0270702908
B1812593837598N11203434WA0270902908
B1813003837598N11203426WA0271002908
B1813013837595N11203419WA0271202909
B1813023837591N11203413WA0271302910
B1813033837587N11203410WA0271402911
B1813043837583N11203408WA0271602913
B1813043837583N11203408WA0271602913
B1813053837579N11203408WA0271702916
B1813063837576N11203408WA0271902919
B1813073837573N11203408WA0272002923
B1813083837570N11203408WA0272302926
B1813093837567N11203409WA0272402928
B1813103837565N11203412WA0272702930
B1813113837563N11203417WA0272802932
B1813123837564N11203422WA0273102934
B1813133837565N11203428WA0273202936
B1813143837569N11203434WA0273502939
B1813153837574N11203440WA0273702941
B1813163837580N11203444WA0273902946
B1813173837586N11203448WA0274102950
B1813183837593N11203450WA0274402954
B1813193837599N11203450WA0274602958
B1813203837605N11203448WA0274902962
B1813213837610N11203444WA0275202964
B1813223837615N11203439WA0275502966
B1813233837617N11203433WA0275702968
B1813243837617N11203426WA0276002970
B1813253837616N11203420WA0276202970
B1813263837612N11203415WA0276502970
B1813273837608N11203410WA0276602974
B1813283837605N11203408WA0276902978
B1813293837602N11203407WA0277102983
B1813303837601N11203407WA0277402988
B1813313837599N11203409WA0277702991
B1813323837597N11203410WA0278002994
B1813333837594N11203411WA0278202996
B1813343837590N11203410WA0278602997
B1813353837587N11203409WA0278803000
B1813363837585N11203409WA0279103002
B1813373837583N11203410WA0279303005
B1813383837580N11203412WA0279603007
B1813393837578N11203414WA0279803009
B1813403837575N11203414WA0280103012
B1813413837573N11203414WA0280303015
B1813423837571N11203415WA0280603017
B1813433837569N11203419WA0280803018
B1813443837568N11203424WA0281003019
B1813453837568N11203429WA0281203021
B1813463837569N11203434WA0281403024
B1813473837571N11203440WA0281603027
B1813483837574N11203446WA0281903028
B1813493837579N11203451WA0282003030
B1813503837584N11203455WA0282303034
B1813513837591N11203456WA0282503039
B1813523837597N11203454WA0282803043
B1813533837604N11203450WA0283003046
B1813543837608N11203445WA0283303050
B1813553837611N11203438WA0283503054
B1813563837611N11203432WA0283903057
B1813573837612N11203426WA0284103060
B1813583837611N11203422WA0284403063
B1813593837610N11203419WA0284603066
B1814003837607N11203418WA0285003067
B1814013837605N11203420WA0285203068
B1814023837602N11203423WA0285503069
B1814033837601N11203428WA0285703070
B1814043837601N11203434WA0285903072
B1814053837603N11203440WA0286103075
B1814063837606N11203446WA0286403079
B1814073837610N11203451WA0286503083
B1814073837610N11203451WA0286503083
B1814083837615N11203456WA0286803087
B1814093837622N11203458WA0287003090
B1814103837629N11203457WA0287403094
B1814113837636N11203453WA0287603096
B1814123837643N11203447WA0287903099
B1814133837648N11203441WA0288103103
B1814143837651N11203435WA0288503108
B1814153837651N11203429WA0288703112
B1814163837651N11203425WA0289103116
B1814173837650N11203421WA0289303119
B1814183837649N11203419WA0289703122
B1814193837646N11203418WA0289903123
B1814203837643N11203418WA0290303124
B1814213837640N11203419WA0290503126
B1814223837636N11203420WA0290803128
B1814233837634N11203422WA0291003132
B1814243837632N11203425WA0291403135
B1814253837630N11203428WA0291603139
B1814263837629N11203432WA0291903142
B1814273837629N11203436WA0292103145
B1814283837631N11203441WA0292503148
B1814293837635N11203446WA0292703151
B1814303837640N11203449WA0293003153
B1814313837647N11203451WA0293303156
B1814323837654N11203450WA0293603158
B1814333837661N11203446WA0293803159
B1814343837667N11203439WA0294103161
B1814353837670N11203432WA0294303165
B1814363837672N11203424WA0294603168
B1814373837671N11203418WA0294803171
B1814383837669N11203412WA0295103174
B1814393837667N11203408WA0295303177
B1814403837664N11203406WA0295603181
B1814413837661N11203406WA0295903184
B1814423837658N11203407WA0296203187
B1814433837655N11203408WA0296403190
B1814443837652N11203410WA0296803194
B1814453837651N11203412WA0297003198
B1814463837649N11203415WA0297403201
B1814473837649N11203419WA0297603205
B1814483837649N11203424WA0298003208
B1814493837650N11203429WA0298203212
B1814503837651N11203434WA0298603215
B1814513837654N11203440WA0298803218
B1814523837658N11203446WA0299203221
B1814533837662N11203453WA0299503223
B1814543837667N11203459WA0299803226
B1814553837674N11203463WA0300103229
B1814563837681N11203465WA0300403232
B1814573837688N11203465WA0300603234
B1814583837696N11203463WA0301003236
B1814593837702N11203458WA0301203238
B1815003837707N11203453WA0301503240
B1815013837711N11203446WA0301703242
B1815023837713N11203439WA0302003244
B1815033837714N11203431WA0302203245
B1815043837713N11203424WA0302403246
B1815053837710N11203420WA0302603248
B1815063837708N11203417WA0302803250
B1815073837705N11203416WA0303003252
B1815083837702N11203415WA0303303255
B1815093837699N11203415WA0303403259
B1815103837697N11203415WA0303703262
B1815103837697N11203415WA0303703262
B1815113837693N11203417WA0303903265
B1815123837690N11203419WA0304203269
B1815133837688N11203423WA0304403274
B1815143837688N11203427WA0304703279
B1815153837688N11203431WA0305003287
B1815163837689N11203433WA0305403294
B1815173837690N11203436WA0305703299
B1815183837691N11203439WA0306203300
B1815193837691N11203444WA0306503301
B1815203837690N11203450WA0306903302
B1815213837691N11203455WA0307203304
B1815223837693N11203459WA0307603308
B1815233837695N11203463WA0307803311
B1815243837696N11203466WA0308203314
B1815253837698N11203470WA0308403317
B1815263837699N11203473WA0308803319
B1815273837699N11203476WA0309003321
B1815283837700N11203480WA0309403323
B1815293837701N11203483WA0309603325
B1815303837702N11203486WA0309903327
B1815313837704N11203489WA0310103329
B1815323837706N11203492WA0310403331
B1815333837707N11203494WA0310603334
B1815343837709N11203496WA0310803334
B1815353837710N11203498WA0311003335
B1815363837711N11203502WA0311203335
B1815373837713N11203506WA0311403335
B1815383837714N11203511WA0311603336
B1815393837715N11203514WA0311703338
B1815403837716N11203518WA0311903340
B1815413837718N11203521WA0312003341
B1815423837719N11203526WA0312203341
B1815433837720N11203530WA0312303341
B1815443837720N11203535WA0312403341
B1815453837722N11203539WA0312503341
B1815463837723N11203544WA0312603341
B1815473837724N11203549WA0312603341
B1815483837725N11203554WA0312703340
B1815493837726N11203560WA0312703338
B1815503837726N11203565WA0312803337
B1815513837726N11203571WA0312803335
B1815523837726N11203577WA0312703334
B1815533837726N11203584WA0312703331
B1815543837725N11203590WA0312703329
B1815553837725N11203597WA0312603327
B1815563837724N11203603WA0312503326
B1815573837724N11203608WA0312403324
B1815583837724N11203613WA0312303323
B1815593837723N11203618WA0312203320
B1816003837722N11203623WA0312103317
B1816013837722N11203629WA0312003313
B1816023837721N11203635WA0311803308
B1816033837719N11203642WA0311603305
B1816043837718N11203647WA0311303302
B1816053837717N11203652WA0311203300
B1816063837717N11203657WA0310903297
B1816073837716N11203662WA0310703294
B1816083837716N11203668WA0310403291
B1816093837715N11203674WA0310203287
B1816103837713N11203680WA0309903282
B1816113837712N11203686WA0309703279
B1816123837711N11203692WA0309403276
B1816133837710N11203697WA0309203274
B1816133837710N11203697WA0309203274
B1816143837710N11203702WA0308903272
B1816153837710N11203707WA0308603269
B1816163837709N11203713WA0308303266
B1816173837709N11203718WA0308103262
B1816183837708N11203725WA0307803259
B1816193837707N11203731WA0307603255
B1816203837706N11203737WA0307203253
B1816213837706N11203742WA0307003250
B1816223837706N11203748WA0306703248
B1816233837705N11203753WA0306503245
B1816243837705N11203759WA0306103242
B1816253837704N11203764WA0305903240
B1816263837703N11203769WA0305603237
B1816273837703N11203775WA0305403234
B1816283837702N11203780WA0305103232
B1816293837702N11203786WA0304803230
B1816303837702N11203791WA0304503228
B1816313837701N11203796WA0304303225
B1816323837700N11203801WA0304003223
B1816333837699N11203807WA0303903220
B1816343837698N11203812WA0303603217
B1816353837697N11203818WA0303403214
B1816363837696N11203824WA0303103212
B1816373837695N11203831WA0302903210
B1816383837695N11203836WA0302603209
B1816393837694N11203841WA0302403208
B1816403837694N11203846WA0302203206
B1816413837693N11203852WA0302003205
B1816423837692N11203857WA0301803202
B1816433837690N11203863WA0301603199
B1816443837689N11203869WA0301403197
B1816453837688N11203874WA0301203195
B1816463837687N11203880WA0301003195
B1816473837686N11203885WA0300803194
B1816483837685N11203889WA0300603192
B1816493837684N11203893WA0300503191
B1816503837682N11203896WA0300303188
B1816513837680N11203900WA0300103186
B1816523837677N11203904WA0299903183
B1816533837674N11203908WA0299703180
B1816543837671N11203912WA0299503177
B1816553837669N11203915WA0299303175
B1816563837666N11203919WA0299103174
B1816573837664N11203923WA0298903172
B1816583837662N11203926WA0298703170
B1816593837660N11203930WA0298503168
B1817003837658N11203934WA0298303165
B1817013837656N11203937WA0298103163
B1817023837653N11203941WA0297903160
B1817033837650N11203944WA0297703157
B1817043837648N11203948WA0297503154
B1817053837646N11203952WA0297303152
B1817063837645N11203956WA0297003150
B1817073837644N11203959WA0296903148
B1817083837643N11203962WA0296603146
B1817093837642N11203966WA0296403143
B1817103837641N11203970WA0296203139
B1817113837640N11203975WA0296003135
B1817123837640N11203981WA0295703132
B1817133837639N11203986WA0295503129
B1817143837637N11203992WA0295103126
B1817153837636N11203998WA0294903123
B1817163837635N11204003WA0294603122
B1817163837635N11204003WA0294603122
B1817173837634N11204007WA0294403122
B1817183837633N11204010WA0294203123
B1817193837632N11204012WA0294003123
B1817203837631N11204014WA0293803121
B1817213837629N11204018WA0293703119
B1817223837627N11204023WA0293503115
B1817233837625N11204028WA0293303112
B1817243837623N11204033WA0293103109
B1817253837621N11204038WA0292903108
B1817263837620N11204041WA0292703108
B1817273837619N11204044WA0292603107
B1817283837619N11204048WA0292403105
B1817293837618N11204052WA0292203103
B1817303837617N11204056WA0292003099
B1817313837615N11204060WA0291903095
B1817323837612N11204064WA0291603091
B1817333837609N11204068WA0291403087
B1817343837606N11204071WA0291103085
B1817353837605N11204074WA0291003085
B1817363837603N11204075WA0290703084
B1817373837602N11204078WA0290603082
B1817383837600N11204080WA0290303078
B1817393837597N11204084WA0290103074
B1817403837595N11204088WA0289903071
B1817413837593N11204093WA0289703068
B1817423837592N11204096WA0289403067
B1817433837590N11204099WA0289203067
B1817443837589N11204102WA0289003066
B1817453837589N11204104WA0288803064
B1817463837587N11204108WA0288603062
B1817473837586N11204112WA0288403059
B1817483837584N11204116WA0288203055
B1817493837582N11204121WA0288003053
B1817503837581N11204125WA0287803052
B1817513837581N11204128WA0287603051
B1817523837580N11204131WA0287403049
B1817533837579N11204135WA0287203045
B1817543837578N11204139WA0287003041
B1817553837577N11204144WA0286803037
B1817563837576N11204148WA0286503033
B1817573837574N11204151WA0286303031
B1817583837573N11204154WA0286003028
B1817593837571N11204158WA0285803025
B1818003837570N11204162WA0285503021
B1818013837568N11204166WA0285303018
B1818023837566N11204170WA0285003015
B1818033837565N11204174WA0284703012
B1818043837564N11204178WA0284403009
B1818053837564N11204182WA0284203007
B1818063837563N11204186WA0283903003
B1818073837562N11204190WA0283703000
B1818083837561N11204194WA0283302996
B1818093837561N11204198WA0283102993
B1818103837560N11204202WA0282802990
B1818113837560N11204205WA0282502988
B1818123837559N11204208WA0282202985
B1818133837559N11204211WA0282002981
B1818143837558N11204214WA0281602977
B1818153837557N11204218WA0281402972
B1818163837555N11204222WA0281002968
B1818173837554N11204225WA0280702964
B1818183837552N11204229WA0280402961
B1818193837551N11204232WA0280102959
B1818193837551N11204232WA0280102959
B1818203837550N11204236WA0279702956
B1818213837549N11204240WA0279502953
B1818223837548N11204244WA0279102949
B1818233837546N11204249WA0278902946
B1818243837544N11204255WA0278502942
B1818253837543N11204261WA0278302939
B1818263837541N11204267WA0277902937
B1818273837539N11204273WA0277702936
B1818283837539N11204279WA0277402934
B1818293837539N11204284WA0277102933
B1818303837539N11204290WA0276902931
B1818313837538N11204296WA0276702927
B1818323837537N11204303WA0276402923
B1818333837535N11204309WA0276102919
B1818343837533N11204315WA0275802916
B1818353837532N11204320WA0275602912
B1818363837530N11204324WA0275202911
B1818373837528N11204327WA0275002909
B1818383837526N11204330WA0274702905
B1818393837524N11204334WA0274502901
B1818403837521N11204338WA0274102896
B1818413837518N11204342WA0273902894
B1818423837516N11204345WA0273502892
B1818433837514N11204348WA0273302890
B1818443837513N11204352WA0272902888
B1818453837510N11204356WA0272702887
B1818463837507N11204359WA0272402887
B1818473837503N11204359WA0272302887
B1818483837498N11204359WA0272002886
B1818493837492N11204357WA0271802885
B1818503837486N11204353WA0271602884
B1818513837481N11204347WA0271502883
B1818523837478N11204339WA0271202881
B1818533837477N11204328WA0271102879
B1818543837479N11204319WA0270902876
B1818553837484N11204311WA0270702874
B1818563837490N11204308WA0270502870
B1818573837496N11204309WA0270302867
B1818583837499N11204312WA0270002865
B1818593837499N11204315WA0269902863
B1819003837497N11204319WA0269602862
B1819013837493N11204322WA0269402860
B1819023837488N11204324WA0269202859
B1819033837484N11204325WA0269102858
B1819043837479N11204326WA0268902857
B1819053837475N11204327WA0268702856
B1819063837472N11204329WA0268502853
B1819073837467N11204333WA0268402851
B1819083837463N11204337WA0268202847
B1819093837458N11204342WA0268002845
B1819103837453N11204347WA0267802843
B1819113837449N11204353WA0267602841
B1819123837446N11204358WA0267402841
B1819133837443N11204363WA0267302842
B1819143837440N11204367WA0267102843
B1819153837437N11204369WA0267002844
B1819163837434N11204372WA0266902845
B1819173837431N11204376WA0266802844
B1819183837429N11204380WA0266802843
B1819193837427N11204385WA0266702843
B1819203837424N11204388WA0266602843
B1819213837421N11204392WA0266602844
B1819223837418N11204395WA0266502845
B1819223837418N11204395WA0266502845
B1819233837415N11204398WA0266502845
B1819243837412N11204402WA0266502846
B1819253837409N11204406WA0266502846
B1819263837406N11204409WA0266502845
B1819273837403N11204413WA0266402844
B1819283837400N11204417WA0266402842
B1819293837397N11204421WA0266402841
B1819303837393N11204426WA0266302840
B1819313837390N11204430WA0266302839
B1819323837387N11204434WA0266202839
B1819333837384N11204438WA0266202839
B1819343837381N11204442WA0266102838
B1819353837378N11204446WA0266102838
B1819363837375N11204449WA0266002837
B1819373837372N11204453WA0266002836
B1819383837369N11204458WA0265902835
B1819393837366N11204463WA0265902834
B1819403837363N11204467WA0265802833
B1819413837359N11204471WA0265702832
B1819423837356N11204476WA0265702832
B1819433837353N11204481WA0265602831
B1819443837350N11204486WA0265602831
B1819453837347N11204490WA0265502832
B1819463837344N11204494WA0265502832
B1819473837341N11204498WA0265402832
B1819483837339N11204503WA0265402831
B1819493837337N11204508WA0265402830
B1819503837334N11204513WA0265302828
B1819513837331N11204517WA0265202827
B1819523837329N11204521WA0265202826
B1819533837327N11204525WA0265102825
B1819543837326N11204530WA0265002824
B1819553837324N11204535WA0265002823
B1819563837322N11204539WA0264902821
B1819573837319N11204544WA0264802819
B1819583837317N11204548WA0264702818
B1819593837315N11204552WA0264602818
B1820003837313N11204556WA0264502817
B1820013837311N11204560WA0264402817
B1820023837309N11204563WA0264302816
B1820033837307N11204567WA0264302814
B1820043837306N11204569WA0264202813
B1820053837304N11204573WA0264102811
B1820063837303N11204577WA0264002808
B1820073837301N11204582WA0263802804
B1820083837299N11204587WA0263702802
B1820093837298N11204593WA0263502800
B1820103837297N11204597WA0263402801
B1820113837295N11204600WA0263202803
B1820123837294N11204601WA0263102805
B1820133837293N11204601WA0263102807
B1820143837291N11204602WA0263002808
B1820153837290N11204604WA0263002806
B1820163837289N11204607WA0262902804
B1820173837288N11204612WA0262902802
B1820183837287N11204617WA0262802800
B1820193837286N11204621WA0262702799
B1820203837284N11204624WA0262602799
B1820213837282N11204626WA0262502799
B1820223837280N11204629WA0262402798
B1820233837278N11204632WA0262402797
B1820243837277N11204635WA0262302796
B1820243837277N11204635WA0262302796
B1820253837275N11204638WA0262202795
B1820263837273N11204641WA0262102793
B1820273837272N11204644WA0262102792
B1820283837270N11204646WA0262002792
B1820293837270N11204648WA0261902793
B1820303837270N11204650WA0261802793
B1820313837270N11204652WA0261802792
B1820323837269N11204655WA0261702790
B1820333837268N11204658WA0261702788
B1820343837267N11204662WA0261602787
B1820353837266N11204665WA0261502786
B1820363837264N11204667WA0261402786
B1820373837264N11204669WA0261402785
B1820383837263N11204671WA0261302784
B1820393837263N11204674WA0261202783
B1820403837261N11204678WA0261102779
B1820413837259N11204681WA0261002776
B1820423837257N11204685WA0260902774
B1820433837256N11204688WA0260802774
B1820443837255N11204691WA0260602773
B1820453837255N11204694WA0260502772
B1820463837254N11204697WA0260402770
B1820473837252N11204700WA0260302767
B1820483837250N11204704WA0260102763
B1820493837249N11204709WA0259902760
B1820503837248N11204714WA0259702759
B1820513837247N11204719WA0259602757
B1820523837245N11204723WA0259402756
B1820533837244N11204727WA0259202756
B1820543837242N11204731WA0259002754
B1820553837241N11204734WA0258902754
B1820563837239N11204737WA0258702754
B1820573837238N11204740WA0258602755
B1820583837238N11204743WA0258502755
B1820593837237N11204747WA0258402754
B1821003837235N11204750WA0258302752
B1821013837233N11204754WA0258202751
B1821023837231N11204757WA0258102751
B1821033837230N11204760WA0258002751
B1821043837230N11204763WA0257902751
B1821053837229N11204767WA0257802750
B1821063837228N11204770WA0257702748
B1821073837227N11204774WA0257702747
B1821083837225N11204779WA0257502744
B1821093837223N11204784WA0257402742
B1821103837221N11204788WA0257302740
B1821113837219N11204791WA0257202740
B1821123837218N11204794WA0257102739
B1821133837217N11204797WA0257002737
B1821143837216N11204801WA0256802735
B1821153837216N11204806WA0256702731
B1821163837215N11204811WA0256502728
B1821173837214N11204815WA0256402726
B1821183837214N11204819WA0256202724
B1821193837213N11204822WA0256002721
B1821203837213N11204825WA0255802719
B1821213837213N11204829WA0255602715
B1821223837214N11204834WA0255402711
B1821233837214N11204839WA0255202707
B1821243837214N11204843WA0254902703
B1821253837213N11204847WA0254702702
B1821263837213N11204851WA0254402700
B1821263837213N11204851WA0254402700
B1821273837212N11204854WA0254202698
B1821283837211N11204857WA0253902696
B1821293837210N11204861WA0253702694
B1821303837210N11204865WA0253502693
B1821313837209N11204868WA0253302690
B1821323837209N11204872WA0253102688
B1821333837208N11204877WA0252902686
B1821343837207N11204882WA0252602684
B1821353837206N11204886WA0252502684
B1821363837205N11204889WA0252302684
B1821373837205N11204892WA0252102683
B1821383837204N11204895WA0251902681
B1821393837203N11204900WA0251802678
B1821403837202N11204905WA0251602674
B1821413837200N11204910WA0251402672
B1821423837199N11204913WA0251202672
B1821433837199N11204916WA0251002671
B1821443837198N11204918WA0250802670
B1821453837197N11204921WA0250702667
B1821463837196N11204925WA0250502663
B1821473837194N11204930WA0250302660
B1821483837193N11204934WA0250102659
B1821493837192N11204937WA0249902658
B1821503837191N11204940WA0249702658
B1821513837190N11204943WA0249602656
B1821523837189N11204946WA0249402654
B1821533837187N11204949WA0249202652
B1821543837185N11204951WA0249002652
B1821553837184N11204953WA0248902652
B1821563837183N11204955WA0248802651
B1821573837181N11204958WA0248702650
B1821583837179N11204961WA0248502649
B1821593837176N11204965WA0248402648
B1822003837174N11204968WA0248302648
B1822013837172N11204972WA0248202650
B1822023837171N11204975WA0248102651
B1822033837169N11204979WA0248002651
B1822043837166N11204982WA0248002651
B1822053837163N11204985WA0247902651
B1822063837161N11204987WA0247902651
B1822073837158N11204990WA0247902652
B1822083837156N11204993WA0247802651
B1822093837154N11204996WA0247802651
B1822103837151N11204999WA0247802651
B1822113837149N11205002WA0247802651
B1822123837146N11205005WA0247802651
B1822133837144N11205009WA0247702650
B1822143837142N11205013WA0247702651
B1822153837139N11205016WA0247702652
B1822163837137N11205019WA0247702653
B1822173837135N11205022WA0247702653
B1822183837132N11205026WA0247702654
B1822193837129N11205030WA0247702655
B1822203837127N11205034WA0247802657
B1822213837125N11205038WA0247802660
B1822223837122N11205041WA0247902663
B1822233837120N11205044WA0248002665
B1822243837117N11205048WA0248102666
B1822253837115N11205051WA0248202666
B1822263837111N11205055WA0248302665
B1822273837108N11205060WA0248402663
B1822283837105N11205065WA0248402663
B1822293837102N11205069WA0248502664
B1822303837100N11205073WA0248502664
B1822303837100N11205073WA0248502664
B1822313837098N11205076WA0248502664
B1822323837096N11205080WA0248602662
B1822333837093N11205084WA0248602659
B1822343837090N11205089WA0248502657
B1822353837087N11205094WA0248502656
B1822363837084N11205099WA0248502657
B1822373837083N11205105WA0248402656
B1822383837082N11205111WA0248402657
B1822393837082N11205116WA0248402658
B1822403837081N11205119WA0248402660
B1822413837079N11205122WA0248402661
B1822423837076N11205124WA0248402660
B1822433837073N11205127WA0248402659
B1822443837071N11205130WA0248402659
B1822453837068N11205132WA0248402659
B1822463837065N11205133WA0248402659
B1822473837063N11205133WA0248402658
B1822483837060N11205134WA0248402656
B1822493837057N11205136WA0248402654
B1822503837055N11205139WA0248302651
B1822513837053N11205144WA0248202648
B1822523837052N11205149WA0248102644
B1822533837051N11205155WA0248002641
B1822543837050N11205160WA0247902639
B1822553837049N11205165WA0247702636
B1822563837047N11205169WA0247502632
B1822573837045N11205173WA0247402629
B1822583837043N11205178WA0247102625
B1822593837041N11205182WA0247002621
B1823003837040N11205187WA0246702617
B1823013837038N11205192WA0246402613
B1823023837036N11205197WA0246102609
B1823033837035N11205201WA0245902606
B1823043837034N11205206WA0245502602
B1823053837033N11205211WA0245302598
B1823063837032N11205216WA0244902595
B1823073837031N11205220WA0244702593
B1823083837030N11205224WA0244302591
B1823093837028N11205227WA0244102588
B1823103837027N11205232WA0243802584
B1823113837025N11205236WA0243502580
B1823123837024N11205241WA0243202576
B1823133837022N11205245WA0242902574
B1823143837021N11205250WA0242602571
B1823153837021N11205254WA0242402568
B1823163837020N11205259WA0242002565
B1823173837018N11205263WA0241802563
B1823183837017N11205268WA0241402560
B1823193837016N11205274WA0241202557
B1823203837015N11205281WA0240902553
B1823213837014N11205288WA0240602549
B1823223837013N11205294WA0240302548
B1823233837013N11205298WA0240102547
B1823243837012N11205302WA0239702547
B1823253837011N11205306WA0239602545
B1823263837009N11205310WA0239302543
B1823273837007N11205315WA0239102541
B1823283837005N11205320WA0238802537
B1823293837003N11205325WA0238702535
B1823303837003N11205331WA0238402533
B1823313837002N11205336WA0238202532
B1823323837002N11205340WA0238002532
B1823333837001N11205343WA0237802530
B1823333837001N11205343WA0237802530
B1823343837000N11205347WA0237602527
B1823353836999N11205352WA0237402523
B1823363836997N11205356WA0237102519
B1823373836996N11205362WA0236902515
B1823383836995N11205366WA0236602512
B1823393836993N11205371WA0236402510
B1823403836992N11205375WA0236102507
B1823413836991N11205379WA0235902504
B1823423836989N11205384WA0235602501
B1823433836988N11205389WA0235402498
B1823443836986N11205394WA0235102495
B1823453836985N11205398WA0234902493
B1823463836983N11205403WA0234602491
B1823473836982N11205407WA0234402488
B1823483836980N11205412WA0234102486
B1823493836978N11205416WA0233902483
B1823503836976N11205418WA0233602480
B1823513836973N11205419WA0233402478
B1823523836970N11205417WA0233102474
B1823533836967N11205412WA0232802470
B1823543836967N11205404WA0232502466
B1823553836969N11205395WA0232302461
B1823563836974N11205388WA0231902457
B1823573836980N11205384WA0231602453
B1823583836987N11205383WA0231202450
B1823593836992N11205386WA0231002448
B1824003836996N11205390WA0230602445
B1824013836999N11205394WA0230402442
B1824023837001N11205399WA0230102439
B1824033837003N11205403WA0229802436
B1824043837004N11205409WA0229502432
B1824053837006N11205414WA0229202428
B1824063837008N11205420WA0228902424
B1824073837010N11205426WA0228602420
B1824083837012N11205432WA0228202416
B1824093837013N11205438WA0228002413
B1824103837015N11205443WA0227602409
B1824113837016N11205448WA0227302405
B1824123837017N11205454WA0226902401
B1824133837018N11205459WA0226702397
B1824143837018N11205464WA0226302394
B1824153837019N11205469WA0226002390
B1824163837020N11205474WA0225602387
B1824173837020N11205479WA0225302383
B1824183837020N11205484WA0224902380
B1824193837020N11205489WA0224602376
B1824203837020N11205495WA0224202373
B1824213837020N11205500WA0224002369
B1824223837019N11205506WA0223602365
B1824233837020N11205512WA0223302362
B1824243837020N11205517WA0222902360
B1824253837021N11205523WA0222702357
B1824263837022N11205528WA0222302355
B1824273837022N11205533WA0222102352
B1824283837023N11205538WA0221702349
B1824293837023N11205544WA0221502346
B1824303837024N11205550WA0221102343
B1824313837025N11205556WA0220902340
B1824323837026N11205563WA0220502336
B1824333837027N11205570WA0220302333
B1824343837027N11205577WA0219902330
B1824353837026N11205584WA0219702327
B1824363837025N11205590WA0219402324
B1824363837025N11205590WA0219402324
B1824373837025N11205597WA0219102321
B1824383837026N11205605WA0218802317
B1824393837026N11205613WA0218502313
B1824403837026N11205621WA0218202310
B1824413837025N11205629WA0217902306
B1824423837025N11205636WA0217502304
B1824433837024N11205644WA0217302301
B1824443837025N11205651WA0217002300
B1824453837025N11205658WA0216702297
B1824463837025N11205666WA0216402294
B1824473837025N11205673WA0216202291
B1824483837025N11205681WA0215902288
B1824493837025N11205689WA0215602285
B1824503837025N11205697WA0215302282
B1824513837025N11205705WA0215102280
B1824523837025N11205713WA0214802277
B1824533837025N11205720WA0214602275
B1824543837025N11205728WA0214302273
B1824553837025N11205735WA0214102270
B1824563837025N11205743WA0213802267
B1824573837025N11205750WA0213602265
B1824583837025N11205758WA0213302262
B1824593837025N11205765WA0213102259
B1825003837024N11205772WA0212702257
B1825013837024N11205778WA0212502255
B1825023837024N11205784WA0212302253
B1825033837024N11205789WA0212102251
B1825043837024N11205794WA0211802249
B1825053837023N11205800WA0211602246
B1825063837023N11205805WA0211302243
B1825073837022N11205810WA0211102240
B1825083837020N11205813WA0210802238
B1825093837018N11205812WA0210602236
B1825103837015N11205807WA0210302231
B1825113837015N11205799WA0210102226
B1825123837018N11205791WA0209802223
B1825133837025N11205785WA0209602219
B1825143837033N11205783WA0209202215
B1825153837040N11205785WA0209002212
B1825163837046N11205788WA0208702210
B1825173837050N11205793WA0208402208
B1825183837053N11205798WA0208102205
B1825193837055N11205804WA0207902202
B1825203837057N11205811WA0207602198
B1825213837058N11205818WA0207302195
B1825223837059N11205825WA0207002192
B1825233837061N11205833WA0206802188
B1825243837062N11205840WA0206402186
B1825253837062N11205847WA0206202183
B1825263837063N11205854WA0205902181
B1825273837063N11205860WA0205702178
B1825283837064N11205868WA0205402176
B1825293837065N11205875WA0205102173
B1825303837066N11205881WA0204902171
B1825313837067N11205888WA0204602169
B1825323837067N11205895WA0204302166
B1825333837068N11205901WA0204102164
B1825343837068N11205908WA0203902161
B1825353837069N11205914WA0203702159
B1825363837069N11205920WA0203402156
B1825373837069N11205926WA0203202153
B1825383837069N11205932WA0202902150
B1825393837070N11205939WA0202702146
B1825393837070N11205939WA0202702146
B1825403837071N11205946WA0202402143
B1825413837072N11205954WA0202202140
B1825423837072N11205961WA0201802138
B1825433837071N11205968WA0201602136
B1825443837070N11205973WA0201302134
B1825453837067N11205978WA0201102133
B1825463837064N11205982WA0200802131
B1825473837060N11205983WA0200602129
B1825483837057N11205982WA0200402128
B1825493837054N11205979WA0200202126
B1825503837053N11205973WA0199902124
B1825513837056N11205967WA0199802122
B1825523837063N11205962WA0199602120
B1825533837072N11205963WA0199402117
B1825543837079N11205968WA0199202114
B1825553837084N11205976WA0199002113
B1825563837086N11205984WA0198802112
B1825573837087N11205990WA0198602113
B1825583837088N11205997WA0198502113
B1825593837088N11206004WA0198302112
B1826003837088N11206012WA0198102109
B1826013837088N11206022WA0198002105
B1826023837086N11206031WA0197902102
B1826033837085N11206040WA0197602102
B1826043837083N11206048WA0197402103
B1826053837082N11206056WA0197302104
B1826063837081N11206063WA0197202103
B1826073837080N11206071WA0197102102
B1826083837079N11206080WA0196902100
B1826093837077N11206089WA0196902098
B1826103837076N11206098WA0196702097
B1826113837075N11206106WA0196602098
B1826123837075N11206114WA0196502099
B1826133837075N11206122WA0196502100
B1826143837075N11206129WA0196402100
B1826153837074N11206138WA0196302099
B1826163837073N11206146WA0196302098
B1826173837072N11206154WA0196202099
B1826183837070N11206160WA0196202101
B1826193837069N11206165WA0196202104
B1826203837068N11206168WA0196202107
B1826213837068N11206172WA0196302109
B1826223837067N11206176WA0196302111
B1826233837067N11206181WA0196402111
B1826243837065N11206186WA0196502111
B1826253837064N11206191WA0196502112
B1826263837061N11206195WA0196602113
B1826273837059N11206199WA0196702116
B1826283837057N11206202WA0196802118
B1826293837055N11206207WA0196802119
B1826303837053N11206212WA0197002119
B1826313837052N11206217WA0197002120
B1826323837051N11206221WA0197102123
B1826333837050N11206224WA0197202125
B1826343837049N11206228WA0197402127
B1826353837048N11206233WA0197502128
B1826363837046N11206237WA0197602129
B1826373837045N11206242WA0197702130
B1826383837044N11206247WA0197802132
B1826393837043N11206251WA0198002134
B1826403837043N11206256WA0198102135
B1826413837042N11206260WA0198202136
B1826423837040N11206265WA0198302136
B1826423837040N11206265WA0198302136
B1826433837038N11206269WA0198402136
B1826443837036N11206274WA0198502136
B1826453837035N11206280WA0198602136
B1826463837034N11206286WA0198702137
B1826473837032N11206291WA0198802139
B1826483837031N11206296WA0198902140
B1826493837030N11206301WA0199002140
B1826503837030N11206306WA0199002139
B1826513837029N11206312WA0199102136
B1826523837027N11206318WA0199102132
B1826533837025N11206325WA0199102128
B1826543837023N11206331WA0199002125
B1826553837022N11206336WA0199002123
B1826563837021N11206341WA0198902121
B1826573837019N11206347WA0198702117
B1826583837018N11206353WA0198502113
B1826593837015N11206359WA0198402109
B1827003837014N11206365WA0198202106
B1827013837012N11206370WA0198002105
B1827023837011N11206374WA0197902103
B1827033837010N11206379WA0197602100
B1827043837009N11206384WA0197402097
B1827053837008N11206390WA0197202092
B1827063837006N11206396WA0197002090
B1827073837005N11206401WA0196802087
B1827083837003N11206405WA0196602084
B1827093837002N11206409WA0196302081
B1827103837000N11206413WA0196102078
B1827113836999N11206418WA0195802074
B1827123836997N11206423WA0195602071
B1827133836996N11206428WA0195302068
B1827143836994N11206432WA0195002065
B1827153836993N11206436WA0194702062
B1827163836992N11206440WA0194502060
B1827173836990N11206445WA0194202057
B1827183836989N11206449WA0193902054
B1827193836988N11206453WA0193702051
B1827203836986N11206457WA0193502048
B1827213836985N11206462WA0193102045
B1827223836984N11206466WA0192902043
B1827233836983N11206470WA0192602041
B1827243836982N11206474WA0192402038
B1827253836980N11206478WA0192102035
B1827263836977N11206482WA0191902032
B1827273836975N11206485WA0191602030
B1827283836972N11206488WA0191302028
B1827293836970N11206492WA0191102025
B1827303836968N11206495WA0190902022
B1827313836966N11206499WA0190602019
B1827323836964N11206502WA0190402016
B1827333836962N11206506WA0190102013
B1827343836959N11206508WA0189902010
B1827353836957N11206511WA0189602006
B1827363836954N11206514WA0189302003
B1827373836951N11206517WA0189001999
B1827383836948N11206520WA0188801995
B1827393836945N11206523WA0188401991
B1827403836942N11206526WA0188201988
B1827413836940N11206530WA0187801985
B1827423836936N11206533WA0187601981
B1827433836934N11206538WA0187201978
B1827443836931N11206543WA0187001974
B1827453836930N11206548WA0186601971
B1827453836930N11206548WA0186601971
B1827463836930N11206553WA0186301969
B1827473836933N11206559WA0186001965
B1827483836937N11206564WA0185701962
B1827493836944N11206567WA0185401958
B1827503836951N11206566WA0185101954
B1827513836956N11206561WA0184801951
B1827523836958N11206554WA0184501948
B1827533836957N11206547WA0184201944
B1827543836954N11206542WA0183901940
B1827553836950N11206541WA0183501935
B1827563836946N11206544WA0183301932
B1827573836945N11206549WA0182901928
B1827583836944N11206555WA0182701925
B1827593836944N11206560WA0182301922
B1828003836944N11206566WA0182101919
B1828013836943N11206572WA0181701915
B1828023836942N11206578WA0181401911
B1828033836941N11206585WA0181001907
B1828043836941N11206592WA0180801904
B1828053836941N11206599WA0180401901
B1828063836941N11206606WA0180201898
B1828073836941N11206612WA0179801894
B1828083836940N11206619WA0179501891
B1828093836940N11206626WA0179101887
B1828103836940N11206634WA0178901883
B1828113836942N11206641WA0178501879
B1828123836943N11206648WA0178201876
B1828133836945N11206654WA0177801875
B1828143836945N11206659WA0177601873
B1828153836945N11206665WA0177301871
B1828163836944N11206671WA0177001869
B1828173836944N11206677WA0176701865
B1828183836943N11206683WA0176501862
B1828193836943N11206689WA0176201858
B1828203836944N11206694WA0175901855
B1828213836945N11206698WA0175601852
B1828223836947N11206703WA0175401848
B1828233836949N11206708WA0175001843
B1828243836952N11206715WA0174801838
B1828253836953N11206721WA0174401834
B1828263836955N11206726WA0174101831
B1828273836957N11206731WA0173701829
B1828283836959N11206736WA0173401827
B1828293836961N11206740WA0173101825
B1828303836963N11206745WA0172901824
B1828313836964N11206750WA0172501822
B1828323836966N11206755WA0172301819
B1828333836968N11206760WA0172001815
B1828343836970N11206765WA0171801811
B1828353836972N11206771WA0171401807
B1828363836974N11206776WA0171201803
B1828373836977N11206782WA0170801799
B1828383836981N11206789WA0170601794
B1828393836984N11206794WA0170201791
B1828403836988N11206799WA0169901790
B1828413836990N11206803WA0169601791
B1828423836991N11206806WA0169401792
B1828433836991N11206809WA0169101792
B1828443836991N11206813WA0169001791
B1828453836990N11206817WA0168801788
B1828463836988N11206822WA0168601785
B1828473836986N11206828WA0168401781
B1828473836986N11206828WA0168401781
B1828483836984N11206833WA0168201777
B1828493836983N11206839WA0167901775
B1828503836983N11206845WA0167701774
B1828513836984N11206849WA0167501774
B1828523836984N11206853WA0167301773
B1828533836983N11206857WA0167101772
B1828543836983N11206861WA0166901770
B1828553836985N11206865WA0166701766
B1828563836987N11206870WA0166501762
B1828573836992N11206874WA0166301757
B1828583836997N11206877WA0166101751
B1828593837003N11206879WA0165701747
B1829003837009N11206881WA0165501744
B1829013837015N11206884WA0165101740
B1829023837021N11206887WA0164901736
B1829033837027N11206889WA0164501733
B1829043837034N11206891WA0164301730
B1829053837039N11206890WA0163901729
B1829063837043N11206889WA0163701730
B1829073837046N11206887WA0163401729
B1829083837051N11206886WA0163201728
B1829093837057N11206886WA0162901725
B1829103837063N11206887WA0162801723
B1829113837069N11206890WA0162601723
B1829123837074N11206894WA0162401724
B1829133837078N11206898WA0162301726
B1829143837082N11206902WA0162201727
B1829153837085N11206905WA0162001727
B1829163837090N11206909WA0162001725
B1829173837094N11206912WA0161901723
B1829183837100N11206917WA0161801720
B1829193837104N11206922WA0161701718
B1829203837108N11206928WA0161601717
B1829213837112N11206934WA0161401716
B1829223837115N11206940WA0161301713
B1829233837119N11206946WA0161101711
B1829243837122N11206951WA0161001709
B1829253837126N11206956WA0160801707
B1829263837130N11206961WA0160701704
B1829273837134N11206967WA0160501701
B1829283837139N11206973WA0160301696
B1829293837144N11206980WA0160101693
B1829303837148N11206984WA0159901690
B1829313837154N11206987WA0159601688
B1829323837160N11206988WA0159401684
B1829333837165N11206987WA0159201682
B1829343837168N11206984WA0159001680
B1829353837170N11206979WA0158701677
B1829363837169N11206974WA0158501673
B1829373837167N11206968WA0158301670
B1829383837165N11206965WA0158101669
B1829393837162N11206962WA0157701668
B1829403837160N11206960WA0157201667
B1829413837159N11206959WA0157201667
B1829423837158N11206958WA0157101667
B1829433837156N11206957WA0157001667
B1829443837155N11206956WA0156901667
B1829453837154N11206955WA0156701667
B1829463837154N11206955WA0156601666
B1829473837153N11206954WA0156601666
B1829483837153N11206954WA0156401666
B1829493837152N11206953WA0156401667
B1829493837152N11206953WA0156401667
B1829503837152N11206953WA0156401667
B1829513837152N11206954WA0156301667
B1829523837152N11206954WA0156301667
B1829533837152N11206954WA0156201667
B1829543837152N11206954WA0156201667
B1829553837152N11206954WA0156201667
B1829563837152N11206954WA0156201667
B1829573837153N11206954WA0156201667
B1829583837153N11206954WA0156201666
B1829593837153N11206954WA0156101666
B1830003837153N11206954WA0156101666
B1830013837153N11206954WA0156201666
B1830023837153N11206954WA0156201666
B1830033837153N11206954WA0156101666
B1830043837153N11206954WA0156101666
B1830053837152N11206954WA0156101666
B1830063837152N11206954WA0156101666
B1830073837152N11206954WA0156101666
B1830083837152N11206954WA0156101666
B1830093837151N11206954WA0156101666
B1830103837151N11206955WA0156101666
B1830113837151N11206955WA0156101666
B1830123837150N11206955WA0156101665
B1830133837150N11206955WA0156101665
B1830143837150N11206955WA0156101666
B1830153837150N11206955WA0156101666
B1830163837150N11206955WA0156101666
B1830173837150N11206955WA0156101665
B1830183837150N11206955WA0156101665
B1830193837150N11206955WA0156101665
B1830203837150N11206955WA0156101665
B1830213837150N11206955WA0156001665
B1830223837149N11206955WA0156001665
B1830233837149N11206956WA0156001665
B1830243837148N11206956WA0156001665
B1830253837147N11206956WA0156001665
B1830263837147N11206956WA0156001665
B1830273837146N11206956WA0156001665
B1830283837145N11206957WA0156001665
B1830293837145N11206957WA0156001665
B1830303837144N11206957WA0156001665
B1830313837144N11206957WA0156001665
B1830323837144N11206957WA0156001665
B1830333837144N11206957WA0156001665
B1830343837144N11206957WA0156101665
B1830353837144N11206957WA0156001665
B1830363837144N11206957WA0156001665
B1830373837144N11206957WA0155901665
B1830383837144N11206957WA0155901665
B1830393837143N11206957WA0155901665
B1830403837144N11206957WA0155901665
B1830413837143N11206957WA0156001665
B1830423837143N11206957WA0156001665
B1830433837143N11206957WA0156101665
B1830443837143N11206957WA0156101665
B1830453837143N11206957WA0156101665
B1830463837143N11206957WA0156101665
B1830473837143N11206957WA0156101665
B1830483837143N11206957WA0156101665
B1830493837143N11206957WA0156101665
B1830503837143N11206957WA0156101665
B1830513837143N11206957WA0156101665
B1830523837144N11206957WA0156101664
