AXFMSFP Flymaster Live, V1.0
HFFXA010
HFPLTPILOT:Andria Lea Monteleone
HFGTYGLIDERTYPE:Triple Seven Queen 3 / Supair Delight 4 Sport
HFGIDGLIDERID:
HFDTM100GPSDATUM:WGS-1984
HFCIDCOMPETITIONID:7771
HFCCLCOMPETITIONCLASS:
HOSITSITE:LAUNCH
HFGPS:UBLOXNEO6
HFPRSPRESSALTSENSOR:NA
HFRFWFIRMWAREVERSION:202g
HFRHWHARDWAREVERSION:1.0R2
HFFTYFRTYPE:FLYMASTER,LIVE
HFDTE240625
B1949494748244N12002297WA0108801133
B1949504748244N12002295WA0108801133
B1949514748245N12002292WA0108701133
B1949524748244N12002290WA0108701132
B1949534748242N12002287WA0108701131
B1949544748240N12002284WA0108701131
B1949554748237N12002281WA0108701131
B1949564748235N12002280WA0108701131
B1949574748233N12002280WA0108801134
B1949584748232N12002281WA0108901136
B1949594748232N12002279WA0109001137
B1950004748231N12002277WA0109101137
B1950014748229N12002275WA0109101135
B1950024748226N12002272WA0109101134
B1950034748223N12002271WA0109201133
B1950044748220N12002270WA0109201134
B1950054748217N12002271WA0109301135
B1950064748214N12002272WA0109401137
B1950074748210N12002274WA0109501138
B1950084748205N12002277WA0109601138
B1950094748201N12002281WA0109701141
B1950104748197N12002285WA0109901143
B1950114748193N12002289WA0110001146
B1950124748189N12002293WA0110201148
B1950134748184N12002297WA0110301150
B1950144748180N12002298WA0110601153
B1950154748176N12002298WA0110701156
B1950164748173N12002295WA0110901158
B1950174748171N12002291WA0111101160
B1950184748171N12002287WA0111301162
B1950194748172N12002283WA0111501165
B1950204748175N12002279WA0111701167
B1950214748179N12002277WA0111901168
B1950224748185N12002277WA0112101170
B1950234748191N12002280WA0112201171
B1950244748196N12002285WA0112401172
B1950254748202N12002294WA0112501172
B1950264748206N12002304WA0112701174
B1950274748208N12002316WA0112801176
B1950284748208N12002328WA0113001178
B1950294748206N12002338WA0113101180
B1950304748203N12002348WA0113301182
B1950314748200N12002356WA0113501184
B1950324748195N12002361WA0113701186
B1950334748191N12002365WA0113801188
B1950344748187N12002367WA0114001191
B1950354748184N12002367WA0114201195
B1950364748182N12002366WA0114501199
B1950374748180N12002364WA0114601202
B1950384748180N12002362WA0114901203
B1950394748182N12002359WA0115001204
B1950404748183N12002355WA0115201206
B1950414748184N12002351WA0115401207
B1950424748186N12002347WA0115601209
B1950434748188N12002344WA0115701211
B1950444748190N12002341WA0115901211
B1950454748192N12002337WA0116001210
B1950464748195N12002332WA0116101209
B1950474748196N12002327WA0116101208
B1950484748195N12002323WA0116201209
B1950494748194N12002322WA0116301210
B1950504748192N12002322WA0116301210
B1950514748189N12002324WA0116401209
B1950524748186N12002328WA0116401208
B1950534748184N12002334WA0116401208
B1950544748183N12002341WA0116401207
B1950554748181N12002350WA0116401208
B1950564748180N12002358WA0116401208
B1950574748179N12002367WA0116401208
B1950584748177N12002375WA0116501209
B1950594748175N12002382WA0116501209
B1951004748173N12002386WA0116501209
B1951014748170N12002388WA0116501209
B1951024748167N12002387WA0116501207
B1951034748164N12002383WA0116501205
B1951044748162N12002378WA0116401204
B1951054748163N12002372WA0116401203
B1951064748164N12002366WA0116401204
B1951074748166N12002362WA0116301204
B1951084748169N12002358WA0116301204
B1951084748169N12002358WA0116301204
B1951094748173N12002353WA0116301204
B1951104748176N12002349WA0116301203
B1951114748180N12002344WA0116201201
B1951124748183N12002338WA0116201200
B1951134748185N12002332WA0116101199
B1951144748186N12002326WA0116001198
B1951154748185N12002321WA0116001197
B1951164748182N12002317WA0115901195
B1951174748178N12002317WA0115801193
B1951184748174N12002318WA0115601192
B1951194748171N12002323WA0115501191
B1951204748169N12002329WA0115401191
B1951214748167N12002335WA0115401193
B1951224748165N12002341WA0115401196
B1951234748164N12002346WA0115401198
B1951244748162N12002353WA0115401198
B1951254748159N12002360WA0115401197
B1951264748156N12002369WA0115401197
B1951274748154N12002377WA0115401197
B1951284748151N12002385WA0115401199
B1951294748149N12002391WA0115401199
B1951304748146N12002394WA0115501199
B1951314748142N12002396WA0115401197
B1951324748138N12002396WA0115401195
B1951334748133N12002394WA0115401193
B1951344748129N12002391WA0115301191
B1951354748125N12002387WA0115201190
B1951364748121N12002382WA0115101189
B1951374748118N12002378WA0115101189
B1951384748116N12002373WA0115001190
B1951394748115N12002369WA0115001190
B1951404748114N12002364WA0114901188
B1951414748113N12002358WA0114901185
B1951424748112N12002351WA0114701182
B1951434748109N12002345WA0114601179
B1951444748106N12002341WA0114401176
B1951454748102N12002339WA0114301173
B1951464748097N12002340WA0114101169
B1951474748093N12002343WA0113901166
B1951484748089N12002349WA0113601162
B1951494748086N12002356WA0113401160
B1951504748085N12002363WA0113201159
B1951514748084N12002369WA0113001157
B1951524748083N12002376WA0112801154
B1951534748081N12002383WA0112601150
B1951544748079N12002391WA0112301147
B1951554748076N12002399WA0112101144
B1951564748073N12002407WA0111801142
B1951574748070N12002413WA0111601141
B1951584748067N12002420WA0111401140
B1951594748065N12002426WA0111201138
B1952004748062N12002433WA0111001136
B1952014748060N12002441WA0110801134
B1952024748058N12002450WA0110501131
B1952034748057N12002458WA0110401129
B1952044748056N12002467WA0110101127
B1952054748055N12002476WA0110001125
B1952064748054N12002486WA0109801124
B1952074748053N12002495WA0109601122
B1952084748051N12002504WA0109401119
B1952094748048N12002513WA0109201117
B1952104748046N12002522WA0109001115
B1952114748043N12002531WA0108801113
B1952124748041N12002540WA0108601111
B1952124748041N12002540WA0108601111
B1952134748038N12002549WA0108401109
B1952144748036N12002559WA0108201107
B1952154748034N12002568WA0108101105
B1952164748031N12002578WA0107801103
B1952174748029N12002588WA0107701101
B1952184748026N12002598WA0107501099
B1952194748024N12002608WA0107301098
B1952204748022N12002617WA0107201099
B1952214748020N12002626WA0107101099
B1952224748019N12002635WA0107001100
B1952234748019N12002644WA0106901101
B1952244748019N12002654WA0106801100
B1952254748019N12002664WA0106801100
B1952264748019N12002674WA0106701098
B1952274748018N12002684WA0106601097
B1952284748017N12002695WA0106601097
B1952294748016N12002705WA0106501097
B1952304748015N12002716WA0106401097
B1952314748013N12002726WA0106401097
B1952324748012N12002736WA0106301096
B1952334748011N12002745WA0106301096
B1952344748009N12002755WA0106301096
B1952354748007N12002765WA0106201096
B1952364748005N12002774WA0106101095
B1952374748004N12002784WA0106101095
B1952384748002N12002794WA0106001094
B1952394748001N12002804WA0106001094
B1952404748001N12002813WA0105901094
B1952414748001N12002821WA0105901094
B1952424748003N12002829WA0105901094
B1952434748008N12002837WA0105801093
B1952444748013N12002844WA0105801093
B1952454748019N12002850WA0105701092
B1952464748024N12002856WA0105701091
B1952474748028N12002862WA0105701093
B1952484748031N12002869WA0105701094
B1952494748033N12002877WA0105701092
B1952504748034N12002886WA0105701090
B1952514748034N12002896WA0105701089
B1952524748034N12002905WA0105601088
B1952534748032N12002914WA0105601089
B1952544748030N12002922WA0105601091
B1952554748027N12002929WA0105601094
B1952564748024N12002936WA0105701097
B1952574748023N12002943WA0105801100
B1952584748020N12002949WA0105901103
B1952594748017N12002953WA0106001105
B1953004748013N12002957WA0106101105
B1953014748009N12002959WA0106201104
B1953024748005N12002960WA0106301104
B1953034748000N12002958WA0106301105
B1953044747997N12002956WA0106401107
B1953054747995N12002952WA0106501108
B1953064747993N12002947WA0106601109
B1953074747992N12002942WA0106701109
B1953084747993N12002935WA0106701109
B1953094747996N12002928WA0106701109
B1953104748000N12002922WA0106801109
B1953114748005N12002919WA0106801110
B1953124748009N12002918WA0106901113
B1953134748013N12002918WA0106901114
B1953144748017N12002916WA0107001115
B1953154748020N12002912WA0107001115
B1953164748024N12002907WA0107001116
B1953164748024N12002907WA0107001116
B1953174748027N12002901WA0107101117
B1953184748030N12002898WA0107101118
B1953194748034N12002894WA0107201120
B1953204748038N12002892WA0107301120
B1953214748044N12002892WA0107301117
B1953224748051N12002895WA0107301114
B1953234748057N12002902WA0107401114
B1953244748062N12002910WA0107401116
B1953254748066N12002919WA0107401117
B1953264748068N12002927WA0107501119
B1953274748069N12002936WA0107501121
B1953284748070N12002945WA0107601122
B1953294748070N12002954WA0107701123
B1953304748069N12002963WA0107901125
B1953314748068N12002972WA0108001127
B1953324748067N12002979WA0108101129
B1953334748065N12002985WA0108201131
B1953344748062N12002992WA0108401132
B1953354748059N12002998WA0108501131
B1953364748054N12003003WA0108701131
B1953374748049N12003004WA0108801133
B1953384748045N12003002WA0108901136
B1953394748043N12002999WA0109001139
B1953404748041N12002995WA0109201142
B1953414748041N12002989WA0109401143
B1953424748041N12002983WA0109601144
B1953434748043N12002976WA0109701145
B1953444748047N12002970WA0109801146
B1953454748051N12002965WA0109901148
B1953464748056N12002962WA0110101150
B1953474748061N12002959WA0110201152
B1953484748067N12002959WA0110301151
B1953494748074N12002961WA0110401151
B1953504748081N12002967WA0110501152
B1953514748087N12002974WA0110601154
B1953524748091N12002982WA0110801156
B1953534748093N12002991WA0110801158
B1953544748094N12003001WA0111001160
B1953554748092N12003011WA0111101160
B1953564748088N12003018WA0111201160
B1953574748083N12003022WA0111301162
B1953584748080N12003024WA0111501165
B1953594748077N12003023WA0111601168
B1954004748074N12003020WA0111801170
B1954014748071N12003016WA0112001171
B1954024748068N12003011WA0112201173
B1954034748067N12003004WA0112301174
B1954044748068N12002998WA0112501177
B1954054748071N12002993WA0112601179
B1954064748075N12002989WA0112801181
B1954074748080N12002987WA0112901183
B1954084748086N12002987WA0113101184
B1954094748092N12002989WA0113301185
B1954104748098N12002994WA0113401186
B1954114748103N12003002WA0113501188
B1954124748106N12003011WA0113701189
B1954134748107N12003021WA0113801190
B1954144748106N12003031WA0113901191
B1954154748104N12003039WA0114001193
B1954164748100N12003044WA0114201196
B1954174748096N12003048WA0114301198
B1954184748092N12003049WA0114501200
B1954194748088N12003049WA0114601202
B1954204748084N12003046WA0114801204
B1954204748084N12003046WA0114801204
B1954214748082N12003042WA0115001207
B1954224748081N12003037WA0115201210
B1954234748082N12003032WA0115301212
B1954244748083N12003025WA0115601213
B1954254748085N12003019WA0115701215
B1954264748089N12003014WA0115901217
B1954274748094N12003010WA0116001218
B1954284748100N12003009WA0116201218
B1954294748107N12003011WA0116301218
B1954304748113N12003015WA0116501220
B1954314748118N12003022WA0116601222
B1954324748121N12003029WA0116701223
B1954334748124N12003037WA0116801225
B1954344748125N12003047WA0116901225
B1954354748125N12003057WA0117001225
B1954364748124N12003068WA0117101225
B1954374748122N12003078WA0117201226
B1954384748119N12003084WA0117301229
B1954394748115N12003088WA0117401233
B1954404748112N12003090WA0117601235
B1954414748108N12003090WA0117701237
B1954424748105N12003090WA0117901239
B1954434748101N12003087WA0118101241
B1954444748099N12003084WA0118301242
B1954454748098N12003078WA0118401243
B1954464748099N12003072WA0118601245
B1954474748102N12003066WA0118701247
B1954484748105N12003061WA0118901248
B1954494748110N12003057WA0119001251
B1954504748114N12003055WA0119201254
B1954514748120N12003055WA0119301255
B1954524748126N12003058WA0119501255
B1954534748132N12003062WA0119601256
B1954544748137N12003068WA0119801258
B1954554748141N12003075WA0119901261
B1954564748144N12003082WA0120101263
B1954574748145N12003091WA0120301265
B1954584748146N12003101WA0120501266
B1954594748144N12003111WA0120601266
B1955004748141N12003118WA0120801268
B1955014748137N12003123WA0120901270
B1955024748134N12003124WA0121101272
B1955034748130N12003125WA0121201273
B1955044748126N12003123WA0121401274
B1955054748123N12003120WA0121501275
B1955064748121N12003115WA0121701277
B1955074748121N12003110WA0121801278
B1955084748121N12003104WA0122001280
B1955094748122N12003098WA0122101281
B1955104748125N12003093WA0122301283
B1955114748130N12003089WA0122401284
B1955124748136N12003087WA0122601284
B1955134748142N12003087WA0122701285
B1955144748147N12003090WA0122801288
B1955154748152N12003094WA0122901291
B1955164748156N12003100WA0123101293
B1955174748160N12003107WA0123301295
B1955184748163N12003115WA0123401296
B1955194748166N12003124WA0123501297
B1955204748167N12003133WA0123701298
B1955214748167N12003141WA0123801300
B1955224748166N12003148WA0124001303
B1955234748164N12003153WA0124101305
B1955244748161N12003158WA0124301305
B1955244748161N12003158WA0124301305
B1955254748156N12003162WA0124401304
B1955264748152N12003163WA0124601304
B1955274748147N12003161WA0124701305
B1955284748143N12003158WA0124801307
B1955294748141N12003154WA0124901310
B1955304748140N12003149WA0125101313
B1955314748139N12003144WA0125201315
B1955324748140N12003138WA0125401315
B1955334748143N12003132WA0125501315
B1955344748148N12003128WA0125701316
B1955354748152N12003127WA0125801318
B1955364748157N12003129WA0125901320
B1955374748162N12003132WA0126001321
B1955384748167N12003135WA0126201322
B1955394748172N12003139WA0126301322
B1955404748177N12003144WA0126401323
B1955414748181N12003150WA0126501323
B1955424748185N12003157WA0126601324
B1955434748189N12003164WA0126701326
B1955444748192N12003171WA0126801328
B1955454748194N12003178WA0126901329
B1955464748196N12003185WA0127101331
B1955474748197N12003193WA0127201331
B1955484748195N12003202WA0127301329
B1955494748192N12003209WA0127301328
B1955504748188N12003213WA0127401328
B1955514748184N12003215WA0127501330
B1955524748182N12003214WA0127601332
B1955534748179N12003212WA0127701333
B1955544748176N12003208WA0127801332
B1955554748173N12003204WA0127801332
B1955564748171N12003197WA0127901332
B1955574748170N12003191WA0128001334
B1955584748172N12003185WA0128101336
B1955594748174N12003181WA0128201338
B1956004748178N12003177WA0128301339
B1956014748183N12003174WA0128401340
B1956024748189N12003174WA0128501342
B1956034748195N12003177WA0128601342
B1956044748201N12003183WA0128701343
B1956054748205N12003192WA0128801344
B1956064748206N12003200WA0129001345
B1956074748206N12003209WA0129101347
B1956084748205N12003215WA0129201349
B1956094748202N12003220WA0129301349
B1956104748199N12003223WA0129401349
B1956114748195N12003226WA0129501349
B1956124748191N12003227WA0129601348
B1956134748187N12003226WA0129601348
B1956144748183N12003223WA0129701349
B1956154748181N12003219WA0129701350
B1956164748179N12003214WA0129801352
B1956174748179N12003209WA0129901354
B1956184748179N12003204WA0130001356
B1956194748180N12003198WA0130101358
B1956204748181N12003193WA0130301359
B1956214748183N12003188WA0130301361
B1956224748187N12003184WA0130501362
B1956234748192N12003181WA0130601363
B1956244748198N12003180WA0130701363
B1956254748203N12003181WA0130701364
B1956264748208N12003184WA0130801365
B1956274748213N12003189WA0130901367
B1956284748217N12003194WA0131001369
B1956284748217N12003194WA0131001369
B1956294748220N12003200WA0131101370
B1956304748224N12003207WA0131201371
B1956314748227N12003215WA0131301371
B1956324748229N12003224WA0131401371
B1956334748230N12003233WA0131401372
B1956344748230N12003241WA0131501372
B1956354748229N12003249WA0131601373
B1956364748226N12003257WA0131701373
B1956374748223N12003263WA0131701374
B1956384748219N12003267WA0131801375
B1956394748216N12003270WA0131901375
B1956404748212N12003271WA0132001375
B1956414748208N12003270WA0132001376
B1956424748204N12003267WA0132101376
B1956434748200N12003264WA0132201377
B1956444748197N12003260WA0132301379
B1956454748196N12003255WA0132301380
B1956464748196N12003248WA0132401381
B1956474748196N12003242WA0132501382
B1956484748198N12003235WA0132601383
B1956494748200N12003230WA0132701385
B1956504748203N12003227WA0132801387
B1956514748207N12003226WA0132901389
B1956524748212N12003225WA0133001388
B1956534748218N12003225WA0133001388
B1956544748224N12003226WA0133101387
B1956554748231N12003228WA0133101387
B1956564748236N12003231WA0133201390
B1956574748241N12003236WA0133301393
B1956584748245N12003241WA0133401395
B1956594748249N12003248WA0133401396
B1957004748252N12003256WA0133501396
B1957014748255N12003265WA0133601396
B1957024748256N12003275WA0133701396
B1957034748255N12003284WA0133701397
B1957044748253N12003290WA0133801399
B1957054748250N12003294WA0133901401
B1957064748247N12003297WA0134001401
B1957074748243N12003298WA0134101402
B1957084748239N12003297WA0134201402
B1957094748236N12003292WA0134201402
B1957104748234N12003286WA0134301401
B1957114748234N12003278WA0134301401
B1957124748235N12003269WA0134401401
B1957134748239N12003262WA0134401402
B1957144748243N12003257WA0134401402
B1957154748249N12003254WA0134501403
B1957164748256N12003254WA0134501404
B1957174748263N12003257WA0134601405
B1957184748268N12003261WA0134701407
B1957194748273N12003267WA0134701408
B1957204748276N12003275WA0134801408
B1957214748278N12003284WA0134801409
B1957224748278N12003293WA0134901409
B1957234748276N12003301WA0135001409
B1957244748273N12003306WA0135001410
B1957254748269N12003309WA0135101411
B1957264748265N12003309WA0135201412
B1957274748261N12003308WA0135201413
B1957284748258N12003306WA0135301413
B1957294748254N12003301WA0135301414
B1957304748251N12003296WA0135401413
B1957314748248N12003290WA0135401413
B1957324748246N12003284WA0135401414
B1957324748246N12003284WA0135401414
B1957334748243N12003278WA0135501415
B1957344748241N12003273WA0135501415
B1957354748239N12003268WA0135601416
B1957364748237N12003263WA0135601415
B1957374748235N12003257WA0135601415
B1957384748233N12003250WA0135601414
B1957394748232N12003243WA0135601415
B1957404748231N12003237WA0135701416
B1957414748229N12003232WA0135701418
B1957424748228N12003226WA0135801419
B1957434748227N12003221WA0135801420
B1957444748227N12003215WA0135901419
B1957454748227N12003209WA0135901419
B1957464748228N12003203WA0136001418
B1957474748230N12003198WA0136001418
B1957484748233N12003192WA0136001417
B1957494748237N12003188WA0136001417
B1957504748243N12003186WA0136001417
B1957514748249N12003187WA0136001417
B1957524748255N12003191WA0136001419
B1957534748260N12003196WA0136001421
B1957544748264N12003201WA0136101422
B1957554748267N12003207WA0136101424
B1957564748269N12003215WA0136201425
B1957574748270N12003223WA0136201424
B1957584748270N12003232WA0136301424
B1957594748269N12003240WA0136301424
B1958004748267N12003247WA0136401424
B1958014748263N12003251WA0136401424
B1958024748260N12003253WA0136501424
B1958034748256N12003253WA0136501424
B1958044748252N12003251WA0136601425
B1958054748249N12003248WA0136601425
B1958064748247N12003243WA0136601425
B1958074748245N12003238WA0136601426
B1958084748243N12003232WA0136701426
B1958094748242N12003227WA0136701427
B1958104748240N12003221WA0136801428
B1958114748239N12003215WA0136801429
B1958124748237N12003209WA0136901428
B1958134748234N12003204WA0136901429
B1958144748232N12003198WA0137001429
B1958154748230N12003193WA0137001429
B1958164748229N12003188WA0137001429
B1958174748227N12003183WA0137001428
B1958184748224N12003178WA0137001428
B1958194748222N12003172WA0137101428
B1958204748220N12003168WA0137101430
B1958214748219N12003163WA0137201433
B1958224748221N12003158WA0137201434
B1958234748222N12003152WA0137301435
B1958244748225N12003145WA0137401435
B1958254748227N12003139WA0137401435
B1958264748231N12003133WA0137501437
B1958274748236N12003129WA0137601439
B1958284748242N12003127WA0137701440
B1958294748248N12003128WA0137701441
B1958304748255N12003131WA0137801442
B1958314748260N12003137WA0137901443
B1958324748265N12003144WA0138001443
B1958334748268N12003152WA0138001442
B1958344748270N12003161WA0138101442
B1958354748272N12003169WA0138101441
B1958364748273N12003177WA0138101441
B1958364748273N12003177WA0138101441
B1958374748273N12003186WA0138101439
B1958384748271N12003194WA0138101438
B1958394748269N12003202WA0138101436
B1958404748266N12003208WA0138101437
B1958414748262N12003212WA0138101437
B1958424748259N12003215WA0138101438
B1958434748255N12003217WA0138101438
B1958444748251N12003217WA0138101438
B1958454748247N12003215WA0138101438
B1958464748244N12003211WA0138201438
B1958474748242N12003206WA0138201438
B1958484748242N12003200WA0138201440
B1958494748244N12003195WA0138201442
B1958504748247N12003190WA0138301443
B1958514748251N12003186WA0138301444
B1958524748257N12003185WA0138401446
B1958534748264N12003187WA0138501448
B1958544748269N12003193WA0138601449
B1958554748273N12003200WA0138701450
B1958564748273N12003209WA0138801452
B1958574748272N12003216WA0138901452
B1958584748269N12003221WA0139001452
B1958594748264N12003224WA0139001452
B1959004748260N12003225WA0139101451
B1959014748255N12003222WA0139101450
B1959024748251N12003218WA0139101450
B1959034748247N12003213WA0139201450
B1959044748244N12003208WA0139201452
B1959054748241N12003203WA0139301454
B1959064748240N12003198WA0139401456
B1959074748239N12003191WA0139501458
B1959084748239N12003184WA0139701460
B1959094748241N12003177WA0139801462
B1959104748244N12003169WA0139901463
B1959114748250N12003163WA0140001465
B1959124748256N12003160WA0140201468
B1959134748262N12003159WA0140301471
B1959144748267N12003162WA0140601474
B1959154748272N12003167WA0140701477
B1959164748276N12003174WA0140901480
B1959174748279N12003182WA0141101481
B1959184748280N12003191WA0141301483
B1959194748280N12003198WA0141401485
B1959204748279N12003205WA0141601487
B1959214748277N12003211WA0141801489
B1959224748273N12003216WA0142001490
B1959234748268N12003218WA0142101492
B1959244748263N12003217WA0142401494
B1959254748259N12003214WA0142501497
B1959264748256N12003209WA0142801500
B1959274748255N12003203WA0142901502
B1959284748256N12003196WA0143201505
B1959294748257N12003189WA0143401507
B1959304748260N12003181WA0143601509
B1959314748263N12003174WA0143801512
B1959324748268N12003169WA0144101516
B1959334748274N12003167WA0144301519
B1959344748279N12003168WA0144601520
B1959354748285N12003172WA0144801522
B1959364748290N12003178WA0145001524
B1959374748293N12003187WA0145201526
B1959384748294N12003196WA0145501528
B1959394748292N12003203WA0145701531
B1959404748289N12003208WA0146001534
B1959404748289N12003208WA0146001534
B1959414748286N12003211WA0146101537
B1959424748281N12003213WA0146401539
B1959434748277N12003214WA0146601541
B1959444748273N12003213WA0146901543
B1959454748270N12003211WA0147001545
B1959464748267N12003207WA0147301547
B1959474748264N12003201WA0147501549
B1959484748261N12003195WA0147701551
B1959494748260N12003188WA0147901553
B1959504748258N12003181WA0148201556
B1959514748257N12003174WA0148301558
B1959524748257N12003167WA0148601560
B1959534748256N12003161WA0148701561
B1959544748255N12003154WA0149001561
B1959554748255N12003146WA0149101563
B1959564748256N12003140WA0149301564
B1959574748257N12003134WA0149501566
B1959584748259N12003128WA0149601566
B1959594748261N12003121WA0149701565
B2000004748263N12003113WA0149801564
B2000014748267N12003105WA0149901562
B2000024748270N12003098WA0150001562
B2000034748274N12003092WA0150001563
B2000044748278N12003087WA0150101566
B2000054748282N12003086WA0150201568
B2000064748287N12003086WA0150301571
B2000074748292N12003088WA0150401570
B2000084748299N12003091WA0150501569
B2000094748305N12003097WA0150601569
B2000104748309N12003104WA0150701571
B2000114748312N12003112WA0150701573
B2000124748313N12003119WA0150801574
B2000134748313N12003127WA0150901574
B2000144748313N12003136WA0150901574
B2000154748312N12003145WA0151001573
B2000164748311N12003155WA0151001572
B2000174748308N12003163WA0151001572
B2000184748304N12003171WA0151001572
B2000194748300N12003177WA0151001572
B2000204748295N12003182WA0151101573
B2000214748291N12003186WA0151101575
B2000224748286N12003187WA0151201576
B2000234748281N12003187WA0151201577
B2000244748277N12003185WA0151301577
B2000254748272N12003182WA0151401577
B2000264748268N12003176WA0151401577
B2000274748266N12003170WA0151501579
B2000284748266N12003164WA0151601581
B2000294748267N12003158WA0151601583
B2000304748269N12003152WA0151801583
B2000314748272N12003145WA0151801582
B2000324748276N12003139WA0151901582
B2000334748281N12003134WA0151901583
B2000344748287N12003131WA0152001584
B2000354748293N12003131WA0152001584
B2000364748299N12003134WA0152101585
B2000374748304N12003138WA0152101585
B2000384748310N12003144WA0152101585
B2000394748314N12003151WA0152201585
B2000404748317N12003159WA0152201585
B2000414748320N12003166WA0152201586
B2000424748321N12003174WA0152301586
B2000434748321N12003183WA0152301586
B2000444748321N12003193WA0152401585
B2000444748321N12003193WA0152401585
B2000454748320N12003204WA0152401584
B2000464748318N12003214WA0152401584
B2000474748315N12003221WA0152401586
B2000484748311N12003227WA0152401587
B2000494748307N12003232WA0152501586
B2000504748302N12003234WA0152501585
B2000514748296N12003235WA0152501585
B2000524748290N12003234WA0152501585
B2000534748286N12003230WA0152601586
B2000544748283N12003226WA0152601588
B2000554748281N12003221WA0152601589
B2000564748281N12003215WA0152701590
B2000574748281N12003208WA0152701590
B2000584748282N12003201WA0152801592
B2000594748284N12003195WA0152901594
B2001004748287N12003190WA0153001598
B2001014748291N12003187WA0153101601
B2001024748295N12003186WA0153301603
B2001034748301N12003184WA0153401602
B2001044748307N12003185WA0153501603
B2001054748313N12003188WA0153601604
B2001064748319N12003193WA0153801606
B2001074748322N12003200WA0153901608
B2001084748324N12003209WA0154001609
B2001094748324N12003217WA0154101610
B2001104748323N12003225WA0154201611
B2001114748322N12003232WA0154301611
B2001124748319N12003238WA0154401612
B2001134748315N12003244WA0154501612
B2001144748311N12003248WA0154601613
B2001154748306N12003251WA0154701614
B2001164748302N12003252WA0154801615
B2001174748298N12003250WA0154901617
B2001184748294N12003248WA0155001618
B2001194748291N12003244WA0155101619
B2001204748289N12003239WA0155201620
B2001214748288N12003233WA0155301620
B2001224748288N12003226WA0155401622
B2001234748290N12003219WA0155501624
B2001244748293N12003213WA0155701626
B2001254748299N12003210WA0155801628
B2001264748306N12003210WA0155901630
B2001274748313N12003213WA0156001632
B2001284748318N12003218WA0156201636
B2001294748321N12003225WA0156401639
B2001304748323N12003232WA0156601641
B2001314748325N12003240WA0156701642
B2001324748327N12003248WA0156901643
B2001334748328N12003257WA0157001643
B2001344748329N12003267WA0157101644
B2001354748328N12003277WA0157201645
B2001364748327N12003284WA0157401648
B2001374748324N12003291WA0157501649
B2001384748320N12003295WA0157601650
B2001394748315N12003298WA0157701651
B2001404748311N12003299WA0157901651
B2001414748306N12003298WA0158001651
B2001424748302N12003296WA0158101652
B2001434748299N12003292WA0158201653
B2001444748297N12003288WA0158301655
B2001454748296N12003284WA0158401658
B2001464748296N12003279WA0158601660
B2001474748298N12003273WA0158701661
B2001484748301N12003266WA0158801662
B2001484748301N12003266WA0158801662
B2001494748305N12003260WA0158901662
B2001504748311N12003256WA0159101663
B2001514748317N12003253WA0159201665
B2001524748323N12003254WA0159301668
B2001534748329N12003257WA0159501671
B2001544748335N12003262WA0159701672
B2001554748340N12003270WA0159801674
B2001564748342N12003280WA0160001676
B2001574748343N12003290WA0160101678
B2001584748341N12003299WA0160301681
B2001594748338N12003305WA0160401683
B2002004748334N12003309WA0160701684
B2002014748329N12003312WA0160801686
B2002024748324N12003311WA0161001688
B2002034748321N12003309WA0161201690
B2002044748320N12003304WA0161401692
B2002054748319N12003298WA0161501693
B2002064748320N12003292WA0161701694
B2002074748323N12003285WA0161801694
B2002084748328N12003279WA0162001695
B2002094748334N12003276WA0162101695
B2002104748342N12003276WA0162201696
B2002114748349N12003281WA0162301697
B2002124748355N12003289WA0162401697
B2002134748359N12003299WA0162501698
B2002144748361N12003309WA0162601700
B2002154748361N12003319WA0162701702
B2002164748359N12003328WA0162901704
B2002174748356N12003335WA0163001705
B2002184748352N12003341WA0163201706
B2002194748348N12003344WA0163301707
B2002204748344N12003344WA0163401709
B2002214748341N12003343WA0163501710
B2002224748338N12003340WA0163701712
B2002234748337N12003334WA0163801711
B2002244748337N12003327WA0163901711
B2002254748338N12003319WA0163901710
B2002264748341N12003311WA0164001711
B2002274748344N12003305WA0164101713
B2002284748348N12003301WA0164201715
B2002294748353N12003297WA0164301717
B2002304748357N12003293WA0164401718
B2002314748362N12003289WA0164501718
B2002324748366N12003284WA0164601719
B2002334748370N12003279WA0164701720
B2002344748373N12003274WA0164801721
B2002354748375N12003270WA0164901724
B2002364748378N12003265WA0165001725
B2002374748380N12003259WA0165101726
B2002384748382N12003252WA0165201726
B2002394748383N12003245WA0165301727
B2002404748384N12003239WA0165401730
B2002414748385N12003233WA0165601733
B2002424748386N12003228WA0165701736
B2002434748387N12003223WA0165901738
B2002444748389N12003217WA0166101739
B2002454748390N12003210WA0166201739
B2002464748392N12003203WA0166401741
B2002474748393N12003196WA0166501743
B2002484748395N12003189WA0166701746
B2002494748396N12003183WA0166801747
B2002504748398N12003177WA0167001748
B2002514748399N12003169WA0167101750
B2002524748401N12003162WA0167301751
B2002524748401N12003162WA0167301751
B2002534748404N12003156WA0167401755
B2002544748407N12003152WA0167601758
B2002554748411N12003149WA0167801760
B2002564748417N12003145WA0168001760
B2002574748423N12003140WA0168101759
B2002584748429N12003135WA0168201757
B2002594748436N12003131WA0168201757
B2003004748443N12003129WA0168301759
B2003014748450N12003130WA0168401761
B2003024748456N12003132WA0168501762
B2003034748463N12003135WA0168601763
B2003044748470N12003141WA0168601764
B2003054748474N12003149WA0168701765
B2003064748476N12003158WA0168801765
B2003074748477N12003166WA0168901765
B2003084748475N12003173WA0169001766
B2003094748473N12003178WA0169001767
B2003104748470N12003181WA0169101768
B2003114748467N12003182WA0169201768
B2003124748464N12003181WA0169301768
B2003134748461N12003177WA0169301768
B2003144748459N12003171WA0169401768
B2003154748459N12003164WA0169401767
B2003164748460N12003157WA0169401768
B2003174748463N12003149WA0169501768
B2003184748466N12003142WA0169501769
B2003194748470N12003134WA0169601769
B2003204748474N12003127WA0169601770
B2003214748477N12003119WA0169701772
B2003224748480N12003112WA0169801774
B2003234748483N12003105WA0169801776
B2003244748486N12003098WA0170001777
B2003254748490N12003091WA0170001779
B2003264748495N12003084WA0170201779
B2003274748499N12003077WA0170301780
B2003284748502N12003068WA0170401781
B2003294748506N12003060WA0170501783
B2003304748509N12003051WA0170601785
B2003314748512N12003044WA0170801787
B2003324748516N12003037WA0170901789
B2003334748520N12003030WA0171001789
B2003344748524N12003022WA0171201789
B2003354748528N12003013WA0171201789
B2003364748531N12003004WA0171301790
B2003374748534N12002995WA0171401792
B2003384748537N12002987WA0171601795
B2003394748539N12002979WA0171701798
B2003404748543N12002971WA0171901800
B2003414748547N12002964WA0172101803
B2003424748552N12002956WA0172301805
B2003434748557N12002950WA0172501808
B2003444748564N12002946WA0172701811
B2003454748571N12002945WA0172901813
B2003464748578N12002947WA0173201814
B2003474748584N12002951WA0173301816
B2003484748589N12002955WA0173601819
B2003494748593N12002960WA0173701821
B2003504748596N12002966WA0174001823
B2003514748598N12002973WA0174101824
B2003524748597N12002979WA0174301825
B2003534748596N12002984WA0174501827
B2003544748594N12002986WA0174701829
B2003554748591N12002986WA0174801831
B2003554748591N12002986WA0174801831
B2003564748589N12002984WA0175001832
B2003574748586N12002980WA0175101833
B2003584748584N12002974WA0175301835
B2003594748584N12002966WA0175501837
B2004004748585N12002958WA0175701840
B2004014748589N12002950WA0175801843
B2004024748593N12002943WA0176101845
B2004034748599N12002937WA0176201847
B2004044748606N12002933WA0176401849
B2004054748613N12002930WA0176601852
B2004064748620N12002931WA0176801854
B2004074748626N12002935WA0177001855
B2004084748631N12002940WA0177201857
B2004094748634N12002948WA0177301859
B2004104748635N12002955WA0177501861
B2004114748634N12002961WA0177701862
B2004124748631N12002964WA0177901864
B2004134748628N12002964WA0178001865
B2004144748625N12002962WA0178201867
B2004154748623N12002958WA0178401869
B2004164748622N12002951WA0178601871
B2004174748623N12002942WA0178701872
B2004184748626N12002933WA0178901874
B2004194748631N12002925WA0179001875
B2004204748639N12002920WA0179201876
B2004214748648N12002920WA0179301877
B2004224748655N12002923WA0179501880
B2004234748661N12002930WA0179601882
B2004244748664N12002938WA0179801884
B2004254748664N12002945WA0180001885
B2004264748663N12002950WA0180201887
B2004274748660N12002952WA0180301888
B2004284748657N12002950WA0180501889
B2004294748654N12002945WA0180601890
B2004304748653N12002938WA0180801892
B2004314748654N12002929WA0180901895
B2004324748657N12002920WA0181101897
B2004334748662N12002912WA0181301899
B2004344748668N12002905WA0181501900
B2004354748676N12002902WA0181601902
B2004364748684N12002903WA0181801904
B2004374748691N12002908WA0181901906
B2004384748694N12002915WA0182101908
B2004394748695N12002922WA0182301911
B2004404748694N12002928WA0182501912
B2004414748692N12002931WA0182601914
B2004424748688N12002932WA0182801915
B2004434748685N12002930WA0183001917
B2004444748682N12002924WA0183201920
B2004454748681N12002916WA0183301922
B2004464748682N12002906WA0183601923
B2004474748686N12002897WA0183701924
B2004484748692N12002888WA0183901926
B2004494748700N12002883WA0184001927
B2004504748708N12002882WA0184201928
B2004514748715N12002885WA0184301929
B2004524748721N12002891WA0184501931
B2004534748724N12002898WA0184701934
B2004544748725N12002905WA0184801935
B2004554748723N12002911WA0185001936
B2004564748720N12002913WA0185201938
B2004574748717N12002913WA0185301940
B2004584748714N12002910WA0185501942
B2004594748711N12002904WA0185601944
B2004594748711N12002904WA0185601944
B2005004748710N12002896WA0185801946
B2005014748712N12002886WA0186001949
B2005024748715N12002876WA0186201950
B2005034748721N12002867WA0186301951
B2005044748728N12002861WA0186501953
B2005054748736N12002858WA0186601955
B2005064748743N12002860WA0186801958
B2005074748749N12002865WA0187001960
B2005084748753N12002872WA0187201962
B2005094748755N12002879WA0187301963
B2005104748754N12002885WA0187501964
B2005114748752N12002888WA0187601965
B2005124748749N12002888WA0187801968
B2005134748746N12002885WA0187901970
B2005144748744N12002880WA0188101972
B2005154748743N12002873WA0188301974
B2005164748743N12002865WA0188501975
B2005174748745N12002855WA0188601976
B2005184748748N12002844WA0188801977
B2005194748754N12002834WA0188901977
B2005204748762N12002828WA0189001978
B2005214748770N12002826WA0189101980
B2005224748778N12002829WA0189301982
B2005234748783N12002834WA0189401985
B2005244748786N12002841WA0189601988
B2005254748787N12002847WA0189801990
B2005264748786N12002851WA0190001991
B2005274748783N12002854WA0190101990
B2005284748779N12002853WA0190301991
B2005294748775N12002849WA0190401992
B2005304748773N12002843WA0190601995
B2005314748773N12002834WA0190701997
B2005324748773N12002825WA0190902000
B2005334748776N12002815WA0191102002
B2005344748780N12002806WA0191302005
B2005354748785N12002797WA0191402007
B2005364748793N12002791WA0191702009
B2005374748801N12002788WA0191802010
B2005384748809N12002788WA0192002013
B2005394748816N12002791WA0192202015
B2005404748821N12002796WA0192402017
B2005414748824N12002803WA0192602019
B2005424748825N12002810WA0192802021
B2005434748823N12002816WA0193002023
B2005444748821N12002818WA0193202025
B2005454748818N12002818WA0193302027
B2005464748815N12002814WA0193602027
B2005474748812N12002809WA0193702029
B2005484748810N12002802WA0193902031
B2005494748810N12002793WA0194102034
B2005504748810N12002785WA0194302037
B2005514748811N12002777WA0194502040
B2005524748812N12002769WA0194702042
B2005534748814N12002760WA0194902045
B2005544748818N12002752WA0195102046
B2005554748825N12002745WA0195302047
B2005564748833N12002741WA0195502047
B2005574748841N12002741WA0195602047
B2005584748849N12002744WA0195702048
B2005594748854N12002750WA0195902049
B2006004748857N12002758WA0196002051
B2006014748856N12002764WA0196102053
B2006024748854N12002766WA0196302054
B2006024748854N12002766WA0196302054
B2006034748851N12002765WA0196502056
B2006044748849N12002761WA0196702058
B2006054748848N12002753WA0196802060
B2006064748849N12002744WA0197002062
B2006074748853N12002735WA0197102063
B2006084748859N12002727WA0197302064
B2006094748866N12002721WA0197402065
B2006104748875N12002720WA0197602065
B2006114748883N12002721WA0197702067
B2006124748889N12002726WA0197802068
B2006134748894N12002732WA0197902070
B2006144748895N12002739WA0198102072
B2006154748893N12002743WA0198202073
B2006164748890N12002743WA0198402073
B2006174748887N12002739WA0198502073
B2006184748886N12002731WA0198602075
B2006194748887N12002721WA0198702077
B2006204748890N12002712WA0198902079
B2006214748895N12002703WA0199002081
B2006224748901N12002697WA0199202082
B2006234748909N12002693WA0199302083
B2006244748917N12002691WA0199402083
B2006254748925N12002694WA0199502084
B2006264748931N12002701WA0199702086
B2006274748934N12002709WA0199702086
B2006284748933N12002715WA0199902087
B2006294748931N12002718WA0200002088
B2006304748928N12002717WA0200102089
B2006314748925N12002711WA0200202091
B2006324748924N12002703WA0200302092
B2006334748925N12002693WA0200402093
B2006344748928N12002683WA0200602095
B2006354748933N12002674WA0200702096
B2006364748940N12002667WA0200802098
B2006374748948N12002662WA0200902100
B2006384748956N12002661WA0201102101
B2006394748964N12002663WA0201202102
B2006404748971N12002668WA0201402103
B2006414748976N12002676WA0201502105
B2006424748978N12002683WA0201702107
B2006434748978N12002690WA0201802109
B2006444748977N12002694WA0202002110
B2006454748974N12002695WA0202102111
B2006464748971N12002693WA0202302113
B2006474748969N12002688WA0202402114
B2006484748967N12002681WA0202502116
B2006494748967N12002672WA0202702118
B2006504748968N12002663WA0202802119
B2006514748970N12002653WA0202902121
B2006524748971N12002644WA0203102123
B2006534748973N12002635WA0203202124
B2006544748976N12002626WA0203402125
B2006554748980N12002618WA0203502128
B2006564748986N12002611WA0203702131
B2006574748993N12002605WA0203902133
B2006584749001N12002601WA0204102134
B2006594749010N12002599WA0204202135
B2007004749020N12002598WA0204302134
B2007014749030N12002601WA0204402134
B2007024749039N12002607WA0204602134
B2007034749046N12002616WA0204602134
B2007044749051N12002626WA0204802136
B2007054749054N12002635WA0204902138
B2007064749054N12002643WA0205002140
B2007064749054N12002643WA0205002140
B2007074749053N12002647WA0205102142
B2007084749051N12002649WA0205302143
B2007094749049N12002648WA0205402143
B2007104749047N12002644WA0205502145
B2007114749045N12002639WA0205602147
B2007124749044N12002633WA0205802149
B2007134749044N12002626WA0205902152
B2007144749046N12002620WA0206102155
B2007154749047N12002615WA0206302158
B2007164749050N12002610WA0206502160
B2007174749052N12002605WA0206602159
B2007184749053N12002598WA0206702158
B2007194749054N12002590WA0206802156
B2007204749056N12002582WA0206902156
B2007214749057N12002574WA0206902156
B2007224749060N12002568WA0207002156
B2007234749062N12002561WA0207102156
B2007244749064N12002554WA0207102155
B2007254749065N12002548WA0207102155
B2007264749067N12002541WA0207202155
B2007274749068N12002534WA0207202155
B2007284749069N12002527WA0207202155
B2007294749070N12002521WA0207202154
B2007304749071N12002514WA0207202155
B2007314749072N12002508WA0207202155
B2007324749074N12002502WA0207202154
B2007334749076N12002495WA0207202154
B2007344749078N12002489WA0207202153
B2007354749080N12002482WA0207202151
B2007364749081N12002475WA0207202151
B2007374749082N12002469WA0207102150
B2007384749083N12002462WA0207102149
B2007394749084N12002454WA0207002148
B2007404749085N12002446WA0207002146
B2007414749086N12002439WA0206902145
B2007424749087N12002431WA0206802144
B2007434749089N12002424WA0206702143
B2007444749090N12002417WA0206602141
B2007454749092N12002409WA0206502139
B2007464749092N12002400WA0206302136
B2007474749093N12002390WA0206202132
B2007484749093N12002380WA0206002129
B2007494749093N12002371WA0205802127
B2007504749093N12002363WA0205602126
B2007514749093N12002355WA0205502125
B2007524749092N12002348WA0205302123
B2007534749092N12002341WA0205102121
B2007544749091N12002334WA0204902118
B2007554749090N12002328WA0204702115
B2007564749089N12002322WA0204402113
B2007574749088N12002315WA0204202110
B2007584749088N12002308WA0203902107
B2007594749088N12002301WA0203702102
B2008004749087N12002292WA0203402095
B2008014749086N12002282WA0203102089
B2008024749083N12002273WA0202702085
B2008034749082N12002265WA0202502083
B2008044749080N12002257WA0202102082
B2008054749079N12002249WA0201902081
B2008064749077N12002242WA0201602079
B2008074749075N12002235WA0201402076
B2008084749073N12002230WA0201102073
B2008094749070N12002225WA0200902070
B2008104749069N12002221WA0200602070
B2008104749069N12002221WA0200602070
B2008114749068N12002216WA0200402069
B2008124749067N12002212WA0200102068
B2008134749067N12002207WA0200002066
B2008144749065N12002202WA0199702062
B2008154749063N12002196WA0199502058
B2008164749061N12002190WA0199202055
B2008174749058N12002185WA0199002053
B2008184749057N12002180WA0198702052
B2008194749056N12002175WA0198502051
B2008204749055N12002170WA0198202047
B2008214749054N12002163WA0197902042
B2008224749052N12002157WA0197602037
B2008234749050N12002150WA0197302033
B2008244749048N12002143WA0197002030
B2008254749046N12002137WA0196702028
B2008264749045N12002132WA0196402026
B2008274749043N12002126WA0196202023
B2008284749042N12002121WA0195802020
B2008294749039N12002116WA0195602016
B2008304749037N12002111WA0195202012
B2008314749035N12002105WA0194902009
B2008324749032N12002100WA0194602006
B2008334749029N12002094WA0194302003
B2008344749027N12002090WA0194002002
B2008354749025N12002085WA0193802000
B2008364749023N12002079WA0193501999
B2008374749021N12002074WA0193301997
B2008384749019N12002069WA0193001994
B2008394749017N12002063WA0192801991
B2008404749014N12002057WA0192501989
B2008414749012N12002051WA0192301987
B2008424749010N12002046WA0192101986
B2008434749008N12002041WA0191901985
B2008444749006N12002036WA0191701984
B2008454749004N12002032WA0191501982
B2008464749002N12002026WA0191301979
B2008474748999N12002021WA0191201977
B2008484748996N12002016WA0190901976
B2008494748994N12002011WA0190801974
B2008504748992N12002006WA0190601973
B2008514748989N12002001WA0190501972
B2008524748986N12001996WA0190301970
B2008534748983N12001991WA0190101968
B2008544748980N12001986WA0190001967
B2008554748977N12001981WA0189801966
B2008564748975N12001976WA0189601965
B2008574748972N12001970WA0189501963
B2008584748969N12001964WA0189301961
B2008594748965N12001958WA0189201958
B2009004748961N12001952WA0189001956
B2009014748958N12001946WA0188801955
B2009024748955N12001939WA0188601954
B2009034748951N12001933WA0188501954
B2009044748948N12001927WA0188301953
B2009054748945N12001921WA0188201953
B2009064748941N12001915WA0188101952
B2009074748938N12001909WA0188001953
B2009084748935N12001904WA0187901953
B2009094748932N12001898WA0187901952
B2009104748928N12001892WA0187801952
B2009114748925N12001887WA0187801952
B2009124748922N12001881WA0187701952
B2009134748918N12001875WA0187701952
B2009144748915N12001869WA0187701953
B2009144748915N12001869WA0187701953
B2009154748911N12001864WA0187701953
B2009164748907N12001858WA0187701952
B2009174748903N12001853WA0187701952
B2009184748900N12001847WA0187601952
B2009194748896N12001841WA0187601951
B2009204748893N12001834WA0187601950
B2009214748889N12001827WA0187501950
B2009224748886N12001821WA0187501949
B2009234748882N12001814WA0187401948
B2009244748879N12001808WA0187401947
B2009254748875N12001802WA0187301946
B2009264748872N12001797WA0187201945
B2009274748869N12001790WA0187201944
B2009284748866N12001784WA0187001942
B2009294748862N12001777WA0187001942
B2009304748859N12001771WA0186901941
B2009314748855N12001765WA0186801940
B2009324748852N12001759WA0186701940
B2009334748848N12001754WA0186601939
B2009344748845N12001750WA0186501938
B2009354748841N12001745WA0186401936
B2009364748836N12001740WA0186301932
B2009374748832N12001734WA0186101929
B2009384748827N12001728WA0185901927
B2009394748822N12001722WA0185801925
B2009404748820N12001717WA0185601925
B2009414748819N12001712WA0185601930
B2009424748819N12001710WA0185501932
B2009434748819N12001707WA0185401931
B2009444748818N12001704WA0185301929
B2009454748816N12001699WA0185201926
B2009464748813N12001693WA0185101922
B2009474748810N12001687WA0184901920
B2009484748808N12001681WA0184801920
B2009494748807N12001677WA0184701920
B2009504748805N12001673WA0184501920
B2009514748804N12001670WA0184501919
B2009524748802N12001666WA0184301917
B2009534748799N12001661WA0184201914
B2009544748796N12001657WA0184001912
B2009554748794N12001652WA0183901911
B2009564748793N12001648WA0183701911
B2009574748792N12001644WA0183701911
B2009584748790N12001641WA0183501910
B2009594748789N12001639WA0183501908
B2010004748787N12001636WA0183301906
B2010014748784N12001632WA0183201905
B2010024748782N12001628WA0183101904
B2010034748780N12001624WA0183001904
B2010044748778N12001621WA0182901903
B2010054748776N12001617WA0182801902
B2010064748774N12001613WA0182701901
B2010074748772N12001609WA0182601900
B2010084748770N12001603WA0182501899
B2010094748767N12001598WA0182401897
B2010104748764N12001592WA0182301896
B2010114748762N12001585WA0182201895
B2010124748760N12001579WA0182101895
B2010134748759N12001573WA0182001895
B2010144748758N12001567WA0182001895
B2010154748756N12001561WA0181901895
B2010164748755N12001554WA0181801894
B2010174748753N12001547WA0181801893
B2010184748750N12001540WA0181701892
B2010194748748N12001533WA0181601892
B2010194748748N12001533WA0181601892
B2010204748746N12001526WA0181601892
B2010214748743N12001519WA0181501891
B2010224748740N12001511WA0181501890
B2010234748737N12001504WA0181401888
B2010244748733N12001497WA0181301887
B2010254748728N12001492WA0181201886
B2010264748724N12001487WA0181101885
B2010274748719N12001482WA0181101884
B2010284748715N12001477WA0180901883
B2010294748712N12001472WA0180901882
B2010304748708N12001466WA0180801882
B2010314748705N12001460WA0180701880
B2010324748702N12001454WA0180601879
B2010334748699N12001447WA0180501877
B2010344748696N12001441WA0180301875
B2010354748693N12001435WA0180201873
B2010364748689N12001429WA0180101872
B2010374748687N12001424WA0180001873
B2010384748687N12001420WA0179901876
B2010394748688N12001416WA0179901877
B2010404748689N12001413WA0179801876
B2010414748690N12001408WA0179801874
B2010424748689N12001403WA0179601871
B2010434748687N12001398WA0179601870
B2010444748685N12001393WA0179401869
B2010454748683N12001389WA0179401869
B2010464748681N12001384WA0179301869
B2010474748680N12001380WA0179301869
B2010484748678N12001376WA0179201868
B2010494748677N12001371WA0179201868
B2010504748677N12001366WA0179101866
B2010514748676N12001361WA0179001865
B2010524748675N12001356WA0178901863
B2010534748673N12001352WA0178801862
B2010544748671N12001348WA0178701861
B2010554748670N12001343WA0178601859
B2010564748669N12001339WA0178501858
B2010574748668N12001334WA0178401856
B2010584748667N12001330WA0178201853
B2010594748666N12001325WA0178101851
B2011004748664N12001319WA0177901848
B2011014748663N12001314WA0177701846
B2011024748661N12001309WA0177501844
B2011034748660N12001304WA0177401841
B2011044748659N12001299WA0177101838
B2011054748657N12001294WA0176901834
B2011064748655N12001289WA0176701830
B2011074748653N12001284WA0176501827
B2011084748651N12001280WA0176201824
B2011094748650N12001275WA0175901822
B2011104748649N12001271WA0175601819
B2011114748648N12001266WA0175401814
B2011124748647N12001261WA0175001809
B2011134748645N12001255WA0174801803
B2011144748643N12001251WA0174401799
B2011154748642N12001247WA0174201799
B2011164748642N12001245WA0173901800
B2011174748644N12001243WA0173701800
B2011184748645N12001240WA0173401798
B2011194748644N12001236WA0173301795
B2011204748643N12001230WA0173001791
B2011214748641N12001223WA0172801788
B2011224748639N12001215WA0172501787
B2011234748638N12001208WA0172401788
B2011234748638N12001208WA0172401788
B2011244748637N12001201WA0172201789
B2011254748637N12001195WA0172101789
B2011264748635N12001188WA0172001788
B2011274748634N12001182WA0171901786
B2011284748632N12001176WA0171801785
B2011294748629N12001170WA0171701783
B2011304748627N12001165WA0171501782
B2011314748625N12001160WA0171401781
B2011324748624N12001155WA0171301780
B2011334748622N12001150WA0171201778
B2011344748620N12001145WA0171001776
B2011354748618N12001140WA0170901773
B2011364748617N12001134WA0170701770
B2011374748616N12001129WA0170501767
B2011384748615N12001123WA0170201763
B2011394748614N12001117WA0170001759
B2011404748612N12001111WA0169701754
B2011414748609N12001104WA0169401748
B2011424748606N12001098WA0169001743
B2011434748603N12001091WA0168701739
B2011444748601N12001084WA0168301736
B2011454748598N12001077WA0168001732
B2011464748595N12001070WA0167601728
B2011474748592N12001062WA0167301724
B2011484748590N12001054WA0166801720
B2011494748586N12001045WA0166501716
B2011504748583N12001037WA0166101715
B2011514748580N12001030WA0165901716
B2011524748578N12001024WA0165601715
B2011534748576N12001017WA0165401714
B2011544748575N12001011WA0165101712
B2011554748573N12001005WA0164901709
B2011564748571N12000998WA0164601706
B2011574748568N12000991WA0164401703
B2011584748565N12000985WA0164101701
B2011594748563N12000979WA0163901698
B2012004748560N12000973WA0163601696
B2012014748557N12000967WA0163401693
B2012024748553N12000962WA0163101690
B2012034748550N12000956WA0162901687
B2012044748546N12000950WA0162601685
B2012054748544N12000945WA0162401684
B2012064748541N12000939WA0162101682
B2012074748538N12000933WA0162001680
B2012084748535N12000926WA0161701677
B2012094748532N12000918WA0161501674
B2012104748527N12000910WA0161201669
B2012114748523N12000901WA0161001665
B2012124748518N12000893WA0160601660
B2012134748513N12000885WA0160401656
B2012144748509N12000879WA0160001654
B2012154748506N12000874WA0159801652
B2012164748504N12000869WA0159501651
B2012174748501N12000864WA0159301647
B2012184748498N12000859WA0158901643
B2012194748495N12000855WA0158601638
B2012204748490N12000850WA0158201633
B2012214748486N12000845WA0158001628
B2012224748481N12000840WA0157501623
B2012234748476N12000835WA0157201618
B2012244748471N12000830WA0156701614
B2012254748467N12000826WA0156401609
B2012264748461N12000823WA0156001605
B2012264748461N12000823WA0156001605
B2012274748456N12000819WA0155701600
B2012284748451N12000815WA0155201596
B2012294748446N12000811WA0154901591
B2012304748440N12000806WA0154401586
B2012314748436N12000800WA0154101580
B2012324748431N12000795WA0153601575
B2012334748427N12000790WA0153301571
B2012344748424N12000786WA0152801566
B2012354748421N12000782WA0152501563
B2012364748419N12000779WA0152001560
B2012374748418N12000776WA0151701557
B2012384748416N12000772WA0151301552
B2012394748413N12000768WA0150901546
B2012404748411N12000762WA0150401541
B2012414748409N12000757WA0150101536
B2012424748407N12000752WA0149601532
B2012434748405N12000747WA0149301527
B2012444748402N12000743WA0148801522
B2012454748399N12000739WA0148401518
B2012464748396N12000735WA0147901513
B2012474748394N12000731WA0147601508
B2012484748391N12000726WA0147101503
B2012494748388N12000722WA0146701499
B2012504748385N12000718WA0146301495
B2012514748382N12000713WA0145901491
B2012524748379N12000709WA0145501487
B2012534748376N12000705WA0145101481
B2012544748371N12000700WA0144601475
B2012554748366N12000695WA0144301470
B2012564748362N12000691WA0143701466
B2012574748358N12000689WA0143401464
B2012584748356N12000688WA0143001464
B2012594748356N12000687WA0142801463
B2013004748355N12000686WA0142401461
B2013014748353N12000684WA0142101457
B2013024748350N12000682WA0141701452
B2013034748346N12000679WA0141401447
B2013044748342N12000675WA0141001444
B2013054748339N12000672WA0140701443
B2013064748336N12000669WA0140401442
B2013074748335N12000665WA0140201441
B2013084748333N12000662WA0139901440
B2013094748331N12000658WA0139701438
B2013104748328N12000655WA0139401436
B2013114748325N12000651WA0139201433
B2013124748321N12000648WA0139001432
B2013134748319N12000646WA0138801431
B2013144748317N12000644WA0138601431
B2013154748315N12000641WA0138501429
B2013164748313N12000638WA0138301427
B2013174748310N12000634WA0138101424
B2013184748307N12000630WA0137901421
B2013194748304N12000626WA0137701418
B2013204748301N12000622WA0137501417
B2013214748298N12000618WA0137301415
B2013224748296N12000613WA0137101415
B2013234748295N12000609WA0137001414
B2013244748294N12000605WA0136801413
B2013254748294N12000601WA0136701410
B2013264748292N12000597WA0136401407
B2013274748290N12000591WA0136301402
B2013284748288N12000584WA0136001397
B2013294748285N12000577WA0135801394
B2013304748283N12000571WA0135501392
B2013304748283N12000571WA0135501392
B2013314748282N12000565WA0135401392
B2013324748281N12000559WA0135101391
B2013334748278N12000553WA0134901388
B2013344748276N12000547WA0134601383
B2013354748272N12000540WA0134401379
B2013364748269N12000533WA0134101376
B2013374748266N12000527WA0133901374
B2013384748264N12000521WA0133701373
B2013394748261N12000515WA0133501372
B2013404748259N12000510WA0133201370
B2013414748256N12000504WA0133001367
B2013424748252N12000498WA0132801364
B2013434748249N12000492WA0132601361
B2013444748245N12000486WA0132301360
B2013454748242N12000481WA0132201358
B2013464748239N12000476WA0131901357
B2013474748237N12000471WA0131801355
B2013484748234N12000466WA0131501352
B2013494748230N12000461WA0131301348
B2013504748227N12000456WA0131001345
B2013514748223N12000450WA0130801342
B2013524748219N12000446WA0130501340
B2013534748216N12000442WA0130401338
B2013544748213N12000439WA0130101336
B2013554748210N12000436WA0129901333
B2013564748207N12000433WA0129601330
B2013574748203N12000429WA0129401327
B2013584748199N12000426WA0129101324
B2013594748196N12000422WA0128901322
B2014004748193N12000417WA0128601319
B2014014748190N12000412WA0128401317
B2014024748187N12000407WA0128101314
B2014034748184N12000401WA0127901311
B2014044748181N12000395WA0127601308
B2014054748179N12000390WA0127401305
B2014064748176N12000384WA0127101302
B2014074748174N12000377WA0126901297
B2014084748171N12000370WA0126501293
B2014094748169N12000363WA0126301289
B2014104748166N12000355WA0125901285
B2014114748163N12000348WA0125601281
B2014124748160N12000341WA0125201277
B2014134748157N12000333WA0125001273
B2014144748154N12000325WA0124601270
B2014154748151N12000318WA0124301268
B2014164748148N12000311WA0124001265
B2014174748144N12000304WA0123701263
B2014184748141N12000298WA0123401260
B2014194748137N12000291WA0123101257
B2014204748132N12000285WA0122801253
B2014214748128N12000278WA0122601251
B2014224748124N12000272WA0122201249
B2014234748120N12000266WA0122001247
B2014244748116N12000260WA0121701246
B2014254748112N12000254WA0121601245
B2014264748109N12000249WA0121301244
B2014274748105N12000244WA0121201244
B2014284748102N12000238WA0121001243
B2014294748098N12000232WA0120801241
B2014304748094N12000225WA0120601238
B2014314748091N12000218WA0120401236
B2014324748086N12000211WA0120201233
B2014334748082N12000204WA0120101232
B2014344748078N12000197WA0119801230
B2014344748078N12000197WA0119801230
B2014354748074N12000190WA0119701230
B2014364748071N12000183WA0119501229
B2014374748067N12000176WA0119401228
B2014384748064N12000169WA0119301226
B2014394748060N12000162WA0119101225
B2014404748056N12000154WA0119001223
B2014414748053N12000147WA0118901222
B2014424748050N12000140WA0118701222
B2014434748047N12000133WA0118601221
B2014444748044N12000126WA0118501220
B2014454748041N12000118WA0118401218
B2014464748039N12000110WA0118201216
B2014474748036N12000103WA0118101214
B2014484748033N12000095WA0118001213
B2014494748030N12000087WA0117901212
B2014504748027N12000080WA0117701210
B2014514748024N12000072WA0117601209
B2014524748021N12000063WA0117401207
B2014534748017N12000055WA0117301206
B2014544748014N12000047WA0117201205
B2014554748011N12000039WA0117101204
B2014564748008N12000031WA0117001204
B2014574748006N12000024WA0117001204
B2014584748003N12000016WA0116901204
B2014594748001N12000009WA0116801203
B2015004747998N12000001WA0116701202
B2015014747995N11959994WA0116701200
B2015024747992N11959987WA0116501199
B2015034747988N11959980WA0116501198
B2015044747985N11959972WA0116401197
B2015054747982N11959965WA0116301196
B2015064747979N11959958WA0116201196
B2015074747976N11959951WA0116101196
B2015084747974N11959945WA0116001195
B2015094747971N11959938WA0115901194
B2015104747969N11959932WA0115801192
B2015114747966N11959925WA0115701192
B2015124747964N11959919WA0115601192
B2015134747962N11959915WA0115601192
B2015144747960N11959910WA0115501193
B2015154747958N11959905WA0115401192
B2015164747957N11959899WA0115301191
B2015174747955N11959892WA0115301189
B2015184747954N11959886WA0115201189
B2015194747953N11959879WA0115101189
B2015204747951N11959873WA0115101189
B2015214747949N11959869WA0115001189
B2015224747946N11959865WA0115001189
B2015234747943N11959862WA0114901188
B2015244747940N11959858WA0114901187
B2015254747936N11959853WA0114801185
B2015264747934N11959847WA0114701184
B2015274747931N11959841WA0114701184
B2015284747929N11959836WA0114601185
B2015294747929N11959831WA0114601186
B2015304747929N11959826WA0114601186
B2015314747929N11959819WA0114601184
B2015324747930N11959812WA0114501183
B2015334747930N11959804WA0114501181
B2015344747932N11959797WA0114401181
B2015354747933N11959791WA0114401180
B2015364747935N11959785WA0114301179
B2015374747936N11959779WA0114201177
B2015384747937N11959771WA0114101175
B2015384747937N11959771WA0114101175
B2015394747938N11959762WA0114001173
B2015404747938N11959754WA0113901171
B2015414747938N11959746WA0113801171
B2015424747938N11959739WA0113701171
B2015434747938N11959732WA0113601171
B2015444747939N11959725WA0113501171
B2015454747939N11959717WA0113501169
B2015464747940N11959709WA0113401168
B2015474747940N11959700WA0113301167
B2015484747941N11959692WA0113201167
B2015494747942N11959685WA0113201167
B2015504747944N11959678WA0113101168
B2015514747946N11959671WA0113101168
B2015524747947N11959663WA0113101167
B2015534747948N11959655WA0113001167
B2015544747949N11959647WA0113001167
B2015554747950N11959639WA0113001167
B2015564747951N11959632WA0112901168
B2015574747953N11959625WA0112901168
B2015584747955N11959618WA0112901168
B2015594747957N11959611WA0112901168
B2016004747958N11959604WA0112901168
B2016014747960N11959596WA0112901168
B2016024747962N11959589WA0112801168
B2016034747963N11959582WA0112801168
B2016044747965N11959575WA0112801168
B2016054747966N11959568WA0112801167
B2016064747966N11959560WA0112801166
B2016074747966N11959552WA0112801166
B2016084747967N11959545WA0112801166
B2016094747967N11959537WA0112701166
B2016104747968N11959530WA0112701167
B2016114747969N11959522WA0112701166
B2016124747970N11959515WA0112701166
B2016134747971N11959507WA0112701165
B2016144747971N11959498WA0112701165
B2016154747972N11959491WA0112701165
B2016164747975N11959485WA0112701165
B2016174747979N11959479WA0112701165
B2016184747984N11959475WA0112601164
B2016194747990N11959471WA0112601164
B2016204747996N11959467WA0112601163
B2016214748002N11959464WA0112601163
B2016224748008N11959462WA0112601164
B2016234748014N11959460WA0112501163
B2016244748020N11959457WA0112501162
B2016254748025N11959452WA0112401161
B2016264748028N11959444WA0112401160
B2016274748031N11959435WA0112301159
B2016284748032N11959427WA0112201158
B2016294748033N11959419WA0112201158
B2016304748033N11959412WA0112101158
B2016314748033N11959404WA0112101157
B2016324748033N11959396WA0112001156
B2016334748033N11959388WA0112001155
B2016344748034N11959380WA0111901154
B2016354748035N11959372WA0111801153
B2016364748036N11959364WA0111701151
B2016374748036N11959356WA0111601150
B2016384748037N11959347WA0111501149
B2016394748038N11959339WA0111401147
B2016404748040N11959330WA0111301146
B2016414748041N11959323WA0111201145
B2016424748042N11959315WA0111101143
B2016424748042N11959315WA0111101143
B2016434748044N11959307WA0111001141
B2016444748044N11959297WA0110801138
B2016454748044N11959288WA0110701136
B2016464748043N11959279WA0110501135
B2016474748040N11959271WA0110501134
B2016484748038N11959265WA0110301134
B2016494748035N11959259WA0110201134
B2016504748033N11959254WA0110101133
B2016514748030N11959248WA0110001132
B2016524748027N11959242WA0109901131
B2016534748025N11959234WA0109801130
B2016544748023N11959225WA0109701128
B2016554748021N11959216WA0109601128
B2016564748019N11959208WA0109501129
B2016574748018N11959201WA0109501130
B2016584748019N11959194WA0109501131
B2016594748022N11959187WA0109401130
B2017004748026N11959180WA0109301127
B2017014748033N11959174WA0109301124
B2017024748040N11959169WA0109101123
B2017034748047N11959166WA0109001122
B2017044748053N11959166WA0108901123
B2017054748058N11959167WA0108901124
B2017064748063N11959171WA0108801123
B2017074748068N11959176WA0108701123
B2017084748071N11959183WA0108601121
B2017094748074N11959191WA0108501119
B2017104748076N11959199WA0108401118
B2017114748078N11959207WA0108301117
B2017124748078N11959215WA0108201115
B2017134748077N11959222WA0108101114
B2017144748074N11959227WA0108001114
B2017154748071N11959231WA0108001114
B2017164748067N11959234WA0107901113
B2017174748063N11959236WA0107901113
B2017184748058N11959237WA0107801113
B2017194748054N11959237WA0107801112
B2017204748050N11959237WA0107701112
B2017214748045N11959235WA0107701112
B2017224748041N11959233WA0107601111
B2017234748037N11959230WA0107601112
B2017244748034N11959227WA0107601112
B2017254748031N11959224WA0107601112
B2017264748028N11959221WA0107501113
B2017274748025N11959218WA0107501112
B2017284748023N11959213WA0107501112
B2017294748020N11959208WA0107501110
B2017304748018N11959202WA0107401109
B2017314748016N11959197WA0107401109
B2017324748013N11959192WA0107301108
B2017334748010N11959188WA0107301108
B2017344748007N11959184WA0107201107
B2017354748004N11959181WA0107201106
B2017364747999N11959177WA0107101105
B2017374747995N11959175WA0107001104
B2017384747991N11959173WA0106901104
B2017394747987N11959172WA0106901103
B2017404747983N11959171WA0106801102
B2017414747979N11959169WA0106701100
B2017424747974N11959167WA0106601098
B2017434747970N11959165WA0106501096
B2017444747966N11959164WA0106401095
B2017454747962N11959162WA0106301094
B2017464747958N11959160WA0106201092
B2017464747958N11959160WA0106201092
B2017474747954N11959156WA0106101089
B2017484747949N11959153WA0105901087
B2017494747945N11959149WA0105801085
B2017504747941N11959146WA0105601085
B2017514747938N11959142WA0105501085
B2017524747935N11959138WA0105401085
B2017534747933N11959133WA0105301083
B2017544747931N11959128WA0105201082
B2017554747930N11959122WA0105101081
B2017564747928N11959116WA0104901080
B2017574747925N11959111WA0104801078
B2017584747922N11959107WA0104701075
B2017594747919N11959101WA0104501072
B2018004747917N11959094WA0104301070
B2018014747916N11959086WA0104201068
B2018024747918N11959077WA0104001065
B2018034747921N11959070WA0103901062
B2018044747925N11959064WA0103601060
B2018054747930N11959059WA0103501059
B2018064747936N11959054WA0103301058
B2018074747941N11959052WA0103201056
B2018084747947N11959050WA0103001054
B2018094747953N11959049WA0102801052
B2018104747960N11959050WA0102601050
B2018114747966N11959052WA0102501048
B2018124747972N11959056WA0102201046
B2018134747978N11959060WA0102101044
B2018144747983N11959065WA0101901041
B2018154747988N11959071WA0101701039
B2018164747992N11959078WA0101501037
B2018174747996N11959086WA0101301036
B2018184747998N11959094WA0101101036
B2018194748000N11959101WA0101001035
B2018204748002N11959108WA0100801035
B2018214748003N11959116WA0100701034
B2018224748003N11959123WA0100601033
B2018234748002N11959130WA0100501031
B2018244748001N11959138WA0100301029
B2018254748000N11959145WA0100201027
B2018264747998N11959152WA0100001026
B2018274747995N11959157WA0099901025
B2018284747992N11959163WA0099801023
B2018294747988N11959168WA0099701022
B2018304747985N11959172WA0099501020
B2018314747981N11959177WA0099401018
B2018324747977N11959181WA0099201017
B2018334747972N11959184WA0099101015
B2018344747968N11959185WA0099001014
B2018354747963N11959185WA0098801013
B2018364747959N11959184WA0098701011
B2018374747955N11959182WA0098501010
B2018384747952N11959178WA0098401009
B2018394747950N11959173WA0098301008
B2018404747949N11959166WA0098101006
B2018414747948N11959159WA0098001003
B2018424747948N11959150WA0097801001
B2018434747949N11959141WA0097700998
B2018444747952N11959133WA0097500996
B2018454747955N11959125WA0097300995
B2018464747958N11959119WA0097200994
B2018474747962N11959115WA0097000994
B2018484747966N11959110WA0096900992
B2018494747971N11959104WA0096700990
B2018504747975N11959098WA0096500987
B2018504747975N11959098WA0096500987
B2018514747979N11959091WA0096400985
B2018524747983N11959085WA0096200984
B2018534747986N11959078WA0096000982
B2018544747990N11959071WA0095800981
B2018554747994N11959065WA0095700979
B2018564747998N11959059WA0095500976
B2018574748003N11959053WA0095300974
B2018584748008N11959047WA0095100971
B2018594748014N11959043WA0095000969
B2019004748019N11959039WA0094800967
B2019014748025N11959038WA0094600966
B2019024748031N11959040WA0094400964
B2019034748036N11959044WA0094300962
B2019044748041N11959050WA0094000960
B2019054748045N11959056WA0093900958
B2019064748050N11959063WA0093700958
B2019074748053N11959068WA0093600957
B2019084748057N11959073WA0093400957
B2019094748060N11959078WA0093300956
B2019104748063N11959084WA0093100955
B2019114748065N11959092WA0093000953
B2019124748066N11959099WA0092900952
B2019134748067N11959107WA0092800951
B2019144748068N11959115WA0092600950
B2019154748069N11959122WA0092500950
B2019164748069N11959130WA0092400949
B2019174748068N11959138WA0092300948
B2019184748067N11959145WA0092200947
B2019194748066N11959152WA0092200947
B2019204748064N11959159WA0092100946
B2019214748063N11959165WA0092000946
B2019224748061N11959171WA0091900945
B2019234748059N11959177WA0091900944
B2019244748057N11959183WA0091800944
B2019254748055N11959189WA0091800943
B2019264748052N11959194WA0091700941
B2019274748050N11959199WA0091600940
B2019284748046N11959202WA0091500938
B2019294748043N11959204WA0091400936
B2019304748039N11959204WA0091300935
B2019314748035N11959200WA0091200933
B2019324748032N11959194WA0091000930
B2019334748030N11959186WA0090900927
B2019344748029N11959179WA0090700925
B2019354748028N11959173WA0090600924
B2019364748027N11959166WA0090400924
B2019374748028N11959160WA0090300923
B2019384748028N11959154WA0090200922
B2019394748029N11959147WA0090100920
B2019404748029N11959140WA0089900918
B2019414748029N11959132WA0089800916
B2019424748030N11959123WA0089600914
B2019434748032N11959115WA0089500912
B2019444748033N11959108WA0089300910
B2019454748036N11959101WA0089200909
B2019464748038N11959094WA0089000907
B2019474748041N11959086WA0088800905
B2019484748043N11959079WA0088600903
B2019494748046N11959071WA0088500902
B2019504748049N11959064WA0088300900
B2019514748052N11959057WA0088200899
B2019524748055N11959050WA0088000898
B2019534748057N11959043WA0087900896
B2019544748059N11959035WA0087700894
B2019554748061N11959027WA0087600893
B2019554748061N11959027WA0087600893
B2019564748063N11959018WA0087400891
B2019574748065N11959009WA0087300888
B2019584748067N11959000WA0087100887
B2019594748069N11958992WA0087000886
B2020004748071N11958984WA0086800885
B2020014748073N11958977WA0086700884
B2020024748074N11958970WA0086600884
B2020034748075N11958963WA0086400883
B2020044748074N11958956WA0086300881
B2020054748071N11958949WA0086200879
B2020064748067N11958944WA0086000876
B2020074748063N11958940WA0085900874
B2020084748058N11958939WA0085700874
B2020094748053N11958937WA0085600873
B2020104748049N11958936WA0085500873
B2020114748044N11958935WA0085400872
B2020124748040N11958934WA0085200870
B2020134748035N11958933WA0085100868
B2020144748030N11958932WA0085000867
B2020154748025N11958931WA0084900866
B2020164748020N11958931WA0084700865
B2020174748016N11958930WA0084600864
B2020184748011N11958930WA0084500864
B2020194748007N11958930WA0084400862
B2020204748002N11958931WA0084300861
B2020214747996N11958932WA0084200859
B2020224747991N11958933WA0084100858
B2020234747986N11958935WA0084000857
B2020244747982N11958936WA0083800856
B2020254747978N11958937WA0083800856
B2020264747974N11958938WA0083700854
B2020274747969N11958939WA0083600853
B2020284747963N11958939WA0083400851
B2020294747958N11958940WA0083300850
B2020304747953N11958941WA0083200849
B2020314747948N11958941WA0083100848
B2020324747944N11958941WA0083000848
B2020334747940N11958941WA0083000847
B2020344747937N11958940WA0082900846
B2020354747933N11958939WA0082800844
B2020364747928N11958937WA0082600842
B2020374747923N11958935WA0082500839
B2020384747918N11958933WA0082300837
B2020394747913N11958931WA0082200835
B2020404747909N11958928WA0082000834
B2020414747905N11958926WA0081900833
B2020424747900N11958924WA0081700832
B2020434747895N11958922WA0081600830
B2020444747890N11958920WA0081500828
B2020454747885N11958917WA0081300828
B2020464747881N11958914WA0081200828
B2020474747877N11958911WA0081100828
B2020484747873N11958907WA0081000827
B2020494747870N11958902WA0080900826
B2020504747866N11958896WA0080800825
B2020514747862N11958890WA0080700824
B2020524747859N11958884WA0080600824
B2020534747857N11958878WA0080500823
B2020544747856N11958872WA0080400821
B2020554747855N11958865WA0080300819
B2020564747855N11958857WA0080200817
B2020574747855N11958849WA0080100815
B2020584747857N11958841WA0079900814
B2020594747860N11958835WA0079800812
B2020594747860N11958835WA0079800812
B2021004747864N11958829WA0079700810
B2021014747869N11958824WA0079500807
B2021024747873N11958820WA0079400805
B2021034747879N11958817WA0079200803
B2021044747884N11958815WA0079000802
B2021054747890N11958814WA0078900800
B2021064747896N11958814WA0078700798
B2021074747902N11958814WA0078500795
B2021084747909N11958815WA0078300793
B2021094747915N11958816WA0078200791
B2021104747920N11958818WA0077900789
B2021114747926N11958821WA0077800787
B2021124747932N11958824WA0077600785
B2021134747938N11958828WA0077400782
B2021144747944N11958832WA0077200780
B2021154747949N11958836WA0077000778
B2021164747954N11958841WA0076800777
B2021174747959N11958845WA0076600776
B2021184747963N11958850WA0076400775
B2021194747968N11958854WA0076300773
B2021204747973N11958859WA0076000771
B2021214747979N11958863WA0075900769
B2021224747984N11958866WA0075700767
B2021234747989N11958868WA0075600766
B2021244747994N11958870WA0075400764
B2021254748000N11958872WA0075200762
B2021264748006N11958874WA0075000760
B2021274748013N11958876WA0074800758
B2021284748019N11958879WA0074600756
B2021294748025N11958884WA0074500755
B2021304748030N11958889WA0074300754
B2021314748035N11958895WA0074200753
B2021324748040N11958901WA0074000752
B2021334748044N11958907WA0073900750
B2021344748049N11958913WA0073700749
B2021354748052N11958920WA0073600748
B2021364748056N11958927WA0073400748
B2021374748059N11958933WA0073300747
B2021384748063N11958941WA0073200745
B2021394748066N11958948WA0073100743
B2021404748069N11958956WA0072900741
B2021414748072N11958964WA0072800740
B2021424748075N11958972WA0072600738
B2021434748077N11958980WA0072500737
B2021444748079N11958987WA0072300737
B2021454748080N11958995WA0072200735
B2021464748082N11959003WA0072100733
B2021474748083N11959012WA0071900731
B2021484748084N11959020WA0071700729
B2021494748084N11959027WA0071600728
B2021504748084N11959034WA0071400727
B2021514748084N11959041WA0071300724
B2021524748084N11959049WA0071100721
B2021534748083N11959057WA0071000719
B2021544748082N11959065WA0070800718
B2021554748080N11959072WA0070600716
B2021564748078N11959079WA0070500715
B2021574748075N11959085WA0070300713
B2021584748073N11959091WA0070200712
B2021594748069N11959097WA0070100711
B2022004748066N11959102WA0069900710
B2022014748061N11959107WA0069800708
B2022024748057N11959112WA0069600707
B2022034748053N11959117WA0069500706
B2022044748049N11959122WA0069400705
B2022044748049N11959122WA0069400705
B2022054748045N11959127WA0069300704
B2022064748041N11959132WA0069200704
B2022074748037N11959136WA0069100703
B2022084748032N11959139WA0069000702
B2022094748027N11959141WA0068900701
B2022104748022N11959142WA0068700699
B2022114748017N11959141WA0068700698
B2022124748011N11959138WA0068500697
B2022134748005N11959133WA0068400694
B2022144748001N11959127WA0068300692
B2022154747997N11959119WA0068100689
B2022164747994N11959110WA0067900687
B2022174747993N11959101WA0067800685
B2022184747991N11959092WA0067600684
B2022194747990N11959083WA0067500683
B2022204747989N11959074WA0067300681
B2022214747988N11959065WA0067200679
B2022224747988N11959055WA0067000677
B2022234747989N11959047WA0066800675
B2022244747990N11959039WA0066600674
B2022254747992N11959032WA0066500672
B2022264747995N11959025WA0066300670
B2022274747997N11959018WA0066200668
B2022284748000N11959010WA0065900666
B2022294748002N11959002WA0065800664
B2022304748004N11958994WA0065600663
B2022314748006N11958987WA0065400662
B2022324748008N11958980WA0065300660
B2022334748010N11958972WA0065100659
B2022344748013N11958965WA0064900657
B2022354748015N11958957WA0064800655
B2022364748018N11958949WA0064600653
B2022374748021N11958941WA0064500651
B2022384748024N11958934WA0064300650
B2022394748027N11958927WA0064100648
B2022404748031N11958921WA0063900646
B2022414748036N11958915WA0063800645
B2022424748041N11958911WA0063600643
B2022434748046N11958909WA0063500643
B2022444748051N11958907WA0063400642
B2022454748056N11958905WA0063300641
B2022464748061N11958904WA0063100641
B2022474748066N11958901WA0063000640
B2022484748071N11958898WA0062900639
B2022494748075N11958893WA0062800637
B2022504748080N11958887WA0062600635
B2022514748084N11958880WA0062500634
B2022524748088N11958872WA0062400632
B2022534748091N11958866WA0062300632
B2022544748095N11958861WA0062100633
B2022554748100N11958858WA0062100632
B2022564748105N11958856WA0061900630
B2022574748110N11958857WA0061800628
B2022584748116N11958858WA0061700626
B2022594748122N11958859WA0061600624
B2023004748127N11958861WA0061400622
B2023014748132N11958864WA0061300621
B2023024748137N11958868WA0061100619
B2023034748142N11958873WA0061000617
B2023044748146N11958879WA0060800615
B2023054748149N11958885WA0060700614
B2023064748152N11958891WA0060600613
B2023074748154N11958897WA0060400612
B2023084748156N11958903WA0060300611
B2023084748156N11958903WA0060300611
B2023094748158N11958910WA0060200610
B2023104748159N11958917WA0060000608
B2023114748159N11958926WA0059900606
B2023124748158N11958934WA0059700604
B2023134748157N11958942WA0059600602
B2023144748156N11958949WA0059400601
B2023154748154N11958955WA0059300600
B2023164748151N11958961WA0059100598
B2023174748148N11958967WA0059000597
B2023184748145N11958972WA0058800595
B2023194748142N11958978WA0058700593
B2023204748140N11958985WA0058600592
B2023214748138N11958993WA0058400590
B2023224748138N11959001WA0058300589
B2023234748138N11959009WA0058200588
B2023244748139N11959017WA0058000586
B2023254748140N11959024WA0057900585
B2023264748143N11959031WA0057800584
B2023274748145N11959039WA0057700582
B2023284748148N11959046WA0057600581
B2023294748149N11959054WA0057500580
B2023304748150N11959061WA0057400579
B2023314748151N11959068WA0057300579
B2023324748152N11959075WA0057200578
B2023334748152N11959082WA0057100576
B2023344748152N11959090WA0057000575
B2023354748151N11959099WA0056900573
B2023364748150N11959107WA0056800571
B2023374748148N11959115WA0056700570
B2023384748145N11959123WA0056600569
B2023394748142N11959129WA0056500568
B2023404748139N11959135WA0056300567
B2023414748134N11959140WA0056200566
B2023424748129N11959145WA0056100564
B2023434748123N11959149WA0056000561
B2023444748116N11959152WA0055800560
B2023454748109N11959153WA0055700559
B2023464748103N11959152WA0055500559
B2023474748097N11959151WA0055400558
B2023484748092N11959147WA0055300557
B2023494748087N11959143WA0055200557
B2023504748083N11959138WA0055100556
B2023514748079N11959133WA0055000555
B2023524748075N11959128WA0054900554
B2023534748071N11959122WA0054800552
B2023544748067N11959117WA0054600550
B2023554748063N11959111WA0054500549
B2023564748060N11959105WA0054400548
B2023574748056N11959099WA0054300547
B2023584748053N11959094WA0054100546
B2023594748049N11959088WA0054000546
B2024004748045N11959083WA0053900544
B2024014748041N11959078WA0053800543
B2024024748036N11959072WA0053700541
B2024034748031N11959065WA0053600540
B2024044748027N11959059WA0053500539
B2024054748024N11959052WA0053400540
B2024064748021N11959047WA0053300541
B2024074748020N11959041WA0053300540
B2024084748018N11959035WA0053200539
B2024094748017N11959027WA0053100538
B2024104748015N11959020WA0053000536
B2024114748013N11959012WA0053000535
B2024124748011N11959005WA0052800534
B2024124748011N11959005WA0052800534
B2024134748009N11958998WA0052800533
B2024144748006N11958992WA0052700532
B2024154748004N11958986WA0052600531
B2024164748002N11958978WA0052400529
B2024174748001N11958970WA0052300527
B2024184748000N11958962WA0052100525
B2024194747999N11958953WA0052000523
B2024204747998N11958944WA0051900522
B2024214747999N11958935WA0051700521
B2024224748000N11958926WA0051600519
B2024234748002N11958918WA0051400518
B2024244748004N11958910WA0051300516
B2024254748006N11958901WA0051100514
B2024264748008N11958893WA0051000512
B2024274748012N11958885WA0050900511
B2024284748015N11958878WA0050700509
B2024294748019N11958872WA0050600508
B2024304748024N11958868WA0050400507
B2024314748029N11958864WA0050300505
B2024324748034N11958861WA0050200504
B2024334748039N11958858WA0050000502
B2024344748044N11958856WA0049900501
B2024354748049N11958854WA0049800499
B2024364748054N11958853WA0049600498
B2024374748058N11958851WA0049500496
B2024384748063N11958849WA0049400495
B2024394748067N11958846WA0049300494
B2024404748072N11958842WA0049100492
B2024414748076N11958837WA0049000491
B2024424748080N11958831WA0048800489
B2024434748083N11958825WA0048700488
B2024444748085N11958818WA0048500487
B2024454748088N11958811WA0048400485
B2024464748091N11958805WA0048200484
B2024474748094N11958800WA0048100483
B2024484748099N11958797WA0048000481
B2024494748104N11958796WA0047800479
B2024504748109N11958797WA0047600477
B2024514748115N11958800WA0047500474
B2024524748119N11958806WA0047300472
B2024534748122N11958812WA0047100470
B2024544748125N11958820WA0046900468
B2024554748127N11958827WA0046700466
B2024564748128N11958833WA0046500465
B2024574748130N11958839WA0046400464
B2024584748132N11958846WA0046200462
B2024594748134N11958852WA0046000460
B2025004748136N11958858WA0045800459
B2025014748139N11958865WA0045700457
B2025024748142N11958871WA0045500456
B2025034748145N11958878WA0045400454
B2025044748148N11958884WA0045200453
B2025054748151N11958890WA0045000452
B2025064748153N11958897WA0044900450
B2025074748155N11958904WA0044700449
B2025084748157N11958911WA0044600448
B2025094748159N11958918WA0044500447
B2025104748159N11958925WA0044400445
B2025114748160N11958933WA0044300444
B2025124748159N11958942WA0044100443
B2025134748157N11958950WA0044000443
B2025144748153N11958957WA0043900440
B2025154748149N11958964WA0043800439
B2025164748143N11958968WA0043600437
B2025164748143N11958968WA0043600437
B2025174748138N11958972WA0043500435
B2025184748133N11958976WA0043300433
B2025194748127N11958979WA0043200431
B2025204748122N11958982WA0043000430
B2025214748116N11958986WA0042800428
B2025224748111N11958989WA0042700428
B2025234748105N11958993WA0042600427
B2025244748099N11958995WA0042400425
B2025254748093N11958998WA0042300424
B2025264748087N11958999WA0042100422
B2025274748081N11959001WA0042000420
B2025284748075N11959002WA0041900419
B2025294748069N11959003WA0041800418
B2025304748063N11959004WA0041600417
B2025314748057N11959005WA0041500415
B2025324748050N11959005WA0041400413
B2025334748044N11959005WA0041200411
B2025344748038N11959005WA0041100409
B2025354748032N11959006WA0041000408
B2025364748026N11959007WA0040800407
B2025374748020N11959008WA0040700405
B2025384748014N11959011WA0040500402
B2025394748007N11959013WA0040300400
B2025404748000N11959015WA0040100399
B2025414747994N11959017WA0040000397
B2025424747988N11959019WA0039800396
B2025434747982N11959020WA0039700395
B2025444747976N11959021WA0039600394
B2025454747969N11959023WA0039500393
B2025464747963N11959024WA0039300391
B2025474747957N11959025WA0039200389
B2025484747951N11959026WA0039000388
B2025494747944N11959026WA0038900388
B2025504747939N11959027WA0038800387
B2025514747934N11959027WA0038700386
B2025524747928N11959027WA0038600384
B2025534747922N11959027WA0038500383
B2025544747916N11959026WA0038400381
B2025554747910N11959023WA0038300379
B2025564747905N11959018WA0038100377
B2025574747901N11959012WA0038000376
B2025584747899N11959005WA0037900375
B2025594747899N11958997WA0037800375
B2026004747901N11958990WA0037700373
B2026014747903N11958984WA0037600372
B2026024747906N11958978WA0037400370
B2026034747910N11958974WA0037300368
B2026044747914N11958970WA0037200368
B2026054747919N11958967WA0037100367
B2026064747923N11958965WA0037000365
B2026074747927N11958963WA0036900364
B2026084747932N11958965WA0036800363
B2026094747937N11958968WA0036700362
B2026104747940N11958975WA0036500360
B2026114747941N11958983WA0036500360
B2026124747940N11958991WA0036300358
B2026134747936N11958999WA0036200358
B2026144747932N11959005WA0036100356
B2026154747926N11959009WA0036000355
B2026164747921N11959010WA0035800355
B2026174747916N11959011WA0035700354
B2026184747910N11959011WA0035600353
B2026194747905N11959009WA0035500352
B2026204747899N11959007WA0035400350
B2026204747899N11959007WA0035400350
B2026214747894N11959006WA0035300350
B2026224747889N11959005WA0035100349
B2026234747884N11959005WA0035100348
B2026244747879N11959006WA0034900347
B2026254747875N11959008WA0034900346
B2026264747871N11959013WA0034700345
B2026274747869N11959021WA0034600344
B2026284747868N11959031WA0034500343
B2026294747868N11959041WA0034300343
B2026304747869N11959051WA0034200340
B2026314747869N11959057WA0034100337
B2026324747869N11959064WA0034000335
B2026334747869N11959071WA0033900332
B2026344747868N11959079WA0033700329
B2026354747865N11959086WA0033600328
B2026364747862N11959092WA0033400326
B2026374747858N11959098WA0033300326
B2026384747853N11959102WA0033200325
B2026394747848N11959105WA0033100324
B2026404747842N11959107WA0033000323
B2026414747836N11959107WA0032900321
B2026424747830N11959105WA0032700318
B2026434747825N11959102WA0032600317
B2026444747820N11959098WA0032500316
B2026454747817N11959094WA0032400314
B2026464747815N11959086WA0032200313
B2026474747814N11959078WA0032100311
B2026484747815N11959069WA0031900310
B2026494747819N11959063WA0031800308
B2026504747824N11959060WA0031700305
B2026514747829N11959065WA0031500304
B2026524747832N11959072WA0031300303
B2026534747832N11959080WA0031200301
B2026544747828N11959088WA0031000300
B2026554747823N11959092WA0030900298
B2026564747816N11959091WA0030700296
B2026574747811N11959087WA0030600292
B2026584747809N11959079WA0030400289
B2026594747810N11959070WA0030300287
B2027004747814N11959066WA0030100285
B2027014747819N11959064WA0030000281
B2027024747824N11959069WA0029800280
B2027034747827N11959076WA0029600280
B2027044747830N11959083WA0029400278
B2027054747831N11959089WA0029300276
B2027064747833N11959095WA0029100274
B2027074747834N11959101WA0029000272
B2027084747837N11959107WA0028900270
B2027094747839N11959113WA0028700268
B2027104747841N11959120WA0028600266
B2027114747843N11959126WA0028500264
B2027124747844N11959133WA0028300263
B2027134747845N11959138WA0028200262
B2027144747847N11959144WA0028100262
B2027154747849N11959149WA0028000260
B2027164747852N11959154WA0027800258
B2027174747855N11959159WA0027700258
B2027184747859N11959161WA0027500258
B2027194747863N11959162WA0027400257
B2027204747867N11959160WA0027300255
B2027214747870N11959155WA0027200253
B2027224747871N11959149WA0027000252
B2027234747872N11959143WA0026900252
B2027244747873N11959137WA0026800251
B2027244747873N11959137WA0026800251
B2027254747874N11959131WA0026700251
B2027264747876N11959127WA0026600251
B2027274747879N11959124WA0026500250
B2027284747884N11959125WA0026300249
B2027294747888N11959129WA0026200248
B2027304747892N11959133WA0026000247
B2027314747896N11959135WA0025900246
B2027324747900N11959134WA0025700246
B2027334747903N11959131WA0025600244
B2027344747904N11959126WA0025500243
B2027354747905N11959120WA0025400243
B2027364747906N11959113WA0025200241
B2027374747908N11959108WA0025200240
B2027384747910N11959104WA0025000239
B2027394747914N11959103WA0024900238
B2027404747919N11959104WA0024800238
B2027414747923N11959106WA0024700237
B2027424747927N11959107WA0024500237
B2027434747930N11959107WA0024400236
B2027444747933N11959107WA0024300236
B2027454747936N11959106WA0024200236
B2027464747940N11959104WA0024100237
B2027474747943N11959102WA0024000236
B2027484747946N11959101WA0023800235
B2027494747947N11959100WA0023700235
B2027504747948N11959100WA0023600234
B2027514747949N11959099WA0023600234
B2027524747948N11959099WA0023500233
B2027534747947N11959099WA0023400233
B2027544747947N11959099WA0023400232
B2027554747947N11959099WA0023300232
B2027564747947N11959099WA0023300232
B2027574747947N11959099WA0023200232
B2027584747947N11959099WA0023200232
B2027594747947N11959099WA0023200232
B2028004747947N11959098WA0023100232
B2028014747947N11959098WA0023100231
B2028024747947N11959098WA0023100231
B2028034747947N11959098WA0023100231
B2028044747947N11959098WA0023100230
B2028054747947N11959098WA0023100230
B2028064747947N11959098WA0023000230
B2028074747947N11959097WA0023000230
B2028084747947N11959097WA0023000230
B2028094747947N11959097WA0023000229
B2028104747947N11959097WA0023000229
B2028114747947N11959097WA0023000229
B2028124747947N11959097WA0023000229
B2028134747947N11959097WA0023000229
B2028144747947N11959097WA0023000229
B2028154747947N11959097WA0023000229
B2028164747947N11959097WA0023000229
B2028174747947N11959097WA0023000228
B2028184747947N11959097WA0023000228
B2028194747947N11959097WA0023000228
B2028204747947N11959097WA0023000228
B2028214747947N11959096WA0023000228
B2028224747947N11959096WA0023000228
B2028234747947N11959096WA0023000228
B2028244747947N11959096WA0023000227
B2028254747947N11959096WA0023000227
B2028264747947N11959096WA0023000226
B2028274747948N11959096WA0023000226
