AXFMSFP Flymaster Live, V1.0
HFFXA010
HFPLTPILOT:Carlos Avila
HFGTYGLIDERTYPE:Ozone Enzo3 / Ozone Submarine Red
HFGIDGLIDERID:
HFDTM100GPSDATUM:WGS-1984
HFCIDCOMPETITIONID:1111
HFCCLCOMPETITIONCLASS:
HOSITSITE:LAUNCH
HFGPS:UBLOXNEO6
HFPRSPRESSALTSENSOR:NA
HFRFWFIRMWAREVERSION:202g
HFRHWHARDWAREVERSION:1.0R2
HFFTYFRTYPE:FLYMASTER,LIVE
HFDTE240625
B2004594748241N12002328WA0108901131
B2005004748241N12002328WA0108901131
B2005014748241N12002328WA0108901131
B2005024748241N12002328WA0108901131
B2005034748242N12002328WA0108901131
B2005044748242N12002328WA0108901131
B2005054748241N12002328WA0108901131
B2005064748241N12002328WA0108901131
B2005074748241N12002328WA0108901131
B2005084748241N12002328WA0108901131
B2005094748241N12002328WA0108901131
B2005104748241N12002328WA0108901131
B2005114748241N12002328WA0108901130
B2005124748241N12002328WA0108901130
B2005134748241N12002328WA0108901130
B2005144748241N12002328WA0108901130
B2005154748242N12002328WA0108901130
B2005164748242N12002328WA0108901130
B2005174748242N12002328WA0108901130
B2005184748242N12002328WA0108901131
B2005194748242N12002328WA0108901131
B2005204748242N12002328WA0108901131
B2005214748242N12002328WA0108901131
B2005224748242N12002328WA0108901131
B2005234748242N12002328WA0108901131
B2005244748242N12002328WA0108901131
B2005254748242N12002328WA0108901131
B2005264748242N12002328WA0108901131
B2005274748242N12002328WA0108901131
B2005284748242N12002328WA0108901131
B2005294748242N12002328WA0108901131
B2005304748242N12002328WA0108901131
B2005314748242N12002328WA0108901131
B2005324748242N12002328WA0108901131
B2005334748242N12002328WA0108901131
B2005344748242N12002328WA0108901131
B2005354748242N12002328WA0108901131
B2005364748242N12002328WA0108901131
B2005374748242N12002328WA0108901131
B2005384748242N12002328WA0108901131
B2005394748242N12002328WA0108901131
B2005404748241N12002328WA0108901131
B2005414748241N12002328WA0108901131
B2005424748241N12002327WA0108901131
B2005434748241N12002328WA0108901131
B2005444748241N12002327WA0108901131
B2005454748242N12002327WA0108901131
B2005464748242N12002327WA0108901131
B2005474748242N12002328WA0108901131
B2005484748241N12002328WA0108901131
B2005494748240N12002328WA0108901131
B2005504748238N12002328WA0108901131
B2005514748238N12002328WA0108801128
B2005524748236N12002327WA0108801128
B2005534748235N12002327WA0108801127
B2005544748234N12002327WA0108801126
B2005554748232N12002327WA0108701126
B2005564748228N12002327WA0108701125
B2005574748225N12002327WA0108601125
B2005584748222N12002327WA0108601123
B2005594748218N12002327WA0108501123
B2006004748215N12002328WA0108501122
B2006014748211N12002330WA0108401119
B2006024748206N12002333WA0108301118
B2006024748206N12002333WA0108301118
B2006034748201N12002335WA0108201117
B2006044748197N12002337WA0108201118
B2006054748194N12002338WA0108101119
B2006064748190N12002339WA0108101119
B2006074748187N12002339WA0108101119
B2006084748183N12002340WA0108001119
B2006094748179N12002339WA0108001119
B2006104748175N12002338WA0108001119
B2006114748171N12002337WA0107901119
B2006124748167N12002335WA0107901119
B2006134748163N12002333WA0107901119
B2006144748159N12002333WA0107901120
B2006154748155N12002335WA0107901122
B2006164748151N12002338WA0107901124
B2006174748147N12002342WA0108001125
B2006184748143N12002345WA0108001126
B2006194748138N12002346WA0108101127
B2006204748133N12002347WA0108101127
B2006214748128N12002347WA0108101128
B2006224748123N12002347WA0108201129
B2006234748119N12002349WA0108301130
B2006244748114N12002351WA0108401132
B2006254748110N12002354WA0108401133
B2006264748106N12002357WA0108501134
B2006274748101N12002361WA0108601135
B2006284748096N12002365WA0108701137
B2006294748091N12002368WA0108801140
B2006304748087N12002370WA0109001144
B2006314748083N12002368WA0109201147
B2006324748080N12002363WA0109401149
B2006334748079N12002356WA0109501150
B2006344748080N12002348WA0109601151
B2006354748083N12002341WA0109701153
B2006364748088N12002336WA0109901156
B2006374748094N12002334WA0110001157
B2006384748100N12002334WA0110201158
B2006394748106N12002336WA0110301160
B2006404748111N12002340WA0110501163
B2006414748116N12002345WA0110701166
B2006424748120N12002352WA0110901169
B2006434748122N12002361WA0111101171
B2006444748123N12002371WA0111301172
B2006454748122N12002380WA0111401173
B2006464748119N12002388WA0111601177
B2006474748115N12002394WA0111801181
B2006484748111N12002396WA0112101186
B2006494748107N12002397WA0112301190
B2006504748104N12002397WA0112701193
B2006514748100N12002396WA0112901196
B2006524748096N12002395WA0113201198
B2006534748091N12002392WA0113401199
B2006544748088N12002387WA0113601201
B2006554748085N12002382WA0113801202
B2006564748083N12002375WA0114001204
B2006574748082N12002368WA0114201206
B2006584748082N12002361WA0114401208
B2006594748082N12002354WA0114501209
B2007004748081N12002347WA0114701210
B2007014748081N12002340WA0114801212
B2007024748081N12002334WA0115001213
B2007034748081N12002328WA0115101213
B2007044748080N12002321WA0115301213
B2007054748079N12002314WA0115401214
B2007064748077N12002308WA0115501216
B2007064748077N12002308WA0115501216
B2007074748077N12002302WA0115601219
B2007084748076N12002297WA0115901222
B2007094748076N12002292WA0116001224
B2007104748074N12002287WA0116201224
B2007114748072N12002281WA0116201224
B2007124748068N12002275WA0116401224
B2007134748065N12002271WA0116501227
B2007144748063N12002267WA0116701232
B2007154748062N12002265WA0116901237
B2007164748062N12002263WA0117201241
B2007174748061N12002259WA0117401243
B2007184748059N12002254WA0117701244
B2007194748057N12002248WA0117901245
B2007204748055N12002242WA0118101248
B2007214748054N12002235WA0118301252
B2007224748053N12002229WA0118601257
B2007234748052N12002223WA0118901261
B2007244748052N12002218WA0119201266
B2007254748052N12002213WA0119501269
B2007264748051N12002209WA0119801271
B2007274748050N12002205WA0120101273
B2007284748049N12002199WA0120401275
B2007294748048N12002193WA0120601276
B2007304748046N12002185WA0120901277
B2007314748042N12002180WA0121101279
B2007324748038N12002175WA0121301282
B2007334748034N12002172WA0121501285
B2007344748031N12002169WA0121901289
B2007354748028N12002164WA0122101293
B2007364748025N12002159WA0122401295
B2007374748021N12002153WA0122601297
B2007384748016N12002147WA0122801299
B2007394748012N12002141WA0123001303
B2007404748009N12002137WA0123301308
B2007414748006N12002132WA0123601313
B2007424748004N12002128WA0124001316
B2007434748002N12002123WA0124201318
B2007444747999N12002117WA0124501318
B2007454747996N12002110WA0124701319
B2007464747993N12002103WA0124901320
B2007474747990N12002095WA0125101322
B2007484747988N12002088WA0125301325
B2007494747985N12002082WA0125501328
B2007504747983N12002077WA0125801331
B2007514747981N12002072WA0126001333
B2007524747978N12002066WA0126301334
B2007534747975N12002059WA0126401335
B2007544747972N12002052WA0126701336
B2007554747968N12002046WA0126801338
B2007564747965N12002040WA0127001340
B2007574747963N12002035WA0127201343
B2007584747961N12002030WA0127501346
B2007594747959N12002025WA0127601347
B2008004747956N12002020WA0127801347
B2008014747953N12002014WA0127901346
B2008024747950N12002007WA0128101347
B2008034747948N12002001WA0128201347
B2008044747946N12001994WA0128301348
B2008054747944N12001989WA0128401350
B2008064747943N12001984WA0128601350
B2008074747941N12001979WA0128601350
B2008084747938N12001974WA0128701349
B2008094747935N12001968WA0128701347
B2008104747932N12001961WA0128701345
B2008104747932N12001961WA0128701345
B2008114747930N12001954WA0128701344
B2008124747928N12001947WA0128701344
B2008134747926N12001940WA0128701344
B2008144747924N12001933WA0128701344
B2008154747921N12001927WA0128701343
B2008164747919N12001921WA0128701345
B2008174747917N12001917WA0128801347
B2008184747915N12001913WA0128901350
B2008194747913N12001909WA0129001351
B2008204747910N12001905WA0129101353
B2008214747907N12001901WA0129101355
B2008224747903N12001897WA0129301356
B2008234747900N12001894WA0129401358
B2008244747898N12001889WA0129501360
B2008254747896N12001885WA0129601362
B2008264747894N12001880WA0129701363
B2008274747892N12001875WA0129801364
B2008284747889N12001870WA0129901363
B2008294747885N12001866WA0130001363
B2008304747881N12001863WA0130101364
B2008314747878N12001860WA0130101364
B2008324747875N12001858WA0130201365
B2008334747872N12001855WA0130301366
B2008344747869N12001852WA0130401366
B2008354747866N12001847WA0130501366
B2008364747862N12001843WA0130501365
B2008374747858N12001837WA0130601365
B2008384747855N12001832WA0130601366
B2008394747852N12001828WA0130701368
B2008404747850N12001823WA0130801370
B2008414747848N12001818WA0130901371
B2008424747846N12001813WA0131001371
B2008434747842N12001807WA0131101370
B2008444747837N12001802WA0131101370
B2008454747834N12001796WA0131201371
B2008464747831N12001790WA0131301374
B2008474747829N12001785WA0131401377
B2008484747828N12001779WA0131501379
B2008494747826N12001774WA0131601379
B2008504747823N12001767WA0131701378
B2008514747819N12001761WA0131701377
B2008524747815N12001754WA0131701376
B2008534747812N12001748WA0131801377
B2008544747810N12001742WA0131801379
B2008554747808N12001738WA0131901381
B2008564747807N12001735WA0132001382
B2008574747804N12001732WA0132101381
B2008584747802N12001728WA0132101379
B2008594747799N12001722WA0132101377
B2009004747797N12001716WA0132001375
B2009014747796N12001709WA0132001375
B2009024747796N12001703WA0132001375
B2009034747796N12001697WA0132001375
B2009044747797N12001691WA0131901374
B2009054747797N12001684WA0131901372
B2009064747796N12001676WA0131801369
B2009074747794N12001668WA0131701366
B2009084747793N12001660WA0131601365
B2009094747792N12001653WA0131501364
B2009104747791N12001647WA0131401364
B2009114747790N12001641WA0131401363
B2009124747790N12001634WA0131301362
B2009134747789N12001626WA0131201359
B2009144747788N12001617WA0131001357
B2009144747788N12001617WA0131001357
B2009154747788N12001608WA0130901356
B2009164747788N12001600WA0130801356
B2009174747788N12001593WA0130801356
B2009184747787N12001586WA0130701355
B2009194747786N12001579WA0130601354
B2009204747784N12001570WA0130501352
B2009214747783N12001560WA0130401350
B2009224747782N12001550WA0130301349
B2009234747780N12001541WA0130201350
B2009244747779N12001532WA0130101350
B2009254747777N12001524WA0130101351
B2009264747775N12001515WA0130001351
B2009274747774N12001507WA0130001350
B2009284747772N12001498WA0129901350
B2009294747770N12001490WA0129901351
B2009304747769N12001483WA0129901354
B2009314747768N12001476WA0129901356
B2009324747767N12001468WA0130001356
B2009334747766N12001460WA0130001355
B2009344747765N12001450WA0130001354
B2009354747764N12001439WA0130001353
B2009364747762N12001428WA0129901354
B2009374747760N12001418WA0130001356
B2009384747758N12001408WA0130101360
B2009394747757N12001399WA0130201363
B2009404747755N12001390WA0130301365
B2009414747753N12001381WA0130401367
B2009424747750N12001372WA0130601368
B2009434747747N12001362WA0130701371
B2009444747745N12001354WA0130901375
B2009454747743N12001346WA0131101380
B2009464747741N12001340WA0131401384
B2009474747739N12001333WA0131601387
B2009484747737N12001326WA0131801389
B2009494747735N12001316WA0132001390
B2009504747732N12001306WA0132201391
B2009514747730N12001297WA0132401394
B2009524747728N12001288WA0132601397
B2009534747726N12001280WA0132801401
B2009544747724N12001272WA0133101404
B2009554747722N12001262WA0133301406
B2009564747721N12001251WA0133501407
B2009574747719N12001240WA0133701409
B2009584747718N12001229WA0134001412
B2009594747716N12001220WA0134201416
B2010004747715N12001211WA0134501419
B2010014747714N12001203WA0134701421
B2010024747713N12001193WA0135001421
B2010034747712N12001181WA0135101420
B2010044747711N12001169WA0135301421
B2010054747711N12001158WA0135401425
B2010064747711N12001149WA0135701430
B2010074747711N12001140WA0135901435
B2010084747713N12001133WA0136301439
B2010094747715N12001125WA0136501442
B2010104747717N12001116WA0136801442
B2010114747719N12001105WA0136901441
B2010124747721N12001093WA0137101441
B2010134747722N12001082WA0137201441
B2010144747722N12001071WA0137401443
B2010154747723N12001062WA0137501444
B2010164747723N12001054WA0137701445
B2010174747723N12001048WA0137801445
B2010184747724N12001040WA0137901444
B2010194747725N12001032WA0138001441
B2010194747725N12001032WA0138001441
B2010204747726N12001023WA0137901438
B2010214747725N12001015WA0137901436
B2010224747724N12001008WA0137901436
B2010234747724N12001002WA0137901436
B2010244747725N12000996WA0137901436
B2010254747725N12000990WA0137901435
B2010264747725N12000982WA0137801434
B2010274747724N12000974WA0137801433
B2010284747724N12000966WA0137701432
B2010294747724N12000958WA0137701433
B2010304747724N12000950WA0137701434
B2010314747724N12000944WA0137701436
B2010324747724N12000937WA0137701438
B2010334747724N12000931WA0137701439
B2010344747722N12000925WA0137801439
B2010354747721N12000919WA0137801439
B2010364747720N12000912WA0137901440
B2010374747720N12000905WA0137901441
B2010384747720N12000898WA0137901441
B2010394747719N12000891WA0138001442
B2010404747718N12000883WA0138001442
B2010414747717N12000876WA0138001441
B2010424747715N12000868WA0138001441
B2010434747714N12000861WA0138101441
B2010444747714N12000854WA0138101441
B2010454747714N12000846WA0138101441
B2010464747715N12000839WA0138101441
B2010474747715N12000830WA0138101440
B2010484747717N12000822WA0138101440
B2010494747719N12000812WA0138101440
B2010504747720N12000803WA0138101440
B2010514747722N12000795WA0138101440
B2010524747723N12000787WA0138101440
B2010534747725N12000781WA0138101439
B2010544747726N12000774WA0138001438
B2010554747728N12000768WA0138001435
B2010564747730N12000760WA0137901432
B2010574747730N12000753WA0137801430
B2010584747730N12000745WA0137601428
B2010594747729N12000738WA0137501426
B2011004747728N12000732WA0137401425
B2011014747728N12000725WA0137301422
B2011024747727N12000718WA0137101419
B2011034747725N12000711WA0136901416
B2011044747724N12000704WA0136701414
B2011054747724N12000697WA0136601412
B2011064747724N12000691WA0136401409
B2011074747725N12000684WA0136201406
B2011084747725N12000676WA0136001404
B2011094747725N12000669WA0135801400
B2011104747725N12000662WA0135501397
B2011114747724N12000655WA0135301395
B2011124747723N12000649WA0135001392
B2011134747724N12000641WA0134801390
B2011144747724N12000634WA0134601388
B2011154747725N12000626WA0134401386
B2011164747725N12000618WA0134101383
B2011174747724N12000611WA0133901380
B2011184747723N12000605WA0133701378
B2011194747722N12000598WA0133501375
B2011204747721N12000592WA0133201372
B2011214747720N12000585WA0133001369
B2011224747719N12000578WA0132701366
B2011234747719N12000571WA0132501363
B2011234747719N12000571WA0132501363
B2011244747719N12000563WA0132201360
B2011254747720N12000554WA0131901357
B2011264747721N12000545WA0131601355
B2011274747722N12000536WA0131401353
B2011284747724N12000528WA0131201352
B2011294747725N12000521WA0131001350
B2011304747727N12000513WA0130701348
B2011314747728N12000505WA0130501346
B2011324747729N12000497WA0130301343
B2011334747729N12000487WA0130101341
B2011344747729N12000478WA0129801340
B2011354747729N12000470WA0129701340
B2011364747729N12000464WA0129501340
B2011374747729N12000458WA0129401340
B2011384747728N12000451WA0129201338
B2011394747727N12000443WA0129101335
B2011404747726N12000435WA0128901332
B2011414747725N12000427WA0128701331
B2011424747725N12000419WA0128501331
B2011434747725N12000413WA0128401330
B2011444747725N12000406WA0128301329
B2011454747724N12000398WA0128201327
B2011464747724N12000390WA0128001324
B2011474747723N12000381WA0127801322
B2011484747723N12000373WA0127701322
B2011494747722N12000366WA0127501321
B2011504747722N12000358WA0127401321
B2011514747722N12000351WA0127301321
B2011524747721N12000344WA0127201320
B2011534747721N12000337WA0127101319
B2011544747720N12000329WA0127001318
B2011554747719N12000321WA0126901317
B2011564747719N12000312WA0126701316
B2011574747719N12000304WA0126701315
B2011584747719N12000296WA0126601315
B2011594747720N12000287WA0126501314
B2012004747721N12000279WA0126401313
B2012014747721N12000270WA0126301312
B2012024747722N12000261WA0126201311
B2012034747722N12000252WA0126101311
B2012044747723N12000243WA0126001310
B2012054747723N12000235WA0126001310
B2012064747724N12000227WA0125901309
B2012074747725N12000219WA0125801309
B2012084747726N12000211WA0125701308
B2012094747727N12000204WA0125701307
B2012104747728N12000196WA0125601306
B2012114747728N12000188WA0125501305
B2012124747729N12000180WA0125501305
B2012134747728N12000172WA0125401304
B2012144747728N12000165WA0125301303
B2012154747728N12000157WA0125301303
B2012164747728N12000150WA0125201302
B2012174747728N12000143WA0125101301
B2012184747728N12000135WA0125001300
B2012194747727N12000126WA0124901298
B2012204747726N12000118WA0124801297
B2012214747725N12000109WA0124801297
B2012224747725N12000102WA0124701297
B2012234747725N12000094WA0124601297
B2012244747725N12000087WA0124601297
B2012254747725N12000078WA0124501296
B2012264747725N12000069WA0124401294
B2012264747725N12000069WA0124401294
B2012274747725N12000060WA0124401293
B2012284747725N12000052WA0124301292
B2012294747726N12000043WA0124201292
B2012304747726N12000035WA0124201292
B2012314747726N12000027WA0124101292
B2012324747726N12000018WA0124101291
B2012334747726N12000010WA0124001290
B2012344747725N12000001WA0124001289
B2012354747724N11959992WA0123901287
B2012364747723N11959983WA0123801287
B2012374747723N11959974WA0123801286
B2012384747722N11959965WA0123701286
B2012394747721N11959956WA0123701286
B2012404747721N11959947WA0123601286
B2012414747721N11959938WA0123601285
B2012424747721N11959929WA0123501284
B2012434747722N11959920WA0123501283
B2012444747722N11959912WA0123401282
B2012454747722N11959903WA0123401282
B2012464747723N11959894WA0123301280
B2012474747723N11959885WA0123201279
B2012484747724N11959876WA0123201278
B2012494747725N11959867WA0123101278
B2012504747726N11959858WA0123001277
B2012514747728N11959848WA0123001276
B2012524747729N11959839WA0122901275
B2012534747730N11959830WA0122801274
B2012544747731N11959820WA0122701272
B2012554747731N11959811WA0122601272
B2012564747730N11959803WA0122601271
B2012574747729N11959795WA0122501271
B2012584747728N11959788WA0122501271
B2012594747727N11959779WA0122401270
B2013004747726N11959769WA0122401269
B2013014747727N11959759WA0122301269
B2013024747729N11959750WA0122301271
B2013034747733N11959744WA0122301273
B2013044747738N11959739WA0122301274
B2013054747744N11959736WA0122301273
B2013064747751N11959733WA0122201270
B2013074747758N11959727WA0122201267
B2013084747765N11959721WA0122101265
B2013094747771N11959714WA0122001263
B2013104747776N11959707WA0121901263
B2013114747781N11959702WA0121801263
B2013124747785N11959696WA0121701262
B2013134747789N11959690WA0121701260
B2013144747793N11959682WA0121501256
B2013154747796N11959672WA0121401253
B2013164747799N11959661WA0121201250
B2013174747801N11959652WA0121001250
B2013184747802N11959644WA0120901251
B2013194747803N11959637WA0120901251
B2013204747804N11959631WA0120801251
B2013214747805N11959622WA0120701249
B2013224747807N11959613WA0120601247
B2013234747808N11959604WA0120501245
B2013244747810N11959596WA0120401245
B2013254747811N11959589WA0120301245
B2013264747812N11959582WA0120301246
B2013274747811N11959576WA0120201244
B2013284747810N11959569WA0120101242
B2013294747808N11959561WA0120001239
B2013304747808N11959552WA0119801237
B2013304747808N11959552WA0119801237
B2013314747808N11959543WA0119701236
B2013324747810N11959535WA0119601236
B2013334747813N11959528WA0119501236
B2013344747817N11959521WA0119401236
B2013354747821N11959514WA0119301234
B2013364747824N11959505WA0119201232
B2013374747826N11959496WA0119101230
B2013384747828N11959486WA0119001228
B2013394747830N11959477WA0118901227
B2013404747831N11959468WA0118801227
B2013414747833N11959461WA0118701227
B2013424747834N11959454WA0118601226
B2013434747834N11959445WA0118501224
B2013444747834N11959437WA0118301221
B2013454747833N11959427WA0118201218
B2013464747832N11959418WA0118001215
B2013474747831N11959408WA0117901213
B2013484747831N11959399WA0117601211
B2013494747831N11959389WA0117501210
B2013504747831N11959380WA0117301209
B2013514747832N11959371WA0117201208
B2013524747832N11959363WA0117101207
B2013534747832N11959354WA0116901205
B2013544747833N11959345WA0116701202
B2013554747833N11959336WA0116601200
B2013564747836N11959327WA0116401200
B2013574747840N11959320WA0116301199
B2013584747845N11959314WA0116101198
B2013594747852N11959310WA0116001195
B2014004747860N11959308WA0115701192
B2014014747867N11959309WA0115601191
B2014024747873N11959314WA0115401190
B2014034747877N11959321WA0115201188
B2014044747880N11959329WA0115001185
B2014054747881N11959336WA0114901184
B2014064747882N11959342WA0114701183
B2014074747881N11959347WA0114501181
B2014084747879N11959352WA0114301178
B2014094747875N11959355WA0114101174
B2014104747870N11959356WA0113901170
B2014114747866N11959354WA0113701168
B2014124747861N11959349WA0113401166
B2014134747859N11959340WA0113301164
B2014144747858N11959330WA0113001163
B2014154747860N11959321WA0112801162
B2014164747864N11959313WA0112601161
B2014174747869N11959308WA0112501161
B2014184747875N11959305WA0112301159
B2014194747882N11959304WA0112101156
B2014204747889N11959305WA0111901153
B2014214747895N11959308WA0111701150
B2014224747900N11959314WA0111501148
B2014234747904N11959320WA0111301147
B2014244747905N11959328WA0111101145
B2014254747904N11959335WA0110901143
B2014264747902N11959340WA0110601141
B2014274747898N11959343WA0110501138
B2014284747894N11959344WA0110201136
B2014294747890N11959342WA0110101134
B2014304747886N11959337WA0109801131
B2014314747883N11959330WA0109601128
B2014324747881N11959322WA0109301127
B2014334747881N11959314WA0109201127
B2014344747882N11959305WA0109001125
B2014344747882N11959305WA0109001125
B2014354747886N11959297WA0108901123
B2014364747890N11959288WA0108601120
B2014374747895N11959281WA0108501118
B2014384747901N11959277WA0108301117
B2014394747907N11959276WA0108201116
B2014404747914N11959278WA0107901113
B2014414747920N11959282WA0107801110
B2014424747925N11959288WA0107501108
B2014434747928N11959295WA0107401107
B2014444747929N11959303WA0107101105
B2014454747927N11959310WA0107001104
B2014464747924N11959314WA0106701102
B2014474747919N11959316WA0106601100
B2014484747915N11959314WA0106401098
B2014494747910N11959312WA0106201096
B2014504747907N11959307WA0106101096
B2014514747903N11959302WA0106001095
B2014524747900N11959296WA0105801093
B2014534747896N11959289WA0105701091
B2014544747892N11959284WA0105501089
B2014554747889N11959277WA0105401088
B2014564747886N11959270WA0105201088
B2014574747885N11959263WA0105201088
B2014584747884N11959256WA0105001087
B2014594747883N11959247WA0104901084
B2015004747882N11959238WA0104701081
B2015014747880N11959228WA0104601078
B2015024747878N11959218WA0104401076
B2015034747877N11959208WA0104301075
B2015044747876N11959199WA0104101075
B2015054747876N11959190WA0104001075
B2015064747877N11959182WA0103901074
B2015074747878N11959173WA0103801072
B2015084747879N11959164WA0103701070
B2015094747881N11959154WA0103601069
B2015104747883N11959145WA0103501069
B2015114747886N11959137WA0103401070
B2015124747889N11959129WA0103301070
B2015134747893N11959123WA0103301070
B2015144747898N11959119WA0103201070
B2015154747904N11959116WA0103201070
B2015164747911N11959115WA0103101068
B2015174747918N11959118WA0103001067
B2015184747923N11959123WA0102901066
B2015194747927N11959131WA0102801067
B2015204747928N11959138WA0102801067
B2015214747928N11959146WA0102701068
B2015224747926N11959152WA0102701067
B2015234747923N11959157WA0102601066
B2015244747920N11959161WA0102601065
B2015254747915N11959164WA0102501064
B2015264747911N11959163WA0102501062
B2015274747907N11959161WA0102401062
B2015284747903N11959156WA0102301061
B2015294747900N11959148WA0102301060
B2015304747899N11959140WA0102201058
B2015314747898N11959131WA0102101057
B2015324747899N11959123WA0102001057
B2015334747900N11959115WA0102001058
B2015344747903N11959108WA0101901058
B2015354747908N11959102WA0101901057
B2015364747914N11959098WA0101801056
B2015374747920N11959096WA0101701055
B2015384747927N11959097WA0101701055
B2015384747927N11959097WA0101701055
B2015394747932N11959101WA0101601055
B2015404747936N11959108WA0101601055
B2015414747939N11959115WA0101501055
B2015424747940N11959124WA0101501054
B2015434747939N11959131WA0101401054
B2015444747937N11959138WA0101401055
B2015454747934N11959142WA0101401055
B2015464747929N11959143WA0101301054
B2015474747925N11959142WA0101301053
B2015484747920N11959138WA0101201051
B2015494747917N11959132WA0101101050
B2015504747915N11959123WA0101001050
B2015514747915N11959114WA0101001049
B2015524747917N11959106WA0100901049
B2015534747921N11959099WA0100801049
B2015544747927N11959094WA0100701049
B2015554747933N11959092WA0100701049
B2015564747939N11959093WA0100601049
B2015574747944N11959096WA0100601049
B2015584747949N11959101WA0100601048
B2015594747953N11959108WA0100501048
B2016004747955N11959115WA0100501048
B2016014747955N11959123WA0100401048
B2016024747953N11959130WA0100401047
B2016034747949N11959133WA0100301046
B2016044747944N11959134WA0100201044
B2016054747940N11959131WA0100201043
B2016064747936N11959126WA0100101042
B2016074747934N11959119WA0100001042
B2016084747932N11959111WA0099901041
B2016094747933N11959101WA0099801039
B2016104747935N11959093WA0099801039
B2016114747938N11959085WA0099701039
B2016124747943N11959080WA0099601039
B2016134747948N11959076WA0099601038
B2016144747954N11959075WA0099501038
B2016154747960N11959078WA0099501037
B2016164747966N11959083WA0099401036
B2016174747970N11959091WA0099301034
B2016184747971N11959100WA0099201034
B2016194747970N11959107WA0099101034
B2016204747967N11959112WA0099001034
B2016214747963N11959113WA0099001033
B2016224747959N11959113WA0098901033
B2016234747954N11959109WA0098801032
B2016244747951N11959105WA0098801031
B2016254747948N11959098WA0098701030
B2016264747947N11959089WA0098601028
B2016274747947N11959080WA0098501026
B2016284747949N11959071WA0098401026
B2016294747953N11959063WA0098401025
B2016304747958N11959058WA0098301025
B2016314747964N11959056WA0098201024
B2016324747971N11959056WA0098101023
B2016334747977N11959059WA0098001021
B2016344747981N11959065WA0097901020
B2016354747984N11959073WA0097901018
B2016364747984N11959081WA0097701016
B2016374747982N11959089WA0097601015
B2016384747979N11959093WA0097501014
B2016394747975N11959095WA0097401013
B2016404747971N11959096WA0097401012
B2016414747967N11959095WA0097301011
B2016424747963N11959094WA0097201010
B2016424747963N11959094WA0097201010
B2016434747958N11959093WA0097101008
B2016444747954N11959089WA0097001007
B2016454747951N11959082WA0096901006
B2016464747950N11959073WA0096801004
B2016474747950N11959064WA0096701002
B2016484747953N11959055WA0096501001
B2016494747957N11959048WA0096501000
B2016504747963N11959044WA0096301000
B2016514747968N11959042WA0096301000
B2016524747975N11959042WA0096200999
B2016534747980N11959044WA0096100998
B2016544747986N11959048WA0096000997
B2016554747991N11959054WA0095900996
B2016564747994N11959061WA0095800996
B2016574747996N11959068WA0095800996
B2016584747995N11959075WA0095700995
B2016594747993N11959082WA0095600994
B2017004747989N11959087WA0095500992
B2017014747985N11959091WA0095400991
B2017024747981N11959092WA0095400991
B2017034747976N11959091WA0095300991
B2017044747972N11959087WA0095200990
B2017054747969N11959082WA0095200988
B2017064747965N11959075WA0095100986
B2017074747963N11959067WA0095000985
B2017084747962N11959059WA0094900983
B2017094747963N11959050WA0094800982
B2017104747965N11959042WA0094700981
B2017114747970N11959035WA0094600979
B2017124747975N11959029WA0094500978
B2017134747981N11959025WA0094400978
B2017144747987N11959024WA0094300978
B2017154747993N11959024WA0094300977
B2017164747999N11959027WA0094100975
B2017174748005N11959032WA0094000974
B2017184748009N11959039WA0093900973
B2017194748011N11959048WA0093800971
B2017204748012N11959057WA0093700970
B2017214748010N11959065WA0093600971
B2017224748008N11959070WA0093500971
B2017234748004N11959073WA0093500971
B2017244748000N11959074WA0093400970
B2017254747995N11959074WA0093300968
B2017264747990N11959074WA0093200967
B2017274747986N11959073WA0093200965
B2017284747981N11959072WA0093100965
B2017294747976N11959070WA0093000964
B2017304747972N11959069WA0093000963
B2017314747967N11959068WA0092900961
B2017324747962N11959066WA0092800960
B2017334747959N11959062WA0092700960
B2017344747957N11959055WA0092600959
B2017354747956N11959046WA0092600956
B2017364747957N11959037WA0092400954
B2017374747960N11959029WA0092300953
B2017384747963N11959022WA0092200952
B2017394747967N11959017WA0092100952
B2017404747972N11959013WA0092000951
B2017414747977N11959008WA0092000949
B2017424747982N11959002WA0091800947
B2017434747987N11958995WA0091700945
B2017444747992N11958991WA0091600944
B2017454747998N11958989WA0091500944
B2017464748004N11958990WA0091300944
B2017464748004N11958990WA0091300944
B2017474748009N11958995WA0091200941
B2017484748014N11959002WA0091100939
B2017494748017N11959010WA0091000939
B2017504748019N11959018WA0090800939
B2017514748018N11959025WA0090800939
B2017524748016N11959032WA0090600937
B2017534748013N11959038WA0090600935
B2017544748008N11959042WA0090400934
B2017554748004N11959043WA0090400933
B2017564747999N11959042WA0090300933
B2017574747995N11959038WA0090200932
B2017584747991N11959032WA0090100931
B2017594747988N11959025WA0090000930
B2018004747986N11959017WA0089900928
B2018014747985N11959009WA0089800927
B2018024747985N11959000WA0089700926
B2018034747987N11958992WA0089600925
B2018044747991N11958984WA0089400923
B2018054747995N11958977WA0089300921
B2018064748000N11958970WA0089200920
B2018074748005N11958964WA0089100920
B2018084748009N11958957WA0089000919
B2018094748013N11958951WA0088900919
B2018104748017N11958945WA0088800918
B2018114748022N11958939WA0088800917
B2018124748027N11958933WA0088600916
B2018134748032N11958927WA0088600915
B2018144748037N11958921WA0088500915
B2018154748041N11958915WA0088400915
B2018164748046N11958910WA0088300914
B2018174748051N11958905WA0088300913
B2018184748056N11958901WA0088200912
B2018194748063N11958898WA0088100911
B2018204748069N11958898WA0088000911
B2018214748075N11958902WA0087900910
B2018224748080N11958907WA0087800909
B2018234748083N11958915WA0087700909
B2018244748085N11958922WA0087700909
B2018254748085N11958930WA0087600909
B2018264748084N11958938WA0087500908
B2018274748082N11958945WA0087500908
B2018284748079N11958950WA0087400907
B2018294748075N11958955WA0087400906
B2018304748071N11958958WA0087300905
B2018314748066N11958959WA0087300905
B2018324748061N11958958WA0087200904
B2018334748056N11958954WA0087100904
B2018344748053N11958949WA0087100903
B2018354748050N11958942WA0087000903
B2018364748049N11958935WA0087000902
B2018374748049N11958927WA0086900903
B2018384748050N11958920WA0086900902
B2018394748052N11958912WA0086800901
B2018404748056N11958904WA0086700900
B2018414748059N11958897WA0086700898
B2018424748064N11958892WA0086600898
B2018434748070N11958888WA0086500897
B2018444748075N11958887WA0086400896
B2018454748082N11958888WA0086300895
B2018464748087N11958890WA0086200894
B2018474748093N11958894WA0086200894
B2018484748097N11958900WA0086100893
B2018494748100N11958907WA0086000893
B2018504748103N11958915WA0085900891
B2018504748103N11958915WA0085900891
B2018514748104N11958923WA0085900891
B2018524748104N11958931WA0085800891
B2018534748102N11958939WA0085800890
B2018544748099N11958945WA0085700889
B2018554748095N11958950WA0085600887
B2018564748090N11958954WA0085500886
B2018574748085N11958955WA0085400886
B2018584748080N11958954WA0085400886
B2018594748076N11958951WA0085300886
B2019004748072N11958946WA0085300885
B2019014748069N11958939WA0085200885
B2019024748067N11958932WA0085200883
B2019034748065N11958924WA0085100882
B2019044748063N11958917WA0085100882
B2019054748062N11958909WA0085000882
B2019064748061N11958902WA0085000882
B2019074748062N11958894WA0084900881
B2019084748064N11958887WA0084900880
B2019094748067N11958879WA0084800879
B2019104748072N11958873WA0084700877
B2019114748078N11958870WA0084600876
B2019124748084N11958869WA0084600876
B2019134748090N11958870WA0084500876
B2019144748096N11958874WA0084400875
B2019154748100N11958880WA0084300875
B2019164748103N11958887WA0084300874
B2019174748105N11958894WA0084200873
B2019184748105N11958902WA0084100873
B2019194748103N11958909WA0084100872
B2019204748100N11958915WA0084000870
B2019214748095N11958919WA0083900869
B2019224748090N11958920WA0083800868
B2019234748085N11958918WA0083700868
B2019244748081N11958914WA0083600868
B2019254748078N11958908WA0083600869
B2019264748076N11958901WA0083500868
B2019274748075N11958893WA0083500867
B2019284748074N11958885WA0083400866
B2019294748075N11958877WA0083300865
B2019304748077N11958869WA0083300864
B2019314748080N11958861WA0083200864
B2019324748084N11958855WA0083100863
B2019334748089N11958849WA0083100862
B2019344748094N11958844WA0083000862
B2019354748099N11958842WA0083000861
B2019364748105N11958842WA0082900861
B2019374748112N11958844WA0082800859
B2019384748117N11958850WA0082700858
B2019394748121N11958858WA0082600856
B2019404748122N11958866WA0082500856
B2019414748122N11958874WA0082500855
B2019424748121N11958881WA0082400854
B2019434748118N11958888WA0082300854
B2019444748116N11958895WA0082200853
B2019454748113N11958901WA0082200852
B2019464748111N11958908WA0082100852
B2019474748109N11958915WA0082100851
B2019484748107N11958922WA0082000850
B2019494748104N11958928WA0081900848
B2019504748101N11958935WA0081900848
B2019514748098N11958941WA0081800847
B2019524748096N11958947WA0081700847
B2019534748093N11958953WA0081700846
B2019544748090N11958959WA0081600845
B2019554748087N11958965WA0081500843
B2019554748087N11958965WA0081500843
B2019564748084N11958971WA0081400841
B2019574748080N11958976WA0081300840
B2019584748075N11958980WA0081200838
B2019594748071N11958981WA0081100837
B2020004748066N11958981WA0081000835
B2020014748060N11958982WA0080900833
B2020024748055N11958983WA0080800831
B2020034748050N11958984WA0080700830
B2020044748044N11958985WA0080600828
B2020054748039N11958985WA0080400828
B2020064748035N11958981WA0080300827
B2020074748031N11958974WA0080200825
B2020084748029N11958966WA0080100822
B2020094748028N11958958WA0079900820
B2020104748028N11958950WA0079800820
B2020114748030N11958942WA0079700820
B2020124748033N11958936WA0079600819
B2020134748037N11958930WA0079500817
B2020144748042N11958925WA0079400815
B2020154748048N11958921WA0079300813
B2020164748054N11958920WA0079200812
B2020174748060N11958921WA0079000811
B2020184748065N11958924WA0078900810
B2020194748070N11958930WA0078800809
B2020204748073N11958937WA0078600807
B2020214748075N11958945WA0078500807
B2020224748076N11958953WA0078400806
B2020234748075N11958961WA0078300806
B2020244748072N11958966WA0078200806
B2020254748069N11958971WA0078100805
B2020264748064N11958974WA0078000803
B2020274748059N11958975WA0077800801
B2020284748054N11958974WA0077700799
B2020294748049N11958971WA0077600798
B2020304748045N11958966WA0077500797
B2020314748043N11958958WA0077300795
B2020324748043N11958949WA0077200793
B2020334748044N11958941WA0077000791
B2020344748047N11958934WA0076900790
B2020354748051N11958928WA0076800790
B2020364748056N11958924WA0076700788
B2020374748061N11958921WA0076500787
B2020384748067N11958920WA0076400785
B2020394748073N11958922WA0076200783
B2020404748079N11958926WA0076100782
B2020414748083N11958932WA0075900782
B2020424748085N11958940WA0075800781
B2020434748085N11958947WA0075700781
B2020444748084N11958953WA0075600780
B2020454748081N11958958WA0075500778
B2020464748077N11958962WA0075400776
B2020474748073N11958967WA0075200773
B2020484748069N11958971WA0075000770
B2020494748064N11958975WA0074800768
B2020504748060N11958979WA0074700767
B2020514748056N11958981WA0074500766
B2020524748052N11958982WA0074400765
B2020534748047N11958982WA0074300764
B2020544748042N11958980WA0074200762
B2020554748038N11958977WA0074000760
B2020564748035N11958972WA0073900759
B2020574748032N11958965WA0073700758
B2020584748031N11958958WA0073600756
B2020594748030N11958950WA0073400754
B2020594748030N11958950WA0073400754
B2021004748031N11958942WA0073300753
B2021014748032N11958934WA0073100751
B2021024748034N11958926WA0073000749
B2021034748037N11958919WA0072800747
B2021044748040N11958912WA0072700746
B2021054748043N11958905WA0072600745
B2021064748046N11958899WA0072500744
B2021074748050N11958892WA0072300742
B2021084748054N11958886WA0072200741
B2021094748058N11958880WA0072100739
B2021104748063N11958875WA0071900738
B2021114748068N11958872WA0071800737
B2021124748073N11958871WA0071700736
B2021134748079N11958872WA0071500734
B2021144748084N11958876WA0071400732
B2021154748089N11958880WA0071300731
B2021164748093N11958885WA0071200730
B2021174748096N11958891WA0071000729
B2021184748097N11958897WA0070900728
B2021194748097N11958903WA0070800727
B2021204748095N11958909WA0070700726
B2021214748093N11958915WA0070600724
B2021224748091N11958920WA0070500723
B2021234748088N11958925WA0070300721
B2021244748086N11958931WA0070200718
B2021254748083N11958938WA0070000716
B2021264748081N11958945WA0069900713
B2021274748078N11958951WA0069700711
B2021284748075N11958957WA0069600710
B2021294748072N11958961WA0069400709
B2021304748068N11958964WA0069300708
B2021314748064N11958965WA0069200707
B2021324748060N11958963WA0069000705
B2021334748055N11958959WA0068800702
B2021344748051N11958954WA0068700700
B2021354748049N11958946WA0068500699
B2021364748048N11958939WA0068300698
B2021374748050N11958931WA0068200696
B2021384748053N11958924WA0068000694
B2021394748058N11958918WA0067800692
B2021404748063N11958915WA0067700691
B2021414748069N11958913WA0067500691
B2021424748074N11958912WA0067400690
B2021434748080N11958910WA0067300689
B2021444748086N11958907WA0067200687
B2021454748091N11958903WA0067000685
B2021464748096N11958897WA0066900684
B2021474748100N11958890WA0066800682
B2021484748104N11958884WA0066700681
B2021494748109N11958878WA0066600681
B2021504748114N11958874WA0066500680
B2021514748120N11958873WA0066300680
B2021524748125N11958875WA0066200679
B2021534748129N11958880WA0066100678
B2021544748132N11958887WA0066000676
B2021554748133N11958894WA0065800675
B2021564748132N11958901WA0065700675
B2021574748130N11958907WA0065600674
B2021584748126N11958911WA0065500672
B2021594748121N11958914WA0065400670
B2022004748116N11958916WA0065300669
B2022014748111N11958917WA0065200667
B2022024748106N11958916WA0065000666
B2022034748101N11958914WA0064900665
B2022044748097N11958911WA0064800664
B2022044748097N11958911WA0064800664
B2022054748093N11958906WA0064700663
B2022064748089N11958900WA0064600661
B2022074748085N11958892WA0064400658
B2022084748081N11958884WA0064200657
B2022094748077N11958877WA0064000656
B2022104748073N11958870WA0063900655
B2022114748071N11958863WA0063800655
B2022124748069N11958856WA0063800655
B2022134748068N11958849WA0063700653
B2022144748067N11958840WA0063600651
B2022154748068N11958830WA0063400649
B2022164748071N11958822WA0063300648
B2022174748074N11958815WA0063100647
B2022184748078N11958810WA0063000646
B2022194748083N11958807WA0062800645
B2022204748089N11958806WA0062600643
B2022214748094N11958808WA0062500642
B2022224748098N11958812WA0062300640
B2022234748101N11958818WA0062200639
B2022244748103N11958825WA0062000637
B2022254748103N11958833WA0061900636
B2022264748101N11958840WA0061800636
B2022274748099N11958847WA0061600636
B2022284748097N11958853WA0061500635
B2022294748095N11958860WA0061400634
B2022304748094N11958866WA0061400633
B2022314748092N11958873WA0061300632
B2022324748089N11958879WA0061200630
B2022334748086N11958886WA0061100628
B2022344748083N11958892WA0061000627
B2022354748080N11958898WA0060900626
B2022364748077N11958903WA0060800625
B2022374748074N11958908WA0060700624
B2022384748071N11958912WA0060600624
B2022394748068N11958916WA0060600622
B2022404748064N11958919WA0060500621
B2022414748059N11958922WA0060400619
B2022424748055N11958924WA0060300618
B2022434748050N11958925WA0060100617
B2022444748046N11958923WA0060100616
B2022454748041N11958920WA0059900615
B2022464748037N11958914WA0059800612
B2022474748033N11958907WA0059700611
B2022484748030N11958899WA0059500609
B2022494748030N11958891WA0059400609
B2022504748031N11958884WA0059300609
B2022514748033N11958878WA0059200608
B2022524748038N11958873WA0059100606
B2022534748043N11958871WA0059000605
B2022544748047N11958870WA0058900604
B2022554748051N11958871WA0058800603
B2022564748055N11958873WA0058800603
B2022574748060N11958876WA0058700602
B2022584748064N11958879WA0058600601
B2022594748069N11958882WA0058500600
B2023004748072N11958887WA0058400599
B2023014748074N11958893WA0058300599
B2023024748075N11958900WA0058300598
B2023034748074N11958907WA0058100597
B2023044748072N11958914WA0058100595
B2023054748069N11958920WA0058000594
B2023064748067N11958927WA0057900593
B2023074748065N11958933WA0057800592
B2023084748062N11958938WA0057700591
B2023084748062N11958938WA0057700591
B2023094748058N11958941WA0057600590
B2023104748053N11958942WA0057500588
B2023114748047N11958939WA0057400585
B2023124748042N11958933WA0057200583
B2023134748040N11958925WA0057000582
B2023144748039N11958917WA0056900581
B2023154748040N11958909WA0056800580
B2023164748042N11958900WA0056700579
B2023174748045N11958892WA0056600577
B2023184748047N11958883WA0056400575
B2023194748049N11958874WA0056300575
B2023204748052N11958868WA0056200575
B2023214748055N11958864WA0056100576
B2023224748059N11958861WA0056000575
B2023234748064N11958860WA0055900573
B2023244748070N11958861WA0055800571
B2023254748075N11958863WA0055600570
B2023264748079N11958867WA0055500570
B2023274748082N11958871WA0055400569
B2023284748085N11958877WA0055400568
B2023294748087N11958883WA0055200566
B2023304748090N11958890WA0055100564
B2023314748092N11958897WA0055000563
B2023324748092N11958904WA0054900562
B2023334748092N11958912WA0054800562
B2023344748090N11958919WA0054700562
B2023354748087N11958925WA0054600561
B2023364748083N11958930WA0054500560
B2023374748080N11958936WA0054400559
B2023384748077N11958942WA0054400558
B2023394748074N11958948WA0054300557
B2023404748071N11958953WA0054200556
B2023414748067N11958958WA0054100554
B2023424748062N11958962WA0054000553
B2023434748057N11958963WA0053900552
B2023444748052N11958963WA0053900550
B2023454748047N11958961WA0053700548
B2023464748042N11958957WA0053600547
B2023474748038N11958952WA0053400546
B2023484748035N11958944WA0053300544
B2023494748034N11958936WA0053200544
B2023504748034N11958928WA0053100543
B2023514748035N11958920WA0052900542
B2023524748037N11958912WA0052800540
B2023534748039N11958904WA0052600539
B2023544748041N11958896WA0052500537
B2023554748044N11958889WA0052400536
B2023564748048N11958883WA0052300536
B2023574748053N11958879WA0052100534
B2023584748058N11958877WA0052000532
B2023594748064N11958879WA0051800531
B2024004748068N11958882WA0051700530
B2024014748071N11958887WA0051500530
B2024024748074N11958892WA0051500528
B2024034748076N11958898WA0051300527
B2024044748077N11958904WA0051200525
B2024054748079N11958912WA0051100523
B2024064748079N11958919WA0051000522
B2024074748078N11958926WA0050800520
B2024084748076N11958933WA0050700519
B2024094748073N11958939WA0050600518
B2024104748068N11958944WA0050500516
B2024114748063N11958948WA0050300515
B2024124748058N11958951WA0050200513
B2024124748058N11958951WA0050200513
B2024134748052N11958952WA0050100512
B2024144748047N11958952WA0050000511
B2024154748042N11958953WA0049800509
B2024164748036N11958953WA0049700507
B2024174748030N11958954WA0049500504
B2024184748024N11958954WA0049400503
B2024194748018N11958953WA0049300502
B2024204748014N11958950WA0049200502
B2024214748010N11958945WA0049100501
B2024224748007N11958938WA0049000499
B2024234748005N11958930WA0048800497
B2024244748006N11958921WA0048700496
B2024254748008N11958914WA0048500495
B2024264748012N11958908WA0048400494
B2024274748017N11958904WA0048200492
B2024284748022N11958903WA0048100490
B2024294748027N11958905WA0047900488
B2024304748032N11958909WA0047800487
B2024314748035N11958915WA0047600485
B2024324748036N11958923WA0047500483
B2024334748037N11958931WA0047400481
B2024344748036N11958939WA0047300480
B2024354748035N11958947WA0047100478
B2024364748034N11958954WA0047000476
B2024374748035N11958962WA0046800475
B2024384748035N11958970WA0046700473
B2024394748035N11958978WA0046500472
B2024404748034N11958986WA0046400470
B2024414748033N11958994WA0046300468
B2024424748033N11959003WA0046100467
B2024434748032N11959011WA0046000466
B2024444748031N11959020WA0045800465
B2024454748030N11959027WA0045700464
B2024464748028N11959035WA0045600463
B2024474748027N11959042WA0045500462
B2024484748025N11959050WA0045400461
B2024494748022N11959057WA0045200460
B2024504748019N11959064WA0045200459
B2024514748014N11959070WA0045000458
B2024524748009N11959074WA0045000457
B2024534748003N11959078WA0044800456
B2024544747996N11959081WA0044800455
B2024554747990N11959083WA0044700454
B2024564747985N11959085WA0044600454
B2024574747979N11959085WA0044500453
B2024584747973N11959084WA0044500452
B2024594747967N11959081WA0044400451
B2025004747962N11959077WA0044300450
B2025014747957N11959072WA0044200449
B2025024747953N11959067WA0044100449
B2025034747950N11959060WA0044000448
B2025044747947N11959053WA0044000447
B2025054747946N11959046WA0043900446
B2025064747946N11959038WA0043800445
B2025074747947N11959030WA0043700445
B2025084747947N11959023WA0043600444
B2025094747948N11959016WA0043500444
B2025104747949N11959008WA0043500443
B2025114747949N11959001WA0043400443
B2025124747950N11958993WA0043300442
B2025134747952N11958987WA0043200441
B2025144747954N11958980WA0043100440
B2025154747957N11958976WA0043000440
B2025164747961N11958973WA0043000439
B2025164747961N11958973WA0043000439
B2025174747965N11958971WA0042900439
B2025184747970N11958972WA0042800437
B2025194747974N11958975WA0042700437
B2025204747976N11958981WA0042600436
B2025214747976N11958988WA0042500435
B2025224747975N11958995WA0042500435
B2025234747973N11959003WA0042400435
B2025244747970N11959010WA0042300434
B2025254747965N11959015WA0042200432
B2025264747960N11959019WA0042100431
B2025274747954N11959020WA0042000430
B2025284747948N11959019WA0041900430
B2025294747943N11959014WA0041800429
B2025304747939N11959008WA0041800428
B2025314747937N11959000WA0041700427
B2025324747936N11958993WA0041600427
B2025334747936N11958986WA0041500427
B2025344747938N11958980WA0041500427
B2025354747941N11958975WA0041400426
B2025364747944N11958971WA0041300425
B2025374747948N11958968WA0041200424
B2025384747953N11958969WA0041100424
B2025394747957N11958972WA0040900424
B2025404747960N11958977WA0040900423
B2025414747962N11958983WA0040800423
B2025424747965N11958989WA0040700422
B2025434747968N11958996WA0040600420
B2025444747972N11959002WA0040500419
B2025454747974N11959010WA0040400418
B2025464747974N11959016WA0040300419
B2025474747973N11959023WA0040200418
B2025484747970N11959029WA0040200417
B2025494747966N11959035WA0040000414
B2025504747960N11959040WA0039900412
B2025514747955N11959044WA0039800412
B2025524747950N11959045WA0039800412
B2025534747944N11959044WA0039700412
B2025544747939N11959042WA0039600411
B2025554747933N11959037WA0039500410
B2025564747928N11959031WA0039400407
B2025574747924N11959024WA0039300406
B2025584747922N11959018WA0039200405
B2025594747921N11959011WA0039200405
B2026004747921N11959004WA0039100405
B2026014747923N11958997WA0039000404
B2026024747924N11958990WA0038900403
B2026034747926N11958981WA0038800402
B2026044747928N11958974WA0038700400
B2026054747930N11958968WA0038600400
B2026064747932N11958963WA0038600400
B2026074747935N11958958WA0038500400
B2026084747939N11958955WA0038400399
B2026094747943N11958955WA0038300396
B2026104747948N11958956WA0038200395
B2026114747953N11958960WA0038000394
B2026124747955N11958967WA0038000393
B2026134747955N11958976WA0037800392
B2026144747954N11958985WA0037800391
B2026154747951N11958993WA0037700390
B2026164747948N11958999WA0037600389
B2026174747943N11959004WA0037500388
B2026184747939N11959007WA0037400387
B2026194747934N11959009WA0037300385
B2026204747928N11959010WA0037300384
B2026204747928N11959010WA0037300384
B2026214747922N11959008WA0037100383
B2026224747916N11959006WA0037000382
B2026234747911N11959004WA0036900381
B2026244747906N11959001WA0036900380
B2026254747901N11958999WA0036800380
B2026264747895N11958995WA0036800380
B2026274747890N11958991WA0036700379
B2026284747886N11958985WA0036700378
B2026294747882N11958979WA0036600377
B2026304747880N11958972WA0036500377
B2026314747880N11958964WA0036400376
B2026324747880N11958957WA0036400376
B2026334747882N11958950WA0036300375
B2026344747884N11958944WA0036200374
B2026354747887N11958939WA0036200373
B2026364747890N11958933WA0036100372
B2026374747893N11958927WA0036100371
B2026384747896N11958921WA0036000371
B2026394747900N11958918WA0035900370
B2026404747904N11958914WA0035800369
B2026414747908N11958911WA0035700368
B2026424747912N11958908WA0035700367
B2026434747916N11958905WA0035600367
B2026444747921N11958905WA0035500366
B2026454747926N11958902WA0035400365
B2026464747931N11958900WA0035300364
B2026474747935N11958898WA0035100364
B2026484747940N11958897WA0035100363
B2026494747944N11958897WA0035000362
B2026504747948N11958898WA0034900362
B2026514747952N11958902WA0034800361
B2026524747955N11958908WA0034800360
B2026534747956N11958916WA0034700358
B2026544747957N11958925WA0034600358
B2026554747955N11958933WA0034500357
B2026564747952N11958941WA0034500354
B2026574747947N11958948WA0034400352
B2026584747942N11958953WA0034300350
B2026594747936N11958955WA0034200350
B2027004747930N11958954WA0034100350
B2027014747925N11958952WA0034000350
B2027024747920N11958947WA0034000351
B2027034747917N11958942WA0033900350
B2027044747914N11958935WA0033800348
B2027054747913N11958928WA0033700348
B2027064747913N11958921WA0033600347
B2027074747914N11958915WA0033500346
B2027084747917N11958908WA0033400345
B2027094747920N11958905WA0033300344
B2027104747923N11958902WA0033300343
B2027114747926N11958902WA0033100341
B2027124747930N11958903WA0033100340
B2027134747935N11958906WA0033000335
B2027144747939N11958908WA0032900330
B2027154747943N11958911WA0032900329
B2027164747947N11958914WA0032800326
B2027174747950N11958917WA0032700324
B2027184747954N11958920WA0032700322
B2027194747957N11958925WA0032600321
B2027204747959N11958929WA0032600319
B2027214747960N11958935WA0032500317
B2027224747958N11958943WA0032500316
B2027234747954N11958952WA0032400315
B2027244747950N11958958WA0032300314
B2027244747950N11958958WA0032300314
B2027254747944N11958962WA0032200313
B2027264747939N11958963WA0032100312
B2027274747934N11958963WA0032100311
B2027284747928N11958962WA0032000311
B2027294747922N11958959WA0031900311
B2027304747916N11958958WA0031900311
B2027314747911N11958957WA0031800311
B2027324747906N11958956WA0031700311
B2027334747901N11958954WA0031700312
B2027344747897N11958951WA0031600313
B2027354747894N11958945WA0031500312
B2027364747893N11958938WA0031400310
B2027374747894N11958929WA0031300308
B2027384747896N11958921WA0031200306
B2027394747899N11958916WA0031100304
B2027404747902N11958915WA0031000303
B2027414747905N11958914WA0031000301
B2027424747909N11958915WA0030900299
B2027434747914N11958916WA0030800298
B2027444747918N11958916WA0030800296
B2027454747922N11958916WA0030600294
B2027464747927N11958918WA0030600292
B2027474747931N11958919WA0030500290
B2027484747935N11958922WA0030500287
B2027494747939N11958924WA0030400285
B2027504747944N11958926WA0030400282
B2027514747949N11958927WA0030300277
B2027524747953N11958927WA0030200275
B2027534747957N11958929WA0030200271
B2027544747961N11958931WA0030100268
B2027554747965N11958933WA0030000264
B2027564747969N11958935WA0030000259
B2027574747973N11958936WA0029800256
B2027584747978N11958936WA0029800252
B2027594747983N11958934WA0029600249
B2028004747987N11958933WA0029500244
B2028014747991N11958931WA0029400240
B2028024747995N11958929WA0029300237
B2028034747999N11958925WA0029200237
B2028044748003N11958921WA0029000233
B2028054748007N11958917WA0028900232
B2028064748011N11958912WA0028800230
B2028074748014N11958907WA0028600226
B2028084748017N11958901WA0028500224
B2028094748021N11958898WA0028400220
B2028104748025N11958896WA0028300219
B2028114748031N11958898WA0028100218
B2028124748035N11958904WA0028000217
B2028134748038N11958911WA0027800217
B2028144748040N11958916WA0027700216
B2028154748040N11958921WA0027600213
B2028164748041N11958926WA0027600212
B2028174748041N11958931WA0027500211
B2028184748042N11958937WA0027400210
B2028194748044N11958945WA0027300209
B2028204748046N11958953WA0027100208
B2028214748049N11958959WA0027000208
B2028224748052N11958963WA0026900209
B2028234748055N11958967WA0026900210
B2028244748057N11958971WA0026800210
B2028254748060N11958976WA0026700209
B2028264748063N11958982WA0026600208
B2028274748065N11958990WA0026500209
B2028274748065N11958990WA0026500209
B2028284748065N11958998WA0026400212
B2028294748062N11959006WA0026300214
B2028304748058N11959013WA0026200214
B2028314748051N11959017WA0026100213
B2028324748044N11959017WA0025900213
B2028334748038N11959013WA0025700213
B2028344748033N11959009WA0025600214
B2028354748029N11959006WA0025500215
B2028364748024N11959004WA0025400215
B2028374748018N11959004WA0025300215
B2028384748013N11959007WA0025200215
B2028394748007N11959014WA0024900213
B2028404748002N11959021WA0024800213
B2028414747997N11959026WA0024600213
B2028424747993N11959030WA0024600213
B2028434747990N11959033WA0024500213
B2028444747985N11959037WA0024400213
B2028454747981N11959042WA0024200213
B2028464747977N11959049WA0024100212
B2028474747972N11959055WA0023900212
B2028484747968N11959062WA0023800212
B2028494747964N11959067WA0023700212
B2028504747961N11959073WA0023700212
B2028514747957N11959077WA0023600212
B2028524747953N11959082WA0023500212
B2028534747949N11959088WA0023400212
B2028544747946N11959093WA0023300211
B2028554747943N11959097WA0023200211
B2028564747942N11959100WA0023200211
B2028574747940N11959101WA0023100212
B2028584747940N11959100WA0023100211
B2028594747939N11959100WA0023000211
B2029004747939N11959100WA0023000212
B2029014747939N11959101WA0023000213
B2029024747939N11959101WA0023000213
B2029034747940N11959101WA0023000214
B2029044747940N11959101WA0022900215
B2029054747940N11959101WA0022900215
B2029064747940N11959101WA0022900216
B2029074747940N11959101WA0022900217
B2029084747940N11959100WA0022900218
B2029094747940N11959100WA0022900219
B2029104747940N11959100WA0022900219
B2029114747940N11959100WA0022900219
B2029124747940N11959100WA0022900220
B2029134747940N11959100WA0022900220
B2029144747940N11959100WA0022900220
B2029154747940N11959100WA0022900221
B2029164747940N11959100WA0022800221
B2029174747940N11959100WA0022800221
B2029184747940N11959100WA0022800221
B2029194747940N11959100WA0022800221
B2029204747940N11959100WA0022800221
B2029214747940N11959100WA0022800221
B2029224747940N11959100WA0022800221
B2029234747940N11959100WA0022800221
B2029244747940N11959100WA0022800221
B2029254747940N11959100WA0022800221
B2029264747940N11959100WA0022800221
B2029274747940N11959100WA0022800221
B2029284747940N11959100WA0022800221
B2029294747939N11959101WA0022800221
B2029304747940N11959101WA0022800221
B2029314747940N11959100WA0022800221
