AXFMSFP Flymaster Live, V1.0
HFFXA010
HFPLTPILOT:David Wheeler
HFGTYGLIDERTYPE:Ozone Lyght / Niviuk Arrow P
HFGIDGLIDERID:
HFDTM100GPSDATUM:WGS-1984
HFCIDCOMPETITIONID:404
HFCCLCOMPETITIONCLASS:
HOSITSITE:LAUNCH
HFGPS:UBLOXNEO6
HFPRSPRESSALTSENSOR:NA
HFRFWFIRMWAREVERSION:202g
HFRHWHARDWAREVERSION:1.0R2
HFFTYFRTYPE:FLYMASTER,LIVE
HFDTE240625
B1859294748246N12002302WA0108701130
B1859304748245N12002300WA0108701129
B1859314748245N12002298WA0108701129
B1859324748245N12002295WA0108601128
B1859334748244N12002293WA0108601128
B1859344748243N12002290WA0108601127
B1859354748242N12002288WA0108601126
B1859364748240N12002286WA0108501125
B1859374748238N12002283WA0108501124
B1859384748236N12002279WA0108501123
B1859394748234N12002276WA0108401123
B1859404748232N12002272WA0108301122
B1859414748230N12002267WA0108201120
B1859424748227N12002262WA0108101118
B1859434748225N12002256WA0108001117
B1859444748222N12002251WA0107901116
B1859454748219N12002247WA0107901115
B1859464748217N12002244WA0107801115
B1859474748214N12002241WA0107701113
B1859484748210N12002239WA0107601112
B1859494748206N12002235WA0107501110
B1859504748202N12002230WA0107401109
B1859514748198N12002226WA0107301110
B1859524748195N12002223WA0107301114
B1859534748192N12002222WA0107301118
B1859544748189N12002221WA0107401122
B1859554748185N12002220WA0107501124
B1859564748182N12002218WA0107601124
B1859574748178N12002215WA0107701126
B1859584748174N12002212WA0107801128
B1859594748172N12002208WA0107901131
B1900004748171N12002203WA0108101132
B1900014748171N12002199WA0108201133
B1900024748171N12002195WA0108301132
B1900034748172N12002190WA0108301130
B1900044748172N12002185WA0108401127
B1900054748171N12002179WA0108301124
B1900064748169N12002172WA0108301121
B1900074748167N12002165WA0108201119
B1900084748166N12002159WA0108101117
B1900094748164N12002154WA0108001115
B1900104748162N12002149WA0107901114
B1900114748160N12002144WA0107801113
B1900124748158N12002138WA0107701112
B1900134748156N12002132WA0107601111
B1900144748154N12002126WA0107501110
B1900154748152N12002120WA0107501111
B1900164748150N12002115WA0107401110
B1900174748148N12002111WA0107301110
B1900184748146N12002108WA0107201109
B1900194748143N12002104WA0107201107
B1900204748140N12002101WA0107001104
B1900214748136N12002097WA0106901102
B1900224748133N12002093WA0106801100
B1900234748132N12002087WA0106701099
B1900244748131N12002081WA0106501097
B1900254748131N12002076WA0106401095
B1900264748131N12002070WA0106301094
B1900274748131N12002064WA0106201092
B1900284748130N12002057WA0106001089
B1900294748130N12002051WA0105801088
B1900304748130N12002044WA0105701087
B1900314748131N12002039WA0105601086
B1900324748131N12002033WA0105401086
B1900334748132N12002028WA0105401085
B1900344748131N12002022WA0105201084
B1900354748131N12002017WA0105101082
B1900364748131N12002011WA0105001081
B1900374748130N12002005WA0104901080
B1900384748130N12002000WA0104701080
B1900394748129N12001995WA0104601078
B1900404748128N12001989WA0104501077
B1900414748128N12001983WA0104401076
B1900424748127N12001977WA0104201075
B1900434748127N12001971WA0104201075
B1900444748126N12001965WA0104101076
B1900444748126N12001965WA0104101076
B1900454748125N12001958WA0104001076
B1900464748124N12001952WA0103901076
B1900474748124N12001945WA0103901076
B1900484748123N12001939WA0103901078
B1900494748122N12001935WA0103901081
B1900504748121N12001931WA0103901084
B1900514748120N12001927WA0104001086
B1900524748119N12001923WA0104101087
B1900534748119N12001918WA0104101087
B1900544748118N12001911WA0104201088
B1900554748119N12001904WA0104301089
B1900564748119N12001897WA0104301090
B1900574748119N12001890WA0104401091
B1900584748119N12001884WA0104501093
B1900594748119N12001878WA0104601095
B1901004748120N12001873WA0104701095
B1901014748121N12001866WA0104801095
B1901024748125N12001860WA0104901094
B1901034748129N12001855WA0104901095
B1901044748135N12001854WA0105001097
B1901054748140N12001856WA0105101099
B1901064748144N12001860WA0105201099
B1901074748147N12001866WA0105201099
B1901084748148N12001874WA0105401101
B1901094748146N12001882WA0105401100
B1901104748143N12001887WA0105501102
B1901114748139N12001891WA0105601104
B1901124748135N12001892WA0105801105
B1901134748132N12001893WA0105901107
B1901144748128N12001891WA0106001108
B1901154748125N12001888WA0106101109
B1901164748123N12001883WA0106201110
B1901174748123N12001878WA0106301110
B1901184748123N12001872WA0106401111
B1901194748125N12001866WA0106501112
B1901204748127N12001861WA0106601113
B1901214748131N12001857WA0106701115
B1901224748135N12001853WA0106901117
B1901234748140N12001853WA0107001119
B1901244748145N12001856WA0107101122
B1901254748150N12001862WA0107301124
B1901264748152N12001870WA0107501126
B1901274748153N12001877WA0107601129
B1901284748153N12001885WA0107801131
B1901294748150N12001892WA0107901132
B1901304748146N12001898WA0108101133
B1901314748141N12001902WA0108201133
B1901324748136N12001904WA0108401134
B1901334748132N12001903WA0108501136
B1901344748128N12001900WA0108601137
B1901354748126N12001896WA0108801138
B1901364748125N12001890WA0108901139
B1901374748124N12001884WA0109001140
B1901384748125N12001878WA0109101141
B1901394748127N12001872WA0109201142
B1901404748130N12001868WA0109401145
B1901414748135N12001865WA0109501147
B1901424748140N12001865WA0109701150
B1901434748145N12001867WA0109801152
B1901444748148N12001872WA0110001155
B1901454748150N12001880WA0110201157
B1901464748151N12001888WA0110401159
B1901474748148N12001897WA0110501161
B1901474748148N12001897WA0110501161
B1901484748144N12001903WA0110701163
B1901494748140N12001907WA0110901166
B1901504748135N12001909WA0111101169
B1901514748131N12001908WA0111301171
B1901524748127N12001904WA0111501172
B1901534748125N12001899WA0111701173
B1901544748124N12001893WA0111901175
B1901554748124N12001887WA0112001177
B1901564748126N12001883WA0112301180
B1901574748129N12001879WA0112501184
B1901584748133N12001876WA0112801187
B1901594748138N12001873WA0112901189
B1902004748144N12001872WA0113201191
B1902014748150N12001872WA0113401193
B1902024748155N12001875WA0113701197
B1902034748160N12001880WA0113901201
B1902044748162N12001888WA0114201204
B1902054748163N12001897WA0114401206
B1902064748162N12001907WA0114701208
B1902074748160N12001916WA0114901210
B1902084748156N12001923WA0115101213
B1902094748152N12001929WA0115301216
B1902104748148N12001932WA0115601219
B1902114748144N12001932WA0115801221
B1902124748140N12001930WA0116101223
B1902134748138N12001926WA0116301226
B1902144748137N12001921WA0116601229
B1902154748138N12001916WA0116801233
B1902164748141N12001912WA0117101236
B1902174748146N12001909WA0117401238
B1902184748150N12001906WA0117701240
B1902194748154N12001904WA0117901244
B1902204748158N12001901WA0118201248
B1902214748162N12001900WA0118401251
B1902224748166N12001900WA0118801252
B1902234748171N12001902WA0119001254
B1902244748177N12001906WA0119301257
B1902254748181N12001911WA0119501262
B1902264748184N12001918WA0119901267
B1902274748185N12001926WA0120101271
B1902284748185N12001935WA0120501273
B1902294748185N12001943WA0120701275
B1902304748184N12001951WA0121101277
B1902314748183N12001959WA0121301280
B1902324748180N12001965WA0121601283
B1902334748177N12001969WA0121801285
B1902344748173N12001974WA0122101287
B1902354748169N12001978WA0122301290
B1902364748165N12001982WA0122601292
B1902374748161N12001986WA0122801294
B1902384748157N12001991WA0123101296
B1902394748153N12001995WA0123201296
B1902404748149N12001999WA0123501298
B1902414748145N12002002WA0123701300
B1902424748142N12002003WA0123901303
B1902434748139N12002003WA0124101304
B1902444748136N12002002WA0124301306
B1902454748134N12002000WA0124501308
B1902464748131N12001997WA0124701310
B1902474748130N12001994WA0124901313
B1902484748130N12001989WA0125201315
B1902494748131N12001984WA0125301317
B1902494748131N12001984WA0125301317
B1902504748132N12001979WA0125601320
B1902514748134N12001973WA0125701321
B1902524748136N12001967WA0126001324
B1902534748140N12001962WA0126101326
B1902544748143N12001959WA0126401329
B1902554748146N12001955WA0126601330
B1902564748149N12001951WA0126801331
B1902574748152N12001946WA0126901332
B1902584748157N12001942WA0127101332
B1902594748161N12001939WA0127201334
B1903004748166N12001937WA0127401336
B1903014748171N12001936WA0127601338
B1903024748175N12001937WA0127801340
B1903034748179N12001938WA0127901343
B1903044748184N12001940WA0128201345
B1903054748188N12001943WA0128301347
B1903064748192N12001948WA0128501349
B1903074748195N12001954WA0128701350
B1903084748197N12001962WA0128901353
B1903094748197N12001971WA0129101356
B1903104748196N12001979WA0129301360
B1903114748194N12001985WA0129501364
B1903124748190N12001989WA0129901367
B1903134748186N12001993WA0130101370
B1903144748182N12001995WA0130401372
B1903154748177N12001994WA0130601376
B1903164748174N12001992WA0130901378
B1903174748171N12001989WA0131101380
B1903184748170N12001984WA0131401382
B1903194748169N12001979WA0131601384
B1903204748168N12001974WA0131901386
B1903214748168N12001967WA0132001387
B1903224748168N12001961WA0132301387
B1903234748169N12001954WA0132401388
B1903244748172N12001947WA0132601389
B1903254748175N12001942WA0132701390
B1903264748179N12001937WA0132901390
B1903274748183N12001934WA0133001392
B1903284748188N12001933WA0133201394
B1903294748193N12001934WA0133301395
B1903304748198N12001935WA0133501396
B1903314748203N12001938WA0133601396
B1903324748207N12001941WA0133701397
B1903334748212N12001946WA0133801398
B1903344748215N12001953WA0133901397
B1903354748218N12001961WA0134001397
B1903364748220N12001969WA0134101398
B1903374748222N12001977WA0134201399
B1903384748224N12001985WA0134301400
B1903394748225N12001993WA0134401402
B1903404748227N12002000WA0134501404
B1903414748229N12002006WA0134601407
B1903424748232N12002012WA0134801409
B1903434748236N12002018WA0134901411
B1903444748238N12002025WA0135101413
B1903454748241N12002032WA0135301415
B1903464748242N12002040WA0135501417
B1903474748243N12002048WA0135601419
B1903484748243N12002055WA0135801421
B1903494748242N12002063WA0136001423
B1903504748240N12002070WA0136201426
B1903514748239N12002077WA0136401429
B1903514748239N12002077WA0136401429
B1903524748236N12002083WA0136601432
B1903534748233N12002088WA0136801436
B1903544748230N12002091WA0137101439
B1903554748226N12002093WA0137301442
B1903564748222N12002094WA0137601444
B1903574748219N12002093WA0137801447
B1903584748216N12002090WA0138101451
B1903594748215N12002085WA0138301453
B1904004748216N12002079WA0138601455
B1904014748216N12002073WA0138801458
B1904024748217N12002068WA0139101461
B1904034748219N12002063WA0139401464
B1904044748223N12002059WA0139701466
B1904054748228N12002056WA0139801467
B1904064748234N12002053WA0140101469
B1904074748239N12002052WA0140301471
B1904084748245N12002053WA0140501474
B1904094748249N12002055WA0140701476
B1904104748254N12002059WA0141001478
B1904114748258N12002063WA0141101478
B1904124748263N12002069WA0141301479
B1904134748266N12002076WA0141501480
B1904144748269N12002084WA0141701482
B1904154748270N12002092WA0141801484
B1904164748271N12002100WA0142101486
B1904174748272N12002108WA0142201487
B1904184748272N12002117WA0142401488
B1904194748272N12002126WA0142501489
B1904204748272N12002136WA0142701491
B1904214748273N12002145WA0142801494
B1904224748273N12002153WA0143101497
B1904234748273N12002161WA0143201500
B1904244748273N12002168WA0143501503
B1904254748272N12002175WA0143701506
B1904264748271N12002183WA0143901509
B1904274748270N12002191WA0144101510
B1904284748269N12002199WA0144301511
B1904294748268N12002207WA0144501512
B1904304748267N12002214WA0144701515
B1904314748265N12002221WA0144901516
B1904324748262N12002227WA0145101518
B1904334748260N12002235WA0145201519
B1904344748257N12002243WA0145501521
B1904354748254N12002251WA0145601523
B1904364748251N12002257WA0145801526
B1904374748248N12002262WA0146001528
B1904384748245N12002265WA0146201531
B1904394748242N12002267WA0146401534
B1904404748240N12002269WA0146701537
B1904414748238N12002269WA0146901539
B1904424748238N12002267WA0147101540
B1904434748238N12002265WA0147301540
B1904444748239N12002261WA0147401540
B1904454748239N12002257WA0147501540
B1904464748240N12002254WA0147701540
B1904474748242N12002250WA0147801541
B1904484748246N12002247WA0147901543
B1904494748250N12002247WA0148001544
B1904504748256N12002247WA0148101545
B1904514748261N12002249WA0148201545
B1904524748267N12002251WA0148301546
B1904534748273N12002255WA0148401547
B1904544748278N12002260WA0148501549
B1904544748278N12002260WA0148501549
B1904554748283N12002266WA0148601550
B1904564748287N12002273WA0148801552
B1904574748291N12002282WA0148901552
B1904584748294N12002291WA0149001553
B1904594748296N12002301WA0149101555
B1905004748297N12002312WA0149301556
B1905014748296N12002321WA0149401557
B1905024748295N12002330WA0149501558
B1905034748293N12002337WA0149601559
B1905044748290N12002343WA0149701560
B1905054748287N12002347WA0149801560
B1905064748284N12002350WA0149901560
B1905074748281N12002351WA0149901559
B1905084748279N12002351WA0150001559
B1905094748276N12002351WA0150001559
B1905104748274N12002350WA0150101560
B1905114748272N12002349WA0150101560
B1905124748271N12002349WA0150201559
B1905134748269N12002347WA0150201558
B1905144748267N12002346WA0150101556
B1905154748266N12002343WA0150101555
B1905164748266N12002339WA0150101555
B1905174748266N12002335WA0150101554
B1905184748267N12002332WA0150001554
B1905194748269N12002328WA0150001554
B1905204748270N12002324WA0150001554
B1905214748270N12002321WA0150001554
B1905224748270N12002318WA0150001555
B1905234748270N12002316WA0150001556
B1905244748270N12002313WA0150001556
B1905254748270N12002310WA0150001557
B1905264748271N12002307WA0150001557
B1905274748272N12002303WA0150101558
B1905284748275N12002298WA0150101559
B1905294748278N12002293WA0150201561
B1905304748282N12002289WA0150301564
B1905314748285N12002286WA0150301567
B1905324748289N12002285WA0150501569
B1905334748294N12002285WA0150501568
B1905344748301N12002286WA0150601567
B1905354748308N12002288WA0150601567
B1905364748315N12002292WA0150701570
B1905374748320N12002299WA0150801573
B1905384748323N12002306WA0151001574
B1905394748325N12002315WA0151001576
B1905404748326N12002323WA0151201577
B1905414748326N12002330WA0151301580
B1905424748324N12002336WA0151401581
B1905434748321N12002340WA0151501581
B1905444748317N12002342WA0151601582
B1905454748314N12002341WA0151701583
B1905464748312N12002339WA0151901585
B1905474748311N12002336WA0152001586
B1905484748311N12002332WA0152101587
B1905494748311N12002328WA0152201589
B1905504748312N12002323WA0152401589
B1905514748315N12002318WA0152501590
B1905524748319N12002313WA0152601591
B1905534748325N12002310WA0152601592
B1905544748332N12002308WA0152801593
B1905554748339N12002308WA0152801594
B1905564748345N12002310WA0153001596
B1905574748350N12002315WA0153101598
B1905574748350N12002315WA0153101598
B1905584748355N12002323WA0153201599
B1905594748359N12002330WA0153301600
B1906004748361N12002337WA0153501602
B1906014748361N12002344WA0153601603
B1906024748361N12002350WA0153701603
B1906034748360N12002357WA0153801604
B1906044748358N12002363WA0153901604
B1906054748355N12002369WA0154001604
B1906064748352N12002372WA0154001604
B1906074748348N12002374WA0154101605
B1906084748345N12002373WA0154201606
B1906094748343N12002371WA0154301608
B1906104748341N12002367WA0154401609
B1906114748341N12002363WA0154501611
B1906124748341N12002359WA0154601613
B1906134748342N12002355WA0154701616
B1906144748341N12002352WA0154901617
B1906154748340N12002349WA0155001617
B1906164748340N12002345WA0155101616
B1906174748339N12002340WA0155101616
B1906184748340N12002335WA0155201615
B1906194748341N12002330WA0155301615
B1906204748343N12002324WA0155301616
B1906214748344N12002319WA0155401617
B1906224748345N12002313WA0155501619
B1906234748344N12002308WA0155501621
B1906244748344N12002302WA0155701623
B1906254748344N12002297WA0155801625
B1906264748344N12002292WA0155901628
B1906274748344N12002288WA0156101630
B1906284748345N12002285WA0156201632
B1906294748345N12002282WA0156401634
B1906304748346N12002278WA0156501634
B1906314748346N12002273WA0156601634
B1906324748347N12002268WA0156801633
B1906334748347N12002263WA0156901634
B1906344748349N12002259WA0157001636
B1906354748351N12002256WA0157101636
B1906364748356N12002253WA0157201636
B1906374748360N12002252WA0157201636
B1906384748366N12002253WA0157301637
B1906394748371N12002258WA0157401638
B1906404748375N12002264WA0157501639
B1906414748380N12002269WA0157501640
B1906424748386N12002275WA0157601641
B1906434748390N12002279WA0157701645
B1906444748395N12002283WA0157901649
B1906454748399N12002286WA0158101652
B1906464748404N12002288WA0158301654
B1906474748409N12002290WA0158401655
B1906484748414N12002291WA0158601657
B1906494748419N12002291WA0158701659
B1906504748424N12002291WA0158901661
B1906514748430N12002291WA0159001662
B1906524748436N12002292WA0159201663
B1906534748442N12002295WA0159301666
B1906544748448N12002298WA0159601669
B1906554748454N12002303WA0159701673
B1906564748459N12002309WA0160001676
B1906574748464N12002315WA0160201679
B1906584748468N12002322WA0160401683
B1906594748471N12002329WA0160601686
B1907004748474N12002337WA0160901689
B1907004748474N12002337WA0160901689
B1907014748475N12002346WA0161101692
B1907024748475N12002354WA0161401694
B1907034748474N12002363WA0161601697
B1907044748472N12002370WA0161901700
B1907054748470N12002376WA0162101703
B1907064748468N12002381WA0162501707
B1907074748465N12002384WA0162701710
B1907084748463N12002386WA0163001713
B1907094748460N12002387WA0163201715
B1907104748457N12002387WA0163601717
B1907114748455N12002386WA0163801718
B1907124748452N12002384WA0164101719
B1907134748451N12002381WA0164201721
B1907144748450N12002377WA0164501724
B1907154748450N12002373WA0164701728
B1907164748450N12002368WA0165001732
B1907174748451N12002363WA0165301735
B1907184748452N12002358WA0165601738
B1907194748453N12002354WA0165801742
B1907204748455N12002350WA0166201745
B1907214748457N12002347WA0166401748
B1907224748460N12002344WA0166701750
B1907234748465N12002342WA0166901751
B1907244748470N12002339WA0167201751
B1907254748476N12002338WA0167301752
B1907264748483N12002337WA0167601754
B1907274748489N12002338WA0167701757
B1907284748495N12002340WA0168001759
B1907294748501N12002342WA0168201761
B1907304748507N12002344WA0168401762
B1907314748514N12002345WA0168601763
B1907324748520N12002346WA0168801765
B1907334748527N12002349WA0168901767
B1907344748533N12002354WA0169101768
B1907354748537N12002360WA0169301768
B1907364748541N12002367WA0169401768
B1907374748545N12002376WA0169501768
B1907384748549N12002384WA0169701770
B1907394748552N12002391WA0169801771
B1907404748556N12002398WA0169901773
B1907414748559N12002404WA0170001774
B1907424748562N12002412WA0170201774
B1907434748564N12002421WA0170301774
B1907444748564N12002431WA0170401774
B1907454748564N12002440WA0170401775
B1907464748562N12002448WA0170501777
B1907474748561N12002455WA0170601778
B1907484748560N12002460WA0170801780
B1907494748559N12002466WA0170901783
B1907504748558N12002471WA0171101785
B1907514748556N12002476WA0171201787
B1907524748554N12002480WA0171401787
B1907534748551N12002484WA0171401787
B1907544748549N12002487WA0171601788
B1907554748546N12002490WA0171701791
B1907564748544N12002492WA0171901793
B1907574748543N12002493WA0172001796
B1907584748541N12002493WA0172201797
B1907594748539N12002492WA0172301797
B1908004748537N12002489WA0172501798
B1908014748536N12002485WA0172601799
B1908024748536N12002480WA0172701800
B1908034748537N12002476WA0172801803
B1908034748537N12002476WA0172801803
B1908044748538N12002472WA0173001806
B1908054748539N12002469WA0173201808
B1908064748540N12002465WA0173401810
B1908074748540N12002462WA0173501811
B1908084748540N12002459WA0173701813
B1908094748541N12002456WA0173801815
B1908104748543N12002453WA0174001817
B1908114748546N12002449WA0174201818
B1908124748549N12002445WA0174301819
B1908134748553N12002441WA0174401819
B1908144748558N12002437WA0174601820
B1908154748563N12002435WA0174701821
B1908164748569N12002434WA0174801823
B1908174748575N12002433WA0174901825
B1908184748581N12002434WA0175101826
B1908194748587N12002435WA0175201827
B1908204748593N12002438WA0175301827
B1908214748599N12002444WA0175401828
B1908224748604N12002451WA0175501829
B1908234748608N12002459WA0175601830
B1908244748611N12002468WA0175801832
B1908254748614N12002476WA0175901833
B1908264748616N12002486WA0176001834
B1908274748617N12002495WA0176101834
B1908284748618N12002504WA0176201835
B1908294748619N12002513WA0176301836
B1908304748619N12002522WA0176401837
B1908314748618N12002530WA0176501838
B1908324748616N12002538WA0176601839
B1908334748615N12002544WA0176701841
B1908344748613N12002549WA0176801843
B1908354748611N12002553WA0176901846
B1908364748608N12002555WA0177101847
B1908374748606N12002556WA0177201848
B1908384748603N12002556WA0177401849
B1908394748601N12002556WA0177501850
B1908404748599N12002554WA0177701851
B1908414748598N12002550WA0177801852
B1908424748598N12002546WA0177901852
B1908434748599N12002540WA0177901852
B1908444748602N12002536WA0178101853
B1908454748606N12002532WA0178101854
B1908464748610N12002528WA0178301856
B1908474748614N12002526WA0178301857
B1908484748619N12002524WA0178501858
B1908494748624N12002524WA0178501858
B1908504748630N12002524WA0178601858
B1908514748637N12002525WA0178701859
B1908524748643N12002527WA0178801859
B1908534748649N12002531WA0178901861
B1908544748655N12002536WA0179001862
B1908554748661N12002542WA0179001862
B1908564748666N12002549WA0179101862
B1908574748671N12002557WA0179201862
B1908584748675N12002565WA0179201861
B1908594748677N12002574WA0179201860
B1909004748679N12002583WA0179201860
B1909014748681N12002592WA0179201859
B1909024748683N12002601WA0179201859
B1909034748686N12002611WA0179201860
B1909044748688N12002620WA0179301862
B1909054748689N12002629WA0179301865
B1909054748689N12002629WA0179301865
B1909064748689N12002637WA0179401865
B1909074748687N12002645WA0179401865
B1909084748685N12002652WA0179401864
B1909094748683N12002658WA0179501865
B1909104748681N12002661WA0179501866
B1909114748680N12002663WA0179601867
B1909124748678N12002664WA0179601867
B1909134748676N12002665WA0179701866
B1909144748673N12002665WA0179701865
B1909154748671N12002664WA0179701865
B1909164748669N12002663WA0179701865
B1909174748667N12002660WA0179701866
B1909184748667N12002658WA0179801867
B1909194748667N12002655WA0179801868
B1909204748667N12002652WA0179801868
B1909214748668N12002649WA0179901868
B1909224748668N12002645WA0179901867
B1909234748668N12002641WA0179901866
B1909244748667N12002637WA0179901866
B1909254748666N12002634WA0179801866
B1909264748665N12002630WA0179801866
B1909274748663N12002628WA0179901866
B1909284748662N12002625WA0179901866
B1909294748661N12002621WA0179901867
B1909304748660N12002618WA0179901867
B1909314748659N12002615WA0179901867
B1909324748657N12002613WA0180001867
B1909334748656N12002611WA0180001868
B1909344748654N12002609WA0180001868
B1909354748652N12002607WA0180101868
B1909364748651N12002605WA0180101867
B1909374748650N12002603WA0180101867
B1909384748649N12002601WA0180101865
B1909394748648N12002599WA0180101863
B1909404748646N12002596WA0180001860
B1909414748644N12002594WA0179901858
B1909424748643N12002592WA0179901859
B1909434748642N12002592WA0179801861
B1909444748640N12002594WA0179901862
B1909454748638N12002596WA0179901863
B1909464748636N12002597WA0179801862
B1909474748633N12002597WA0179801861
B1909484748630N12002596WA0179801860
B1909494748627N12002595WA0179801859
B1909504748625N12002594WA0179701859
B1909514748622N12002594WA0179701858
B1909524748619N12002594WA0179701858
B1909534748617N12002594WA0179701858
B1909544748615N12002594WA0179601859
B1909554748613N12002596WA0179601859
B1909564748611N12002598WA0179601858
B1909574748609N12002600WA0179601856
B1909584748606N12002601WA0179501855
B1909594748604N12002601WA0179401853
B1910004748601N12002599WA0179301851
B1910014748599N12002597WA0179301849
B1910024748596N12002596WA0179101847
B1910034748594N12002595WA0179001845
B1910044748591N12002594WA0178901843
B1910054748588N12002592WA0178701840
B1910064748585N12002590WA0178501837
B1910074748583N12002587WA0178401835
B1910084748582N12002584WA0178201833
B1910084748582N12002584WA0178201833
B1910094748580N12002581WA0178101831
B1910104748577N12002579WA0177801829
B1910114748575N12002577WA0177701827
B1910124748572N12002576WA0177501826
B1910134748569N12002574WA0177301824
B1910144748567N12002571WA0177101822
B1910154748565N12002568WA0177001820
B1910164748563N12002565WA0176801818
B1910174748561N12002563WA0176601816
B1910184748559N12002561WA0176401814
B1910194748556N12002559WA0176301812
B1910204748553N12002558WA0176001811
B1910214748550N12002557WA0175901809
B1910224748548N12002556WA0175701808
B1910234748545N12002555WA0175601806
B1910244748542N12002555WA0175401804
B1910254748540N12002554WA0175301802
B1910264748537N12002554WA0175001800
B1910274748534N12002553WA0174901798
B1910284748531N12002552WA0174701796
B1910294748529N12002550WA0174501794
B1910304748526N12002549WA0174301791
B1910314748523N12002548WA0174201790
B1910324748520N12002548WA0174001788
B1910334748517N12002548WA0173801787
B1910344748515N12002548WA0173701786
B1910354748512N12002549WA0173501785
B1910364748509N12002550WA0173301783
B1910374748506N12002551WA0173201781
B1910384748502N12002552WA0173001780
B1910394748499N12002552WA0172901779
B1910404748497N12002553WA0172801778
B1910414748494N12002553WA0172601777
B1910424748492N12002553WA0172501776
B1910434748489N12002552WA0172401774
B1910444748485N12002551WA0172201773
B1910454748483N12002551WA0172101773
B1910464748480N12002551WA0172001773
B1910474748478N12002551WA0171901772
B1910484748475N12002552WA0171801771
B1910494748472N12002552WA0171701769
B1910504748469N12002551WA0171501767
B1910514748466N12002550WA0171401766
B1910524748462N12002549WA0171301764
B1910534748459N12002548WA0171201763
B1910544748456N12002548WA0171001762
B1910554748453N12002547WA0170901761
B1910564748450N12002547WA0170801760
B1910574748446N12002547WA0170701759
B1910584748443N12002547WA0170501758
B1910594748440N12002546WA0170501757
B1911004748437N12002546WA0170301757
B1911014748434N12002545WA0170301756
B1911024748430N12002545WA0170201755
B1911034748427N12002545WA0170101754
B1911044748424N12002544WA0170001753
B1911054748421N12002544WA0169901752
B1911064748417N12002544WA0169701751
B1911074748414N12002543WA0169701750
B1911084748411N12002543WA0169501749
B1911094748409N12002542WA0169501748
B1911104748406N12002541WA0169401748
B1911104748406N12002541WA0169401748
B1911114748403N12002540WA0169301747
B1911124748400N12002540WA0169201746
B1911134748398N12002540WA0169101744
B1911144748395N12002540WA0168901743
B1911154748392N12002540WA0168901741
B1911164748389N12002539WA0168701740
B1911174748386N12002539WA0168601739
B1911184748383N12002539WA0168501737
B1911194748380N12002539WA0168401736
B1911204748377N12002540WA0168201736
B1911214748374N12002540WA0168201735
B1911224748371N12002539WA0168001734
B1911234748369N12002538WA0167901733
B1911244748366N12002537WA0167801732
B1911254748363N12002535WA0167701731
B1911264748360N12002533WA0167601730
B1911274748357N12002531WA0167501729
B1911284748354N12002530WA0167401728
B1911294748350N12002528WA0167301728
B1911304748347N12002527WA0167201727
B1911314748344N12002525WA0167201727
B1911324748341N12002524WA0167101727
B1911334748338N12002523WA0167001726
B1911344748335N12002521WA0167001725
B1911354748332N12002520WA0166901724
B1911364748329N12002519WA0166801724
B1911374748325N12002518WA0166801724
B1911384748322N12002517WA0166701723
B1911394748319N12002517WA0166601722
B1911404748315N12002517WA0166501721
B1911414748311N12002517WA0166501720
B1911424748308N12002516WA0166401719
B1911434748304N12002515WA0166301718
B1911444748301N12002514WA0166201716
B1911454748298N12002513WA0166101715
B1911464748294N12002511WA0166001714
B1911474748291N12002510WA0165901713
B1911484748288N12002509WA0165801712
B1911494748284N12002508WA0165801712
B1911504748282N12002506WA0165701712
B1911514748279N12002506WA0165601712
B1911524748276N12002505WA0165601712
B1911534748273N12002504WA0165501710
B1911544748270N12002504WA0165401708
B1911554748266N12002502WA0165301707
B1911564748263N12002501WA0165201705
B1911574748260N12002498WA0165101704
B1911584748257N12002497WA0165001703
B1911594748254N12002495WA0164901702
B1912004748252N12002493WA0164801700
B1912014748249N12002491WA0164701699
B1912024748247N12002488WA0164501697
B1912034748244N12002485WA0164401695
B1912044748242N12002482WA0164301693
B1912054748239N12002479WA0164201692
B1912064748237N12002476WA0164001690
B1912074748234N12002473WA0163901689
B1912084748232N12002469WA0163701687
B1912094748229N12002466WA0163601685
B1912104748226N12002464WA0163401683
B1912114748223N12002461WA0163301682
B1912124748220N12002459WA0163201681
B1912124748220N12002459WA0163201681
B1912134748217N12002457WA0163101680
B1912144748214N12002454WA0162901679
B1912154748212N12002452WA0162801678
B1912164748209N12002448WA0162701676
B1912174748207N12002444WA0162601674
B1912184748205N12002440WA0162401672
B1912194748203N12002435WA0162301670
B1912204748201N12002431WA0162101669
B1912214748199N12002428WA0162001667
B1912224748196N12002425WA0161801666
B1912234748194N12002422WA0161701665
B1912244748193N12002418WA0161501664
B1912254748192N12002413WA0161401662
B1912264748190N12002408WA0161301661
B1912274748189N12002404WA0161201660
B1912284748188N12002400WA0161001660
B1912294748187N12002397WA0161001659
B1912304748185N12002393WA0160801658
B1912314748184N12002389WA0160701656
B1912324748181N12002386WA0160601655
B1912334748179N12002383WA0160501654
B1912344748176N12002381WA0160401653
B1912354748173N12002380WA0160301653
B1912364748171N12002379WA0160201653
B1912374748168N12002378WA0160201653
B1912384748166N12002377WA0160101654
B1912394748164N12002376WA0160101653
B1912404748162N12002374WA0160001652
B1912414748160N12002372WA0160001651
B1912424748158N12002370WA0159901650
B1912434748156N12002367WA0159801649
B1912444748154N12002365WA0159801649
B1912454748152N12002363WA0159701648
B1912464748150N12002361WA0159601647
B1912474748148N12002359WA0159601645
B1912484748146N12002356WA0159401644
B1912494748144N12002353WA0159401643
B1912504748142N12002350WA0159301642
B1912514748140N12002347WA0159201640
B1912524748137N12002345WA0159101639
B1912534748134N12002344WA0159001637
B1912544748132N12002343WA0158801636
B1912554748130N12002342WA0158801635
B1912564748128N12002339WA0158601634
B1912574748126N12002337WA0158501632
B1912584748124N12002333WA0158401630
B1912594748123N12002329WA0158301629
B1913004748121N12002326WA0158101628
B1913014748120N12002322WA0158101627
B1913024748118N12002319WA0157901626
B1913034748116N12002316WA0157801625
B1913044748114N12002313WA0157701623
B1913054748113N12002309WA0157601622
B1913064748111N12002306WA0157401620
B1913074748109N12002302WA0157301618
B1913084748107N12002298WA0157201617
B1913094748105N12002294WA0157101616
B1913104748104N12002290WA0157001616
B1913114748103N12002286WA0156901615
B1913124748101N12002282WA0156701614
B1913134748100N12002277WA0156601612
B1913144748099N12002272WA0156501611
B1913154748098N12002267WA0156401609
B1913154748098N12002267WA0156401609
B1913164748096N12002262WA0156201608
B1913174748096N12002257WA0156101607
B1913184748094N12002253WA0156001605
B1913194748093N12002249WA0155901603
B1913204748091N12002245WA0155701601
B1913214748089N12002241WA0155601599
B1913224748086N12002237WA0155401597
B1913234748084N12002234WA0155301596
B1913244748082N12002230WA0155101594
B1913254748080N12002227WA0155001592
B1913264748078N12002224WA0154801590
B1913274748075N12002221WA0154701588
B1913284748073N12002218WA0154501586
B1913294748071N12002215WA0154401584
B1913304748069N12002212WA0154201582
B1913314748067N12002209WA0154001580
B1913324748065N12002205WA0153801577
B1913334748062N12002202WA0153701575
B1913344748060N12002200WA0153501574
B1913354748058N12002197WA0153301573
B1913364748056N12002195WA0153101572
B1913374748054N12002193WA0153001572
B1913384748052N12002192WA0152901571
B1913394748050N12002191WA0152801569
B1913404748047N12002190WA0152601568
B1913414748044N12002188WA0152501567
B1913424748042N12002187WA0152301566
B1913434748039N12002185WA0152201565
B1913444748036N12002184WA0152101563
B1913454748033N12002183WA0152001562
B1913464748030N12002181WA0151801561
B1913474748027N12002179WA0151701560
B1913484748024N12002178WA0151601559
B1913494748021N12002178WA0151501559
B1913504748018N12002179WA0151401558
B1913514748014N12002180WA0151301557
B1913524748010N12002182WA0151201556
B1913534748006N12002184WA0151101554
B1913544748002N12002187WA0151001553
B1913554747999N12002189WA0150901553
B1913564747995N12002192WA0150801552
B1913574747991N12002195WA0150701552
B1913584747988N12002199WA0150601551
B1913594747985N12002203WA0150501551
B1914004747982N12002207WA0150401551
B1914014747979N12002212WA0150401549
B1914024747976N12002217WA0150201548
B1914034747973N12002221WA0150201548
B1914044747970N12002224WA0150101547
B1914054747967N12002227WA0150001546
B1914064747964N12002229WA0149901545
B1914074747960N12002231WA0149801543
B1914084747957N12002233WA0149701541
B1914094747954N12002236WA0149501539
B1914104747951N12002239WA0149401537
B1914114747948N12002242WA0149301535
B1914124747945N12002247WA0149101533
B1914134747942N12002251WA0149001530
B1914144747939N12002256WA0148801528
B1914154747936N12002259WA0148601526
B1914164747932N12002262WA0148401523
B1914174747929N12002263WA0148201521
B1914184747925N12002264WA0148001519
B1914184747925N12002264WA0148001519
B1914194747922N12002265WA0147901518
B1914204747918N12002267WA0147701517
B1914214747915N12002268WA0147501516
B1914224747912N12002270WA0147301514
B1914234747908N12002272WA0147201512
B1914244747905N12002275WA0147001510
B1914254747901N12002277WA0146901508
B1914264747897N12002278WA0146701506
B1914274747894N12002279WA0146501504
B1914284747890N12002280WA0146301502
B1914294747886N12002279WA0146101500
B1914304747882N12002279WA0145901498
B1914314747879N12002277WA0145801496
B1914324747875N12002276WA0145601494
B1914334747872N12002274WA0145401493
B1914344747868N12002271WA0145201492
B1914354747864N12002269WA0145101491
B1914364747860N12002268WA0144901490
B1914374747857N12002268WA0144801490
B1914384747854N12002269WA0144701491
B1914394747850N12002269WA0144601490
B1914404747847N12002268WA0144501488
B1914414747843N12002266WA0144401487
B1914424747839N12002265WA0144201485
B1914434747835N12002264WA0144101484
B1914444747831N12002262WA0144001483
B1914454747826N12002261WA0143901482
B1914464747822N12002261WA0143801481
B1914474747817N12002262WA0143701480
B1914484747813N12002263WA0143601481
B1914494747809N12002263WA0143601481
B1914504747805N12002262WA0143501482
B1914514747801N12002261WA0143501484
B1914524747798N12002260WA0143501485
B1914534747794N12002261WA0143501486
B1914544747791N12002262WA0143501485
B1914554747787N12002262WA0143501485
B1914564747783N12002262WA0143501483
B1914574747779N12002263WA0143401482
B1914584747774N12002265WA0143401480
B1914594747770N12002267WA0143301479
B1915004747766N12002269WA0143201479
B1915014747762N12002271WA0143201479
B1915024747759N12002274WA0143101478
B1915034747755N12002278WA0143101478
B1915044747752N12002281WA0143101478
B1915054747749N12002285WA0143001477
B1915064747745N12002287WA0143001477
B1915074747742N12002289WA0142901476
B1915084747739N12002290WA0142801475
B1915094747735N12002292WA0142801474
B1915104747732N12002294WA0142701473
B1915114747729N12002295WA0142601472
B1915124747725N12002296WA0142601472
B1915134747722N12002297WA0142501471
B1915144747719N12002300WA0142401470
B1915154747716N12002302WA0142401469
B1915164747713N12002305WA0142301469
B1915174747711N12002308WA0142301470
B1915184747710N12002310WA0142301471
B1915194747708N12002313WA0142301472
B1915204747707N12002315WA0142301472
B1915214747705N12002319WA0142201472
B1915214747705N12002319WA0142201472
B1915224747702N12002323WA0142201471
B1915234747699N12002327WA0142201470
B1915244747696N12002330WA0142201470
B1915254747693N12002333WA0142101470
B1915264747690N12002335WA0142101470
B1915274747687N12002336WA0142101471
B1915284747684N12002338WA0142101470
B1915294747681N12002340WA0142101469
B1915304747677N12002342WA0142001469
B1915314747674N12002343WA0142001469
B1915324747672N12002344WA0142001470
B1915334747670N12002344WA0142001470
B1915344747667N12002344WA0142001470
B1915354747665N12002345WA0142001470
B1915364747662N12002346WA0142001470
B1915374747659N12002347WA0142001471
B1915384747657N12002348WA0142001472
B1915394747654N12002349WA0142101473
B1915404747651N12002350WA0142101473
B1915414747648N12002349WA0142101473
B1915424747645N12002348WA0142101473
B1915434747642N12002347WA0142101473
B1915444747639N12002345WA0142101473
B1915454747636N12002345WA0142201473
B1915464747633N12002345WA0142201473
B1915474747629N12002344WA0142201473
B1915484747626N12002343WA0142201472
B1915494747622N12002342WA0142201472
B1915504747619N12002340WA0142201472
B1915514747616N12002339WA0142201471
B1915524747612N12002337WA0142201471
B1915534747608N12002336WA0142101471
B1915544747605N12002335WA0142101471
B1915554747601N12002334WA0142101471
B1915564747597N12002334WA0142101471
B1915574747593N12002333WA0142101471
B1915584747589N12002333WA0142101470
B1915594747585N12002332WA0142001469
B1916004747580N12002332WA0142001467
B1916014747576N12002331WA0142001466
B1916024747572N12002331WA0141901465
B1916034747569N12002331WA0141801464
B1916044747566N12002330WA0141701463
B1916054747563N12002328WA0141701461
B1916064747560N12002326WA0141601459
B1916074747557N12002323WA0141501457
B1916084747554N12002320WA0141301455
B1916094747551N12002317WA0141201454
B1916104747549N12002313WA0141101451
B1916114747546N12002310WA0141001450
B1916124747543N12002306WA0140801448
B1916134747540N12002304WA0140701446
B1916144747536N12002301WA0140501445
B1916154747532N12002299WA0140401443
B1916164747528N12002296WA0140301442
B1916174747524N12002292WA0140101440
B1916184747521N12002289WA0140001439
B1916194747517N12002286WA0139901439
B1916204747514N12002283WA0139801438
B1916214747511N12002280WA0139701437
B1916224747507N12002278WA0139601435
B1916234747503N12002276WA0139501433
B1916244747498N12002274WA0139301431
B1916244747498N12002274WA0139301431
B1916254747494N12002271WA0139201431
B1916264747491N12002268WA0139101430
B1916274747488N12002265WA0139001430
B1916284747485N12002262WA0138901430
B1916294747483N12002260WA0138901430
B1916304747480N12002259WA0138801428
B1916314747476N12002258WA0138701425
B1916324747472N12002257WA0138501422
B1916334747469N12002255WA0138401420
B1916344747466N12002254WA0138301420
B1916354747463N12002253WA0138201420
B1916364747460N12002253WA0138101419
B1916374747457N12002251WA0138001417
B1916384747454N12002249WA0137801414
B1916394747451N12002247WA0137701412
B1916404747448N12002244WA0137501410
B1916414747445N12002241WA0137401410
B1916424747443N12002237WA0137201409
B1916434747441N12002234WA0137201408
B1916444747439N12002230WA0137001408
B1916454747436N12002227WA0136901407
B1916464747434N12002224WA0136801407
B1916474747431N12002222WA0136701406
B1916484747429N12002219WA0136601406
B1916494747426N12002216WA0136601406
B1916504747424N12002212WA0136501405
B1916514747422N12002209WA0136401405
B1916524747420N12002207WA0136301404
B1916534747417N12002205WA0136301403
B1916544747415N12002204WA0136201403
B1916554747413N12002202WA0136101402
B1916564747411N12002201WA0136001400
B1916574747408N12002199WA0136001399
B1916584747406N12002197WA0135901398
B1916594747404N12002195WA0135801397
B1917004747401N12002193WA0135701397
B1917014747399N12002191WA0135601397
B1917024747397N12002189WA0135601397
B1917034747395N12002187WA0135501397
B1917044747392N12002185WA0135501398
B1917054747390N12002183WA0135501398
B1917064747388N12002181WA0135401398
B1917074747385N12002179WA0135401399
B1917084747383N12002177WA0135401399
B1917094747380N12002176WA0135401399
B1917104747377N12002175WA0135401398
B1917114747374N12002174WA0135401397
B1917124747371N12002174WA0135301396
B1917134747367N12002173WA0135301397
B1917144747365N12002173WA0135301398
B1917154747363N12002172WA0135301399
B1917164747361N12002172WA0135301399
B1917174747359N12002172WA0135301398
B1917184747356N12002171WA0135201396
B1917194747352N12002169WA0135201395
B1917204747348N12002167WA0135101394
B1917214747344N12002166WA0135101394
B1917224747340N12002164WA0135101395
B1917234747337N12002164WA0135101397
B1917244747333N12002164WA0135101398
B1917254747330N12002164WA0135101398
B1917264747326N12002163WA0135201399
B1917264747326N12002163WA0135201399
B1917274747323N12002163WA0135201399
B1917284747320N12002161WA0135201399
B1917294747317N12002159WA0135201399
B1917304747315N12002156WA0135201400
B1917314747313N12002152WA0135201400
B1917324747311N12002149WA0135301400
B1917334747310N12002144WA0135301399
B1917344747309N12002140WA0135301399
B1917354747309N12002136WA0135301400
B1917364747308N12002133WA0135301401
B1917374747308N12002130WA0135301403
B1917384747306N12002127WA0135401404
B1917394747304N12002124WA0135401404
B1917404747302N12002120WA0135501404
B1917414747301N12002115WA0135501406
B1917424747299N12002110WA0135601408
B1917434747298N12002105WA0135601409
B1917444747299N12002100WA0135701411
B1917454747300N12002095WA0135801412
B1917464747303N12002090WA0135901412
B1917474747307N12002086WA0136001414
B1917484747313N12002084WA0136101415
B1917494747319N12002084WA0136201417
B1917504747325N12002088WA0136301419
B1917514747330N12002095WA0136401420
B1917524747334N12002104WA0136501422
B1917534747336N12002113WA0136601424
B1917544747336N12002123WA0136701426
B1917554747334N12002131WA0136801427
B1917564747331N12002137WA0137001429
B1917574747328N12002142WA0137101430
B1917584747324N12002145WA0137201431
B1917594747319N12002148WA0137301432
B1918004747315N12002148WA0137401434
B1918014747313N12002148WA0137501436
B1918024747311N12002145WA0137701438
B1918034747310N12002141WA0137801438
B1918044747310N12002137WA0137901439
B1918054747311N12002133WA0138001440
B1918064747313N12002129WA0138101441
B1918074747316N12002126WA0138201441
B1918084747321N12002123WA0138301441
B1918094747327N12002121WA0138401442
B1918104747333N12002121WA0138501444
B1918114747339N12002124WA0138601446
B1918124747345N12002130WA0138701448
B1918134747349N12002137WA0138801449
B1918144747352N12002146WA0139001449
B1918154747354N12002156WA0139101451
B1918164747354N12002165WA0139201452
B1918174747352N12002174WA0139301454
B1918184747349N12002180WA0139501455
B1918194747345N12002184WA0139601456
B1918204747340N12002186WA0139701458
B1918214747337N12002186WA0139801459
B1918224747334N12002183WA0140001461
B1918234747333N12002180WA0140001461
B1918244747333N12002176WA0140201462
B1918254747334N12002172WA0140301462
B1918264747336N12002167WA0140401463
B1918274747338N12002161WA0140501464
B1918284747341N12002157WA0140601466
B1918294747344N12002153WA0140701468
B1918294747344N12002153WA0140701468
B1918304747348N12002151WA0140801469
B1918314747353N12002149WA0140901470
B1918324747359N12002149WA0141101472
B1918334747364N12002151WA0141201473
B1918344747370N12002155WA0141301475
B1918354747375N12002161WA0141401475
B1918364747378N12002169WA0141501475
B1918374747379N12002179WA0141601476
B1918384747379N12002188WA0141701477
B1918394747378N12002197WA0141801478
B1918404747376N12002204WA0141901480
B1918414747373N12002211WA0142001482
B1918424747370N12002216WA0142201484
B1918434747366N12002220WA0142301485
B1918444747363N12002221WA0142401486
B1918454747359N12002222WA0142501487
B1918464747357N12002220WA0142601487
B1918474747354N12002217WA0142701488
B1918484747353N12002214WA0142801489
B1918494747351N12002211WA0142901491
B1918504747351N12002206WA0143001492
B1918514747351N12002202WA0143101493
B1918524747352N12002197WA0143301494
B1918534747355N12002192WA0143401495
B1918544747358N12002188WA0143501497
B1918554747362N12002184WA0143601498
B1918564747367N12002181WA0143701500
B1918574747373N12002179WA0143801500
B1918584747380N12002180WA0143901501
B1918594747386N12002183WA0144001502
B1919004747391N12002189WA0144101503
B1919014747395N12002197WA0144201505
B1919024747397N12002205WA0144301505
B1919034747399N12002214WA0144401505
B1919044747399N12002223WA0144501506
B1919054747398N12002232WA0144501506
B1919064747395N12002240WA0144601507
B1919074747392N12002247WA0144701508
B1919084747388N12002253WA0144801509
B1919094747384N12002256WA0144901511
B1919104747381N12002259WA0145001513
B1919114747378N12002259WA0145101515
B1919124747376N12002259WA0145301516
B1919134747375N12002256WA0145401516
B1919144747374N12002253WA0145501516
B1919154747373N12002249WA0145501516
B1919164747374N12002244WA0145601515
B1919174747376N12002239WA0145601515
B1919184747379N12002234WA0145601514
B1919194747382N12002228WA0145701515
B1919204747386N12002223WA0145701515
B1919214747389N12002217WA0145801517
B1919224747391N12002212WA0145801518
B1919234747393N12002207WA0145901519
B1919244747394N12002202WA0146001520
B1919254747395N12002197WA0146001520
B1919264747398N12002192WA0146101519
B1919274747401N12002188WA0146101520
B1919284747405N12002184WA0146101520
B1919294747409N12002181WA0146201520
B1919304747414N12002180WA0146201520
B1919314747419N12002179WA0146201519
B1919324747425N12002180WA0146301519
B1919324747425N12002180WA0146301519
B1919334747430N12002182WA0146301519
B1919344747436N12002186WA0146301520
B1919354747441N12002191WA0146401522
B1919364747445N12002196WA0146501523
B1919374747450N12002203WA0146501524
B1919384747453N12002210WA0146601525
B1919394747457N12002218WA0146601526
B1919404747459N12002227WA0146701525
B1919414747460N12002236WA0146701524
B1919424747460N12002245WA0146801524
B1919434747459N12002254WA0146801524
B1919444747457N12002261WA0146801525
B1919454747454N12002268WA0146801525
B1919464747451N12002274WA0146901524
B1919474747447N12002279WA0146901524
B1919484747443N12002284WA0146901524
B1919494747439N12002288WA0146801523
B1919504747435N12002292WA0146801523
B1919514747431N12002296WA0146801523
B1919524747428N12002300WA0146801523
B1919534747424N12002304WA0146801523
B1919544747419N12002307WA0146901523
B1919554747415N12002310WA0146901523
B1919564747411N12002313WA0146901523
B1919574747407N12002316WA0146901524
B1919584747404N12002319WA0146901524
B1919594747400N12002322WA0146901524
B1920004747397N12002325WA0146901524
B1920014747394N12002329WA0146901523
B1920024747390N12002332WA0146901522
B1920034747386N12002334WA0146901521
B1920044747383N12002336WA0146901520
B1920054747379N12002337WA0146901519
B1920064747375N12002338WA0146801518
B1920074747372N12002338WA0146801517
B1920084747368N12002338WA0146701516
B1920094747365N12002339WA0146601516
B1920104747361N12002340WA0146601515
B1920114747357N12002343WA0146501515
B1920124747354N12002345WA0146501514
B1920134747351N12002347WA0146501514
B1920144747347N12002348WA0146401513
B1920154747344N12002348WA0146401512
B1920164747341N12002346WA0146301512
B1920174747339N12002345WA0146301512
B1920184747336N12002344WA0146201512
B1920194747334N12002344WA0146201512
B1920204747331N12002343WA0146201512
B1920214747327N12002343WA0146101511
B1920224747324N12002342WA0146101510
B1920234747322N12002340WA0146101510
B1920244747320N12002337WA0146001510
B1920254747318N12002334WA0146001509
B1920264747315N12002331WA0145901509
B1920274747313N12002327WA0145901509
B1920284747311N12002324WA0145801508
B1920294747308N12002321WA0145801508
B1920304747306N12002318WA0145801508
B1920314747304N12002315WA0145701507
B1920324747302N12002311WA0145701507
B1920334747299N12002308WA0145701506
B1920344747297N12002304WA0145601506
B1920354747295N12002301WA0145601505
B1920354747295N12002301WA0145601505
B1920364747293N12002298WA0145501505
B1920374747291N12002295WA0145501505
B1920384747288N12002293WA0145501505
B1920394747285N12002291WA0145501505
B1920404747283N12002289WA0145501505
B1920414747280N12002287WA0145501504
B1920424747277N12002285WA0145401504
B1920434747275N12002283WA0145401503
B1920444747272N12002280WA0145401502
B1920454747269N12002278WA0145301502
B1920464747267N12002275WA0145301501
B1920474747264N12002273WA0145301501
B1920484747261N12002272WA0145201501
B1920494747258N12002271WA0145201501
B1920504747255N12002269WA0145201502
B1920514747252N12002268WA0145301504
B1920524747249N12002267WA0145301506
B1920534747246N12002266WA0145401506
B1920544747243N12002264WA0145401506
B1920554747240N12002262WA0145401505
B1920564747237N12002259WA0145401504
B1920574747234N12002255WA0145401504
B1920584747231N12002253WA0145401505
B1920594747228N12002250WA0145501505
B1921004747225N12002247WA0145501505
B1921014747222N12002244WA0145501504
B1921024747218N12002241WA0145501504
B1921034747215N12002238WA0145501504
B1921044747212N12002234WA0145501504
B1921054747209N12002231WA0145401503
B1921064747206N12002227WA0145401503
B1921074747203N12002223WA0145401503
B1921084747200N12002219WA0145401503
B1921094747197N12002215WA0145401503
B1921104747194N12002211WA0145401502
B1921114747191N12002208WA0145301502
B1921124747187N12002204WA0145301502
B1921134747184N12002201WA0145301502
B1921144747180N12002199WA0145301502
B1921154747176N12002196WA0145301502
B1921164747172N12002194WA0145201502
B1921174747168N12002192WA0145201501
B1921184747165N12002189WA0145201501
B1921194747161N12002187WA0145201501
B1921204747158N12002183WA0145201501
B1921214747156N12002180WA0145101501
B1921224747153N12002176WA0145101501
B1921234747150N12002173WA0145101500
B1921244747147N12002169WA0145001499
B1921254747143N12002165WA0145001498
B1921264747140N12002162WA0144901497
B1921274747137N12002158WA0144901497
B1921284747134N12002155WA0144801497
B1921294747131N12002152WA0144801497
B1921304747129N12002150WA0144801497
B1921314747126N12002148WA0144701496
B1921324747123N12002145WA0144701495
B1921334747119N12002143WA0144601494
B1921344747116N12002141WA0144601493
B1921354747113N12002138WA0144501492
B1921364747110N12002135WA0144501492
B1921374747107N12002132WA0144401491
B1921384747104N12002129WA0144301490
B1921384747104N12002129WA0144301490
B1921394747101N12002126WA0144301489
B1921404747098N12002124WA0144201489
B1921414747096N12002122WA0144201489
B1921424747093N12002121WA0144101488
B1921434747091N12002119WA0144101488
B1921444747089N12002117WA0144001487
B1921454747087N12002115WA0144001485
B1921464747084N12002112WA0143901484
B1921474747082N12002110WA0143901484
B1921484747080N12002108WA0143801483
B1921494747077N12002106WA0143701483
B1921504747075N12002104WA0143701483
B1921514747072N12002102WA0143601482
B1921524747070N12002099WA0143601481
B1921534747068N12002096WA0143501480
B1921544747066N12002093WA0143401480
B1921554747064N12002090WA0143401479
B1921564747061N12002087WA0143301478
B1921574747059N12002084WA0143201477
B1921584747057N12002082WA0143201477
B1921594747054N12002079WA0143101476
B1922004747052N12002076WA0143001475
B1922014747050N12002073WA0142901473
B1922024747048N12002070WA0142801471
B1922034747046N12002068WA0142701470
B1922044747043N12002066WA0142601468
B1922054747041N12002064WA0142501466
B1922064747037N12002062WA0142301464
B1922074747034N12002061WA0142301463
B1922084747031N12002060WA0142101462
B1922094747028N12002059WA0142001462
B1922104747025N12002059WA0141901461
B1922114747022N12002059WA0141801460
B1922124747018N12002058WA0141701459
B1922134747015N12002057WA0141601458
B1922144747013N12002056WA0141501458
B1922154747010N12002055WA0141501457
B1922164747009N12002053WA0141401456
B1922174747007N12002051WA0141301455
B1922184747005N12002048WA0141201453
B1922194747003N12002045WA0141101451
B1922204747001N12002042WA0140901450
B1922214746999N12002039WA0140801448
B1922224746998N12002036WA0140701448
B1922234746996N12002033WA0140601447
B1922244746994N12002031WA0140501447
B1922254746992N12002028WA0140501447
B1922264746990N12002026WA0140401446
B1922274746988N12002024WA0140301445
B1922284746986N12002022WA0140201445
B1922294746984N12002020WA0140201445
B1922304746983N12002018WA0140101444
B1922314746981N12002015WA0140101444
B1922324746980N12002012WA0140001444
B1922334746979N12002010WA0140001443
B1922344746978N12002007WA0139901443
B1922354746977N12002004WA0139901443
B1922364746975N12002001WA0139801442
B1922374746974N12001998WA0139801442
B1922384746972N12001995WA0139701441
B1922394746971N12001993WA0139701441
B1922404746969N12001990WA0139601441
B1922414746967N12001988WA0139601441
B1922414746967N12001988WA0139601441
B1922424746965N12001985WA0139601441
B1922434746963N12001983WA0139501441
B1922444746961N12001980WA0139501442
B1922454746960N12001978WA0139501442
B1922464746959N12001976WA0139501442
B1922474746958N12001973WA0139501442
B1922484746958N12001970WA0139501442
B1922494746957N12001967WA0139501442
B1922504746957N12001964WA0139501443
B1922514746957N12001961WA0139501443
B1922524746957N12001957WA0139501443
B1922534746957N12001953WA0139501442
B1922544746956N12001949WA0139501442
B1922554746956N12001944WA0139501442
B1922564746956N12001940WA0139501443
B1922574746956N12001936WA0139501442
B1922584746956N12001932WA0139401442
B1922594746956N12001928WA0139401440
B1923004746956N12001923WA0139301439
B1923014746955N12001918WA0139301437
B1923024746955N12001914WA0139201435
B1923034746954N12001911WA0139101434
B1923044746953N12001907WA0139001433
B1923054746952N12001903WA0138901431
B1923064746952N12001899WA0138801430
B1923074746951N12001896WA0138701429
B1923084746949N12001892WA0138601428
B1923094746948N12001889WA0138501426
B1923104746947N12001885WA0138401425
B1923114746946N12001881WA0138301424
B1923124746945N12001877WA0138201422
B1923134746944N12001874WA0138101420
B1923144746943N12001870WA0137901418
B1923154746941N12001866WA0137801415
B1923164746939N12001861WA0137601413
B1923174746938N12001857WA0137501411
B1923184746936N12001853WA0137301409
B1923194746935N12001848WA0137201408
B1923204746933N12001844WA0137001407
B1923214746932N12001840WA0136901406
B1923224746931N12001836WA0136701405
B1923234746929N12001833WA0136601404
B1923244746928N12001829WA0136501402
B1923254746926N12001826WA0136401401
B1923264746924N12001823WA0136201400
B1923274746923N12001819WA0136101398
B1923284746922N12001814WA0136001397
B1923294746921N12001809WA0135901395
B1923304746919N12001804WA0135701392
B1923314746918N12001799WA0135601390
B1923324746916N12001795WA0135401387
B1923334746915N12001791WA0135201385
B1923344746913N12001787WA0135001383
B1923354746912N12001782WA0134901381
B1923364746910N12001778WA0134601378
B1923374746909N12001773WA0134501376
B1923384746907N12001769WA0134301375
B1923394746905N12001766WA0134101374
B1923404746903N12001762WA0133901374
B1923414746902N12001759WA0133801374
B1923424746900N12001755WA0133701372
B1923434746898N12001751WA0133501371
B1923444746896N12001747WA0133401369
B1923444746896N12001747WA0133401369
B1923454746894N12001743WA0133301369
B1923464746892N12001739WA0133101369
B1923474746890N12001736WA0133001368
B1923484746889N12001733WA0132901368
B1923494746887N12001730WA0132801367
B1923504746884N12001727WA0132701366
B1923514746881N12001725WA0132601364
B1923524746879N12001723WA0132501364
B1923534746876N12001720WA0132401363
B1923544746874N12001718WA0132301362
B1923554746872N12001715WA0132201362
B1923564746870N12001713WA0132101361
B1923574746869N12001711WA0132101360
B1923584746867N12001708WA0132001359
B1923594746866N12001706WA0131901358
B1924004746864N12001704WA0131801357
B1924014746862N12001702WA0131701355
B1924024746861N12001699WA0131601353
B1924034746859N12001697WA0131501351
B1924044746857N12001694WA0131301350
B1924054746856N12001692WA0131201349
B1924064746854N12001689WA0131101347
B1924074746852N12001687WA0131001345
B1924084746850N12001684WA0130801343
B1924094746849N12001681WA0130701342
B1924104746848N12001677WA0130601341
B1924114746847N12001674WA0130501340
B1924124746846N12001671WA0130301339
B1924134746844N12001668WA0130201338
B1924144746843N12001664WA0130101337
B1924154746841N12001661WA0130001336
B1924164746839N12001659WA0129901336
B1924174746837N12001657WA0129801335
B1924184746835N12001655WA0129701334
B1924194746834N12001653WA0129601333
B1924204746832N12001651WA0129501332
B1924214746831N12001648WA0129401331
B1924224746830N12001645WA0129301329
B1924234746829N12001642WA0129201328
B1924244746827N12001639WA0129001326
B1924254746826N12001635WA0128901324
B1924264746824N12001632WA0128801323
B1924274746822N12001629WA0128701322
B1924284746821N12001626WA0128501321
B1924294746819N12001624WA0128501320
B1924304746818N12001621WA0128301319
B1924314746816N12001618WA0128201318
B1924324746815N12001615WA0128101317
B1924334746814N12001612WA0128001316
B1924344746813N12001609WA0127901315
B1924354746812N12001606WA0127801315
B1924364746811N12001604WA0127701314
B1924374746810N12001601WA0127701313
B1924384746810N12001598WA0127501311
B1924394746809N12001595WA0127401309
B1924404746809N12001591WA0127301307
B1924414746809N12001587WA0127201306
B1924424746809N12001583WA0127001304
B1924434746809N12001580WA0126901302
B1924444746809N12001576WA0126701300
B1924454746808N12001572WA0126601298
B1924464746808N12001568WA0126401297
B1924464746808N12001568WA0126401297
B1924474746808N12001564WA0126301295
B1924484746807N12001560WA0126101293
B1924494746807N12001556WA0126001292
B1924504746808N12001552WA0125801290
B1924514746809N12001547WA0125701289
B1924524746811N12001542WA0125501288
B1924534746812N12001537WA0125401287
B1924544746814N12001533WA0125201286
B1924554746815N12001529WA0125101285
B1924564746816N12001525WA0125001283
B1924574746817N12001521WA0124801282
B1924584746818N12001517WA0124601280
B1924594746818N12001512WA0124501278
B1925004746819N12001509WA0124301277
B1925014746820N12001505WA0124201276
B1925024746821N12001501WA0124101274
B1925034746822N12001497WA0123901272
B1925044746822N12001492WA0123701270
B1925054746823N12001488WA0123601269
B1925064746823N12001484WA0123401268
B1925074746824N12001480WA0123301267
B1925084746824N12001476WA0123201265
B1925094746824N12001472WA0123001264
B1925104746824N12001468WA0122901262
B1925114746824N12001464WA0122801261
B1925124746824N12001460WA0122601259
B1925134746823N12001456WA0122501258
B1925144746823N12001452WA0122301256
B1925154746822N12001448WA0122201255
B1925164746822N12001444WA0122001254
B1925174746822N12001441WA0121901253
B1925184746822N12001437WA0121801252
B1925194746822N12001434WA0121701250
B1925204746822N12001430WA0121501248
B1925214746822N12001427WA0121401247
B1925224746821N12001423WA0121201245
B1925234746821N12001419WA0121101243
B1925244746821N12001415WA0121001242
B1925254746821N12001411WA0120801240
B1925264746821N12001407WA0120701237
B1925274746821N12001403WA0120501235
B1925284746822N12001398WA0120301234
B1925294746823N12001394WA0120201232
B1925304746824N12001390WA0120001230
B1925314746826N12001385WA0119801228
B1925324746827N12001381WA0119601227
B1925334746828N12001377WA0119501226
B1925344746829N12001373WA0119301225
B1925354746829N12001370WA0119201224
B1925364746829N12001366WA0119001222
B1925374746829N12001362WA0118901221
B1925384746830N12001358WA0118701219
B1925394746830N12001353WA0118601218
B1925404746830N12001350WA0118401217
B1925414746831N12001347WA0118301216
B1925424746832N12001343WA0118201215
B1925434746833N12001339WA0118001212
B1925444746834N12001334WA0117801209
B1925454746835N12001330WA0117701207
B1925464746837N12001325WA0117501204
B1925474746838N12001321WA0117301202
B1925484746839N12001316WA0117101200
B1925484746839N12001316WA0117101200
B1925494746840N12001311WA0116901197
B1925504746841N12001306WA0116601195
B1925514746842N12001300WA0116501192
B1925524746843N12001295WA0116201190
B1925534746844N12001290WA0116001188
B1925544746845N12001285WA0115801186
B1925554746845N12001279WA0115601184
B1925564746846N12001274WA0115401182
B1925574746847N12001269WA0115201181
B1925584746847N12001263WA0115001179
B1925594746848N12001257WA0114901177
B1926004746849N12001252WA0114601175
B1926014746849N12001246WA0114501174
B1926024746850N12001241WA0114301172
B1926034746851N12001236WA0114101171
B1926044746852N12001231WA0113901169
B1926054746854N12001226WA0113801167
B1926064746855N12001221WA0113601164
B1926074746855N12001216WA0113401162
B1926084746856N12001210WA0113201160
B1926094746857N12001204WA0113001158
B1926104746858N12001199WA0112801156
B1926114746859N12001194WA0112601154
B1926124746860N12001188WA0112401153
B1926134746862N12001183WA0112301150
B1926144746863N12001177WA0112001148
B1926154746864N12001171WA0111901146
B1926164746865N12001165WA0111601144
B1926174746865N12001159WA0111501142
B1926184746866N12001154WA0111301140
B1926194746866N12001148WA0111101138
B1926204746866N12001142WA0110901136
B1926214746866N12001136WA0110701134
B1926224746866N12001130WA0110501132
B1926234746866N12001125WA0110401130
B1926244746867N12001119WA0110101128
B1926254746867N12001113WA0110001126
B1926264746867N12001107WA0109801124
B1926274746868N12001101WA0109601122
B1926284746868N12001095WA0109401120
B1926294746868N12001089WA0109201118
B1926304746869N12001083WA0109001116
B1926314746869N12001077WA0108901115
B1926324746870N12001070WA0108601113
B1926334746871N12001064WA0108501111
B1926344746871N12001058WA0108301109
B1926354746871N12001051WA0108101108
B1926364746870N12001045WA0107901106
B1926374746870N12001039WA0107801104
B1926384746870N12001033WA0107601103
B1926394746869N12001028WA0107501101
B1926404746868N12001023WA0107301100
B1926414746868N12001017WA0107101098
B1926424746868N12001012WA0106901096
B1926434746867N12001007WA0106801094
B1926444746867N12001002WA0106601092
B1926454746867N12000996WA0106401090
B1926464746868N12000991WA0106201087
B1926474746869N12000986WA0106101085
B1926484746870N12000982WA0105801083
B1926494746871N12000978WA0105701080
B1926504746873N12000973WA0105401077
B1926514746874N12000968WA0105201073
B1926514746874N12000968WA0105201073
B1926524746875N12000962WA0104901069
B1926534746876N12000957WA0104701066
B1926544746877N12000951WA0104401063
B1926554746878N12000946WA0104201060
B1926564746879N12000940WA0103901058
B1926574746881N12000933WA0103701055
B1926584746882N12000927WA0103401053
B1926594746883N12000921WA0103201051
B1927004746884N12000915WA0103001049
B1927014746885N12000910WA0102801046
B1927024746885N12000904WA0102501044
B1927034746886N12000897WA0102301042
B1927044746886N12000891WA0102101040
B1927054746887N12000885WA0101901039
B1927064746887N12000879WA0101701037
B1927074746887N12000873WA0101501035
B1927084746888N12000867WA0101301033
B1927094746888N12000861WA0101101030
B1927104746888N12000855WA0100901028
B1927114746889N12000850WA0100701026
B1927124746890N12000844WA0100501024
B1927134746890N12000837WA0100301022
B1927144746891N12000831WA0100101020
B1927154746892N12000825WA0099901018
B1927164746893N12000819WA0099701017
B1927174746894N12000813WA0099501015
B1927184746895N12000808WA0099301012
B1927194746895N12000802WA0099101010
B1927204746896N12000796WA0098901009
B1927214746897N12000790WA0098701007
B1927224746897N12000785WA0098501005
B1927234746898N12000779WA0098401003
B1927244746897N12000773WA0098201002
B1927254746897N12000768WA0098001000
B1927264746897N12000762WA0097800999
B1927274746896N12000756WA0097700998
B1927284746896N12000751WA0097500997
B1927294746896N12000746WA0097400996
B1927304746895N12000741WA0097200995
B1927314746895N12000736WA0097100993
B1927324746895N12000730WA0096900992
B1927334746895N12000725WA0096800991
B1927344746895N12000719WA0096700990
B1927354746895N12000713WA0096600989
B1927364746896N12000707WA0096400988
B1927374746895N12000702WA0096300987
B1927384746895N12000696WA0096200987
B1927394746895N12000690WA0096100986
B1927404746895N12000685WA0096000984
B1927414746895N12000679WA0095900983
B1927424746896N12000673WA0095800982
B1927434746896N12000668WA0095700980
B1927444746895N12000662WA0095500979
B1927454746895N12000657WA0095400977
B1927464746895N12000652WA0095300976
B1927474746896N12000647WA0095200975
B1927484746897N12000642WA0095000973
B1927494746897N12000637WA0094900971
B1927504746898N12000631WA0094800969
B1927514746898N12000626WA0094700967
B1927524746899N12000620WA0094500966
B1927534746899N12000615WA0094400964
B1927544746899N12000609WA0094200963
B1927544746899N12000609WA0094200963
B1927554746900N12000603WA0094100961
B1927564746900N12000597WA0093900960
B1927574746901N12000591WA0093800958
B1927584746901N12000585WA0093600956
B1927594746901N12000579WA0093500955
B1928004746901N12000574WA0093400954
B1928014746901N12000568WA0093300952
B1928024746900N12000563WA0093100950
B1928034746900N12000557WA0092900948
B1928044746900N12000550WA0092700946
B1928054746900N12000544WA0092600944
B1928064746900N12000538WA0092400942
B1928074746900N12000532WA0092300941
B1928084746900N12000526WA0092100940
B1928094746900N12000521WA0092000938
B1928104746899N12000515WA0091800937
B1928114746898N12000509WA0091700935
B1928124746898N12000504WA0091500934
B1928134746897N12000498WA0091400932
B1928144746896N12000492WA0091200931
B1928154746896N12000487WA0091100930
B1928164746896N12000481WA0090900929
B1928174746895N12000476WA0090800928
B1928184746895N12000470WA0090700927
B1928194746895N12000464WA0090600926
B1928204746894N12000458WA0090400925
B1928214746894N12000452WA0090300923
B1928224746894N12000446WA0090200922
B1928234746894N12000440WA0090000920
B1928244746894N12000434WA0089900918
B1928254746895N12000427WA0089700916
B1928264746895N12000421WA0089600914
B1928274746895N12000415WA0089400913
B1928284746896N12000409WA0089300912
B1928294746896N12000403WA0089100910
B1928304746896N12000396WA0089000908
B1928314746897N12000390WA0088800906
B1928324746897N12000384WA0088600905
B1928334746897N12000378WA0088500904
B1928344746897N12000372WA0088400902
B1928354746896N12000367WA0088200902
B1928364746896N12000362WA0088100901
B1928374746896N12000357WA0088000899
B1928384746896N12000351WA0087800898
B1928394746896N12000345WA0087700896
B1928404746895N12000340WA0087600895
B1928414746895N12000334WA0087400894
B1928424746894N12000328WA0087300893
B1928434746893N12000323WA0087200892
B1928444746893N12000317WA0087100891
B1928454746892N12000312WA0087000891
B1928464746892N12000306WA0086800890
B1928474746891N12000300WA0086700888
B1928484746891N12000293WA0086600887
B1928494746891N12000287WA0086500886
B1928504746891N12000280WA0086400886
B1928514746890N12000274WA0086300885
B1928524746890N12000268WA0086200884
B1928534746889N12000262WA0086100883
B1928544746889N12000256WA0086000882
B1928554746888N12000249WA0085900881
B1928564746888N12000243WA0085800880
B1928574746887N12000236WA0085700878
B1928574746887N12000236WA0085700878
B1928584746887N12000229WA0085600877
B1928594746887N12000223WA0085500875
B1929004746886N12000217WA0085400874
B1929014746885N12000210WA0085300873
B1929024746885N12000204WA0085200872
B1929034746885N12000198WA0085100870
B1929044746884N12000191WA0084900869
B1929054746884N12000185WA0084800868
B1929064746884N12000178WA0084700866
B1929074746884N12000171WA0084600865
B1929084746884N12000164WA0084400863
B1929094746884N12000157WA0084300862
B1929104746884N12000150WA0084200861
B1929114746884N12000144WA0084100859
B1929124746884N12000138WA0083900858
B1929134746884N12000132WA0083800857
B1929144746884N12000126WA0083700856
B1929154746884N12000119WA0083600854
B1929164746884N12000112WA0083400853
B1929174746883N12000105WA0083300851
B1929184746883N12000098WA0083200850
B1929194746882N12000091WA0083100849
B1929204746882N12000084WA0082900848
B1929214746881N12000078WA0082800847
B1929224746881N12000072WA0082700846
B1929234746881N12000065WA0082600844
B1929244746881N12000058WA0082500843
B1929254746881N12000052WA0082400842
B1929264746881N12000046WA0082300842
B1929274746881N12000040WA0082200842
B1929284746881N12000034WA0082100841
B1929294746881N12000028WA0082100840
B1929304746880N12000022WA0082000839
B1929314746880N12000016WA0081900838
B1929324746879N12000009WA0081800838
B1929334746879N12000003WA0081700837
B1929344746878N11959997WA0081700837
B1929354746878N11959991WA0081600836
B1929364746878N11959985WA0081500836
B1929374746878N11959979WA0081500835
B1929384746878N11959973WA0081400834
B1929394746877N11959967WA0081300833
B1929404746877N11959961WA0081300832
B1929414746876N11959954WA0081200830
B1929424746876N11959947WA0081100829
B1929434746876N11959940WA0081000828
B1929444746877N11959933WA0080900827
B1929454746877N11959927WA0080800826
B1929464746878N11959921WA0080700825
B1929474746878N11959915WA0080700824
B1929484746879N11959910WA0080600823
B1929494746879N11959904WA0080500822
B1929504746880N11959898WA0080400820
B1929514746881N11959891WA0080300819
B1929524746881N11959884WA0080200817
B1929534746882N11959877WA0080100816
B1929544746883N11959870WA0080000815
B1929554746884N11959864WA0079900814
B1929564746885N11959857WA0079800813
B1929574746887N11959851WA0079700811
B1929584746888N11959845WA0079500810
B1929594746890N11959838WA0079400808
B1930004746891N11959831WA0079300807
B1930004746891N11959831WA0079300807
B1930014746892N11959824WA0079200806
B1930024746893N11959818WA0079100805
B1930034746894N11959812WA0079000805
B1930044746895N11959805WA0078900804
B1930054746895N11959799WA0078800802
B1930064746896N11959793WA0078700801
B1930074746897N11959787WA0078600800
B1930084746898N11959780WA0078500799
B1930094746899N11959774WA0078400798
B1930104746900N11959768WA0078200796
B1930114746901N11959761WA0078100795
B1930124746902N11959755WA0078000793
B1930134746903N11959749WA0077900791
B1930144746903N11959742WA0077700789
B1930154746904N11959735WA0077600787
B1930164746904N11959729WA0077400785
B1930174746905N11959723WA0077300784
B1930184746907N11959716WA0077100782
B1930194746908N11959710WA0077000781
B1930204746908N11959704WA0076800780
B1930214746909N11959698WA0076700778
B1930224746910N11959691WA0076600777
B1930234746911N11959685WA0076400775
B1930244746912N11959679WA0076300773
B1930254746912N11959673WA0076100771
B1930264746913N11959666WA0076000770
B1930274746913N11959659WA0075800768
B1930284746915N11959653WA0075700766
B1930294746916N11959647WA0075500765
B1930304746917N11959640WA0075300763
B1930314746919N11959633WA0075200761
B1930324746920N11959627WA0075000760
B1930334746921N11959620WA0074900759
B1930344746923N11959614WA0074700757
B1930354746924N11959607WA0074600756
B1930364746925N11959600WA0074400754
B1930374746925N11959593WA0074300753
B1930384746926N11959587WA0074100752
B1930394746927N11959580WA0074000751
B1930404746928N11959573WA0073900749
B1930414746929N11959567WA0073800748
B1930424746930N11959560WA0073600747
B1930434746930N11959553WA0073500746
B1930444746930N11959546WA0073300744
B1930454746931N11959539WA0073200743
B1930464746931N11959532WA0073100742
B1930474746932N11959526WA0073000741
B1930484746933N11959519WA0072900740
B1930494746933N11959513WA0072800739
B1930504746933N11959506WA0072600737
B1930514746933N11959500WA0072500736
B1930524746933N11959493WA0072400735
B1930534746934N11959487WA0072300734
B1930544746935N11959480WA0072200732
B1930554746935N11959473WA0072100731
B1930564746936N11959467WA0071900730
B1930574746937N11959460WA0071900729
B1930584746938N11959454WA0071700728
B1930594746939N11959447WA0071700728
B1931004746939N11959441WA0071600727
B1931014746940N11959434WA0071500727
B1931024746940N11959428WA0071400726
B1931034746941N11959422WA0071300725
B1931034746941N11959422WA0071300725
B1931044746941N11959416WA0071200724
B1931054746942N11959409WA0071200724
B1931064746943N11959403WA0071100723
B1931074746943N11959397WA0071000722
B1931084746943N11959390WA0070900722
B1931094746943N11959384WA0070900721
B1931104746943N11959377WA0070800721
B1931114746944N11959371WA0070800720
B1931124746946N11959365WA0070700720
B1931134746947N11959359WA0070600720
B1931144746949N11959353WA0070600719
B1931154746950N11959347WA0070500718
B1931164746951N11959341WA0070400717
B1931174746952N11959335WA0070400717
B1931184746953N11959329WA0070300716
B1931194746954N11959323WA0070200715
B1931204746954N11959317WA0070100714
B1931214746954N11959310WA0070100712
B1931224746954N11959304WA0070000711
B1931234746954N11959298WA0069900710
B1931244746954N11959292WA0069800709
B1931254746954N11959286WA0069800709
B1931264746954N11959280WA0069700708
B1931274746955N11959274WA0069600708
B1931284746955N11959268WA0069500708
B1931294746956N11959261WA0069500707
B1931304746956N11959255WA0069400706
B1931314746957N11959249WA0069300706
B1931324746958N11959244WA0069300705
B1931334746959N11959239WA0069200704
B1931344746960N11959233WA0069100703
B1931354746962N11959228WA0069000701
B1931364746963N11959222WA0068900700
B1931374746964N11959216WA0068800699
B1931384746966N11959210WA0068700697
B1931394746967N11959204WA0068600696
B1931404746968N11959197WA0068500694
B1931414746969N11959190WA0068400693
B1931424746969N11959184WA0068300692
B1931434746969N11959177WA0068200690
B1931444746969N11959170WA0068000689
B1931454746969N11959163WA0067900687
B1931464746970N11959156WA0067800686
B1931474746971N11959150WA0067700685
B1931484746971N11959144WA0067500685
B1931494746972N11959137WA0067500684
B1931504746972N11959131WA0067300683
B1931514746973N11959125WA0067200682
B1931524746974N11959119WA0067100680
B1931534746976N11959113WA0067000678
B1931544746979N11959107WA0066800676
B1931554746981N11959102WA0066700675
B1931564746983N11959096WA0066600674
B1931574746985N11959091WA0066500673
B1931584746987N11959085WA0066300671
B1931594746988N11959079WA0066200669
B1932004746989N11959072WA0066000668
B1932014746989N11959066WA0065900666
B1932024746990N11959060WA0065800665
B1932034746991N11959054WA0065700663
B1932044746992N11959048WA0065500662
B1932054746992N11959043WA0065400660
B1932064746993N11959037WA0065200659
B1932064746993N11959037WA0065200659
B1932074746993N11959030WA0065100657
B1932084746994N11959024WA0064900655
B1932094746996N11959018WA0064800653
B1932104746997N11959012WA0064600652
B1932114746997N11959005WA0064500650
B1932124746997N11958999WA0064300649
B1932134746997N11958992WA0064200647
B1932144746998N11958985WA0064000646
B1932154746999N11958979WA0063900644
B1932164747000N11958972WA0063700643
B1932174747002N11958967WA0063600641
B1932184747005N11958962WA0063500640
B1932194747008N11958958WA0063400639
B1932204747011N11958955WA0063200638
B1932214747014N11958951WA0063100636
B1932224747017N11958947WA0062900635
B1932234747021N11958944WA0062800633
B1932244747024N11958941WA0062600632
B1932254747028N11958940WA0062500630
B1932264747032N11958938WA0062300630
B1932274747035N11958937WA0062200629
B1932284747038N11958935WA0062100629
B1932294747041N11958932WA0062000629
B1932304747044N11958930WA0061900628
B1932314747047N11958928WA0061800627
B1932324747050N11958925WA0061700626
B1932334747053N11958922WA0061600625
B1932344747056N11958919WA0061500624
B1932354747060N11958916WA0061400623
B1932364747063N11958914WA0061300623
B1932374747066N11958913WA0061200622
B1932384747070N11958911WA0061100620
B1932394747074N11958909WA0061000619
B1932404747078N11958907WA0060800618
B1932414747082N11958905WA0060800617
B1932424747085N11958904WA0060600616
B1932434747089N11958902WA0060500615
B1932444747092N11958900WA0060400614
B1932454747096N11958898WA0060300613
B1932464747099N11958894WA0060200611
B1932474747103N11958891WA0060100610
B1932484747106N11958888WA0059900608
B1932494747110N11958885WA0059800607
B1932504747113N11958882WA0059600605
B1932514747117N11958880WA0059500604
B1932524747121N11958878WA0059400603
B1932534747125N11958876WA0059300601
B1932544747128N11958875WA0059100600
B1932554747132N11958874WA0059000599
B1932564747135N11958872WA0058800598
B1932574747138N11958869WA0058700597
B1932584747141N11958865WA0058600597
B1932594747145N11958862WA0058500596
B1933004747148N11958860WA0058400595
B1933014747151N11958857WA0058300593
B1933024747155N11958855WA0058200592
B1933034747158N11958853WA0058100591
B1933044747161N11958850WA0057900590
B1933054747164N11958847WA0057900589
B1933064747167N11958844WA0057700587
B1933074747171N11958841WA0057600586
B1933084747175N11958839WA0057500585
B1933094747179N11958836WA0057400584
B1933104747183N11958834WA0057300584
B1933104747183N11958834WA0057300584
B1933114747186N11958830WA0057200585
B1933124747188N11958826WA0057100586
B1933134747189N11958821WA0057100588
B1933144747190N11958816WA0057100587
B1933154747192N11958810WA0057100588
B1933164747192N11958803WA0057100588
B1933174747191N11958797WA0057100588
B1933184747188N11958791WA0057000586
B1933194747184N11958786WA0057000586
B1933204747180N11958782WA0057000585
B1933214747174N11958779WA0057000583
B1933224747168N11958778WA0056900582
B1933234747162N11958778WA0056900582
B1933244747156N11958780WA0056900581
B1933254747151N11958785WA0056800583
B1933264747147N11958790WA0056800583
B1933274747144N11958796WA0056800584
B1933284747141N11958803WA0056800584
B1933294747140N11958810WA0056900585
B1933304747139N11958816WA0056900585
B1933314747139N11958822WA0056900586
B1933324747142N11958827WA0056900586
B1933334747144N11958831WA0056900586
B1933344747146N11958833WA0056900586
B1933354747150N11958835WA0056900586
B1933364747153N11958834WA0056900586
B1933374747156N11958832WA0056900586
B1933384747158N11958829WA0056900585
B1933394747161N11958825WA0057000586
B1933404747163N11958822WA0057000587
B1933414747165N11958819WA0057000587
B1933424747167N11958815WA0057000587
B1933434747169N11958811WA0057000587
B1933444747171N11958806WA0057000587
B1933454747172N11958801WA0057000588
B1933464747173N11958795WA0057100589
B1933474747174N11958790WA0057100589
B1933484747174N11958784WA0057100589
B1933494747173N11958778WA0057100589
B1933504747172N11958772WA0057200589
B1933514747171N11958766WA0057200587
B1933524747168N11958759WA0057100586
B1933534747164N11958754WA0057100584
B1933544747159N11958749WA0057100582
B1933554747152N11958747WA0057000581
B1933564747146N11958748WA0056900579
B1933574747140N11958750WA0056900580
B1933584747135N11958753WA0056900581
B1933594747130N11958757WA0056800582
B1934004747126N11958761WA0056800582
B1934014747122N11958766WA0056800582
B1934024747119N11958772WA0056800582
B1934034747116N11958778WA0056800582
B1934044747113N11958784WA0056700581
B1934054747113N11958792WA0056700581
B1934064747113N11958799WA0056700580
B1934074747115N11958806WA0056700580
B1934084747118N11958811WA0056600581
B1934094747120N11958814WA0056600582
B1934104747123N11958817WA0056600583
B1934114747125N11958821WA0056700584
B1934124747127N11958824WA0056700584
B1934134747130N11958828WA0056700583
B1934134747130N11958828WA0056700583
B1934144747132N11958831WA0056700582
B1934154747136N11958834WA0056600581
B1934164747139N11958836WA0056600581
B1934174747143N11958838WA0056600581
B1934184747146N11958839WA0056600582
B1934194747149N11958841WA0056600582
B1934204747152N11958842WA0056600583
B1934214747155N11958843WA0056600583
B1934224747158N11958844WA0056600583
B1934234747162N11958844WA0056600582
B1934244747165N11958843WA0056600582
B1934254747169N11958842WA0056600582
B1934264747173N11958841WA0056600582
B1934274747176N11958839WA0056600582
B1934284747180N11958838WA0056600582
B1934294747183N11958835WA0056600583
B1934304747186N11958833WA0056600583
B1934314747190N11958831WA0056600583
B1934324747193N11958829WA0056600583
B1934334747196N11958826WA0056600582
B1934344747200N11958824WA0056600582
B1934354747204N11958822WA0056600581
B1934364747208N11958820WA0056500580
B1934374747212N11958817WA0056500580
B1934384747216N11958814WA0056500580
B1934394747219N11958811WA0056400580
B1934404747221N11958808WA0056400581
B1934414747225N11958806WA0056400580
B1934424747228N11958804WA0056400579
B1934434747232N11958803WA0056300578
B1934444747236N11958801WA0056300577
B1934454747240N11958800WA0056200576
B1934464747244N11958799WA0056100576
B1934474747248N11958798WA0056100575
B1934484747252N11958796WA0056000574
B1934494747255N11958795WA0056000574
B1934504747259N11958793WA0055900573
B1934514747263N11958790WA0055800572
B1934524747267N11958788WA0055700571
B1934534747270N11958785WA0055600570
B1934544747273N11958782WA0055500569
B1934554747277N11958779WA0055400567
B1934564747281N11958778WA0055300565
B1934574747284N11958777WA0055200564
B1934584747288N11958776WA0055100563
B1934594747291N11958776WA0055000563
B1935004747293N11958777WA0054800561
B1935014747297N11958779WA0054700559
B1935024747301N11958781WA0054500557
B1935034747305N11958782WA0054400555
B1935044747310N11958782WA0054200553
B1935054747314N11958782WA0054100552
B1935064747318N11958781WA0054000551
B1935074747322N11958781WA0053800550
B1935084747326N11958781WA0053700550
B1935094747329N11958781WA0053600549
B1935104747333N11958782WA0053500549
B1935114747337N11958783WA0053400549
B1935124747341N11958784WA0053300548
B1935134747345N11958785WA0053200547
B1935144747349N11958786WA0053100547
B1935154747353N11958787WA0053000546
B1935164747357N11958788WA0052900545
B1935164747357N11958788WA0052900545
B1935174747361N11958789WA0052900545
B1935184747365N11958790WA0052800544
B1935194747369N11958790WA0052700543
B1935204747373N11958791WA0052600541
B1935214747376N11958792WA0052500539
B1935224747380N11958793WA0052300538
B1935234747383N11958794WA0052200536
B1935244747387N11958795WA0052100534
B1935254747391N11958796WA0052000532
B1935264747395N11958797WA0051800529
B1935274747398N11958798WA0051700528
B1935284747402N11958798WA0051500528
B1935294747405N11958797WA0051400527
B1935304747408N11958796WA0051300525
B1935314747411N11958794WA0051200524
B1935324747414N11958794WA0051000522
B1935334747417N11958794WA0050900520
B1935344747421N11958794WA0050700519
B1935354747424N11958795WA0050600517
B1935364747427N11958796WA0050400515
B1935374747430N11958798WA0050300513
B1935384747433N11958800WA0050100511
B1935394747436N11958802WA0050000508
B1935404747439N11958804WA0049700505
B1935414747442N11958806WA0049600502
B1935424747445N11958808WA0049300500
B1935434747448N11958811WA0049100497
B1935444747451N11958813WA0048900494
B1935454747455N11958814WA0048700491
B1935464747458N11958814WA0048400488
B1935474747461N11958814WA0048200486
B1935484747464N11958814WA0047900483
B1935494747468N11958815WA0047700480
B1935504747471N11958817WA0047400477
B1935514747474N11958818WA0047200475
B1935524747477N11958820WA0047000473
B1935534747480N11958821WA0046800471
B1935544747483N11958822WA0046500468
B1935554747487N11958824WA0046300466
B1935564747490N11958825WA0046000464
B1935574747493N11958827WA0045900461
B1935584747496N11958830WA0045600459
B1935594747498N11958833WA0045400457
B1936004747501N11958836WA0045200455
B1936014747504N11958839WA0045000454
B1936024747506N11958842WA0044700452
B1936034747509N11958843WA0044600450
B1936044747512N11958845WA0044400449
B1936054747515N11958846WA0044200447
B1936064747518N11958846WA0044000445
B1936074747520N11958846WA0043800444
B1936084747523N11958846WA0043600442
B1936094747526N11958846WA0043500440
B1936104747529N11958846WA0043300439
B1936114747532N11958847WA0043100438
B1936124747534N11958848WA0042900436
B1936134747537N11958849WA0042800434
B1936144747540N11958851WA0042600432
B1936154747543N11958853WA0042500430
B1936164747545N11958856WA0042300429
B1936174747548N11958859WA0042100427
B1936184747550N11958861WA0041900426
B1936194747553N11958864WA0041800424
B1936194747553N11958864WA0041800424
B1936204747555N11958866WA0041600423
B1936214747559N11958868WA0041500421
B1936224747562N11958870WA0041300420
B1936234747565N11958871WA0041200419
B1936244747567N11958871WA0041000418
B1936254747570N11958872WA0040900416
B1936264747573N11958873WA0040700414
B1936274747576N11958874WA0040600412
B1936284747579N11958876WA0040400411
B1936294747582N11958878WA0040300409
B1936304747585N11958879WA0040100408
B1936314747588N11958881WA0040000406
B1936324747591N11958882WA0039800404
B1936334747594N11958882WA0039700402
B1936344747597N11958882WA0039400400
B1936354747600N11958883WA0039300398
B1936364747604N11958885WA0039100397
B1936374747607N11958887WA0039000395
B1936384747610N11958890WA0038800394
B1936394747613N11958892WA0038600393
B1936404747616N11958893WA0038500392
B1936414747620N11958895WA0038300390
B1936424747623N11958897WA0038200389
B1936434747626N11958899WA0038000388
B1936444747629N11958900WA0037900386
B1936454747632N11958901WA0037800386
B1936464747635N11958902WA0037600384
B1936474747638N11958902WA0037500383
B1936484747641N11958903WA0037300382
B1936494747644N11958905WA0037200380
B1936504747647N11958907WA0037100379
B1936514747651N11958909WA0037000378
B1936524747655N11958911WA0036800377
B1936534747658N11958912WA0036700376
B1936544747661N11958914WA0036600376
B1936554747664N11958915WA0036500375
B1936564747667N11958917WA0036300375
B1936574747671N11958918WA0036200374
B1936584747674N11958919WA0036100372
B1936594747677N11958920WA0036000371
B1937004747681N11958922WA0035800370
B1937014747684N11958924WA0035700368
B1937024747687N11958927WA0035600367
B1937034747690N11958929WA0035500366
B1937044747694N11958931WA0035300365
B1937054747697N11958932WA0035200363
B1937064747701N11958933WA0035100361
B1937074747705N11958934WA0034900360
B1937084747708N11958936WA0034800359
B1937094747712N11958938WA0034700358
B1937104747715N11958941WA0034500356
B1937114747719N11958944WA0034400355
B1937124747722N11958947WA0034200354
B1937134747725N11958950WA0034100352
B1937144747729N11958952WA0033900350
B1937154747733N11958953WA0033800348
B1937164747736N11958955WA0033600347
B1937174747740N11958958WA0033500345
B1937184747744N11958961WA0033300343
B1937194747747N11958964WA0033200341
B1937204747750N11958966WA0033000339
B1937214747754N11958968WA0032900338
B1937224747758N11958970WA0032700336
B1937224747758N11958970WA0032700336
B1937234747762N11958972WA0032600334
B1937244747765N11958974WA0032400332
B1937254747769N11958977WA0032300331
B1937264747772N11958980WA0032100330
B1937274747776N11958982WA0032000328
B1937284747779N11958983WA0031800327
B1937294747783N11958985WA0031700325
B1937304747786N11958988WA0031500323
B1937314747790N11958992WA0031400321
B1937324747792N11958997WA0031200320
B1937334747795N11959002WA0031100318
B1937344747798N11959007WA0031000317
B1937354747801N11959011WA0030900314
B1937364747805N11959014WA0030700312
B1937374747808N11959017WA0030600311
B1937384747812N11959021WA0030400310
B1937394747815N11959026WA0030300309
B1937404747817N11959032WA0030200307
B1937414747818N11959038WA0030100307
B1937424747820N11959044WA0030000305
B1937434747823N11959049WA0029900304
B1937444747825N11959056WA0029700302
B1937454747826N11959062WA0029600300
B1937464747828N11959069WA0029500298
B1937474747829N11959076WA0029400296
B1937484747830N11959084WA0029200295
B1937494747832N11959091WA0029100293
B1937504747833N11959098WA0029000292
B1937514747834N11959105WA0028900290
B1937524747835N11959113WA0028700289
B1937534747836N11959121WA0028600287
B1937544747837N11959129WA0028500285
B1937554747839N11959136WA0028400284
B1937564747841N11959142WA0028200283
B1937574747844N11959148WA0028100282
B1937584747847N11959153WA0028000280
B1937594747851N11959156WA0027900279
B1938004747854N11959157WA0027800278
B1938014747858N11959154WA0027700276
B1938024747860N11959149WA0027500275
B1938034747860N11959142WA0027400274
B1938044747859N11959137WA0027300273
B1938054747856N11959133WA0027200271
B1938064747853N11959129WA0027000270
B1938074747852N11959125WA0027000269
B1938084747852N11959120WA0026800267
B1938094747855N11959116WA0026700264
B1938104747859N11959114WA0026500262
B1938114747863N11959118WA0026400261
B1938124747866N11959125WA0026200260
B1938134747868N11959131WA0026200259
B1938144747870N11959136WA0026100259
B1938154747872N11959140WA0026000259
B1938164747875N11959144WA0025900257
B1938174747878N11959146WA0025800256
B1938184747882N11959147WA0025600255
B1938194747885N11959144WA0025500254
B1938204747887N11959139WA0025400253
B1938214747887N11959133WA0025300252
B1938224747887N11959128WA0025100251
B1938234747888N11959124WA0025100251
B1938244747890N11959122WA0024900249
B1938254747894N11959121WA0024900246
B1938254747894N11959121WA0024900246
B1938264747898N11959121WA0024700245
B1938274747901N11959120WA0024600244
B1938284747904N11959117WA0024500243
B1938294747907N11959114WA0024400242
B1938304747910N11959111WA0024200240
B1938314747913N11959108WA0024100238
B1938324747917N11959105WA0023900236
B1938334747920N11959102WA0023800236
B1938344747924N11959099WA0023700235
B1938354747927N11959096WA0023600234
B1938364747930N11959093WA0023400233
B1938374747933N11959091WA0023300232
B1938384747937N11959089WA0023200230
B1938394747940N11959088WA0023100229
B1938404747942N11959087WA0023000228
B1938414747944N11959086WA0022900227
B1938424747944N11959085WA0022800228
B1938434747945N11959084WA0022700227
B1938444747945N11959084WA0022600227
B1938454747945N11959084WA0022600228
B1938464747946N11959083WA0022500226
B1938474747946N11959083WA0022500225
B1938484747946N11959083WA0022400225
B1938494747946N11959083WA0022400225
B1938504747946N11959082WA0022400225
B1938514747946N11959082WA0022400226
B1938524747946N11959082WA0022300226
B1938534747946N11959082WA0022300226
B1938544747946N11959082WA0022300226
B1938554747946N11959083WA0022300226
B1938564747946N11959084WA0022300226
B1938574747946N11959084WA0022300226
B1938584747946N11959085WA0022200227
B1938594747946N11959085WA0022200226
B1939004747946N11959086WA0022200226
B1939014747946N11959086WA0022200226
B1939024747946N11959086WA0022200226
B1939034747946N11959086WA0022200226
B1939044747946N11959087WA0022200226
B1939054747946N11959088WA0022200226
B1939064747946N11959089WA0022200226
B1939074747946N11959090WA0022200226
B1939084747946N11959091WA0022200226
B1939094747946N11959092WA0022200226
B1939104747946N11959093WA0022200226
B1939114747945N11959093WA0022200226
B1939124747945N11959094WA0022200226
B1939134747945N11959095WA0022200225
B1939144747946N11959096WA0022200226
B1939154747946N11959097WA0022200226
B1939164747946N11959098WA0022200226
B1939174747946N11959099WA0022200226
B1939184747945N11959100WA0022200225
B1939194747945N11959101WA0022200225
B1939204747945N11959102WA0022200225
B1939214747945N11959103WA0022200226
B1939224747945N11959104WA0022200226
B1939234747945N11959105WA0022200225
B1939244747944N11959105WA0022200225
B1939254747944N11959106WA0022200225
B1939264747944N11959107WA0022200226
B1939274747944N11959106WA0022200226
B1939284747944N11959107WA0022300226
B1939294747944N11959107WA0022300226
