AXFMSFP Flymaster Live, V1.0
HFFXA010
HFPLTPILOT:John Cassidy
HFGTYGLIDERTYPE:Advance  Sigma Dls / Advance Lightness 4
HFGIDGLIDERID:
HFDTM100GPSDATUM:WGS-1984
HFCIDCOMPETITIONID:911
HFCCLCOMPETITIONCLASS:
HOSITSITE:LAUNCH
HFGPS:UBLOXNEO6
HFPRSPRESSALTSENSOR:NA
HFRFWFIRMWAREVERSION:202g
HFRHWHARDWAREVERSION:1.0R2
HFFTYFRTYPE:FLYMASTER,LIVE
HFDTE240625
B1950464748245N12002297WA0108701129
B1950474748244N12002295WA0108701129
B1950484748243N12002293WA0108701129
B1950494748242N12002290WA0108601129
B1950504748241N12002287WA0108501128
B1950514748239N12002284WA0108601127
B1950524748238N12002281WA0108601128
B1950534748236N12002278WA0108701128
B1950544748235N12002275WA0108701128
B1950554748232N12002272WA0108701128
B1950564748230N12002269WA0108701128
B1950574748227N12002268WA0108701130
B1950584748225N12002267WA0108701132
B1950594748222N12002267WA0108801134
B1951004748219N12002267WA0108901135
B1951014748215N12002267WA0108901135
B1951024748211N12002265WA0109001134
B1951034748206N12002264WA0109001134
B1951044748202N12002262WA0109001135
B1951054748198N12002262WA0109101136
B1951064748195N12002263WA0109101138
B1951074748192N12002265WA0109201138
B1951084748189N12002267WA0109201137
B1951094748184N12002271WA0109201133
B1951104748178N12002274WA0109101129
B1951114748172N12002277WA0109101127
B1951124748166N12002281WA0109001125
B1951134748161N12002285WA0108901125
B1951144748156N12002289WA0108801125
B1951154748152N12002295WA0108801125
B1951164748148N12002301WA0108701126
B1951174748145N12002308WA0108701128
B1951184748143N12002316WA0108701129
B1951194748140N12002323WA0108701131
B1951204748137N12002332WA0108801132
B1951214748136N12002340WA0108801135
B1951224748135N12002348WA0108901137
B1951234748134N12002356WA0109001140
B1951244748133N12002364WA0109101141
B1951254748132N12002373WA0109201142
B1951264748131N12002384WA0109301141
B1951274748130N12002395WA0109401141
B1951284748129N12002406WA0109501141
B1951294748128N12002415WA0109501142
B1951304748127N12002424WA0109601142
B1951314748126N12002433WA0109701142
B1951324748125N12002441WA0109701139
B1951334748124N12002451WA0109701136
B1951344748122N12002461WA0109601132
B1951354748120N12002471WA0109501129
B1951364748118N12002481WA0109401127
B1951374748117N12002490WA0109301126
B1951384748115N12002499WA0109201125
B1951394748113N12002508WA0109101123
B1951404748111N12002518WA0108901121
B1951414748109N12002528WA0108801119
B1951424748107N12002537WA0108601117
B1951434748105N12002546WA0108501116
B1951444748102N12002554WA0108401115
B1951454748100N12002561WA0108301113
B1951464748097N12002569WA0108101110
B1951474748094N12002577WA0107901106
B1951484748090N12002586WA0107701102
B1951494748087N12002595WA0107501100
B1951504748083N12002603WA0107301098
B1951514748080N12002610WA0107101097
B1951524748076N12002618WA0106901095
B1951534748073N12002627WA0106801093
B1951544748069N12002636WA0106501090
B1951554748065N12002646WA0106401089
B1951564748061N12002655WA0106201088
B1951574748058N12002663WA0106101089
B1951584748054N12002670WA0105901089
B1951594748050N12002676WA0105801088
B1952004748046N12002682WA0105601086
B1952014748042N12002690WA0105501083
B1952024748039N12002699WA0105401081
B1952034748035N12002707WA0105201080
B1952044748031N12002715WA0105101079
B1952054748028N12002723WA0105001078
B1952064748024N12002730WA0104801078
B1952074748021N12002736WA0104701078
B1952084748018N12002742WA0104601077
B1952094748014N12002748WA0104501076
B1952104748011N12002756WA0104401075
B1952114748008N12002764WA0104401074
B1952124748005N12002771WA0104301074
B1952134748002N12002777WA0104201075
B1952144747999N12002782WA0104201077
B1952154747995N12002785WA0104101077
B1952164747992N12002787WA0104101077
B1952174747988N12002788WA0104101076
B1952184747984N12002788WA0104001075
B1952194747980N12002788WA0104001074
B1952204747977N12002787WA0103901074
B1952214747973N12002788WA0103901074
B1952224747970N12002791WA0103801074
B1952234747966N12002797WA0103801073
B1952244747964N12002804WA0103801072
B1952254747964N12002814WA0103701072
B1952264747964N12002823WA0103701072
B1952274747966N12002832WA0103701073
B1952284747967N12002840WA0103701074
B1952294747968N12002849WA0103701074
B1952304747969N12002857WA0103601074
B1952314747970N12002866WA0103601074
B1952324747970N12002876WA0103601074
B1952334747971N12002886WA0103601074
B1952344747971N12002895WA0103601075
B1952354747971N12002903WA0103701076
B1952364747972N12002910WA0103701078
B1952374747972N12002916WA0103701078
B1952384747971N12002924WA0103801078
B1952394747969N12002931WA0103801077
B1952404747965N12002937WA0103801078
B1952414747961N12002941WA0103801080
B1952424747958N12002941WA0103901082
B1952434747955N12002939WA0104001085
B1952444747954N12002937WA0104101089
B1952454747953N12002934WA0104201091
B1952464747952N12002930WA0104401093
B1952474747952N12002925WA0104501095
B1952484747953N12002919WA0104701096
B1952494747955N12002913WA0104801097
B1952504747958N12002909WA0104901098
B1952514747962N12002906WA0105001099
B1952524747965N12002904WA0105201100
B1952534747969N12002901WA0105301100
B1952544747974N12002898WA0105401099
B1952554747979N12002893WA0105401097
B1952564747984N12002889WA0105501097
B1952574747989N12002887WA0105501097
B1952584747994N12002885WA0105601098
B1952594747999N12002886WA0105601100
B1953004748003N12002887WA0105701100
B1953014748009N12002890WA0105801099
B1953024748015N12002893WA0105801099
B1953034748021N12002897WA0105801099
B1953044748026N12002902WA0105901102
B1953054748030N12002908WA0106001105
B1953064748031N12002915WA0106101108
B1953074748032N12002923WA0106201110
B1953084748032N12002930WA0106401112
B1953094748031N12002937WA0106501114
B1953104748028N12002942WA0106701116
B1953114748025N12002946WA0106801118
B1953124748021N12002948WA0107001118
B1953134748017N12002946WA0107101117
B1953144748013N12002943WA0107201117
B1953154748011N12002938WA0107201118
B1953164748010N12002932WA0107401119
B1953174748010N12002927WA0107401120
B1953184748011N12002922WA0107501121
B1953194748014N12002918WA0107601122
B1953204748016N12002915WA0107701122
B1953214748020N12002912WA0107801122
B1953224748025N12002910WA0107901122
B1953234748030N12002909WA0107901122
B1953244748036N12002908WA0108001122
B1953254748041N12002907WA0108001124
B1953264748046N12002907WA0108101125
B1953274748051N12002909WA0108201126
B1953284748056N12002912WA0108301128
B1953294748061N12002918WA0108301128
B1953304748065N12002925WA0108401128
B1953314748069N12002933WA0108501129
B1953324748072N12002941WA0108601130
B1953334748075N12002949WA0108601131
B1953344748078N12002957WA0108701133
B1953354748080N12002965WA0108801135
B1953364748082N12002973WA0109001137
B1953374748081N12002980WA0109001139
B1953384748079N12002987WA0109201139
B1953394748075N12002993WA0109201138
B1953404748070N12002998WA0109301139
B1953414748066N12003001WA0109401141
B1953424748062N12003002WA0109501144
B1953434748059N12003001WA0109601147
B1953444748057N12002998WA0109801150
B1953454748055N12002995WA0109901152
B1953464748053N12002992WA0110101154
B1953474748053N12002987WA0110201155
B1953484748052N12002982WA0110401156
B1953494748051N12002976WA0110501158
B1953504748052N12002971WA0110701158
B1953514748053N12002965WA0110801159
B1953524748056N12002959WA0111001159
B1953534748061N12002956WA0111001159
B1953544748066N12002954WA0111201161
B1953554748072N12002955WA0111301162
B1953564748077N12002959WA0111401164
B1953574748081N12002964WA0111501165
B1953584748086N12002970WA0111601166
B1953594748089N12002977WA0111701166
B1954004748091N12002985WA0111801167
B1954014748093N12002994WA0111901168
B1954024748092N12003002WA0112101170
B1954034748090N12003008WA0112201172
B1954044748087N12003012WA0112301174
B1954054748083N12003013WA0112401176
B1954064748079N12003012WA0112601179
B1954074748077N12003009WA0112801182
B1954084748076N12003006WA0113001184
B1954094748077N12003001WA0113101185
B1954104748078N12002996WA0113301186
B1954114748080N12002990WA0113401186
B1954124748084N12002986WA0113601187
B1954134748088N12002983WA0113701187
B1954144748094N12002981WA0113801187
B1954154748101N12002982WA0113901187
B1954164748106N12002985WA0114001189
B1954174748111N12002991WA0114101190
B1954184748114N12002997WA0114201191
B1954194748116N12003005WA0114301191
B1954204748117N12003013WA0114401191
B1954204748117N12003013WA0114401191
B1954214748117N12003023WA0114501191
B1954224748115N12003033WA0114501189
B1954234748112N12003043WA0114501188
B1954244748110N12003052WA0114601190
B1954254748107N12003059WA0114701194
B1954264748105N12003064WA0114801198
B1954274748102N12003067WA0114901201
B1954284748099N12003068WA0115101203
B1954294748095N12003068WA0115201204
B1954304748091N12003068WA0115401207
B1954314748089N12003065WA0115501209
B1954324748087N12003061WA0115701211
B1954334748087N12003055WA0115801212
B1954344748089N12003049WA0116001213
B1954354748092N12003044WA0116101215
B1954364748095N12003040WA0116301218
B1954374748099N12003038WA0116501221
B1954384748104N12003037WA0116701223
B1954394748109N12003039WA0116801224
B1954404748115N12003042WA0117001225
B1954414748120N12003048WA0117201226
B1954424748124N12003056WA0117401229
B1954434748126N12003063WA0117501232
B1954444748127N12003070WA0117701234
B1954454748127N12003078WA0117901235
B1954464748126N12003087WA0118101234
B1954474748125N12003095WA0118201235
B1954484748121N12003102WA0118301236
B1954494748118N12003105WA0118501237
B1954504748114N12003106WA0118601239
B1954514748111N12003105WA0118701242
B1954524748109N12003103WA0118901244
B1954534748107N12003100WA0119101245
B1954544748107N12003095WA0119201246
B1954554748108N12003090WA0119401247
B1954564748111N12003084WA0119501248
B1954574748114N12003078WA0119601249
B1954584748117N12003074WA0119801251
B1954594748122N12003073WA0119901254
B1955004748126N12003075WA0120101256
B1955014748131N12003081WA0120201257
B1955024748135N12003089WA0120401258
B1955034748137N12003097WA0120501260
B1955044748138N12003105WA0120701262
B1955054748137N12003112WA0120801265
B1955064748135N12003119WA0121001266
B1955074748132N12003125WA0121101267
B1955084748128N12003129WA0121301268
B1955094748125N12003130WA0121401270
B1955104748122N12003129WA0121601272
B1955114748119N12003126WA0121701274
B1955124748117N12003122WA0121901276
B1955134748117N12003117WA0122101278
B1955144748117N12003112WA0122301280
B1955154748119N12003108WA0122401281
B1955164748122N12003104WA0122601283
B1955174748126N12003101WA0122701284
B1955184748131N12003099WA0122901285
B1955194748136N12003098WA0123001286
B1955204748141N12003099WA0123201288
B1955214748146N12003101WA0123301289
B1955224748150N12003105WA0123501289
B1955234748155N12003108WA0123601290
B1955244748159N12003112WA0123801292
B1955244748159N12003112WA0123801292
B1955254748163N12003117WA0123901293
B1955264748166N12003124WA0124001294
B1955274748169N12003132WA0124101294
B1955284748170N12003140WA0124201295
B1955294748171N12003148WA0124301297
B1955304748170N12003155WA0124401299
B1955314748169N12003161WA0124501301
B1955324748166N12003166WA0124701302
B1955334748163N12003170WA0124801303
B1955344748159N12003171WA0124901305
B1955354748156N12003170WA0125101307
B1955364748154N12003167WA0125201309
B1955374748152N12003162WA0125301310
B1955384748151N12003157WA0125501312
B1955394748151N12003152WA0125601314
B1955404748152N12003147WA0125801316
B1955414748154N12003143WA0125901317
B1955424748157N12003140WA0126101318
B1955434748161N12003137WA0126201319
B1955444748165N12003135WA0126401320
B1955454748170N12003135WA0126501320
B1955464748175N12003137WA0126601320
B1955474748181N12003141WA0126701321
B1955484748186N12003146WA0126801321
B1955494748190N12003150WA0126901323
B1955504748194N12003156WA0127101325
B1955514748197N12003161WA0127101326
B1955524748199N12003168WA0127301327
B1955534748200N12003175WA0127401328
B1955544748201N12003183WA0127501329
B1955554748202N12003190WA0127601330
B1955564748201N12003197WA0127701331
B1955574748199N12003202WA0127801332
B1955584748196N12003205WA0127901333
B1955594748193N12003206WA0128001334
B1956004748189N12003205WA0128101334
B1956014748186N12003201WA0128201335
B1956024748184N12003196WA0128301336
B1956034748183N12003191WA0128301337
B1956044748182N12003186WA0128501340
B1956054748182N12003182WA0128601343
B1956064748183N12003179WA0128701344
B1956074748186N12003176WA0128801345
B1956084748189N12003172WA0129001345
B1956094748194N12003169WA0129001344
B1956104748199N12003167WA0129101345
B1956114748204N12003169WA0129201345
B1956124748209N12003173WA0129301345
B1956134748213N12003179WA0129301346
B1956144748216N12003185WA0129401347
B1956154748219N12003192WA0129501348
B1956164748220N12003199WA0129601348
B1956174748220N12003207WA0129601349
B1956184748219N12003213WA0129701349
B1956194748218N12003219WA0129701349
B1956204748216N12003225WA0129801349
B1956214748213N12003230WA0129801349
B1956224748210N12003234WA0129901348
B1956234748205N12003236WA0129901349
B1956244748202N12003236WA0130001351
B1956254748198N12003235WA0130001352
B1956264748196N12003232WA0130101354
B1956274748194N12003229WA0130201355
B1956284748192N12003226WA0130301357
B1956284748192N12003226WA0130301357
B1956294748191N12003223WA0130301358
B1956304748190N12003219WA0130401359
B1956314748189N12003214WA0130501360
B1956324748189N12003209WA0130601361
B1956334748190N12003204WA0130701361
B1956344748194N12003200WA0130801362
B1956354748198N12003199WA0130901362
B1956364748204N12003200WA0130901362
B1956374748210N12003202WA0131001361
B1956384748215N12003203WA0131001362
B1956394748221N12003204WA0131101363
B1956404748226N12003208WA0131201365
B1956414748229N12003213WA0131201368
B1956424748232N12003219WA0131401369
B1956434748233N12003226WA0131401369
B1956444748233N12003234WA0131501370
B1956454748232N12003243WA0131601370
B1956464748230N12003251WA0131701370
B1956474748227N12003256WA0131801372
B1956484748224N12003259WA0131901374
B1956494748222N12003260WA0132001376
B1956504748219N12003260WA0132101376
B1956514748217N12003258WA0132201376
B1956524748214N12003254WA0132301375
B1956534748212N12003248WA0132301374
B1956544748210N12003241WA0132301374
B1956554748210N12003233WA0132401374
B1956564748211N12003227WA0132401376
B1956574748214N12003223WA0132501378
B1956584748217N12003221WA0132601380
B1956594748222N12003220WA0132701381
B1957004748227N12003220WA0132801381
B1957014748232N12003222WA0132801381
B1957024748238N12003225WA0132901382
B1957034748243N12003229WA0133001383
B1957044748247N12003234WA0133101385
B1957054748251N12003239WA0133201387
B1957064748255N12003245WA0133301387
B1957074748258N12003252WA0133301388
B1957084748261N12003260WA0133401388
B1957094748262N12003268WA0133501388
B1957104748261N12003277WA0133601388
B1957114748260N12003284WA0133601389
B1957124748257N12003289WA0133701391
B1957134748254N12003291WA0133801393
B1957144748251N12003293WA0133901393
B1957154748247N12003292WA0134001394
B1957164748244N12003291WA0134101395
B1957174748241N12003288WA0134101395
B1957184748238N12003283WA0134201395
B1957194748237N12003277WA0134201395
B1957204748235N12003271WA0134301395
B1957214748235N12003264WA0134301395
B1957224748234N12003257WA0134401396
B1957234748233N12003252WA0134401398
B1957244748232N12003247WA0134501399
B1957254748231N12003243WA0134601399
B1957264748230N12003238WA0134601399
B1957274748229N12003232WA0134701399
B1957284748227N12003226WA0134701399
B1957294748226N12003220WA0134801400
B1957304748224N12003214WA0134801400
B1957314748222N12003208WA0134901402
B1957324748221N12003204WA0134901404
B1957324748221N12003204WA0134901404
B1957334748220N12003199WA0135001405
B1957344748220N12003194WA0135101404
B1957354748221N12003189WA0135101403
B1957364748223N12003183WA0135201402
B1957374748227N12003178WA0135201401
B1957384748232N12003175WA0135201401
B1957394748237N12003174WA0135201401
B1957404748242N12003176WA0135201401
B1957414748247N12003179WA0135201401
B1957424748251N12003185WA0135201401
B1957434748254N12003192WA0135201401
B1957444748256N12003201WA0135301400
B1957454748257N12003210WA0135301400
B1957464748257N12003218WA0135301401
B1957474748255N12003224WA0135301403
B1957484748252N12003229WA0135301404
B1957494748249N12003232WA0135401405
B1957504748245N12003234WA0135401405
B1957514748241N12003235WA0135401405
B1957524748237N12003234WA0135501405
B1957534748233N12003232WA0135501406
B1957544748230N12003229WA0135501406
B1957554748228N12003224WA0135601406
B1957564748226N12003220WA0135601406
B1957574748224N12003214WA0135601405
B1957584748221N12003208WA0135601405
B1957594748219N12003201WA0135601406
B1958004748218N12003195WA0135601407
B1958014748216N12003190WA0135701408
B1958024748215N12003186WA0135701408
B1958034748214N12003182WA0135701408
B1958044748212N12003177WA0135701407
B1958054748210N12003171WA0135701404
B1958064748208N12003163WA0135701402
B1958074748206N12003156WA0135601402
B1958084748205N12003149WA0135601403
B1958094748204N12003143WA0135601405
B1958104748204N12003138WA0135601408
B1958114748206N12003134WA0135601409
B1958124748209N12003130WA0135701409
B1958134748213N12003124WA0135701409
B1958144748218N12003120WA0135701409
B1958154748224N12003117WA0135701410
B1958164748229N12003118WA0135801412
B1958174748235N12003121WA0135901413
B1958184748239N12003126WA0136001415
B1958194748243N12003132WA0136101416
B1958204748246N12003140WA0136201416
B1958214748248N12003149WA0136201416
B1958224748249N12003158WA0136301417
B1958234748249N12003166WA0136401418
B1958244748248N12003173WA0136501420
B1958254748246N12003179WA0136501421
B1958264748243N12003184WA0136601422
B1958274748239N12003186WA0136701423
B1958284748235N12003187WA0136801424
B1958294748232N12003187WA0136901425
B1958304748228N12003185WA0137001426
B1958314748226N12003182WA0137101428
B1958324748225N12003178WA0137201428
B1958334748225N12003172WA0137301429
B1958344748225N12003166WA0137401430
B1958354748226N12003160WA0137401431
B1958364748229N12003154WA0137501432
B1958364748229N12003154WA0137501432
B1958374748233N12003150WA0137601434
B1958384748239N12003148WA0137801435
B1958394748245N12003149WA0137801436
B1958404748251N12003152WA0138001438
B1958414748256N12003156WA0138101440
B1958424748260N12003163WA0138201441
B1958434748263N12003170WA0138301441
B1958444748266N12003178WA0138401442
B1958454748267N12003186WA0138501443
B1958464748267N12003194WA0138601443
B1958474748265N12003200WA0138701444
B1958484748261N12003206WA0138801443
B1958494748257N12003210WA0138801442
B1958504748253N12003214WA0138901442
B1958514748249N12003216WA0138901444
B1958524748246N12003217WA0139001445
B1958534748243N12003217WA0139101446
B1958544748240N12003215WA0139101445
B1958554748237N12003210WA0139201444
B1958564748235N12003204WA0139201445
B1958574748235N12003199WA0139301447
B1958584748235N12003193WA0139401449
B1958594748237N12003188WA0139401451
B1959004748239N12003183WA0139501452
B1959014748243N12003177WA0139601453
B1959024748248N12003173WA0139801455
B1959034748253N12003172WA0139801457
B1959044748259N12003174WA0140001460
B1959054748265N12003178WA0140101462
B1959064748269N12003184WA0140301465
B1959074748273N12003190WA0140501467
B1959084748274N12003197WA0140701469
B1959094748275N12003204WA0140801471
B1959104748273N12003210WA0141001472
B1959114748270N12003216WA0141101472
B1959124748265N12003221WA0141301471
B1959134748260N12003224WA0141301472
B1959144748255N12003224WA0141501474
B1959154748251N12003223WA0141601477
B1959164748248N12003220WA0141801479
B1959174748246N12003216WA0141901480
B1959184748245N12003209WA0142001481
B1959194748245N12003202WA0142101482
B1959204748246N12003196WA0142301484
B1959214748249N12003190WA0142401486
B1959224748253N12003185WA0142601488
B1959234748258N12003181WA0142701490
B1959244748263N12003178WA0142901491
B1959254748270N12003178WA0143001492
B1959264748276N12003181WA0143201494
B1959274748281N12003185WA0143301497
B1959284748284N12003192WA0143601500
B1959294748285N12003200WA0143701501
B1959304748285N12003207WA0143901504
B1959314748283N12003212WA0144101507
B1959324748279N12003215WA0144301509
B1959334748275N12003216WA0144501511
B1959344748270N12003215WA0144701512
B1959354748267N12003211WA0144801514
B1959364748264N12003206WA0145101517
B1959374748264N12003200WA0145201520
B1959384748264N12003193WA0145501523
B1959394748265N12003187WA0145601526
B1959404748267N12003181WA0145901529
B1959404748267N12003181WA0145901529
B1959414748270N12003176WA0146101532
B1959424748274N12003172WA0146301535
B1959434748279N12003170WA0146501536
B1959444748285N12003170WA0146801537
B1959454748290N12003173WA0146901538
B1959464748295N12003179WA0147101540
B1959474748297N12003186WA0147301542
B1959484748297N12003194WA0147501543
B1959494748296N12003201WA0147701545
B1959504748293N12003205WA0147901548
B1959514748289N12003206WA0148001550
B1959524748285N12003206WA0148301552
B1959534748282N12003204WA0148401555
B1959544748279N12003201WA0148701557
B1959554748276N12003197WA0148801559
B1959564748273N12003192WA0149101561
B1959574748271N12003186WA0149201563
B1959584748270N12003179WA0149501566
B1959594748271N12003173WA0149701568
B2000004748274N12003167WA0149901569
B2000014748278N12003162WA0150101571
B2000024748282N12003158WA0150301573
B2000034748287N12003158WA0150501575
B2000044748292N12003160WA0150701576
B2000054748297N12003165WA0150801577
B2000064748300N12003171WA0151001577
B2000074748301N12003179WA0151201578
B2000084748300N12003186WA0151301579
B2000094748298N12003193WA0151401581
B2000104748295N12003199WA0151601582
B2000114748291N12003204WA0151701584
B2000124748288N12003207WA0151901586
B2000134748284N12003208WA0152001588
B2000144748280N12003208WA0152201590
B2000154748276N12003206WA0152301591
B2000164748272N12003202WA0152501593
B2000174748269N12003197WA0152701594
B2000184748267N12003192WA0152801595
B2000194748266N12003187WA0152901596
B2000204748264N12003182WA0153101598
B2000214748263N12003177WA0153201598
B2000224748263N12003172WA0153401598
B2000234748263N12003165WA0153401598
B2000244748264N12003158WA0153601598
B2000254748267N12003152WA0153601598
B2000264748270N12003147WA0153701599
B2000274748274N12003142WA0153801599
B2000284748279N12003140WA0153801599
B2000294748285N12003139WA0153901598
B2000304748291N12003140WA0153901597
B2000314748297N12003143WA0154001598
B2000324748303N12003147WA0154001598
B2000334748308N12003153WA0154001599
B2000344748311N12003161WA0154101600
B2000354748314N12003170WA0154101600
B2000364748315N12003178WA0154201601
B2000374748315N12003187WA0154201602
B2000384748313N12003195WA0154301602
B2000394748311N12003202WA0154401602
B2000404748308N12003210WA0154401603
B2000414748304N12003216WA0154401602
B2000424748299N12003222WA0154501603
B2000434748295N12003226WA0154501604
B2000444748291N12003228WA0154601606
B2000444748291N12003228WA0154601606
B2000454748286N12003228WA0154601606
B2000464748282N12003226WA0154701606
B2000474748277N12003223WA0154701606
B2000484748274N12003219WA0154801607
B2000494748272N12003215WA0154901609
B2000504748271N12003211WA0155001611
B2000514748270N12003206WA0155001612
B2000524748269N12003202WA0155101612
B2000534748268N12003196WA0155201613
B2000544748267N12003191WA0155301614
B2000554748265N12003185WA0155301614
B2000564748264N12003179WA0155401615
B2000574748263N12003171WA0155501617
B2000584748263N12003164WA0155601620
B2000594748265N12003158WA0155701625
B2001004748268N12003154WA0155901628
B2001014748273N12003150WA0156101630
B2001024748279N12003148WA0156301632
B2001034748285N12003149WA0156401634
B2001044748291N12003152WA0156701635
B2001054748296N12003159WA0156801636
B2001064748299N12003167WA0157001636
B2001074748298N12003175WA0157101636
B2001084748296N12003181WA0157201636
B2001094748292N12003185WA0157301636
B2001104748288N12003185WA0157401637
B2001114748284N12003182WA0157501640
B2001124748282N12003178WA0157701643
B2001134748281N12003173WA0157801647
B2001144748280N12003168WA0158001651
B2001154748279N12003163WA0158201654
B2001164748279N12003157WA0158401656
B2001174748280N12003150WA0158601658
B2001184748284N12003143WA0158901660
B2001194748289N12003138WA0159001662
B2001204748296N12003136WA0159301665
B2001214748301N12003137WA0159501669
B2001224748306N12003141WA0159801672
B2001234748309N12003145WA0160001674
B2001244748312N12003151WA0160201675
B2001254748315N12003158WA0160401674
B2001264748316N12003166WA0160601673
B2001274748317N12003174WA0160701673
B2001284748316N12003181WA0160801673
B2001294748315N12003187WA0160901675
B2001304748312N12003191WA0161101678
B2001314748309N12003194WA0161201680
B2001324748305N12003195WA0161301682
B2001334748302N12003193WA0161501685
B2001344748299N12003189WA0161701688
B2001354748297N12003184WA0161901691
B2001364748296N12003178WA0162101694
B2001374748296N12003173WA0162301699
B2001384748297N12003167WA0162601703
B2001394748299N12003161WA0162801708
B2001404748302N12003156WA0163201712
B2001414748307N12003152WA0163501716
B2001424748313N12003150WA0163801720
B2001434748319N12003152WA0164101725
B2001444748324N12003155WA0164501728
B2001454748329N12003159WA0164801731
B2001464748334N12003163WA0165101733
B2001474748338N12003166WA0165401736
B2001484748342N12003170WA0165701737
B2001484748342N12003170WA0165701737
B2001494748344N12003175WA0165901737
B2001504748345N12003182WA0166201736
B2001514748345N12003190WA0166301736
B2001524748343N12003196WA0166501737
B2001534748341N12003201WA0166701739
B2001544748337N12003202WA0166901742
B2001554748334N12003200WA0167001744
B2001564748332N12003195WA0167301746
B2001574748331N12003187WA0167401747
B2001584748334N12003179WA0167701751
B2001594748339N12003173WA0167801754
B2002004748345N12003171WA0168101758
B2002014748351N12003171WA0168301762
B2002024748356N12003172WA0168601764
B2002034748361N12003174WA0168801767
B2002044748365N12003178WA0169101769
B2002054748367N12003183WA0169301769
B2002064748369N12003189WA0169601769
B2002074748370N12003197WA0169701769
B2002084748370N12003204WA0169901770
B2002094748368N12003210WA0170001771
B2002104748365N12003213WA0170201773
B2002114748361N12003212WA0170301774
B2002124748358N12003209WA0170501775
B2002134748355N12003204WA0170601778
B2002144748353N12003197WA0170801781
B2002154748353N12003191WA0170901784
B2002164748354N12003184WA0171201788
B2002174748356N12003178WA0171301790
B2002184748360N12003173WA0171601793
B2002194748364N12003169WA0171801796
B2002204748370N12003167WA0172001798
B2002214748376N12003166WA0172201799
B2002224748383N12003167WA0172401801
B2002234748389N12003172WA0172601803
B2002244748393N12003178WA0172801805
B2002254748396N12003185WA0173001808
B2002264748397N12003191WA0173201810
B2002274748397N12003197WA0173401812
B2002284748396N12003202WA0173601813
B2002294748394N12003206WA0173801814
B2002304748390N12003208WA0174001814
B2002314748386N12003208WA0174101814
B2002324748382N12003206WA0174201816
B2002334748378N12003203WA0174401818
B2002344748375N12003198WA0174601822
B2002354748374N12003193WA0174701826
B2002364748373N12003188WA0175001830
B2002374748373N12003183WA0175201833
B2002384748375N12003177WA0175501836
B2002394748379N12003172WA0175701838
B2002404748384N12003169WA0176001840
B2002414748391N12003169WA0176201844
B2002424748396N12003172WA0176501847
B2002434748401N12003177WA0176701850
B2002444748405N12003183WA0177001852
B2002454748408N12003190WA0177201855
B2002464748408N12003197WA0177501858
B2002474748407N12003203WA0177801861
B2002484748405N12003207WA0178101863
B2002494748402N12003211WA0178301865
B2002504748398N12003213WA0178601868
B2002514748395N12003213WA0178801871
B2002524748392N12003211WA0179101875
B2002524748392N12003211WA0179101875
B2002534748391N12003207WA0179401879
B2002544748390N12003203WA0179701882
B2002554748390N12003198WA0180001885
B2002564748392N12003193WA0180301887
B2002574748396N12003186WA0180501888
B2002584748402N12003180WA0180801888
B2002594748409N12003176WA0181001889
B2003004748416N12003174WA0181201893
B2003014748423N12003176WA0181401895
B2003024748430N12003181WA0181701898
B2003034748436N12003187WA0181901901
B2003044748440N12003194WA0182201905
B2003054748442N12003202WA0182401908
B2003064748442N12003209WA0182701911
B2003074748441N12003215WA0182901913
B2003084748439N12003220WA0183201915
B2003094748436N12003223WA0183401917
B2003104748432N12003224WA0183701919
B2003114748428N12003223WA0183901921
B2003124748424N12003220WA0184201923
B2003134748422N12003215WA0184401926
B2003144748422N12003208WA0184601928
B2003154748424N12003201WA0184801931
B2003164748429N12003195WA0185101933
B2003174748434N12003191WA0185301936
B2003184748440N12003188WA0185601939
B2003194748446N12003186WA0185801940
B2003204748453N12003185WA0186001941
B2003214748460N12003184WA0186201942
B2003224748469N12003185WA0186401943
B2003234748477N12003187WA0186601945
B2003244748484N12003191WA0186801948
B2003254748490N12003197WA0187001950
B2003264748495N12003205WA0187201953
B2003274748499N12003213WA0187401955
B2003284748503N12003221WA0187601958
B2003294748505N12003227WA0187801962
B2003304748505N12003234WA0188101965
B2003314748504N12003241WA0188301966
B2003324748502N12003247WA0188501965
B2003334748498N12003252WA0188601966
B2003344748495N12003255WA0188801968
B2003354748492N12003256WA0189001970
B2003364748489N12003256WA0189201972
B2003374748486N12003255WA0189301973
B2003384748483N12003252WA0189501974
B2003394748481N12003249WA0189701976
B2003404748480N12003245WA0189901978
B2003414748478N12003242WA0190001980
B2003424748478N12003237WA0190201983
B2003434748478N12003232WA0190301985
B2003444748478N12003226WA0190601986
B2003454748480N12003220WA0190701988
B2003464748482N12003214WA0190901989
B2003474748486N12003208WA0191001991
B2003484748490N12003203WA0191201993
B2003494748495N12003198WA0191401994
B2003504748501N12003195WA0191601995
B2003514748507N12003193WA0191701996
B2003524748514N12003192WA0191801997
B2003534748521N12003194WA0192001997
B2003544748529N12003197WA0192101998
B2003554748537N12003202WA0192201999
B2003554748537N12003202WA0192201999
B2003564748543N12003209WA0192302000
B2003574748548N12003217WA0192402001
B2003584748552N12003225WA0192602002
B2003594748554N12003234WA0192602002
B2004004748554N12003242WA0192702002
B2004014748552N12003249WA0192802002
B2004024748549N12003253WA0192902004
B2004034748546N12003254WA0193002006
B2004044748543N12003252WA0193102009
B2004054748543N12003247WA0193202011
B2004064748543N12003241WA0193402013
B2004074748546N12003235WA0193502015
B2004084748551N12003230WA0193602016
B2004094748557N12003227WA0193702016
B2004104748564N12003225WA0193902015
B2004114748572N12003223WA0193902015
B2004124748581N12003222WA0194002015
B2004134748589N12003222WA0194102016
B2004144748597N12003224WA0194202018
B2004154748603N12003227WA0194302020
B2004164748610N12003232WA0194402021
B2004174748615N12003240WA0194502022
B2004184748619N12003250WA0194602022
B2004194748622N12003260WA0194702022
B2004204748623N12003270WA0194802024
B2004214748623N12003277WA0194802025
B2004224748621N12003283WA0194902026
B2004234748619N12003285WA0195002025
B2004244748616N12003285WA0195102025
B2004254748614N12003280WA0195102025
B2004264748613N12003273WA0195202027
B2004274748615N12003267WA0195302030
B2004284748617N12003262WA0195402033
B2004294748619N12003259WA0195502035
B2004304748621N12003255WA0195602036
B2004314748624N12003250WA0195702036
B2004324748628N12003244WA0195802035
B2004334748632N12003238WA0195902034
B2004344748638N12003233WA0196002035
B2004354748644N12003229WA0196002036
B2004364748650N12003228WA0196102038
B2004374748658N12003228WA0196202039
B2004384748666N12003228WA0196302039
B2004394748673N12003230WA0196402040
B2004404748681N12003233WA0196502041
B2004414748688N12003239WA0196502042
B2004424748693N12003247WA0196602042
B2004434748696N12003257WA0196702042
B2004444748698N12003265WA0196802043
B2004454748698N12003272WA0196802043
B2004464748697N12003277WA0196902043
B2004474748695N12003280WA0196902043
B2004484748693N12003282WA0197002044
B2004494748691N12003283WA0197002045
B2004504748690N12003283WA0197102046
B2004514748689N12003282WA0197102047
B2004524748688N12003279WA0197202047
B2004534748688N12003276WA0197302047
B2004544748687N12003273WA0197302047
B2004554748687N12003268WA0197302047
B2004564748687N12003263WA0197402047
B2004574748687N12003258WA0197402048
B2004584748688N12003253WA0197502049
B2004594748688N12003248WA0197502050
B2004594748688N12003248WA0197502050
B2005004748688N12003243WA0197602052
B2005014748689N12003238WA0197602053
B2005024748690N12003232WA0197702055
B2005034748690N12003227WA0197802056
B2005044748690N12003221WA0197902057
B2005054748691N12003215WA0198002058
B2005064748692N12003208WA0198102059
B2005074748693N12003203WA0198102060
B2005084748694N12003198WA0198302062
B2005094748696N12003194WA0198402063
B2005104748698N12003190WA0198502063
B2005114748699N12003185WA0198502062
B2005124748699N12003182WA0198602061
B2005134748698N12003178WA0198602059
B2005144748698N12003173WA0198602057
B2005154748698N12003166WA0198602055
B2005164748698N12003159WA0198502054
B2005174748698N12003152WA0198502053
B2005184748699N12003146WA0198402054
B2005194748699N12003141WA0198402054
B2005204748699N12003138WA0198402054
B2005214748697N12003137WA0198402054
B2005224748696N12003137WA0198302053
B2005234748694N12003140WA0198302053
B2005244748693N12003145WA0198302053
B2005254748694N12003153WA0198202053
B2005264748697N12003161WA0198202053
B2005274748702N12003168WA0198202054
B2005284748709N12003174WA0198202055
B2005294748717N12003176WA0198202055
B2005304748725N12003174WA0198302055
B2005314748732N12003169WA0198302055
B2005324748737N12003161WA0198302055
B2005334748740N12003153WA0198302055
B2005344748743N12003146WA0198302055
B2005354748745N12003139WA0198302056
B2005364748749N12003132WA0198302056
B2005374748752N12003124WA0198302056
B2005384748755N12003117WA0198302055
B2005394748758N12003109WA0198302055
B2005404748761N12003101WA0198302055
B2005414748764N12003095WA0198302057
B2005424748766N12003090WA0198402059
B2005434748769N12003085WA0198402061
B2005444748772N12003080WA0198502062
B2005454748775N12003074WA0198602063
B2005464748777N12003068WA0198602063
B2005474748780N12003062WA0198702063
B2005484748783N12003055WA0198702062
B2005494748787N12003048WA0198802062
B2005504748792N12003041WA0198802061
B2005514748795N12003034WA0198802060
B2005524748798N12003026WA0198802060
B2005534748801N12003019WA0198802060
B2005544748804N12003011WA0198802061
B2005554748807N12003003WA0198802061
B2005564748811N12002995WA0198802061
B2005574748815N12002987WA0198802061
B2005584748818N12002978WA0198802061
B2005594748821N12002969WA0198802062
B2006004748824N12002961WA0198902063
B2006014748827N12002954WA0198902065
B2006024748830N12002947WA0199002066
B2006024748830N12002947WA0199002066
B2006034748834N12002942WA0199002067
B2006044748838N12002936WA0199102067
B2006054748843N12002928WA0199102065
B2006064748850N12002919WA0199102064
B2006074748855N12002909WA0199102065
B2006084748857N12002900WA0199202068
B2006094748859N12002893WA0199302071
B2006104748861N12002886WA0199402074
B2006114748865N12002879WA0199502075
B2006124748872N12002872WA0199602076
B2006134748879N12002867WA0199602076
B2006144748888N12002865WA0199702076
B2006154748896N12002866WA0199802079
B2006164748902N12002869WA0199902081
B2006174748906N12002875WA0200002082
B2006184748908N12002882WA0200102082
B2006194748907N12002888WA0200202082
B2006204748906N12002892WA0200302084
B2006214748903N12002894WA0200402085
B2006224748901N12002893WA0200602088
B2006234748899N12002891WA0200702090
B2006244748898N12002885WA0200802091
B2006254748897N12002878WA0200902092
B2006264748897N12002870WA0201102093
B2006274748900N12002861WA0201202095
B2006284748904N12002853WA0201302097
B2006294748911N12002847WA0201402097
B2006304748919N12002843WA0201602097
B2006314748927N12002843WA0201702099
B2006324748934N12002845WA0201802101
B2006334748939N12002850WA0201902103
B2006344748943N12002856WA0202102104
B2006354748944N12002862WA0202202106
B2006364748944N12002868WA0202302107
B2006374748942N12002871WA0202402108
B2006384748940N12002872WA0202602109
B2006394748938N12002870WA0202702111
B2006404748936N12002867WA0202902113
B2006414748934N12002863WA0203002115
B2006424748934N12002857WA0203202117
B2006434748934N12002851WA0203302119
B2006444748936N12002844WA0203502120
B2006454748939N12002836WA0203602121
B2006464748943N12002828WA0203702121
B2006474748949N12002822WA0203902122
B2006484748956N12002816WA0204002123
B2006494748963N12002813WA0204102124
B2006504748970N12002812WA0204302125
B2006514748977N12002814WA0204402127
B2006024748830N12002947WA0199002066
B2006034748834N12002942WA0199002067
B2006044748838N12002936WA0199102067
B2006054748843N12002928WA0199102065
B2006064748850N12002919WA0199102064
B2006074748855N12002909WA0199102065
B2006084748857N12002900WA0199202068
B2006094748859N12002893WA0199302071
B2006104748861N12002886WA0199402074
B2006114748865N12002879WA0199502075
B2006124748872N12002872WA0199602076
B2006134748879N12002867WA0199602076
B2006144748888N12002865WA0199702076
B2006154748896N12002866WA0199802079
B2006164748902N12002869WA0199902081
B2006174748906N12002875WA0200002082
B2006184748908N12002882WA0200102082
B2006194748907N12002888WA0200202082
B2006204748906N12002892WA0200302084
B2006214748903N12002894WA0200402085
B2006224748901N12002893WA0200602088
B2006234748899N12002891WA0200702090
B2006244748898N12002885WA0200802091
B2006254748897N12002878WA0200902092
B2006264748897N12002870WA0201102093
B2006274748900N12002861WA0201202095
B2006284748904N12002853WA0201302097
B2006294748911N12002847WA0201402097
B2006304748919N12002843WA0201602097
B2006314748927N12002843WA0201702099
B2006324748934N12002845WA0201802101
B2006334748939N12002850WA0201902103
B2006344748943N12002856WA0202102104
B2006354748944N12002862WA0202202106
B2006364748944N12002868WA0202302107
B2006374748942N12002871WA0202402108
B2006384748940N12002872WA0202602109
B2006394748938N12002870WA0202702111
B2006404748936N12002867WA0202902113
B2006414748934N12002863WA0203002115
B2006424748934N12002857WA0203202117
B2006434748934N12002851WA0203302119
B2006444748936N12002844WA0203502120
B2006454748939N12002836WA0203602121
B2006464748943N12002828WA0203702121
B2006474748949N12002822WA0203902122
B2006484748956N12002816WA0204002123
B2006494748963N12002813WA0204102124
B2006504748970N12002812WA0204302125
B2006514748977N12002814WA0204402127
B2006024748830N12002947WA0199002066
B2006034748834N12002942WA0199002067
B2006044748838N12002936WA0199102067
B2006054748843N12002928WA0199102065
B2006064748850N12002919WA0199102064
B2006074748855N12002909WA0199102065
B2006084748857N12002900WA0199202068
B2006094748859N12002893WA0199302071
B2006104748861N12002886WA0199402074
B2006114748865N12002879WA0199502075
B2006124748872N12002872WA0199602076
B2006134748879N12002867WA0199602076
B2006144748888N12002865WA0199702076
B2006154748896N12002866WA0199802079
B2006164748902N12002869WA0199902081
B2006174748906N12002875WA0200002082
B2006184748908N12002882WA0200102082
B2006194748907N12002888WA0200202082
B2006204748906N12002892WA0200302084
B2006214748903N12002894WA0200402085
B2006224748901N12002893WA0200602088
B2006234748899N12002891WA0200702090
B2006244748898N12002885WA0200802091
B2006254748897N12002878WA0200902092
B2006264748897N12002870WA0201102093
B2006274748900N12002861WA0201202095
B2006284748904N12002853WA0201302097
B2006294748911N12002847WA0201402097
B2006304748919N12002843WA0201602097
B2006314748927N12002843WA0201702099
B2006324748934N12002845WA0201802101
B2006334748939N12002850WA0201902103
B2006344748943N12002856WA0202102104
B2006354748944N12002862WA0202202106
B2006364748944N12002868WA0202302107
B2006374748942N12002871WA0202402108
B2006384748940N12002872WA0202602109
B2006394748938N12002870WA0202702111
B2006404748936N12002867WA0202902113
B2006414748934N12002863WA0203002115
B2006424748934N12002857WA0203202117
B2006434748934N12002851WA0203302119
B2006444748936N12002844WA0203502120
B2006454748939N12002836WA0203602121
B2006464748943N12002828WA0203702121
B2006474748949N12002822WA0203902122
B2006484748956N12002816WA0204002123
B2006494748963N12002813WA0204102124
B2006504748970N12002812WA0204302125
B2006514748977N12002814WA0204402127
B2006024748830N12002947WA0199002066
B2006034748834N12002942WA0199002067
B2006044748838N12002936WA0199102067
B2006054748843N12002928WA0199102065
B2006064748850N12002919WA0199102064
B2006074748855N12002909WA0199102065
B2006084748857N12002900WA0199202068
B2006094748859N12002893WA0199302071
B2006104748861N12002886WA0199402074
B2006114748865N12002879WA0199502075
B2006124748872N12002872WA0199602076
B2006134748879N12002867WA0199602076
B2006144748888N12002865WA0199702076
B2006154748896N12002866WA0199802079
B2006164748902N12002869WA0199902081
B2006174748906N12002875WA0200002082
B2006184748908N12002882WA0200102082
B2006194748907N12002888WA0200202082
B2006204748906N12002892WA0200302084
B2006214748903N12002894WA0200402085
B2006224748901N12002893WA0200602088
B2006234748899N12002891WA0200702090
B2006244748898N12002885WA0200802091
B2006254748897N12002878WA0200902092
B2006264748897N12002870WA0201102093
B2006274748900N12002861WA0201202095
B2006284748904N12002853WA0201302097
B2006294748911N12002847WA0201402097
B2006304748919N12002843WA0201602097
B2006314748927N12002843WA0201702099
B2006324748934N12002845WA0201802101
B2006334748939N12002850WA0201902103
B2006344748943N12002856WA0202102104
B2006354748944N12002862WA0202202106
B2006364748944N12002868WA0202302107
B2006374748942N12002871WA0202402108
B2006384748940N12002872WA0202602109
B2006394748938N12002870WA0202702111
B2006404748936N12002867WA0202902113
B2006414748934N12002863WA0203002115
B2006424748934N12002857WA0203202117
B2006434748934N12002851WA0203302119
B2006444748936N12002844WA0203502120
B2006454748939N12002836WA0203602121
B2006464748943N12002828WA0203702121
B2006474748949N12002822WA0203902122
B2006484748956N12002816WA0204002123
B2006494748963N12002813WA0204102124
B2006504748970N12002812WA0204302125
B2006514748977N12002814WA0204402127
B2006524748983N12002819WA0204502127
B2006534748988N12002825WA0204602128
B2006544748991N12002832WA0204702129
B2006554748991N12002838WA0204802130
B2006564748989N12002842WA0204902132
B2006574748987N12002844WA0205002133
B2006584748984N12002843WA0205202134
B2006594748981N12002842WA0205302136
B2007004748979N12002839WA0205402138
B2007014748977N12002836WA0205502140
B2007024748976N12002832WA0205702142
B2007034748974N12002828WA0205802144
B2007044748974N12002822WA0206002146
B2007054748974N12002815WA0206102147
B2007064748977N12002807WA0206302148
B2007074748982N12002800WA0206402149
B2007084748989N12002795WA0206602150
B2007094748997N12002794WA0206702151
B2007104749005N12002796WA0206802152
B2007114749012N12002801WA0206902154
B2007124749017N12002807WA0207102157
B2007134749021N12002813WA0207202160
B2007144749023N12002820WA0207402162
B2007154749025N12002826WA0207602163
B2007164749027N12002833WA0207702164
B2007174749027N12002840WA0207902165
B2007184749026N12002846WA0208002166
B2007194749023N12002849WA0208202167
B2007204749020N12002848WA0208302168
B2007214749016N12002845WA0208402170
B2007224749014N12002842WA0208602173
B2007234749012N12002838WA0208802176
B2007244749010N12002835WA0209002179
B2007254749009N12002830WA0209102182
B2007264749009N12002823WA0209302183
B2007274749010N12002815WA0209502184
B2007284749012N12002807WA0209702184
B2007294749014N12002799WA0209802186
B2007304749016N12002792WA0210002189
B2007314749016N12002785WA0210202191
B2007324749016N12002779WA0210402193
B2007334749016N12002773WA0210502195
B2007344749018N12002767WA0210702198
B2007354749021N12002761WA0210902200
B2007364749025N12002753WA0211102201
B2007374749030N12002746WA0211202201
B2007384749037N12002739WA0211402203
B2007394749044N12002735WA0211602205
B2007404749052N12002734WA0211802207
B2007414749060N12002736WA0212002208
B2007424749069N12002738WA0212202210
B2007434749076N12002742WA0212302212
B2007444749083N12002747WA0212502213
B2007454749089N12002753WA0212602215
B2007464749093N12002759WA0212802217
B2007474749096N12002765WA0213002219
B2007484749097N12002771WA0213202220
B2007494749097N12002776WA0213302221
B2007504749096N12002781WA0213502221
B2007514749094N12002784WA0213602222
B2007524749091N12002786WA0213702223
B2007534749089N12002785WA0213802225
B2007544749087N12002783WA0214002227
B2007554749085N12002781WA0214102229
B2007564749083N12002778WA0214302230
B2007574749081N12002775WA0214402232
B2007584749079N12002771WA0214602234
B2007594749077N12002767WA0214702236
B2008004749077N12002762WA0214902238
B2008014749077N12002756WA0215002240
B2008024749078N12002749WA0215202241
B2008034749080N12002742WA0215302242
B2008044749083N12002734WA0215502244
B2008054749086N12002728WA0215602246
B2008064749091N12002724WA0215802249
B2008074749097N12002719WA0215902250
B2008084749104N12002715WA0216102249
B2008094749113N12002713WA0216202248
B2008104749122N12002713WA0216302249
B2008114749129N12002716WA0216402250
B2008124749136N12002722WA0216502251
B2008134749141N12002728WA0216602252
B2008144749144N12002734WA0216702253
B2008154749146N12002740WA0216802255
B2008164749146N12002745WA0216902257
B2008174749144N12002749WA0217002257
B2008184749142N12002751WA0217202258
B2008194749140N12002751WA0217202259
B2008204749137N12002750WA0217402260
B2008214749135N12002747WA0217402261
B2008224749133N12002743WA0217602263
B2008234749132N12002739WA0217702264
B2008244749131N12002735WA0217802266
B2008254749130N12002730WA0217902267
B2008264749129N12002726WA0218102269
B2008274749129N12002722WA0218202270
B2008284749128N12002717WA0218302271
B2008294749128N12002711WA0218402272
B2008304749128N12002705WA0218502273
B2008314749128N12002699WA0218602274
B2008324749129N12002692WA0218802275
B2008334749129N12002685WA0218802276
B2008344749129N12002679WA0219002277
B2008354749129N12002673WA0219102279
B2008364749129N12002667WA0219202281
B2008374749130N12002660WA0219302282
B2008384749130N12002654WA0219502285
B2008394749131N12002648WA0219602287
B2008404749131N12002642WA0219802290
B2008414749132N12002637WA0219902293
B2008424749134N12002631WA0220102295
B2008434749139N12002624WA0220302296
B2008444749144N12002618WA0220502296
B2008454749151N12002613WA0220602296
B2008464749159N12002609WA0220702296
B2008474749167N12002608WA0220802297
B2008484749175N12002609WA0221002297
B2008494749183N12002611WA0221002298
B2008504749190N12002615WA0221202299
B2008514749196N12002621WA0221302300
B2008524749200N12002629WA0221402301
B2008534749203N12002637WA0221402301
B2008544749204N12002644WA0221602302
B2008554749205N12002649WA0221602304
B2008564749204N12002653WA0221802305
B2008574749203N12002655WA0221802307
B2008584749202N12002656WA0222002308
B2008594749200N12002657WA0222002308
B2009004749198N12002657WA0222202309
B2009014749196N12002655WA0222202311
B2009024749194N12002654WA0222402313
B2009034749193N12002651WA0222502315
B2009044749192N12002648WA0222602317
B2009054749191N12002645WA0222702318
B2009064749190N12002641WA0222902319
B2009074749189N12002638WA0223002320
B2009084749188N12002634WA0223102321
B2009094749188N12002629WA0223202323
B2009104749188N12002624WA0223402325
B2009114749189N12002619WA0223502326
B2009124749189N12002614WA0223602327
B2009134749189N12002609WA0223702328
B2009144749189N12002605WA0223902329
B2009154749189N12002600WA0223902330
B2009164749189N12002596WA0224102330
B2009174749189N12002591WA0224102329
B2009184749189N12002585WA0224202328
B2009194749189N12002579WA0224202326
B2009204749188N12002572WA0224202325
B2009214749188N12002566WA0224202325
B2009224749188N12002560WA0224202325
B2009234749188N12002552WA0224202325
B2009244749187N12002545WA0224102325
B2009254749186N12002539WA0224102325
B2009264749185N12002533WA0224202326
B2009274749184N12002527WA0224202327
B2009284749182N12002520WA0224302326
B2009294749181N12002512WA0224302324
B2009304749179N12002503WA0224202322
B2009314749178N12002494WA0224202321
B2009324749177N12002484WA0224102321
B2009334749176N12002476WA0224102322
B2009344749176N12002468WA0224102322
B2009354749176N12002461WA0224102322
B2009364749176N12002453WA0224002321
B2009374749175N12002446WA0224002319
B2009384749175N12002438WA0223902315
B2009394749174N12002430WA0223802312
B2009404749173N12002420WA0223602309
B2009414749173N12002410WA0223502307
B2009424749173N12002400WA0223302305
B2009434749174N12002390WA0223202304
B2009444749175N12002381WA0223002303
B2009454749175N12002372WA0222902300
B2009464749175N12002364WA0222702297
B2009474749175N12002355WA0222602293
B2009484749175N12002345WA0222302288
B2009494749174N12002335WA0222102284
B2009504749174N12002326WA0221802281
B2009514749174N12002316WA0221602278
B2009524749174N12002307WA0221302276
B2009534749173N12002298WA0221002272
B2009544749173N12002288WA0220702269
B2009554749172N12002277WA0220502266
B2009564749172N12002268WA0220202264
B2009574749173N12002258WA0220002263
B2009584749173N12002250WA0219702262
B2009594749173N12002241WA0219502260
B2010004749173N12002233WA0219202258
B2010014749173N12002226WA0219102255
B2010024749172N12002219WA0218802252
B2010034749171N12002212WA0218602248
B2010044749170N12002204WA0218302245
B2010054749169N12002197WA0218102243
B2010064749168N12002189WA0217802239
B2010074749167N12002180WA0217502236
B2010084749166N12002172WA0217202233
B2010094749164N12002165WA0217002230
B2010104749161N12002159WA0216702229
B2010114749159N12002153WA0216502228
B2010124749158N12002146WA0216202227
B2010134749157N12002139WA0216102225
B2010144749155N12002132WA0215802223
B2010154749153N12002126WA0215602220
B2010164749150N12002119WA0215402218
B2010174749148N12002113WA0215202217
B2010184749145N12002108WA0214902216
B2010194749143N12002102WA0214802214
B2010194749143N12002102WA0214802214
B2010204749141N12002096WA0214602213
B2010214749138N12002090WA0214402212
B2010224749136N12002084WA0214202211
B2010234749133N12002078WA0214102209
B2010244749131N12002073WA0213902208
B2010254749128N12002068WA0213802208
B2010264749126N12002063WA0213602206
B2010274749123N12002057WA0213502205
B2010284749121N12002051WA0213302203
B2010294749119N12002044WA0213202201
B2010304749116N12002038WA0213102201
B2010314749114N12002030WA0212902200
B2010324749114N12002023WA0212802200
B2010334749113N12002016WA0212702200
B2010344749112N12002009WA0212602199
B2010354749109N12002002WA0212502195
B2010364749105N12001995WA0212402191
B2010374749100N12001989WA0212202187
B2010384749095N12001983WA0212002185
B2010394749091N12001976WA0211902183
B2010404749087N12001969WA0211702183
B2010414749084N12001962WA0211502182
B2010424749081N12001955WA0211302180
B2010434749078N12001949WA0211202178
B2010444749074N12001942WA0211002175
B2010454749070N12001936WA0210902172
B2010464749066N12001929WA0210602169
B2010474749062N12001922WA0210502167
B2010484749058N12001916WA0210202165
B2010494749055N12001909WA0210102162
B2010504749052N12001903WA0209802160
B2010514749048N12001896WA0209602157
B2010524749045N12001890WA0209302154
B2010534749041N12001883WA0209102150
B2010544749037N12001876WA0208802147
B2010554749033N12001869WA0208602144
B2010564749029N12001862WA0208302141
B2010574749025N12001854WA0208102139
B2010584749022N12001847WA0207802138
B2010594749018N12001841WA0207602136
B2011004749014N12001835WA0207402135
B2011014749010N12001829WA0207202133
B2011024749006N12001823WA0207002131
B2011034749001N12001817WA0206802128
B2011044748996N12001811WA0206502125
B2011054748991N12001805WA0206302122
B2011064748986N12001800WA0206002120
B2011074748981N12001794WA0205902117
B2011084748977N12001788WA0205602115
B2011094748973N12001782WA0205402112
B2011104748968N12001775WA0205102110
B2011114748964N12001768WA0204902107
B2011124748959N12001762WA0204602105
B2011134748954N12001757WA0204402104
B2011144748950N12001751WA0204202103
B2011154748946N12001745WA0204002102
B2011164748942N12001739WA0203802102
B2011174748938N12001734WA0203702101
B2011184748934N12001728WA0203502100
B2011194748931N12001721WA0203402099
B2011204748929N12001712WA0203202098
B2011214748928N12001704WA0203102097
B2011224748926N12001695WA0202902096
B2011234748924N12001686WA0202802094
B2011234748924N12001686WA0202802094
B2011244748923N12001677WA0202702093
B2011254748921N12001668WA0202502091
B2011264748920N12001658WA0202402089
B2011274748919N12001649WA0202202087
B2011284748918N12001639WA0202102086
B2011294748916N12001630WA0202002085
B2011304748915N12001621WA0201802084
B2011314748913N12001613WA0201702083
B2011324748912N12001604WA0201602082
B2011334748911N12001596WA0201502081
B2011344748909N12001586WA0201302079
B2011354748908N12001577WA0201202078
B2011364748906N12001568WA0201102077
B2011374748905N12001559WA0201002077
B2011384748904N12001550WA0200902077
B2011394748903N12001541WA0200802076
B2011404748902N12001533WA0200702075
B2011414748900N12001524WA0200602074
B2011424748899N12001516WA0200502072
B2011434748897N12001508WA0200402070
B2011444748896N12001499WA0200302069
B2011454748895N12001491WA0200202068
B2011464748894N12001482WA0200002067
B2011474748894N12001474WA0199902065
B2011484748893N12001465WA0199802064
B2011494748891N12001457WA0199702062
B2011504748890N12001449WA0199502059
B2011514748887N12001441WA0199402057
B2011524748885N12001433WA0199202056
B2011534748882N12001426WA0199102055
B2011544748880N12001419WA0198902055
B2011554748878N12001412WA0198802055
B2011564748877N12001405WA0198702055
B2011574748876N12001398WA0198602054
B2011584748874N12001391WA0198502053
B2011594748873N12001383WA0198502052
B2012004748871N12001376WA0198302050
B2012014748869N12001369WA0198202048
B2012024748867N12001362WA0198102047
B2012034748865N12001356WA0198002046
B2012044748864N12001350WA0197902045
B2012054748862N12001344WA0197802043
B2012064748860N12001337WA0197602041
B2012074748859N12001331WA0197502039
B2012084748857N12001323WA0197302037
B2012094748856N12001316WA0197202034
B2012104748855N12001309WA0197002031
B2012114748853N12001301WA0196802028
B2012124748851N12001294WA0196602025
B2012134748849N12001288WA0196402022
B2012144748847N12001281WA0196202019
B2012154748844N12001275WA0196002016
B2012164748842N12001269WA0195702013
B2012174748839N12001262WA0195502009
B2012184748837N12001254WA0195202005
B2012194748835N12001247WA0195002002
B2012204748832N12001239WA0194601999
B2012214748830N12001232WA0194401997
B2012224748829N12001225WA0194101995
B2012234748828N12001218WA0193901993
B2012244748827N12001210WA0193601990
B2012254748825N12001202WA0193401987
B2012264748824N12001194WA0193101983
B2012264748824N12001194WA0193101983
B2012274748823N12001185WA0192801979
B2012284748823N12001176WA0192501976
B2012294748822N12001167WA0192201974
B2012304748822N12001158WA0191901972
B2012314748822N12001150WA0191701970
B2012324748821N12001142WA0191401967
B2012334748819N12001135WA0191201964
B2012344748818N12001127WA0190901961
B2012354748817N12001118WA0190601957
B2012364748816N12001110WA0190301954
B2012374748815N12001101WA0190101950
B2012384748814N12001092WA0189701947
B2012394748813N12001083WA0189501944
B2012404748812N12001073WA0189101940
B2012414748811N12001064WA0188901937
B2012424748811N12001054WA0188501934
B2012434748811N12001045WA0188301932
B2012444748811N12001037WA0188001931
B2012454748812N12001030WA0187801929
B2012464748813N12001023WA0187401926
B2012474748812N12001016WA0187201921
B2012484748811N12001007WA0186801915
B2012494748810N12000998WA0186601910
B2012504748809N12000990WA0186201907
B2012514748808N12000982WA0185901905
B2012524748807N12000975WA0185601904
B2012534748807N12000969WA0185401903
B2012544748806N12000962WA0185101901
B2012554748805N12000955WA0184901898
B2012564748804N12000947WA0184501895
B2012574748802N12000940WA0184301892
B2012584748801N12000932WA0184001890
B2012594748801N12000925WA0183801888
B2013004748801N12000918WA0183501886
B2013014748800N12000910WA0183301884
B2013024748799N12000903WA0183001880
B2013034748798N12000895WA0182801875
B2013044748796N12000888WA0182501872
B2013054748794N12000881WA0182301870
B2013064748794N12000874WA0181901868
B2013074748793N12000867WA0181701866
B2013084748792N12000861WA0181401862
B2013094748791N12000854WA0181201858
B2013104748788N12000847WA0180801854
B2013114748786N12000840WA0180601850
B2013124748784N12000833WA0180201847
B2013134748782N12000827WA0180001846
B2013144748781N12000821WA0179701844
B2013154748779N12000815WA0179501841
B2013164748777N12000808WA0179101837
B2013174748775N12000802WA0178901833
B2013184748773N12000795WA0178501830
B2013194748771N12000789WA0178301827
B2013204748769N12000783WA0178001825
B2013214748768N12000777WA0177701821
B2013224748766N12000770WA0177401818
B2013234748764N12000764WA0177101814
B2013244748762N12000758WA0176801811
B2013254748761N12000751WA0176501807
B2013264748759N12000745WA0176101804
B2013274748757N12000739WA0175901800
B2013284748755N12000733WA0175501797
B2013294748753N12000727WA0175201793
B2013304748751N12000721WA0174801790
B2013304748751N12000721WA0174801790
B2013314748749N12000716WA0174601787
B2013324748747N12000710WA0174201784
B2013334748745N12000704WA0173901781
B2013344748743N12000698WA0173601778
B2013354748741N12000692WA0173301774
B2013364748738N12000686WA0172901772
B2013374748736N12000680WA0172701769
B2013384748734N12000674WA0172401767
B2013394748732N12000667WA0172101765
B2013404748731N12000662WA0171801763
B2013414748729N12000656WA0171601761
B2013424748728N12000651WA0171301759
B2013434748727N12000645WA0171101757
B2013444748725N12000638WA0170801753
B2013454748723N12000632WA0170601751
B2013464748722N12000625WA0170301748
B2013474748720N12000620WA0170101746
B2013484748718N12000614WA0169801744
B2013494748717N12000609WA0169601741
B2013504748715N12000603WA0169301738
B2013514748712N12000597WA0169101734
B2013524748710N12000590WA0168801732
B2013534748708N12000584WA0168601730
B2013544748707N12000578WA0168301728
B2013554748706N12000572WA0168101726
B2013564748704N12000565WA0167801723
B2013574748703N12000559WA0167601720
B2013584748701N12000551WA0167301716
B2013594748698N12000544WA0167101714
B2014004748696N12000537WA0166801711
B2014014748695N12000530WA0166601710
B2014024748693N12000524WA0166301708
B2014034748692N12000517WA0166101706
B2014044748691N12000510WA0165901704
B2014054748689N12000502WA0165701701
B2014064748687N12000495WA0165401698
B2014074748685N12000487WA0165201695
B2014084748683N12000480WA0164901692
B2014094748681N12000473WA0164701690
B2014104748679N12000466WA0164401688
B2014114748677N12000458WA0164201685
B2014124748675N12000450WA0163901682
B2014134748673N12000443WA0163701680
B2014144748671N12000436WA0163501678
B2014154748669N12000428WA0163301677
B2014164748667N12000421WA0163001675
B2014174748665N12000414WA0162901674
B2014184748663N12000407WA0162601672
B2014194748660N12000401WA0162501670
B2014204748658N12000394WA0162201668
B2014214748655N12000387WA0162101666
B2014224748653N12000379WA0161801664
B2014234748651N12000372WA0161701662
B2014244748649N12000364WA0161401660
B2014254748647N12000357WA0161301658
B2014264748644N12000351WA0161101656
B2014274748642N12000343WA0160901653
B2014284748639N12000336WA0160701651
B2014294748637N12000328WA0160501649
B2014304748634N12000321WA0160301647
B2014314748632N12000314WA0160101645
B2014324748630N12000307WA0159901644
B2014334748628N12000300WA0159701641
B2014344748626N12000293WA0159501639
B2014344748626N12000293WA0159501639
B2014354748625N12000285WA0159301636
B2014364748623N12000277WA0159101634
B2014374748622N12000270WA0158901632
B2014384748619N12000263WA0158701631
B2014394748617N12000256WA0158501629
B2014404748615N12000248WA0158301628
B2014414748613N12000240WA0158101626
B2014424748611N12000233WA0157901625
B2014434748609N12000225WA0157801624
B2014444748607N12000218WA0157601623
B2014454748605N12000211WA0157501622
B2014464748603N12000204WA0157301621
B2014474748601N12000197WA0157201619
B2014484748599N12000189WA0157001617
B2014494748596N12000182WA0156901614
B2014504748592N12000174WA0156701612
B2014514748589N12000167WA0156601611
B2014524748586N12000160WA0156401611
B2014534748584N12000153WA0156301611
B2014544748582N12000146WA0156201611
B2014554748581N12000139WA0156001611
B2014564748578N12000133WA0155901610
B2014574748576N12000126WA0155901610
B2014584748574N12000120WA0155801610
B2014594748573N12000114WA0155701610
B2015004748571N12000109WA0155701610
B2015014748569N12000106WA0155601610
B2015024748567N12000102WA0155601608
B2015034748564N12000097WA0155501606
B2015044748562N12000092WA0155501603
B2015054748559N12000085WA0155401601
B2015064748557N12000077WA0155201599
B2015074748555N12000070WA0155101598
B2015084748554N12000064WA0155001597
B2015094748553N12000058WA0154901596
B2015104748551N12000052WA0154701594
B2015114748549N12000045WA0154601590
B2015124748546N12000037WA0154401586
B2015134748543N12000029WA0154201584
B2015144748541N12000022WA0154001583
B2015154748540N12000016WA0153901583
B2015164748539N12000010WA0153701582
B2015174748537N12000004WA0153601579
B2015184748536N11959996WA0153401576
B2015194748534N11959988WA0153201573
B2015204748532N11959980WA0153001571
B2015214748530N11959972WA0152801569
B2015224748528N11959965WA0152601568
B2015234748526N11959958WA0152501568
B2015244748524N11959952WA0152301567
B2015254748522N11959946WA0152201567
B2015264748519N11959941WA0152001566
B2015274748517N11959935WA0152001566
B2015284748515N11959930WA0151801565
B2015294748513N11959923WA0151701563
B2015304748511N11959916WA0151601561
B2015314748509N11959909WA0151501559
B2015324748508N11959901WA0151301558
B2015334748506N11959894WA0151201557
B2015344748505N11959886WA0151001556
B2015354748503N11959879WA0151001555
B2015364748502N11959871WA0150801554
B2015374748500N11959864WA0150701553
B2015384748498N11959857WA0150601551
B2015384748498N11959857WA0150601551
B2015394748497N11959850WA0150501550
B2015404748496N11959843WA0150301548
B2015414748494N11959836WA0150201547
B2015424748493N11959830WA0150101545
B2015434748491N11959823WA0150001544
B2015444748490N11959816WA0149801543
B2015454748489N11959810WA0149701542
B2015464748488N11959803WA0149501540
B2015474748486N11959795WA0149401537
B2015484748485N11959787WA0149201535
B2015494748484N11959779WA0149101533
B2015504748483N11959771WA0148901532
B2015514748482N11959763WA0148801531
B2015524748480N11959756WA0148601530
B2015534748479N11959749WA0148501529
B2015544748478N11959742WA0148301527
B2015554748476N11959734WA0148201524
B2015564748473N11959727WA0148001522
B2015574748470N11959720WA0147901521
B2015584748467N11959714WA0147701520
B2015594748464N11959709WA0147601520
B2016004748461N11959703WA0147501519
B2016014748458N11959698WA0147401519
B2016024748455N11959692WA0147301518
B2016034748452N11959687WA0147201516
B2016044748449N11959682WA0147001515
B2016054748446N11959677WA0146901515
B2016064748444N11959673WA0146801515
B2016074748442N11959668WA0146801515
B2016084748440N11959664WA0146701515
B2016094748438N11959659WA0146601514
B2016104748435N11959654WA0146501513
B2016114748433N11959649WA0146501511
B2016124748430N11959643WA0146301509
B2016134748428N11959638WA0146301508
B2016144748426N11959632WA0146201508
B2016154748424N11959627WA0146101507
B2016164748422N11959622WA0146001505
B2016174748420N11959616WA0145901504
B2016184748417N11959610WA0145701501
B2016194748415N11959605WA0145601499
B2016204748413N11959599WA0145401497
B2016214748410N11959594WA0145301496
B2016224748407N11959588WA0145201494
B2016234748404N11959583WA0145001492
B2016244748401N11959577WA0144901491
B2016254748398N11959572WA0144801490
B2016264748396N11959567WA0144601489
B2016274748394N11959561WA0144501489
B2016284748391N11959556WA0144401488
B2016294748389N11959549WA0144301486
B2016304748387N11959542WA0144101484
B2016314748384N11959536WA0144001482
B2016324748381N11959530WA0143901481
B2016334748379N11959524WA0143801479
B2016344748376N11959518WA0143601478
B2016354748374N11959512WA0143501477
B2016364748372N11959505WA0143301476
B2016374748371N11959498WA0143201475
B2016384748369N11959491WA0143101473
B2016394748368N11959483WA0143001471
B2016404748366N11959476WA0142801469
B2016414748365N11959468WA0142701468
B2016424748363N11959461WA0142501466
B2016424748363N11959461WA0142501466
B2016434748362N11959453WA0142401464
B2016444748361N11959445WA0142201463
B2016454748359N11959437WA0142101461
B2016464748358N11959429WA0142001460
B2016474748356N11959421WA0141801459
B2016484748355N11959413WA0141701458
B2016494748353N11959405WA0141601456
B2016504748352N11959397WA0141401455
B2016514748351N11959389WA0141301454
B2016524748349N11959382WA0141201453
B2016534748348N11959374WA0141101451
B2016544748347N11959367WA0140901450
B2016554748346N11959359WA0140801449
B2016564748344N11959352WA0140701447
B2016574748343N11959344WA0140501445
B2016584748341N11959336WA0140401444
B2016594748339N11959328WA0140301443
B2017004748338N11959320WA0140101441
B2017014748336N11959312WA0140001440
B2017024748335N11959304WA0139901439
B2017034748334N11959296WA0139801438
B2017044748332N11959288WA0139601436
B2017054748331N11959280WA0139501434
B2017064748329N11959272WA0139301432
B2017074748327N11959264WA0139201430
B2017084748325N11959256WA0139001429
B2017094748323N11959249WA0138901428
B2017104748321N11959241WA0138801427
B2017114748319N11959234WA0138701426
B2017124748317N11959226WA0138501425
B2017134748315N11959218WA0138401423
B2017144748313N11959210WA0138201421
B2017154748310N11959203WA0138101420
B2017164748308N11959195WA0138001419
B2017174748307N11959188WA0137901418
B2017184748306N11959179WA0137701416
B2017194748304N11959171WA0137601414
B2017204748302N11959162WA0137401412
B2017214748300N11959153WA0137301410
B2017224748298N11959145WA0137101408
B2017234748297N11959137WA0137001408
B2017244748296N11959129WA0136801407
B2017254748294N11959121WA0136701406
B2017264748293N11959113WA0136601404
B2017274748291N11959104WA0136401401
B2017284748289N11959095WA0136301399
B2017294748287N11959087WA0136101398
B2017304748286N11959078WA0135901397
B2017314748284N11959071WA0135801396
B2017324748282N11959063WA0135601394
B2017334748280N11959055WA0135501393
B2017344748279N11959048WA0135401391
B2017354748277N11959041WA0135201389
B2017364748274N11959034WA0135001387
B2017374748272N11959027WA0134901386
B2017384748270N11959022WA0134801385
B2017394748268N11959015WA0134601384
B2017404748267N11959009WA0134501382
B2017414748265N11959002WA0134401380
B2017424748263N11958996WA0134201377
B2017434748261N11958990WA0134001373
B2017444748259N11958984WA0133801370
B2017454748257N11958977WA0133601368
B2017464748256N11958971WA0133401366
B2017464748256N11958971WA0133401366
B2017474748254N11958965WA0133201363
B2017484748252N11958960WA0133001360
B2017494748250N11958954WA0132801356
B2017504748249N11958946WA0132501352
B2017514748247N11958939WA0132301349
B2017524748245N11958932WA0132001347
B2017534748243N11958927WA0131801345
B2017544748241N11958923WA0131501343
B2017554748240N11958918WA0131301341
B2017564748238N11958912WA0131001338
B2017574748236N11958905WA0130801334
B2017584748234N11958898WA0130501331
B2017594748232N11958891WA0130301329
B2018004748230N11958884WA0130001327
B2018014748228N11958878WA0129801325
B2018024748226N11958871WA0129501323
B2018034748224N11958865WA0129301321
B2018044748222N11958859WA0129101319
B2018054748220N11958853WA0128901318
B2018064748217N11958847WA0128601316
B2018074748215N11958841WA0128501314
B2018084748212N11958835WA0128201311
B2018094748209N11958829WA0128101309
B2018104748207N11958823WA0127801307
B2018114748205N11958817WA0127601305
B2018124748203N11958810WA0127401303
B2018134748201N11958804WA0127201302
B2018144748200N11958797WA0127001299
B2018154748198N11958791WA0126801297
B2018164748197N11958784WA0126601294
B2018174748195N11958777WA0126401291
B2018184748193N11958770WA0126101287
B2018194748191N11958763WA0125901283
B2018204748189N11958755WA0125601280
B2018214748188N11958748WA0125401277
B2018224748186N11958742WA0125101274
B2018234748183N11958736WA0124901270
B2018244748181N11958729WA0124501267
B2018254748179N11958721WA0124301263
B2018264748176N11958714WA0123901261
B2018274748173N11958709WA0123701262
B2018284748172N11958706WA0123501264
B2018294748171N11958703WA0123401265
B2018304748171N11958700WA0123301264
B2018314748170N11958697WA0123201263
B2018324748168N11958692WA0123001260
B2018334748166N11958688WA0122901258
B2018344748164N11958683WA0122701256
B2018354748162N11958679WA0122501254
B2018364748161N11958675WA0122401253
B2018374748160N11958671WA0122201253
B2018384748159N11958667WA0122101251
B2018394748159N11958663WA0122001249
B2018404748158N11958657WA0121801247
B2018414748157N11958652WA0121601244
B2018424748157N11958646WA0121401242
B2018434748156N11958641WA0121301241
B2018444748155N11958635WA0121101239
B2018454748155N11958630WA0121001238
B2018464748154N11958625WA0120801236
B2018474748153N11958620WA0120701235
B2018484748153N11958616WA0120501234
B2018494748152N11958611WA0120401232
B2018504748151N11958606WA0120201231
B2018504748151N11958606WA0120201231
B2018514748150N11958601WA0120101229
B2018524748150N11958596WA0119901228
B2018534748149N11958592WA0119801227
B2018544748147N11958588WA0119601225
B2018554748146N11958584WA0119501224
B2018564748144N11958579WA0119301222
B2018574748142N11958575WA0119201220
B2018584748141N11958571WA0119001219
B2018594748139N11958567WA0118901217
B2019004748138N11958563WA0118701217
B2019014748138N11958559WA0118601215
B2019024748138N11958555WA0118401213
B2019034748137N11958550WA0118301211
B2019044748136N11958545WA0118101209
B2019054748135N11958539WA0118001206
B2019064748134N11958534WA0117801204
B2019074748134N11958529WA0117601203
B2019084748133N11958524WA0117401203
B2019094748134N11958519WA0117301202
B2019104748134N11958514WA0117201201
B2019114748133N11958509WA0117101200
B2019124748133N11958503WA0116901198
B2019134748133N11958497WA0116801197
B2019144748133N11958491WA0116701196
B2019154748133N11958486WA0116601196
B2019164748132N11958481WA0116501195
B2019174748132N11958476WA0116401194
B2019184748132N11958471WA0116301193
B2019194748132N11958466WA0116201191
B2019204748131N11958459WA0116001188
B2019214748131N11958452WA0115901185
B2019224748131N11958446WA0115701182
B2019234748131N11958440WA0115501180
B2019244748131N11958434WA0115301178
B2019254748131N11958428WA0115201174
B2019264748131N11958422WA0114901169
B2019274748129N11958414WA0114701164
B2019284748128N11958406WA0114401160
B2019294748128N11958397WA0114201159
B2019304748128N11958390WA0113901159
B2019314748129N11958384WA0113701159
B2019324748129N11958378WA0113501158
B2019334748129N11958372WA0113301156
B2019344748129N11958365WA0113101153
B2019354748129N11958357WA0112901149
B2019364748129N11958350WA0112701147
B2019374748128N11958343WA0112501144
B2019384748128N11958335WA0112201142
B2019394748128N11958328WA0112101140
B2019404748128N11958321WA0111801137
B2019414748127N11958313WA0111601133
B2019424748127N11958304WA0111301128
B2019434748127N11958295WA0111101124
B2019444748127N11958286WA0110701121
B2019454748127N11958277WA0110501119
B2019464748126N11958269WA0110201117
B2019474748124N11958260WA0110001113
B2019484748122N11958250WA0109701110
B2019494748119N11958240WA0109401107
B2019504748116N11958231WA0109101106
B2019514748113N11958224WA0109001107
B2019524748111N11958219WA0108801109
B2019534748110N11958215WA0108701109
B2019544748108N11958211WA0108501108
B2019554748105N11958206WA0108401106
B2019554748105N11958206WA0108401106
B2019564748101N11958200WA0108201103
B2019574748097N11958194WA0108101100
B2019584748094N11958186WA0107901099
B2019594748091N11958179WA0107801098
B2020004748088N11958174WA0107601098
B2020014748086N11958170WA0107501098
B2020024748083N11958167WA0107401097
B2020034748079N11958165WA0107301096
B2020044748075N11958162WA0107101093
B2020054748071N11958158WA0107001091
B2020064748068N11958153WA0106801089
B2020074748065N11958147WA0106701086
B2020084748062N11958140WA0106401084
B2020094748059N11958133WA0106301081
B2020104748057N11958126WA0106101079
B2020114748054N11958119WA0105901078
B2020124748052N11958113WA0105701077
B2020134748050N11958107WA0105601076
B2020144748049N11958101WA0105401075
B2020154748048N11958095WA0105301074
B2020164748047N11958089WA0105101072
B2020174748046N11958083WA0105001070
B2020184748045N11958076WA0104801068
B2020194748045N11958070WA0104601066
B2020204748044N11958065WA0104401064
B2020214748044N11958060WA0104301063
B2020224748044N11958055WA0104101061
B2020234748043N11958050WA0104001058
B2020244748043N11958044WA0103801056
B2020254748042N11958037WA0103601054
B2020264748043N11958030WA0103401053
B2020274748043N11958023WA0103301052
B2020284748043N11958016WA0103101051
B2020294748044N11958010WA0103001050
B2020304748044N11958004WA0102801049
B2020314748044N11957998WA0102701047
B2020324748044N11957992WA0102501045
B2020334748043N11957984WA0102401041
B2020344748043N11957976WA0102201038
B2020354748044N11957968WA0102001035
B2020364748044N11957960WA0101801033
B2020374748044N11957953WA0101601031
B2020384748044N11957946WA0101301030
B2020394748044N11957938WA0101201027
B2020404748043N11957930WA0101001024
B2020414748043N11957920WA0100801020
B2020424748042N11957911WA0100501017
B2020434748041N11957901WA0100301014
B2020444748040N11957891WA0100001012
B2020454748039N11957883WA0099801011
B2020464748037N11957875WA0099601009
B2020474748035N11957866WA0099401006
B2020484748034N11957857WA0099101003
B2020494748032N11957848WA0098901000
B2020504748030N11957838WA0098600997
B2020514748028N11957829WA0098500995
B2020524748026N11957820WA0098200994
B2020534748024N11957810WA0098000991
B2020544748022N11957800WA0097700989
B2020554748020N11957790WA0097500986
B2020564748019N11957779WA0097300984
B2020574748018N11957769WA0097100982
B2020584748017N11957759WA0096800980
B2020594748016N11957749WA0096600978
B2020594748016N11957749WA0096600978
B2021004748015N11957739WA0096400975
B2021014748013N11957729WA0096200972
B2021024748012N11957719WA0095900969
B2021034748012N11957708WA0095700967
B2021044748011N11957697WA0095400964
B2021054748011N11957687WA0095200962
B2021064748010N11957677WA0094900959
B2021074748009N11957666WA0094800957
B2021084748008N11957656WA0094500954
B2021094748008N11957645WA0094300952
B2021104748007N11957635WA0094000950
B2021114748005N11957625WA0093800949
B2021124748004N11957615WA0093600946
B2021134748003N11957605WA0093400943
B2021144748002N11957595WA0093100940
B2021154748001N11957584WA0092900937
B2021164748001N11957573WA0092600936
B2021174748000N11957562WA0092400935
B2021184747998N11957554WA0092300937
B2021194747997N11957548WA0092200939
B2021204747996N11957543WA0092100940
B2021214747996N11957538WA0092000940
B2021224747997N11957531WA0091900939
B2021234747998N11957523WA0091900936
B2021244747999N11957514WA0091700935
B2021254747999N11957506WA0091700934
B2021264747999N11957498WA0091600934
B2021274747999N11957491WA0091500935
B2021284747999N11957485WA0091400934
B2021294747999N11957478WA0091400934
B2021304747998N11957471WA0091300932
B2021314747998N11957463WA0091200930
B2021324747997N11957454WA0091100927
B2021334747996N11957445WA0091000926
B2021344747996N11957436WA0090900926
B2021354747996N11957428WA0090800926
B2021364747996N11957421WA0090700927
B2021374747997N11957414WA0090700928
B2021384747997N11957408WA0090600928
B2021394747998N11957402WA0090600928
B2021404747999N11957395WA0090500927
B2021414748000N11957388WA0090500925
B2021424748001N11957381WA0090400924
B2021434748003N11957373WA0090300923
B2021444748004N11957366WA0090200922
B2021454748005N11957358WA0090200921
B2021464748006N11957350WA0090100920
B2021474748007N11957341WA0090000919
B2021484748008N11957332WA0089900918
B2021494748008N11957324WA0089900917
B2021504748009N11957316WA0089800917
B2021514748010N11957308WA0089700916
B2021524748012N11957301WA0089600915
B2021534748013N11957293WA0089600914
B2021544748015N11957285WA0089400913
B2021554748017N11957277WA0089400912
B2021564748018N11957268WA0089300911
B2021574748020N11957260WA0089200910
B2021584748023N11957253WA0089100909
B2021594748025N11957245WA0089000909
B2022004748028N11957239WA0089000908
B2022014748032N11957233WA0088900907
B2022024748035N11957227WA0088800906
B2022034748040N11957222WA0088800906
B2022044748044N11957216WA0088700905
B2022044748044N11957216WA0088700905
B2022054748048N11957210WA0088600904
B2022064748052N11957204WA0088500904
B2022074748055N11957197WA0088500904
B2022084748058N11957190WA0088400904
B2022094748061N11957183WA0088400904
B2022104748063N11957174WA0088300904
B2022114748065N11957166WA0088300903
B2022124748067N11957156WA0088300902
B2022134748068N11957147WA0088200902
B2022144748070N11957137WA0088200901
B2022154748071N11957128WA0088100901
B2022164748072N11957118WA0088100901
B2022174748074N11957108WA0088000900
B2022184748075N11957099WA0088000900
B2022194748076N11957089WA0088000900
B2022204748078N11957079WA0087900899
B2022214748080N11957069WA0087900899
B2022224748081N11957060WA0087900899
B2022234748083N11957050WA0087800900
B2022244748084N11957040WA0087800900
B2022254748085N11957031WA0087800900
B2022264748086N11957022WA0087800901
B2022274748087N11957014WA0087800902
B2022284748087N11957006WA0087800902
B2022294748087N11956998WA0087800902
B2022304748086N11956990WA0087800901
B2022314748085N11956981WA0087800899
B2022324748084N11956971WA0087700897
B2022334748083N11956962WA0087700896
B2022344748080N11956953WA0087600895
B2022354748077N11956946WA0087600894
B2022364748072N11956939WA0087500894
B2022374748067N11956933WA0087400893
B2022384748062N11956929WA0087400892
B2022394748056N11956926WA0087300892
B2022404748051N11956925WA0087200891
B2022414748046N11956925WA0087200890
B2022424748041N11956927WA0087100889
B2022434748037N11956931WA0087000887
B2022444748033N11956935WA0086900885
B2022454748030N11956941WA0086800884
B2022464748028N11956946WA0086700882
B2022474748025N11956951WA0086600881
B2022484748023N11956956WA0086400880
B2022494748020N11956960WA0086300878
B2022504748017N11956965WA0086200876
B2022514748014N11956971WA0086100873
B2022524748011N11956976WA0085900871
B2022534748008N11956982WA0085700868
B2022544748006N11956988WA0085500866
B2022554748003N11956994WA0085400864
B2022564747999N11957000WA0085200862
B2022574747996N11957006WA0085000861
B2022584747994N11957011WA0084900860
B2022594747991N11957016WA0084700859
B2023004747989N11957022WA0084600858
B2023014747987N11957028WA0084400856
B2023024747985N11957035WA0084300854
B2023034747982N11957041WA0084100852
B2023044747980N11957047WA0083900851
B2023054747978N11957053WA0083800849
B2023064747976N11957060WA0083600847
B2023074747974N11957066WA0083500846
B2023084747973N11957071WA0083300844
B2023084747973N11957071WA0083300844
B2023094747971N11957077WA0083200843
B2023104747969N11957083WA0083000841
B2023114747966N11957089WA0082900839
B2023124747964N11957094WA0082700837
B2023134747961N11957099WA0082500836
B2023144747959N11957104WA0082300834
B2023154747957N11957110WA0082200833
B2023164747956N11957116WA0082000832
B2023174747954N11957122WA0081900831
B2023184747954N11957128WA0081800829
B2023194747953N11957134WA0081700828
B2023204747952N11957140WA0081500828
B2023214747952N11957144WA0081400828
B2023224747952N11957149WA0081300828
B2023234747953N11957153WA0081200828
B2023244747955N11957157WA0081100827
B2023254747958N11957162WA0081100825
B2023264747960N11957167WA0080900825
B2023274747961N11957172WA0080900825
B2023284747962N11957177WA0080800825
B2023294747963N11957181WA0080700825
B2023304747962N11957186WA0080700825
B2023314747962N11957191WA0080600824
B2023324747962N11957197WA0080600823
B2023334747962N11957202WA0080500823
B2023344747961N11957208WA0080400822
B2023354747961N11957213WA0080400822
B2023364747960N11957217WA0080300822
B2023374747959N11957220WA0080300822
B2023384747958N11957225WA0080200821
B2023394747957N11957230WA0080200819
B2023404747956N11957236WA0080100817
B2023414747954N11957242WA0080000815
B2023424747952N11957248WA0079900814
B2023434747950N11957253WA0079800814
B2023444747948N11957257WA0079700813
B2023454747946N11957262WA0079600812
B2023464747944N11957266WA0079500811
B2023474747941N11957271WA0079400809
B2023484747938N11957275WA0079300807
B2023494747935N11957279WA0079200806
B2023504747933N11957284WA0079100804
B2023514747930N11957288WA0079000803
B2023524747928N11957293WA0078800801
B2023534747925N11957298WA0078700799
B2023544747923N11957304WA0078600798
B2023554747920N11957309WA0078500796
B2023564747917N11957314WA0078300795
B2023574747914N11957318WA0078200793
B2023584747910N11957322WA0078000792
B2023594747907N11957326WA0077900790
B2024004747903N11957331WA0077800789
B2024014747899N11957336WA0077700788
B2024024747896N11957341WA0077500788
B2024034747893N11957346WA0077400788
B2024044747891N11957351WA0077300788
B2024054747888N11957355WA0077300787
B2024064747885N11957358WA0077200787
B2024074747882N11957362WA0077100785
B2024084747879N11957366WA0077000783
B2024094747875N11957371WA0076900780
B2024104747871N11957377WA0076700778
B2024114747866N11957381WA0076600777
B2024124747863N11957386WA0076500777
B2024124747863N11957386WA0076500777
B2024134747860N11957392WA0076400776
B2024144747858N11957398WA0076300776
B2024154747856N11957403WA0076200775
B2024164747853N11957409WA0076100774
B2024174747849N11957414WA0076000772
B2024184747845N11957419WA0075900771
B2024194747842N11957424WA0075800770
B2024204747838N11957429WA0075700769
B2024214747833N11957434WA0075600768
B2024224747829N11957438WA0075500767
B2024234747826N11957443WA0075400767
B2024244747822N11957448WA0075300767
B2024254747818N11957452WA0075200767
B2024264747815N11957456WA0075100767
B2024274747811N11957459WA0075100766
B2024284747808N11957463WA0075000765
B2024294747804N11957468WA0074900764
B2024304747800N11957473WA0074800762
B2024314747796N11957480WA0074800761
B2024324747793N11957486WA0074700760
B2024334747790N11957490WA0074600761
B2024344747788N11957494WA0074600761
B2024354747785N11957497WA0074500762
B2024364747782N11957498WA0074400761
B2024374747779N11957501WA0074400760
B2024384747776N11957505WA0074300758
B2024394747774N11957511WA0074300756
B2024404747772N11957517WA0074100755
B2024414747770N11957522WA0074100755
B2024424747768N11957527WA0074000755
B2024434747766N11957532WA0074000755
B2024444747764N11957537WA0073900755
B2024454747762N11957542WA0073900755
B2024464747760N11957546WA0073800755
B2024474747757N11957550WA0073800755
B2024484747755N11957554WA0073700755
B2024494747753N11957558WA0073700754
B2024504747751N11957563WA0073600752
B2024514747749N11957568WA0073600750
B2024524747746N11957574WA0073500748
B2024534747744N11957579WA0073400746
B2024544747742N11957584WA0073300746
B2024554747740N11957589WA0073200745
B2024564747738N11957593WA0073100744
B2024574747736N11957597WA0073100743
B2024584747734N11957602WA0073000742
B2024594747732N11957607WA0072900740
B2025004747730N11957611WA0072800738
B2025014747728N11957616WA0072700736
B2025024747727N11957621WA0072500735
B2025034747726N11957626WA0072400733
B2025044747726N11957631WA0072300732
B2025054747725N11957637WA0072200730
B2025064747724N11957642WA0072000730
B2025074747724N11957647WA0071900729
B2025084747723N11957651WA0071800728
B2025094747723N11957656WA0071700727
B2025104747722N11957661WA0071600725
B2025114747721N11957666WA0071500724
B2025124747720N11957671WA0071300722
B2025134747719N11957676WA0071200721
B2025144747718N11957681WA0071100719
B2025154747717N11957685WA0071000718
B2025164747715N11957690WA0070800716
B2025164747715N11957690WA0070800716
B2025174747713N11957695WA0070700714
B2025184747711N11957700WA0070600712
B2025194747709N11957706WA0070400710
B2025204747706N11957711WA0070300709
B2025214747704N11957717WA0070200708
B2025224747702N11957723WA0070000707
B2025234747700N11957729WA0069900706
B2025244747699N11957734WA0069700705
B2025254747698N11957740WA0069600704
B2025264747696N11957746WA0069500703
B2025274747694N11957752WA0069400702
B2025284747693N11957757WA0069300701
B2025294747691N11957763WA0069200700
B2025304747690N11957769WA0069000699
B2025314747689N11957774WA0069000698
B2025324747688N11957779WA0068800697
B2025334747687N11957784WA0068800696
B2025344747687N11957790WA0068700694
B2025354747687N11957796WA0068500693
B2025364747688N11957801WA0068400691
B2025374747689N11957807WA0068300690
B2025384747690N11957813WA0068200690
B2025394747692N11957819WA0068100690
B2025404747694N11957824WA0068000691
B2025414747698N11957826WA0068000692
B2025424747703N11957828WA0067900692
B2025434747707N11957829WA0067900692
B2025444747711N11957829WA0067900693
B2025454747716N11957829WA0067800694
B2025464747720N11957828WA0067800694
B2025474747724N11957826WA0067800696
B2025484747728N11957823WA0067900698
B2025494747731N11957819WA0067900699
B2025504747733N11957813WA0067900699
B2025514747735N11957805WA0068000697
B2025524747734N11957795WA0067900694
B2025534747731N11957787WA0067900691
B2025544747725N11957782WA0067800688
B2025554747719N11957782WA0067700684
B2025564747714N11957786WA0067600682
B2025574747711N11957792WA0067400680
B2025584747710N11957799WA0067300680
B2025594747708N11957804WA0067200681
B2026004747706N11957808WA0067100682
B2026014747703N11957812WA0067100682
B2026024747699N11957815WA0067000682
B2026034747696N11957817WA0067000683
B2026044747693N11957820WA0067000684
B2026054747690N11957823WA0066900684
B2026064747688N11957827WA0066900682
B2026074747686N11957831WA0066800680
B2026084747685N11957835WA0066800678
B2026094747684N11957840WA0066700676
B2026104747681N11957845WA0066600675
B2026114747679N11957850WA0066500673
B2026124747677N11957854WA0066400673
B2026134747674N11957859WA0066300672
B2026144747672N11957863WA0066200671
B2026154747670N11957868WA0066100670
B2026164747668N11957872WA0066100669
B2026174747666N11957877WA0065900667
B2026184747664N11957883WA0065800665
B2026194747661N11957888WA0065700664
B2026204747659N11957893WA0065600662
B2026204747659N11957893WA0065600662
B2026214747657N11957898WA0065500661
B2026224747655N11957903WA0065400660
B2026234747653N11957908WA0065300659
B2026244747651N11957913WA0065200657
B2026254747649N11957918WA0065000656
B2026264747646N11957923WA0064900654
B2026274747644N11957928WA0064800653
B2026284747642N11957933WA0064700652
B2026294747640N11957939WA0064500650
B2026304747638N11957944WA0064400648
B2026314747636N11957950WA0064200646
B2026324747634N11957956WA0064100644
B2026334747632N11957961WA0064000643
B2026344747630N11957967WA0063800641
B2026354747628N11957973WA0063600638
B2026364747626N11957979WA0063500636
B2026374747624N11957985WA0063300634
B2026384747622N11957991WA0063200633
B2026394747621N11957997WA0063000632
B2026404747620N11958002WA0062900631
B2026414747619N11958007WA0062700629
B2026424747618N11958013WA0062600627
B2026434747617N11958019WA0062400625
B2026444747615N11958024WA0062300623
B2026454747613N11958030WA0062100621
B2026464747611N11958035WA0061900619
B2026474747610N11958040WA0061800618
B2026484747608N11958045WA0061600617
B2026494747606N11958051WA0061400615
B2026504747604N11958057WA0061300614
B2026514747603N11958062WA0061200614
B2026524747601N11958068WA0061000614
B2026534747600N11958074WA0060900614
B2026544747599N11958080WA0060900613
B2026554747598N11958087WA0060800613
B2026564747596N11958093WA0060700613
B2026574747596N11958098WA0060600613
B2026584747595N11958103WA0060600613
B2026594747595N11958109WA0060500612
B2027004747595N11958114WA0060400611
B2027014747595N11958120WA0060300609
B2027024747596N11958126WA0060300607
B2027034747596N11958133WA0060100606
B2027044747595N11958140WA0060000604
B2027054747595N11958147WA0059900603
B2027064747594N11958154WA0059800602
B2027074747594N11958161WA0059700602
B2027084747594N11958168WA0059600602
B2027094747595N11958174WA0059500602
B2027104747595N11958180WA0059500602
B2027114747595N11958185WA0059400601
B2027124747596N11958190WA0059300601
B2027134747597N11958196WA0059200599
B2027144747599N11958202WA0059200597
B2027154747600N11958209WA0059000595
B2027164747602N11958214WA0059000594
B2027174747603N11958219WA0058800593
B2027184747605N11958224WA0058800593
B2027194747606N11958229WA0058700591
B2027204747607N11958235WA0058600590
B2027214747608N11958241WA0058400588
B2027224747610N11958246WA0058400588
B2027234747612N11958251WA0058300588
B2027244747614N11958255WA0058200589
B2027244747614N11958255WA0058200589
B2027254747615N11958259WA0058100590
B2027264747617N11958262WA0058100590
B2027274747618N11958265WA0058100589
B2027284747619N11958270WA0058000587
B2027294747622N11958275WA0057900585
B2027304747624N11958282WA0057800582
B2027314747627N11958288WA0057700582
B2027324747630N11958293WA0057600582
B2027334747632N11958297WA0057600583
B2027344747634N11958301WA0057500584
B2027354747636N11958303WA0057500584
B2027364747638N11958305WA0057500584
B2027374747641N11958307WA0057400583
B2027384747643N11958310WA0057400581
B2027394747646N11958315WA0057300579
B2027404747648N11958319WA0057200578
B2027414747651N11958324WA0057200577
B2027424747653N11958327WA0057100575
B2027434747656N11958331WA0057000574
B2027444747659N11958334WA0056900573
B2027454747662N11958338WA0056800572
B2027464747665N11958342WA0056700571
B2027474747668N11958345WA0056600570
B2027484747671N11958349WA0056500569
B2027494747675N11958352WA0056400568
B2027504747678N11958355WA0056400567
B2027514747680N11958358WA0056300566
B2027524747683N11958361WA0056200565
B2027534747685N11958365WA0056100564
B2027544747687N11958370WA0056000562
B2027554747689N11958374WA0055900561
B2027564747692N11958379WA0055800559
B2027574747694N11958383WA0055700558
B2027584747696N11958389WA0055600557
B2027594747698N11958394WA0055400556
B2028004747699N11958400WA0055400555
B2028014747700N11958405WA0055200554
B2028024747701N11958411WA0055200553
B2028034747703N11958418WA0055100552
B2028044747706N11958425WA0055000551
B2028054747708N11958432WA0054900551
B2028064747709N11958439WA0054800552
B2028074747710N11958444WA0054800553
B2028084747712N11958448WA0054700554
B2028094747714N11958450WA0054700553
B2028104747717N11958452WA0054700552
B2028114747720N11958455WA0054600550
B2028124747724N11958458WA0054500548
B2028134747727N11958461WA0054400547
B2028144747730N11958464WA0054400546
B2028154747734N11958467WA0054300545
B2028164747737N11958470WA0054200544
B2028174747741N11958473WA0054100542
B2028184747745N11958477WA0054000541
B2028194747749N11958482WA0053900541
B2028204747752N11958488WA0053900541
B2028214747755N11958493WA0053800541
B2028224747757N11958497WA0053700542
B2028234747759N11958501WA0053700542
B2028244747761N11958504WA0053600542
B2028254747764N11958506WA0053600542
B2028264747767N11958508WA0053600540
B2028274747771N11958511WA0053500538
B2028274747771N11958511WA0053500538
B2028284747775N11958513WA0053400537
B2028294747779N11958515WA0053400536
B2028304747783N11958518WA0053300536
B2028314747787N11958521WA0053200535
B2028324747790N11958524WA0053200534
B2028334747794N11958528WA0053100532
B2028344747798N11958532WA0053000531
B2028354747802N11958537WA0052900529
B2028364747806N11958542WA0052800528
B2028374747810N11958547WA0052700527
B2028384747813N11958551WA0052600527
B2028394747817N11958556WA0052500526
B2028404747821N11958562WA0052500524
B2028414747824N11958567WA0052400523
B2028424747828N11958573WA0052300523
B2028434747830N11958577WA0052200524
B2028444747833N11958582WA0052100524
B2028454747836N11958586WA0052100523
B2028464747839N11958590WA0052000521
B2028474747843N11958594WA0051900520
B2028484747846N11958598WA0051900518
B2028494747850N11958602WA0051800517
B2028504747854N11958607WA0051700516
B2028514747857N11958612WA0051600515
B2028524747860N11958617WA0051500514
B2028534747863N11958622WA0051400513
B2028544747867N11958628WA0051300512
B2028554747870N11958633WA0051200512
B2028564747872N11958637WA0051200512
B2028574747875N11958641WA0051100512
B2028584747877N11958646WA0051100512
B2028594747880N11958651WA0051000510
B2029004747883N11958656WA0050900509
B2029014747886N11958662WA0050800507
B2029024747889N11958667WA0050700507
B2029034747892N11958672WA0050700506
B2029044747895N11958678WA0050600506
B2029054747897N11958683WA0050500505
B2029064747900N11958689WA0050500505
B2029074747902N11958696WA0050400504
B2029084747905N11958702WA0050300502
B2029094747909N11958708WA0050200501
B2029104747912N11958714WA0050200499
B2029114747916N11958720WA0050100498
B2029124747920N11958725WA0050000498
B2029134747923N11958730WA0049900497
B2029144747926N11958735WA0049800495
B2029154747930N11958740WA0049700494
B2029164747933N11958746WA0049600492
B2029174747937N11958751WA0049500491
B2029184747941N11958756WA0049400490
B2029194747944N11958761WA0049300489
B2029204747947N11958765WA0049200489
B2029214747950N11958768WA0049100490
B2029224747952N11958771WA0049100489
B2029234747955N11958775WA0049000489
B2029244747958N11958778WA0048900487
B2029254747962N11958782WA0048800485
B2029264747965N11958787WA0048700484
B2029274747969N11958791WA0048600484
B2029284747972N11958795WA0048600484
B2029294747976N11958799WA0048500483
B2029304747979N11958803WA0048400482
B2029314747982N11958807WA0048300481
B2029314747982N11958807WA0048300481
B2029324747986N11958811WA0048200479
B2029334747990N11958815WA0048100478
B2029344747993N11958819WA0048100477
B2029354747995N11958822WA0047900476
B2029364747998N11958827WA0047900474
B2029374748000N11958832WA0047700472
B2029384748002N11958839WA0047600470
B2029394748004N11958847WA0047500467
B2029404748006N11958853WA0047300466
B2029414748008N11958859WA0047200465
B2029424748010N11958863WA0047100464
B2029434748013N11958867WA0046900463
B2029444748017N11958869WA0046800461
B2029454748022N11958872WA0046700459
B2029464748026N11958874WA0046500456
B2029474748031N11958878WA0046400455
B2029484748036N11958881WA0046300454
B2029494748040N11958883WA0046100453
B2029504748045N11958885WA0046000452
B2029514748049N11958887WA0045800451
B2029524748053N11958890WA0045700450
B2029534748056N11958895WA0045600448
B2029544748058N11958901WA0045500446
B2029554748060N11958907WA0045300444
B2029564748061N11958914WA0045200442
B2029574748062N11958920WA0045000441
B2029584748063N11958927WA0044900439
B2029594748065N11958933WA0044700437
B2030004748066N11958939WA0044600436
B2030014748067N11958946WA0044400434
B2030024748068N11958953WA0044300432
B2030034748068N11958961WA0044100430
B2030044748068N11958969WA0043900428
B2030054748068N11958977WA0043700428
B2030064748068N11958984WA0043600427
B2030074748068N11958991WA0043400426
B2030084748068N11958998WA0043300425
B2030094748068N11959005WA0043100423
B2030104748067N11959012WA0043000422
B2030114748066N11959019WA0042800420
B2030124748065N11959026WA0042700418
B2030134748063N11959034WA0042500416
B2030144748062N11959041WA0042400414
B2030154748060N11959049WA0042200412
B2030164748057N11959056WA0042100410
B2030174748054N11959063WA0041900408
B2030184748051N11959069WA0041800406
B2030194748048N11959076WA0041600404
B2030204748045N11959083WA0041400402
B2030214748042N11959089WA0041200400
B2030224748038N11959096WA0041100398
B2030234748034N11959102WA0040800396
B2030244748031N11959107WA0040700394
B2030254748027N11959113WA0040500392
B2030264748023N11959120WA0040300390
B2030274748019N11959126WA0040100389
B2030284748015N11959132WA0040000387
B2030294748010N11959138WA0039800385
B2030304748006N11959144WA0039600384
B2030314748001N11959150WA0039500383
B2030324747997N11959156WA0039300383
B2030334747993N11959161WA0039200383
B2030344747989N11959167WA0039100382
B2030354747985N11959172WA0038900380
B2030354747985N11959172WA0038900380
B2030364747980N11959177WA0038800378
B2030374747976N11959183WA0038700376
B2030384747971N11959189WA0038500373
B2030394747965N11959194WA0038300372
B2030404747960N11959198WA0038200370
B2030414747955N11959202WA0038000369
B2030424747950N11959206WA0037900367
B2030434747944N11959210WA0037700365
B2030444747939N11959215WA0037500363
B2030454747934N11959219WA0037300361
B2030464747929N11959224WA0037200359
B2030474747924N11959229WA0037000357
B2030484747919N11959233WA0036800356
B2030494747913N11959237WA0036600355
B2030504747909N11959240WA0036500354
B2030514747904N11959242WA0036300353
B2030524747899N11959245WA0036200352
B2030534747894N11959247WA0036000350
B2030544747889N11959250WA0035900348
B2030554747883N11959252WA0035700346
B2030564747878N11959253WA0035600344
B2030574747872N11959254WA0035400342
B2030584747867N11959254WA0035200340
B2030594747862N11959252WA0035000338
B2031004747857N11959250WA0034900336
B2031014747852N11959247WA0034700334
B2031024747847N11959244WA0034600332
B2031034747842N11959240WA0034400331
B2031044747839N11959236WA0034300329
B2031054747836N11959230WA0034100328
B2031064747833N11959224WA0034000326
B2031074747830N11959218WA0033800325
B2031084747827N11959213WA0033700324
B2031094747825N11959207WA0033500323
B2031104747822N11959201WA0033400321
B2031114747819N11959195WA0033300320
B2031124747817N11959188WA0033100318
B2031134747814N11959182WA0033000317
B2031144747812N11959176WA0032900316
B2031154747810N11959169WA0032700314
B2031164747808N11959163WA0032600314
B2031174747806N11959157WA0032500312
B2031184747805N11959151WA0032400311
B2031194747805N11959145WA0032300310
B2031204747804N11959138WA0032200308
B2031214747804N11959132WA0032000306
B2031224747805N11959126WA0031900305
B2031234747807N11959121WA0031800303
B2031244747809N11959117WA0031700302
B2031254747812N11959115WA0031500300
B2031264747816N11959115WA0031400299
B2031274747819N11959116WA0031200298
B2031284747822N11959120WA0031100296
B2031294747825N11959125WA0031000295
B2031304747827N11959131WA0030900294
B2031314747828N11959137WA0030700293
B2031324747829N11959142WA0030600291
B2031334747830N11959147WA0030500290
B2031344747832N11959153WA0030400287
B2031354747833N11959160WA0030200285
B2031364747835N11959166WA0030100283
B2031374747837N11959172WA0029900282
B2031384747840N11959177WA0029800281
B2031394747843N11959180WA0029600281
B2031394747843N11959180WA0029600281
B2031404747846N11959181WA0029500280
B2031414747849N11959180WA0029400278
B2031424747852N11959176WA0029200276
B2031434747853N11959170WA0029100274
B2031444747853N11959163WA0029000272
B2031454747853N11959157WA0028800271
B2031464747852N11959151WA0028700271
B2031474747853N11959147WA0028500269
B2031484747855N11959143WA0028400267
B2031494747859N11959140WA0028200264
B2031504747864N11959141WA0028100261
B2031514747868N11959143WA0027900260
B2031524747871N11959144WA0027800260
B2031534747874N11959144WA0027600260
B2031544747877N11959142WA0027500259
B2031554747879N11959137WA0027400256
B2031564747880N11959130WA0027200253
B2031574747881N11959123WA0027100252
B2031584747881N11959117WA0026900252
B2031594747883N11959114WA0026800252
B2032004747886N11959112WA0026700251
B2032014747890N11959111WA0026600248
B2032024747894N11959112WA0026400246
B2032034747898N11959114WA0026300245
B2032044747902N11959115WA0026200245
B2032054747905N11959115WA0026000245
B2032064747907N11959114WA0025900244
B2032074747910N11959111WA0025800242
B2032084747914N11959107WA0025700241
B2032094747917N11959102WA0025500239
B2032104747919N11959098WA0025400238
B2032114747922N11959094WA0025200237
B2032124747925N11959090WA0025200235
B2032134747928N11959087WA0025000234
B2032144747931N11959085WA0025000233
B2032154747934N11959083WA0024800232
B2032164747936N11959081WA0024800231
B2032174747940N11959078WA0024600229
B2032184747944N11959074WA0024500226
B2032194747949N11959071WA0024400223
B2032204747953N11959068WA0024200223
B2032214747956N11959065WA0024100223
B2032224747960N11959062WA0024000222
B2032234747962N11959060WA0023900222
B2032244747964N11959058WA0023800221
B2032254747965N11959057WA0023700220
B2032264747966N11959057WA0023600219
B2032274747966N11959056WA0023600219
B2032284747966N11959056WA0023500219
B2032294747966N11959056WA0023400218
B2032304747966N11959056WA0023400218
B2032314747966N11959056WA0023300218
B2032324747966N11959056WA0023300218
B2032334747966N11959056WA0023300218
B2032344747966N11959056WA0023200218
B2032354747966N11959056WA0023200218
B2032364747966N11959056WA0023200218
B2032374747966N11959056WA0023100218
B2032384747966N11959056WA0023100218
B2032394747966N11959056WA0023100218
B2032404747966N11959056WA0023100218
B2032414747966N11959056WA0023100218
B2032424747966N11959056WA0023100218
B2032434747966N11959056WA0023000218
B2032434747966N11959056WA0023000218
B2032444747966N11959056WA0023000218
B2032454747966N11959056WA0023000218
B2032464747966N11959056WA0023000218
B2032474747966N11959056WA0023000218
B2032484747966N11959056WA0023000218
B2032494747966N11959056WA0023000218
B2032504747966N11959056WA0023000218
B2032514747966N11959056WA0023000218
B2032524747966N11959056WA0023000217
B2032534747966N11959056WA0023000218
B2032544747966N11959056WA0023000218
B2032554747966N11959056WA0023000218
B2032564747966N11959056WA0023000217
B2032574747965N11959056WA0023000217
B2032584747965N11959056WA0023000217
B2032594747965N11959058WA0023000217
B2033004747965N11959058WA0023000219
B2033014747965N11959059WA0023000219
B2033024747965N11959060WA0023000219
B2033034747965N11959060WA0023000219
B2033044747965N11959060WA0023000219
B2033054747965N11959060WA0023000219
B2033064747965N11959061WA0023000219
B2033074747965N11959061WA0023000219
B2033084747964N11959061WA0023000219
B2033094747964N11959061WA0023000220
B2033104747964N11959061WA0023000220
B2033114747964N11959061WA0023000220
B2033124747964N11959061WA0022900220
B2033134747964N11959061WA0023000220
B2033144747964N11959061WA0023000220
B2033154747964N11959062WA0023000221
B2033164747964N11959062WA0023000221
B2033174747963N11959063WA0023000221
B2033184747963N11959064WA0023000221
B2033194747963N11959064WA0023000221
B2033204747963N11959065WA0023000221
B2033214747963N11959066WA0023000221
B2033224747963N11959067WA0023000221
B2033234747962N11959067WA0023000221
B2033244747962N11959068WA0023000221
B2033254747962N11959068WA0023000220
B2033264747961N11959069WA0023000220
B2033274747961N11959070WA0023000221
B2033284747960N11959071WA0023000221
B2033294747960N11959071WA0023000221
B2033304747960N11959072WA0023000221
B2033314747960N11959073WA0023000221
B2033324747959N11959074WA0023000221
B2033334747959N11959074WA0023000221
B2033344747959N11959075WA0023000221
B2033354747958N11959075WA0023000221
B2033364747958N11959076WA0023000221
B2033374747958N11959076WA0023000221
B2033384747958N11959076WA0023000221
B2033394747957N11959077WA0023000220
B2033404747957N11959078WA0023000220
B2033414747956N11959079WA0023000220
B2033424747956N11959079WA0023000220
B2033434747956N11959079WA0023000220
B2033444747956N11959080WA0023000220
B2033454747955N11959082WA0023000220
B2033464747955N11959082WA0023000220
B2033474747955N11959083WA0023000220
