AXFMFLYMASTER LIVETRACK
HFDTE240926
HFFXA010
HFPLTPILOT:Andria Lea Monteleone
HFGTYGLIDERTYPE:Ozone Photon / Supair Delight
HFCIDCOMPETITIONID:777
HFDTM100GPSDATUM:WGS-1984
HFRFWFIRMWAREVERSION:lt.flymaster.net bsGetPilotTrack
B2006353929606N11150177WA0235602356
B2006363929607N11150180WA0235502355
B2006373929610N11150186WA0235402354
B2006383929611N11150190WA0235302353
B2006393929614N11150195WA0235102351
B2006403929616N11150200WA0235002350
B2006413929618N11150204WA0234902349
B2006423929620N11150208WA0234802348
B2006433929622N11150212WA0234702347
B2006443929625N11150215WA0234702347
B2006453929628N11150218WA0234602346
B2006463929632N11150222WA0234502345
B2006473929636N11150225WA0234502345
B2006483929639N11150226WA0234502345
B2006493929642N11150225WA0234402344
B2006503929645N11150224WA0234402344
B2006513929648N11150221WA0234302343
B2006523929652N11150218WA0234202342
B2006533929655N11150215WA0234202342
B2006543929658N11150212WA0234102341
B2006553929661N11150208WA0234002340
B2006563929664N11150203WA0233902339
B2006573929667N11150198WA0233902339
B2006583929669N11150193WA0233902339
B2006593929671N11150190WA0233802338
B2007003929673N11150186WA0233602336
B2007013929676N11150183WA0233502335
B2007023929679N11150180WA0233402334
B2007033929684N11150180WA0233302333
B2007043929688N11150182WA0233302333
B2007053929691N11150185WA0233502335
B2007063929694N11150188WA0233702337
B2007073929695N11150192WA0233802338
B2007083929696N11150196WA0233802338
B2007093929698N11150199WA0233802338
B2007103929699N11150204WA0233802338
B2007113929702N11150209WA0233802338
B2007123929705N11150215WA0233702337
B2007133929708N11150220WA0233702337
B2007143929711N11150226WA0233702337
B2007153929714N11150231WA0233602336
B2007163929716N11150236WA0233502335
B2007173929719N11150242WA0233402334
B2007183929721N11150248WA0233402334
B2007193929724N11150254WA0233402334
B2007203929726N11150261WA0233402334
B2007213929729N11150267WA0233402334
B2007223929731N11150272WA0233502335
B2007233929734N11150278WA0233602336
B2007243929737N11150284WA0233802338
B2007253929739N11150289WA0233902339
B2007263929741N11150294WA0233902339
B2007273929743N11150299WA0233902339
B2007283929745N11150304WA0234002340
B2007293929747N11150308WA0234302343
B2007303929748N11150311WA0234602346
B2007313929750N11150314WA0234802348
B2007323929752N11150317WA0235002350
B2007333929756N11150319WA0235002350
B2007343929760N11150320WA0235102351
B2007353929765N11150321WA0235102351
B2007363929770N11150320WA0235202352
B2007373929775N11150317WA0235302353
B2007383929779N11150312WA0235402354
B2007393929782N11150305WA0235602356
B2007403929784N11150299WA0235702357
B2007413929786N11150291WA0235702357
B2007423929784N11150283WA0235802358
B2007433929781N11150276WA0235902359
B2007443929777N11150271WA0236002360
B2007453929772N11150266WA0236102361
B2007463929766N11150262WA0236202362
B2007473929760N11150260WA0236302363
B2007483929754N11150260WA0236402364
B2007493929749N11150262WA0236302363
B2007503929744N11150264WA0236402364
B2007513929739N11150266WA0236502365
B2007523929735N11150271WA0236602366
B2007533929732N11150277WA0236702367
B2007543929731N11150283WA0236802368
B2007553929732N11150288WA0236802368
B2007563929734N11150292WA0237002370
B2007573929737N11150295WA0237202372
B2007583929740N11150298WA0237402374
B2007593929744N11150300WA0237502375
B2008003929748N11150301WA0237602376
B2008013929753N11150301WA0237702377
B2008023929757N11150299WA0237802378
B2008033929761N11150294WA0237902379
B2008043929765N11150286WA0237902379
B2008053929768N11150278WA0238102381
B2008063929770N11150269WA0238202382
B2008073929772N11150261WA0238302383
B2008083929772N11150253WA0238502385
B2008093929774N11150245WA0238702387
B2008103929776N11150238WA0238902389
B2008113929778N11150230WA0239102391
B2008123929781N11150223WA0239302393
B2008133929784N11150216WA0239502395
B2008143929786N11150209WA0239702397
B2008153929787N11150201WA0239902399
B2008163929787N11150193WA0240002400
B2008173929785N11150185WA0240202402
B2008183929783N11150179WA0240402404
B2008193929779N11150174WA0240502405
B2008203929776N11150169WA0240602406
B2008213929772N11150164WA0240802408
B2008223929768N11150159WA0240802408
B2008233929764N11150156WA0240902409
B2008243929758N11150152WA0241002410
B2008253929752N11150150WA0241202412
B2008263929746N11150147WA0241402414
B2008273929740N11150145WA0241502415
B2008283929734N11150143WA0241802418
B2008293929729N11150144WA0242002420
B2008303929723N11150145WA0242302423
B2008313929718N11150146WA0242502425
B2008323929712N11150149WA0242602426
B2008333929706N11150153WA0242802428
B2008343929702N11150157WA0243002430
B2008353929698N11150163WA0243202432
B2008363929696N11150170WA0243302433
B2008373929697N11150175WA0243402434
B2008383929700N11150181WA0243502435
B2008393929703N11150186WA0243702437
B2008403929707N11150190WA0243802438
B2008413929711N11150193WA0243902439
B2008423929715N11150194WA0244102441
B2008433929719N11150193WA0244402444
B2008443929723N11150191WA0244602446
B2008453929727N11150189WA0244702447
B2008463929731N11150188WA0244802448
B2008473929736N11150188WA0245102451
B2008483929740N11150188WA0245302453
B2008493929744N11150187WA0245602456
B2008503929749N11150184WA0245802458
B2008513929752N11150179WA0245902459
B2008523929754N11150171WA0246102461
B2008533929756N11150164WA0246302463
B2008543929757N11150156WA0246402464
B2008553929758N11150148WA0246602466
B2008563929757N11150139WA0246702467
B2008573929755N11150130WA0246902469
B2008583929752N11150123WA0247202472
B2008593929749N11150117WA0247202472
B2009003929744N11150112WA0247302473
B2009013929740N11150107WA0247502475
B2009023929734N11150103WA0247602476
B2009033929728N11150100WA0247702477
B2009043929721N11150100WA0247702477
B2009053929716N11150101WA0247802478
B2009063929711N11150103WA0248002480
B2009073929706N11150103WA0248202482
B2009083929702N11150105WA0248402484
B2009093929697N11150108WA0248602486
B2009103929692N11150112WA0248802488
B2009113929688N11150118WA0249002490
B2009123929686N11150125WA0249202492
B2009133929686N11150130WA0249302493
B2009143929688N11150134WA0249502495
B2009153929689N11150138WA0249702497
B2009163929690N11150141WA0250102501
B2009173929691N11150145WA0250302503
B2009183929692N11150148WA0250302503
B2009193929695N11150152WA0250402504
B2009203929698N11150156WA0250602506
B2009213929701N11150160WA0250802508
B2009223929703N11150164WA0251202512
B2009233929704N11150167WA0251602516
B2009243929706N11150169WA0251702517
B2009253929709N11150172WA0251802518
B2009263929713N11150175WA0251902519
B2009273929717N11150176WA0252002520
B2009283929720N11150177WA0252102521
B2009293929724N11150178WA0252302523
B2009303929728N11150179WA0252402524
B2009313929732N11150180WA0252402524
B2009323929737N11150181WA0252502525
B2009333929741N11150181WA0252702527
B2009343929746N11150183WA0253002530
B2009353929749N11150185WA0253402534
B2009363929752N11150187WA0253802538
B2009373929755N11150189WA0254102541
B2009383929758N11150190WA0254202542
B2009393929762N11150191WA0254402544
B2009403929766N11150192WA0254302543
B2009413929771N11150193WA0254302543
B2009423929775N11150194WA0254402544
B2009433929778N11150197WA0254502545
B2009443929780N11150200WA0254502545
B2009453929782N11150204WA0254502545
B2009463929785N11150207WA0254402544
B2009473929787N11150211WA0254502545
B2009483929788N11150216WA0254502545
B2009493929788N11150221WA0254502545
B2009503929787N11150226WA0254502545
B2009513929786N11150232WA0254402544
B2009523929785N11150237WA0254502545
B2009533929784N11150242WA0254502545
B2009543929785N11150247WA0254502545
B2009553929786N11150251WA0254602546
B2009563929789N11150255WA0254502545
B2009573929794N11150258WA0254502545
B2009583929800N11150258WA0254602546
B2009593929806N11150256WA0254602546
B2010003929810N11150251WA0254602546
B2010013929814N11150244WA0254702547
B2010023929816N11150235WA0254802548
B2010033929816N11150226WA0254802548
B2010043929816N11150217WA0254802548
B2010053929815N11150208WA0254802548
B2010063929813N11150199WA0254802548
B2010073929810N11150190WA0254802548
B2010083929807N11150180WA0254802548
B2010093929803N11150171WA0254802548
B2010103929799N11150162WA0254702547
B2010113929795N11150154WA0254702547
B2010123929790N11150146WA0254702547
B2010133929784N11150138WA0254702547
B2010143929779N11150131WA0254602546
B2010153929774N11150124WA0254602546
B2010163929768N11150117WA0254602546
B2010173929763N11150111WA0254602546
B2010183929757N11150104WA0254502545
B2010193929752N11150096WA0254502545
B2010203929747N11150088WA0254402544
B2010213929741N11150080WA0254302543
B2010223929735N11150073WA0254302543
B2010233929728N11150067WA0254302543
B2010243929722N11150063WA0254302543
B2010253929715N11150058WA0254202542
B2010263929708N11150054WA0254302543
B2010273929701N11150050WA0254302543
B2010283929694N11150046WA0254402544
B2010293929688N11150043WA0254402544
B2010303929681N11150039WA0254402544
B2010313929675N11150035WA0254402544
B2010323929670N11150030WA0254502545
B2010333929665N11150024WA0254602546
B2010343929660N11150018WA0254502545
B2010353929656N11150010WA0254402544
B2010363929651N11150002WA0254402544
B2010373929647N11149994WA0254402544
B2010383929643N11149985WA0254502545
B2010393929639N11149976WA0254702547
B2010403929635N11149967WA0254902549
B2010413929632N11149958WA0255002550
B2010423929630N11149949WA0255102551
B2010433929627N11149939WA0255102551
B2010443929623N11149929WA0255002550
B2010453929618N11149919WA0255102551
B2010463929613N11149909WA0255002550
B2010473929608N11149899WA0255202552
B2010483929605N11149891WA0255502555
B2010493929602N11149884WA0255802558
B2010503929599N11149878WA0255902559
B2010513929596N11149871WA0256002560
B2010523929591N11149863WA0256102561
B2010533929586N11149857WA0256102561
B2010543929580N11149851WA0256202562
B2010553929575N11149846WA0256202562
B2010563929568N11149843WA0256302563
B2010573929562N11149840WA0256402564
B2010583929555N11149838WA0256402564
B2010593929549N11149836WA0256502565
B2011003929544N11149835WA0256902569
B2011013929539N11149835WA0257102571
B2011023929534N11149834WA0257202572
B2011033929528N11149834WA0257202572
B2011043929522N11149835WA0257202572
B2011053929517N11149836WA0257302573
B2011063929513N11149838WA0257302573
B2011073929510N11149841WA0257302573
B2011083929507N11149845WA0257302573
B2011093929504N11149850WA0257202572
B2011103929502N11149856WA0257102571
B2011113929500N11149861WA0257102571
B2011123929500N11149867WA0257002570
B2011133929501N11149873WA0257102571
B2011143929502N11149879WA0257102571
B2011153929504N11149885WA0257002570
B2011163929505N11149890WA0257102571
B2011173929507N11149894WA0257202572
B2011183929509N11149897WA0257302573
B2011193929511N11149900WA0257402574
B2011203929513N11149903WA0257402574
B2011213929515N11149908WA0257302573
B2011223929518N11149913WA0257402574
B2011233929521N11149917WA0257402574
B2011243929525N11149920WA0257402574
B2011253929529N11149921WA0257502575
B2011263929534N11149921WA0257502575
B2011273929538N11149920WA0257502575
B2011283929543N11149918WA0257502575
B2011293929548N11149915WA0257402574
B2011303929554N11149911WA0257502575
B2011313929559N11149905WA0257402574
B2011323929562N11149898WA0257402574
B2011333929566N11149890WA0257402574
B2011343929568N11149883WA0257502575
B2011353929569N11149874WA0257602576
B2011363929570N11149866WA0257602576
B2011373929571N11149856WA0257702577
B2011383929571N11149847WA0257902579
B2011393929570N11149838WA0257902579
B2011403929569N11149828WA0258102581
B2011413929567N11149817WA0258102581
B2011423929565N11149807WA0258202582
B2011433929562N11149798WA0258302583
B2011443929559N11149790WA0258502585
B2011453929556N11149781WA0258602586
B2011463929552N11149772WA0258602586
B2011473929548N11149763WA0258702587
B2011483929543N11149756WA0258802588
B2011493929537N11149750WA0259002590
B2011503929532N11149745WA0259202592
B2011513929527N11149740WA0259502595
B2011523929522N11149735WA0259702597
B2011533929518N11149731WA0259802598
B2011543929514N11149725WA0260002600
B2011553929509N11149720WA0260002600
B2011563929504N11149714WA0260002600
B2011573929499N11149709WA0260002600
B2011583929494N11149706WA0260202602
B2011593929488N11149703WA0260302603
B2012003929482N11149702WA0260302603
B2012013929476N11149703WA0260402604
B2012023929470N11149706WA0260302603
B2012033929465N11149709WA0260402604
B2012043929460N11149712WA0260502605
B2012053929457N11149716WA0260602606
B2012063929455N11149719WA0260702607
B2012073929455N11149722WA0260702607
B2012083929455N11149727WA0260702607
B2012093929457N11149732WA0260802608
B2012103929460N11149737WA0260802608
B2012113929463N11149741WA0260602606
B2012123929465N11149744WA0260602606
B2012133929468N11149747WA0260602606
B2012143929471N11149749WA0260702607
B2012153929474N11149751WA0260502605
B2012163929478N11149754WA0260302603
B2012173929481N11149757WA0260302603
B2012183929485N11149759WA0260302603
B2012193929489N11149760WA0260202602
B2012203929493N11149761WA0260102601
B2012213929497N11149761WA0260002600
B2012223929501N11149763WA0259702597
B2012233929505N11149765WA0259302593
B2012243929508N11149770WA0259102591
B2012253929510N11149774WA0259202592
B2012263929512N11149778WA0259502595
B2012273929514N11149781WA0259702597
B2012283929516N11149785WA0259802598
B2012293929517N11149788WA0259702597
B2012303929519N11149793WA0259702597
B2012313929519N11149799WA0259702597
B2012323929520N11149804WA0259802598
B2012333929520N11149808WA0259902599
B2012343929521N11149812WA0259902599
B2012353929522N11149816WA0259902599
B2012363929523N11149821WA0259902599
B2012373929525N11149826WA0259902599
B2012383929526N11149830WA0260002600
B2012393929527N11149834WA0260102601
B2012403929528N11149837WA0260302603
B2012413929530N11149839WA0260402604
B2012423929533N11149840WA0260402604
B2012433929537N11149839WA0260402604
B2012443929541N11149838WA0260302603
B2012453929546N11149835WA0260302603
B2012463929550N11149831WA0260302603
B2012473929555N11149829WA0260302603
B2012483929559N11149827WA0260302603
B2012493929563N11149828WA0260202602
B2012503929567N11149829WA0260102601
B2012513929572N11149831WA0260002600
B2012523929576N11149834WA0259902599
B2012533929579N11149836WA0259902599
B2012543929584N11149838WA0259802598
B2012553929588N11149840WA0259802598
B2012563929592N11149843WA0259702597
B2012573929596N11149845WA0259602596
B2012583929600N11149847WA0259502595
B2012593929604N11149850WA0259402594
B2013003929607N11149853WA0259302593
B2013013929610N11149858WA0259202592
B2013023929613N11149862WA0259102591
B2013033929615N11149866WA0259102591
B2013043929618N11149870WA0259102591
B2013053929621N11149873WA0259002590
B2013063929624N11149876WA0258902589
B2013073929627N11149878WA0258802588
B2013083929631N11149881WA0258802588
B2013093929635N11149884WA0258702587
B2013103929638N11149888WA0258602586
B2013113929641N11149891WA0258502585
B2013123929644N11149896WA0258402584
B2013133929646N11149899WA0258302583
B2013143929649N11149903WA0258202582
B2013153929652N11149907WA0258002580
B2013163929656N11149911WA0257902579
B2013173929660N11149915WA0257802578
B2013183929664N11149918WA0257702577
B2013193929669N11149920WA0257702577
B2013203929673N11149920WA0257702577
B2013213929677N11149919WA0257602576
B2013223929682N11149918WA0257502575
B2013233929687N11149917WA0257202572
B2013243929692N11149919WA0256902569
B2013253929697N11149921WA0256502565
B2013263929702N11149924WA0256402564
B2013273929706N11149928WA0256302563
B2013283929710N11149931WA0256202562
B2013293929713N11149934WA0256202562
B2013303929716N11149938WA0256002560
B2013313929718N11149942WA0255802558
B2013323929721N11149947WA0255702557
B2013333929723N11149952WA0255602556
B2013343929725N11149957WA0255502555
B2013353929726N11149962WA0255502555
B2013363929727N11149966WA0255402554
B2013373929728N11149971WA0255202552
B2013383929729N11149976WA0255102551
B2013393929730N11149981WA0255102551
B2013403929732N11149986WA0255002550
B2013413929733N11149991WA0255002550
B2013423929733N11149995WA0255002550
B2013433929734N11150001WA0254902549
B2013443929734N11150007WA0254902549
B2013453929734N11150012WA0254902549
B2013463929735N11150018WA0254902549
B2013473929737N11150023WA0254902549
B2013483929739N11150027WA0254802548
B2013493929742N11150029WA0254802548
B2013503929746N11150031WA0254802548
B2013513929749N11150034WA0254702547
B2013523929752N11150037WA0254602546
B2013533929753N11150041WA0254402544
B2013543929753N11150046WA0254202542
B2013553929754N11150052WA0253902539
B2013563929754N11150058WA0253702537
B2013573929754N11150063WA0253602536
B2013583929755N11150068WA0253502535
B2013593929758N11150072WA0253402534
B2014003929760N11150075WA0253202532
B2014013929764N11150078WA0253002530
B2014023929768N11150080WA0252802528
B2014033929773N11150083WA0252602526
B2014043929777N11150087WA0252402524
B2014053929781N11150091WA0252302523
B2014063929784N11150094WA0252202522
B2014073929787N11150098WA0252102521
B2014083929790N11150102WA0252002520
B2014093929792N11150107WA0251802518
B2014103929794N11150112WA0251502515
B2014113929796N11150118WA0251302513
B2014123929797N11150124WA0251202512
B2014133929797N11150129WA0251102511
B2014143929796N11150133WA0251102511
B2014153929795N11150137WA0251002510
B2014163929794N11150141WA0250902509
B2014173929795N11150146WA0250802508
B2014183929799N11150151WA0250702507
B2014193929804N11150153WA0250602506
B2014203929810N11150154WA0250502505
B2014213929816N11150154WA0250402504
B2014223929821N11150153WA0250302503
B2014233929826N11150154WA0250202502
B2014243929830N11150157WA0250002500
B2014253929834N11150162WA0249702497
B2014263929838N11150167WA0249502495
B2014273929840N11150172WA0249402494
B2014283929842N11150177WA0249302493
B2014293929844N11150182WA0249202492
B2014303929845N11150187WA0249002490
B2014313929846N11150193WA0248802488
B2014323929847N11150199WA0248602486
B2014333929846N11150204WA0248502485
B2014343929844N11150209WA0248302483
B2014353929841N11150214WA0248202482
B2014363929838N11150218WA0248002480
B2014373929835N11150221WA0247802478
B2014383929831N11150225WA0247602476
B2014393929827N11150228WA0247402474
B2014403929822N11150230WA0247202472
B2014413929817N11150232WA0247202472
B2014423929813N11150234WA0247102471
B2014433929809N11150236WA0247002470
B2014443929806N11150239WA0246902469
B2014453929804N11150244WA0246802468
B2014463929804N11150249WA0246702467
B2014473929805N11150255WA0246502465
B2014483929809N11150259WA0246402464
B2014493929813N11150263WA0246302463
B2014503929818N11150266WA0246202462
B2014513929823N11150268WA0246102461
B2014523929828N11150270WA0246002460
B2014533929833N11150273WA0245902459
B2014543929838N11150275WA0245802458
B2014553929843N11150276WA0245802458
B2014563929850N11150275WA0245702457
B2014573929857N11150272WA0245602456
B2014583929862N11150266WA0245402454
B2014593929866N11150258WA0245302453
B2015003929869N11150248WA0245302453
B2015013929869N11150239WA0245202452
B2015023929866N11150231WA0245102451
B2015033929863N11150223WA0245002450
B2015043929860N11150215WA0244802448
B2015053929857N11150207WA0244802448
B2015063929854N11150199WA0244702447
B2015073929851N11150192WA0244602446
B2015083929848N11150185WA0244502445
B2015093929845N11150178WA0244402444
B2015103929841N11150171WA0244302443
B2015113929838N11150163WA0244202442
B2015123929834N11150156WA0244102441
B2015133929831N11150148WA0244002440
B2015143929828N11150140WA0243902439
B2015153929825N11150132WA0243902439
B2015163929821N11150123WA0243802438
B2015173929818N11150114WA0243802438
B2015183929815N11150104WA0243802438
B2015193929812N11150095WA0243802438
B2015203929809N11150087WA0243902439
B2015213929807N11150079WA0243902439
B2015223929804N11150072WA0244002440
B2015233929800N11150066WA0244102441
B2015243929795N11150061WA0244202442
B2015253929789N11150057WA0244202442
B2015263929783N11150054WA0244202442
B2015273929777N11150053WA0244102441
B2015283929773N11150054WA0244102441
B2015293929770N11150054WA0244202442
B2015303929767N11150055WA0244302443
B2015313929765N11150057WA0244302443
B2015323929762N11150060WA0244202442
B2015333929760N11150064WA0244102441
B2015343929760N11150069WA0243902439
B2015353929762N11150074WA0243902439
B2015363929766N11150078WA0243902439
B2015373929770N11150082WA0243802438
B2015383929774N11150086WA0243902439
B2015393929778N11150088WA0243902439
B2015403929783N11150090WA0243902439
B2015413929789N11150090WA0243902439
B2015423929795N11150090WA0243802438
B2015433929801N11150088WA0243802438
B2015443929807N11150086WA0243802438
B2015453929813N11150084WA0243902439
B2015463929818N11150084WA0244302443
B2015473929824N11150084WA0244502445
B2015483929830N11150084WA0244702447
B2015493929835N11150084WA0244902449
B2015503929840N11150085WA0245002450
B2015513929845N11150086WA0245102451
B2015523929850N11150087WA0245102451
B2015533929855N11150090WA0245002450
B2015543929858N11150094WA0244902449
B2015553929861N11150099WA0244802448
B2015563929863N11150105WA0244602446
B2015573929865N11150110WA0244402444
B2015583929865N11150116WA0244302443
B2015593929864N11150121WA0244202442
B2016003929863N11150125WA0244002440
B2016013929860N11150129WA0243802438
B2016023929857N11150133WA0243602436
B2016033929854N11150136WA0243502435
B2016043929850N11150139WA0243402434
B2016053929847N11150142WA0243302433
B2016063929844N11150145WA0243202432
B2016073929841N11150148WA0243202432
B2016083929839N11150152WA0243102431
B2016093929837N11150156WA0243102431
B2016103929837N11150161WA0243002430
B2016113929836N11150168WA0242902429
B2016123929836N11150174WA0242802428
B2016133929835N11150180WA0242602426
B2016143929834N11150186WA0242602426
B2016153929831N11150191WA0242602426
B2016163929828N11150194WA0242602426
B2016173929824N11150196WA0242402424
B2016183929819N11150197WA0242302423
B2016193929814N11150197WA0242102421
B2016203929809N11150197WA0241902419
B2016213929803N11150196WA0241702417
B2016223929798N11150194WA0241602416
B2016233929793N11150194WA0241502415
B2016243929788N11150194WA0241402414
B2016253929783N11150194WA0241402414
B2016263929778N11150195WA0241302413
B2016273929773N11150196WA0241202412
B2016283929769N11150197WA0241202412
B2016293929765N11150200WA0241202412
B2016303929763N11150204WA0241102411
B2016313929762N11150210WA0241002410
B2016323929763N11150216WA0240902409
B2016333929766N11150221WA0240802408
B2016343929771N11150226WA0240702407
B2016353929776N11150230WA0240702407
B2016363929781N11150231WA0240602406
B2016373929786N11150231WA0240502405
B2016383929792N11150231WA0240402404
B2016393929798N11150230WA0240102401
B2016403929803N11150229WA0239902399
B2016413929809N11150227WA0239802398
B2016423929813N11150223WA0239702397
B2016433929817N11150217WA0239602396
B2016443929820N11150209WA0239502395
B2016453929822N11150201WA0239402394
B2016463929821N11150192WA0239202392
B2016473929818N11150184WA0239102391
B2016483929815N11150178WA0239002390
B2016493929810N11150174WA0239002390
B2016503929805N11150171WA0238902389
B2016513929800N11150169WA0238902389
B2016523929795N11150169WA0238802388
B2016533929790N11150170WA0238702387
B2016543929785N11150172WA0238602386
B2016553929781N11150176WA0238502385
B2016563929778N11150179WA0238302383
B2016573929777N11150184WA0238202382
B2016583929777N11150190WA0238002380
B2016593929777N11150196WA0237802378
B2017003929777N11150203WA0237702377
B2017013929778N11150209WA0237502375
B2017023929779N11150215WA0237202372
B2017033929781N11150222WA0237002370
B2017043929783N11150228WA0236802368
B2017053929785N11150235WA0236702367
B2017063929787N11150240WA0236502365
B2017073929790N11150245WA0236402364
B2017083929793N11150249WA0236402364
B2017093929796N11150253WA0236302363
B2017103929799N11150257WA0236202362
B2017113929802N11150261WA0236202362
B2017123929805N11150265WA0236002360
B2017133929808N11150270WA0235902359
B2017143929811N11150275WA0235902359
B2017153929814N11150280WA0235902359
B2017163929818N11150284WA0236202362
B2017173929821N11150287WA0236502365
B2017183929822N11150290WA0236802368
B2017193929824N11150292WA0237102371
B2017203929826N11150294WA0237102371
B2017213929829N11150297WA0237102371
B2017223929833N11150299WA0237002370
B2017233929838N11150300WA0237102371
B2017243929842N11150298WA0237202372
B2017253929846N11150294WA0237202372
B2017263929849N11150289WA0237302373
B2017273929852N11150282WA0237302373
B2017283929855N11150274WA0237302373
B2017293929858N11150264WA0237302373
B2017303929858N11150253WA0237402374
B2017313929858N11150243WA0237502375
B2017323929857N11150234WA0237502375
B2017333929855N11150226WA0237502375
B2017343929853N11150219WA0237602376
B2017353929851N11150212WA0237602376
B2017363929846N11150205WA0237502375
B2017373929841N11150200WA0237502375
B2017383929835N11150197WA0237502375
B2017393929829N11150197WA0237502375
B2017403929824N11150200WA0237502375
B2017413929821N11150205WA0237502375
B2017423929820N11150210WA0237502375
B2017433929819N11150216WA0237502375
B2017443929818N11150221WA0237502375
B2017453929817N11150226WA0237702377
B2017463929816N11150231WA0237702377
B2017473929816N11150236WA0237802378
B2017483929814N11150242WA0237702377
B2017493929811N11150247WA0237802378
B2017503929808N11150251WA0238102381
B2017513929806N11150254WA0238302383
B2017523929805N11150258WA0238402384
B2017533929805N11150262WA0238502385
B2017543929806N11150267WA0238602386
B2017553929808N11150271WA0238702387
B2017563929810N11150275WA0238702387
B2017573929813N11150277WA0238702387
B2017583929817N11150278WA0238802388
B2017593929822N11150277WA0238702387
B2018003929826N11150274WA0238602386
B2018013929830N11150268WA0238602386
B2018023929832N11150258WA0238602386
B2018033929833N11150248WA0238702387
B2018043929830N11150238WA0238702387
B2018053929827N11150230WA0238602386
B2018063929823N11150224WA0238602386
B2018073929818N11150218WA0238702387
B2018083929812N11150214WA0238702387
B2018093929806N11150211WA0238702387
B2018103929800N11150209WA0238702387
B2018113929794N11150210WA0238702387
B2018123929789N11150213WA0238802388
B2018133929785N11150216WA0238702387
B2018143929782N11150220WA0238802388
B2018153929781N11150224WA0238702387
B2018163929780N11150229WA0238602386
B2018173929780N11150234WA0238602386
B2018183929780N11150239WA0238602386
B2018193929782N11150243WA0238602386
B2018203929785N11150247WA0238702387
B2018213929788N11150249WA0238702387
B2018223929792N11150249WA0238702387
B2018233929796N11150248WA0238702387
B2018243929801N11150247WA0238702387
B2018253929805N11150242WA0238602386
B2018263929808N11150234WA0238602386
B2018273929810N11150224WA0238602386
B2018283929810N11150214WA0238602386
B2018293929806N11150205WA0238502385
B2018303929801N11150199WA0238402384
B2018313929795N11150195WA0238502385
B2018323929789N11150191WA0238602386
B2018333929783N11150188WA0238602386
B2018343929777N11150186WA0238702387
B2018353929771N11150183WA0238702387
B2018363929764N11150180WA0238702387
B2018373929757N11150178WA0238702387
B2018383929750N11150177WA0238802388
B2018393929743N11150176WA0238802388
B2018403929737N11150175WA0238902389
B2018413929730N11150176WA0238902389
B2018423929724N11150178WA0238902389
B2018433929719N11150180WA0238902389
B2018443929715N11150183WA0238802388
B2018453929712N11150187WA0238802388
B2018463929711N11150191WA0238802388
B2018473929710N11150196WA0238702387
B2018483929712N11150200WA0238702387
B2018493929714N11150204WA0238702387
B2018503929718N11150205WA0238802388
B2018513929722N11150204WA0238702387
B2018523929727N11150203WA0238602386
B2018533929732N11150202WA0238602386
B2018543929736N11150201WA0238702387
B2018553929740N11150201WA0238802388
B2018563929743N11150202WA0238902389
B2018573929746N11150203WA0238902389
B2018583929749N11150206WA0238902389
B2018593929750N11150209WA0238802388
B2019003929751N11150214WA0238602386
B2019013929750N11150219WA0238602386
B2019023929747N11150224WA0238502385
B2019033929743N11150228WA0238602386
B2019043929739N11150231WA0238902389
B2019053929734N11150232WA0239002390
B2019063929729N11150232WA0239002390
B2019073929723N11150232WA0238902389
B2019083929717N11150233WA0238902389
B2019093929712N11150235WA0238902389
B2019103929707N11150238WA0238902389
B2019113929704N11150243WA0238902389
B2019123929703N11150248WA0238902389
B2019133929703N11150253WA0238902389
B2019143929705N11150257WA0238902389
B2019153929708N11150261WA0238902389
B2019163929710N11150264WA0238902389
B2019173929713N11150266WA0238802388
B2019183929717N11150269WA0238602386
B2019193929721N11150270WA0238502385
B2019203929726N11150270WA0238502385
B2019213929731N11150268WA0238402384
B2019223929736N11150264WA0238402384
B2019233929740N11150258WA0238302383
B2019243929743N11150252WA0238302383
B2019253929746N11150246WA0238202382
B2019263929750N11150239WA0238002380
B2019273929754N11150233WA0237902379
B2019283929759N11150230WA0237802378
B2019293929765N11150229WA0237802378
B2019303929769N11150229WA0237902379
B2019313929773N11150231WA0238002380
B2019323929776N11150232WA0238002380
B2019333929779N11150235WA0238002380
B2019343929781N11150238WA0237902379
B2019353929783N11150242WA0237702377
B2019363929785N11150248WA0237602376
B2019373929786N11150253WA0237502375
B2019383929786N11150258WA0237402374
B2019393929787N11150263WA0237302373
B2019403929787N11150269WA0237102371
B2019413929786N11150274WA0237002370
B2019423929784N11150279WA0236902369
B2019433929780N11150283WA0236902369
B2019443929774N11150285WA0236802368
B2019453929769N11150285WA0236702367
B2019463929763N11150284WA0236702367
B2019473929757N11150282WA0236602366
B2019483929751N11150280WA0236602366
B2019493929745N11150278WA0236602366
B2019503929739N11150276WA0236502365
B2019513929733N11150276WA0236502365
B2019523929728N11150276WA0236402364
B2019533929723N11150277WA0236402364
B2019543929718N11150281WA0236302363
B2019553929715N11150285WA0236302363
B2019563929712N11150290WA0236202362
B2019573929712N11150295WA0236102361
B2019583929714N11150301WA0236102361
B2019593929717N11150304WA0236102361
B2020003929721N11150307WA0236102361
B2020013929726N11150308WA0236102361
B2020023929732N11150307WA0236102361
B2020033929737N11150305WA0236002360
B2020043929742N11150301WA0236002360
B2020053929746N11150296WA0235802358
B2020063929752N11150291WA0235702357
B2020073929757N11150287WA0235502355
B2020083929763N11150285WA0235402354
B2020093929767N11150286WA0235302353
B2020103929771N11150289WA0235302353
B2020113929774N11150293WA0235202352
B2020123929775N11150297WA0235102351
B2020133929776N11150301WA0235102351
B2020143929776N11150306WA0235102351
B2020153929775N11150310WA0235002350
B2020163929773N11150314WA0234902349
B2020173929771N11150318WA0234802348
B2020183929770N11150323WA0234602346
B2020193929769N11150328WA0234602346
B2020203929770N11150333WA0234502345
B2020213929773N11150338WA0234402344
B2020223929775N11150342WA0234302343
B2020233929778N11150345WA0234202342
B2020243929781N11150348WA0234102341
B2020253929784N11150352WA0234002340
B2020263929787N11150355WA0233902339
B2020273929790N11150359WA0233802338
B2020283929792N11150362WA0233802338
B2020293929794N11150366WA0233702337
B2020303929796N11150370WA0233602336
B2020313929799N11150374WA0233402334
B2020323929801N11150378WA0233202332
B2020333929804N11150383WA0233102331
B2020343929806N11150388WA0232902329
B2020353929809N11150393WA0232802328
B2020363929811N11150397WA0232602326
B2020373929813N11150402WA0232502325
B2020383929815N11150407WA0232302323
B2020393929818N11150412WA0232102321
B2020403929821N11150417WA0231902319
B2020413929823N11150422WA0231602316
B2020423929826N11150428WA0231402314
B2020433929829N11150434WA0231202312
B2020443929832N11150439WA0231002310
B2020453929835N11150445WA0230802308
B2020463929837N11150450WA0230502305
B2020473929840N11150456WA0230202302
B2020483929843N11150462WA0230002300
B2020493929845N11150467WA0229702297
B2020503929848N11150473WA0229502295
B2020513929850N11150477WA0229502295
B2020523929852N11150481WA0229502295
B2020533929854N11150484WA0229402294
B2020543929856N11150489WA0229202292
B2020553929858N11150494WA0228902289
B2020563929860N11150500WA0228702287
B2020573929861N11150506WA0228502285
B2020583929863N11150511WA0228402284
B2020593929864N11150516WA0228402284
B2021003929866N11150521WA0228302283
B2021013929868N11150526WA0228102281
B2021023929870N11150532WA0227902279
B2021033929871N11150539WA0227602276
B2021043929873N11150545WA0227502275
B2021053929875N11150551WA0227402274
B2021063929876N11150556WA0227402274
B2021073929878N11150560WA0227302273
B2021083929880N11150565WA0227102271
B2021093929882N11150570WA0226902269
B2021103929884N11150576WA0226702267
B2021113929885N11150583WA0226502265
B2021123929887N11150589WA0226302263
B2021133929889N11150594WA0226302263
B2021143929891N11150599WA0226202262
B2021153929893N11150604WA0225902259
B2021163929895N11150610WA0225702257
B2021173929898N11150617WA0225302253
B2021183929901N11150624WA0225102251
B2021193929903N11150630WA0224902249
B2021203929906N11150636WA0224802248
B2021213929909N11150641WA0224702247
B2021223929912N11150645WA0224502245
B2021233929915N11150650WA0224402244
B2021243929918N11150655WA0224202242
B2021253929920N11150660WA0224002240
B2021263929923N11150665WA0223802238
B2021273929925N11150671WA0223702237
B2021283929928N11150676WA0223502235
B2021293929931N11150682WA0223302233
B2021303929933N11150688WA0223202232
B2021313929935N11150694WA0223102231
B2021323929936N11150700WA0223102231
B2021333929938N11150706WA0223102231
B2021343929942N11150711WA0223002230
B2021353929946N11150716WA0223002230
B2021363929951N11150721WA0222902229
B2021373929955N11150726WA0222802228
B2021383929959N11150731WA0222902229
B2021393929962N11150737WA0223002230
B2021403929965N11150742WA0223102231
B2021413929969N11150747WA0223102231
B2021423929974N11150750WA0223102231
B2021433929979N11150751WA0223002230
B2021443929985N11150748WA0223002230
B2021453929989N11150742WA0222902229
B2021463929991N11150734WA0222902229
B2021473929993N11150726WA0222902229
B2021483929991N11150718WA0222802228
B2021493929988N11150711WA0222702227
B2021503929983N11150706WA0222702227
B2021513929977N11150702WA0222702227
B2021523929971N11150700WA0222702227
B2021533929965N11150702WA0222602226
B2021543929960N11150705WA0222502225
B2021553929956N11150710WA0222502225
B2021563929954N11150716WA0222402224
B2021573929954N11150722WA0222402224
B2021583929955N11150728WA0222302223
B2021593929957N11150734WA0222402224
B2022003929958N11150740WA0222502225
B2022013929960N11150746WA0222802228
B2022023929963N11150752WA0223102231
B2022033929965N11150758WA0223302233
B2022043929967N11150763WA0223502235
B2022053929970N11150768WA0223602236
B2022063929975N11150772WA0223602236
B2022073929980N11150776WA0223502235
B2022083929986N11150777WA0223602236
B2022093929992N11150776WA0223602236
B2022103929997N11150775WA0223602236
B2022113930001N11150773WA0223602236
B2022123930006N11150772WA0223502235
B2022133930011N11150771WA0223202232
B2022143930016N11150772WA0222702227
B2022153930022N11150774WA0222402224
B2022163930026N11150778WA0222302223
B2022173930030N11150782WA0222102221
B2022183930033N11150788WA0222002220
B2022193930035N11150794WA0222002220
B2022203930037N11150801WA0221902219
B2022213930039N11150808WA0222002220
B2022223930040N11150813WA0222202222
B2022233930042N11150819WA0222402224
B2022243930044N11150824WA0222502225
B2022253930045N11150830WA0222502225
B2022263930047N11150835WA0222402224
B2022273930047N11150840WA0222402224
B2022283930048N11150846WA0222202222
B2022293930047N11150852WA0222002220
B2022303930047N11150860WA0221902219
B2022313930046N11150868WA0221902219
B2022323930045N11150875WA0222002220
B2022333930043N11150881WA0222502225
B2022343930041N11150885WA0222902229
B2022353930039N11150889WA0223002230
B2022363930038N11150893WA0223102231
B2022373930037N11150899WA0223102231
B2022383930035N11150905WA0223002230
B2022393930034N11150911WA0223102231
B2022403930033N11150916WA0223202232
B2022413930031N11150920WA0223302233
B2022423930029N11150925WA0223402234
B2022433930027N11150929WA0223302233
B2022443930025N11150935WA0223202232
B2022453930025N11150940WA0223202232
B2022463930025N11150945WA0223102231
B2022473930025N11150951WA0223102231
B2022483930025N11150956WA0223002230
B2022493930026N11150961WA0222902229
B2022503930026N11150965WA0222902229
B2022513930026N11150969WA0222702227
B2022523930027N11150973WA0222502225
B2022533930028N11150978WA0222202222
B2022543930031N11150983WA0221902219
B2022553930034N11150989WA0221702217
B2022563930037N11150995WA0221502215
B2022573930040N11151000WA0221402214
B2022583930043N11151005WA0221202212
B2022593930045N11151009WA0221002210
B2023003930048N11151015WA0220602206
B2023013930050N11151021WA0220202202
B2023023930053N11151027WA0219902199
B2023033930055N11151033WA0219702197
B2023043930057N11151039WA0219602196
B2023053930059N11151044WA0219502195
B2023063930062N11151049WA0219302193
B2023073930065N11151055WA0219102191
B2023083930067N11151062WA0218802188
B2023093930069N11151069WA0218602186
B2023103930070N11151076WA0218502185
B2023113930071N11151081WA0218402184
B2023123930071N11151087WA0218202182
B2023133930071N11151092WA0218102181
B2023143930071N11151098WA0217802178
B2023153930072N11151105WA0217502175
B2023163930072N11151112WA0217302173
B2023173930073N11151118WA0217202172
B2023183930074N11151123WA0217102171
B2023193930075N11151129WA0216902169
B2023203930075N11151135WA0216802168
B2023213930076N11151141WA0216502165
B2023223930077N11151147WA0216302163
B2023233930078N11151153WA0216102161
B2023243930080N11151160WA0215902159
B2023253930081N11151165WA0215802158
B2023263930081N11151171WA0215802158
B2023273930083N11151175WA0215802158
B2023283930084N11151179WA0215702157
B2023293930087N11151183WA0215502155
B2023303930090N11151187WA0215302153
B2023313930093N11151192WA0215002150
B2023323930096N11151199WA0214702147
B2023333930097N11151205WA0214502145
B2023343930099N11151211WA0214302143
B2023353930100N11151217WA0214102141
B2023363930101N11151223WA0213902139
B2023373930101N11151228WA0213702137
B2023383930103N11151234WA0213502135
B2023393930103N11151240WA0213202132
B2023403930103N11151246WA0213002130
B2023413930103N11151252WA0212802128
B2023423930103N11151257WA0212602126
B2023433930104N11151262WA0212402124
B2023443930104N11151268WA0212102121
B2023453930105N11151274WA0211802118
B2023463930106N11151280WA0211602116
B2023473930106N11151287WA0211402114
B2023483930107N11151293WA0211102111
B2023493930107N11151300WA0210802108
B2023503930109N11151306WA0210702107
B2023513930110N11151312WA0210602106
B2023523930110N11151318WA0210602106
B2023533930111N11151324WA0210702107
B2023543930111N11151329WA0210702107
B2023553930112N11151335WA0210602106
B2023563930113N11151342WA0210502105
B2023573930114N11151348WA0210402104
B2023583930114N11151354WA0210502105
B2023593930115N11151360WA0210502105
B2024003930115N11151365WA0210502105
B2024013930115N11151371WA0210402104
B2024023930116N11151378WA0210302103
B2024033930117N11151384WA0210202102
B2024043930119N11151390WA0210202102
B2024053930122N11151395WA0210102101
B2024063930125N11151399WA0210102101
B2024073930128N11151403WA0210002100
B2024083930132N11151409WA0210002100
B2024093930135N11151415WA0209902099
B2024103930138N11151421WA0209802098
B2024113930140N11151428WA0209802098
B2024123930141N11151434WA0210002100
B2024133930141N11151440WA0210202102
B2024143930142N11151446WA0210302103
B2024153930143N11151451WA0210302103
B2024163930145N11151457WA0210302103
B2024173930147N11151463WA0210202102
B2024183930149N11151469WA0210102101
B2024193930150N11151475WA0210102101
B2024203930151N11151482WA0210102101
B2024213930151N11151488WA0210202102
B2024223930151N11151494WA0210402104
B2024233930151N11151500WA0210402104
B2024243930151N11151506WA0210402104
B2024253930150N11151512WA0210502105
B2024263930150N11151519WA0210502105
B2024273930151N11151526WA0210602106
B2024283930152N11151531WA0210602106
B2024293930155N11151536WA0210602106
B2024303930158N11151539WA0210702107
B2024313930162N11151543WA0210702107
B2024323930165N11151547WA0210802108
B2024333930167N11151553WA0211002110
B2024343930167N11151560WA0211202112
B2024353930165N11151567WA0211202112
B2024363930163N11151573WA0211402114
B2024373930161N11151578WA0211502115
B2024383930157N11151583WA0211602116
B2024393930151N11151586WA0211702117
B2024403930145N11151588WA0211802118
B2024413930139N11151588WA0212002120
B2024423930133N11151587WA0212202122
B2024433930128N11151587WA0212402124
B2024443930123N11151588WA0212502125
B2024453930118N11151590WA0212602126
B2024463930112N11151594WA0212702127
B2024473930107N11151598WA0212802128
B2024483930104N11151603WA0212902129
B2024493930102N11151609WA0213002130
B2024503930102N11151616WA0213102131
B2024513930105N11151623WA0213202132
B2024523930108N11151629WA0213302133
B2024533930113N11151633WA0213402134
B2024543930118N11151635WA0213502135
B2024553930123N11151635WA0213602136
B2024563930128N11151631WA0213702137
B2024573930133N11151626WA0213802138
B2024583930136N11151619WA0213902139
B2024593930138N11151611WA0214102141
B2025003930139N11151604WA0214402144
B2025013930140N11151598WA0214602146
B2025023930141N11151593WA0214702147
B2025033930141N11151586WA0214802148
B2025043930140N11151579WA0215002150
B2025053930138N11151571WA0215002150
B2025063930134N11151565WA0215102151
B2025073930129N11151561WA0215302153
B2025083930124N11151559WA0215502155
B2025093930119N11151558WA0215702157
B2025103930114N11151560WA0215802158
B2025113930110N11151564WA0215902159
B2025123930106N11151568WA0216002160
B2025133930103N11151574WA0216102161
B2025143930101N11151579WA0216202162
B2025153930100N11151586WA0216202162
B2025163930101N11151593WA0216302163
B2025173930103N11151600WA0216302163
B2025183930106N11151606WA0216502165
B2025193930109N11151611WA0216502165
B2025203930113N11151616WA0216502165
B2025213930118N11151620WA0216602166
B2025223930123N11151623WA0216602166
B2025233930128N11151624WA0216802168
B2025243930132N11151626WA0217102171
B2025253930136N11151628WA0217202172
B2025263930140N11151630WA0217102171
B2025273930144N11151632WA0217102171
B2025283930148N11151635WA0217002170
B2025293930153N11151636WA0217002170
B2025303930157N11151635WA0217002170
B2025313930160N11151632WA0217002170
B2025323930162N11151626WA0217002170
B2025333930162N11151620WA0217002170
B2025343930163N11151613WA0217002170
B2025353930162N11151607WA0217002170
B2025363930158N11151601WA0217102171
B2025373930153N11151596WA0217102171
B2025383930147N11151591WA0217102171
B2025393930140N11151587WA0217202172
B2025403930134N11151585WA0217202172
B2025413930127N11151584WA0217302173
B2025423930121N11151585WA0217302173
B2025433930115N11151587WA0217302173
B2025443930109N11151591WA0217402174
B2025453930104N11151596WA0217402174
B2025463930099N11151601WA0217402174
B2025473930096N11151606WA0217402174
B2025483930093N11151612WA0217502175
B2025493930092N11151618WA0217502175
B2025503930091N11151624WA0217502175
B2025513930092N11151631WA0217402174
B2025523930093N11151637WA0217402174
B2025533930095N11151644WA0217302173
B2025543930097N11151649WA0217302173
B2025553930100N11151654WA0217402174
B2025563930104N11151657WA0217402174
B2025573930107N11151658WA0217402174
B2025583930110N11151658WA0217302173
B2025593930115N11151655WA0217102171
B2026003930119N11151651WA0217002170
B2026013930122N11151645WA0216902169
B2026023930124N11151638WA0216902169
B2026033930123N11151632WA0217002170
B2026043930121N11151625WA0216902169
B2026053930118N11151618WA0216802168
B2026063930113N11151612WA0216802168
B2026073930107N11151608WA0216802168
B2026083930101N11151605WA0216902169
B2026093930094N11151603WA0216902169
B2026103930088N11151603WA0216902169
B2026113930081N11151604WA0216902169
B2026123930074N11151607WA0216802168
B2026133930067N11151610WA0216802168
B2026143930060N11151612WA0216902169
B2026153930054N11151613WA0217002170
B2026163930049N11151614WA0217102171
B2026173930044N11151616WA0217202172
B2026183930040N11151619WA0217202172
B2026193930037N11151625WA0217202172
B2026203930034N11151633WA0217102171
B2026213930034N11151641WA0217102171
B2026223930035N11151647WA0217002170
B2026233930037N11151651WA0217002170
B2026243930041N11151651WA0216902169
B2026253930048N11151651WA0216902169
B2026263930053N11151649WA0216702167
B2026273930057N11151645WA0216602166
B2026283930060N11151640WA0216502165
B2026293930063N11151635WA0216602166
B2026303930064N11151629WA0216502165
B2026313930064N11151622WA0216402164
B2026323930063N11151615WA0216502165
B2026333930060N11151607WA0216402164
B2026343930054N11151601WA0216402164
B2026353930049N11151597WA0216402164
B2026363930043N11151594WA0216502165
B2026373930037N11151593WA0216602166
B2026383930031N11151593WA0216602166
B2026393930025N11151596WA0216702167
B2026403930021N11151600WA0216702167
B2026413930017N11151605WA0216802168
B2026423930015N11151611WA0217002170
B2026433930014N11151617WA0217102171
B2026443930015N11151623WA0217002170
B2026453930018N11151628WA0217002170
B2026463930023N11151631WA0217102171
B2026473930027N11151633WA0217202172
B2026483930031N11151633WA0217202172
B2026493930036N11151631WA0217102171
B2026503930041N11151628WA0217002170
B2026513930045N11151624WA0216802168
B2026523930048N11151618WA0216802168
B2026533930050N11151612WA0216902169
B2026543930050N11151606WA0216802168
B2026553930049N11151599WA0216802168
B2026563930045N11151592WA0216802168
B2026573930041N11151586WA0216802168
B2026583930035N11151580WA0216802168
B2026593930030N11151575WA0216802168
B2027003930026N11151571WA0216902169
B2027013930021N11151567WA0216902169
B2027023930016N11151564WA0217002170
B2027033930011N11151561WA0217002170
B2027043930005N11151558WA0217102171
B2027053929999N11151557WA0217102171
B2027063929993N11151558WA0217102171
B2027073929987N11151561WA0217302173
B2027083929983N11151566WA0217402174
B2027093929979N11151571WA0217502175
B2027103929976N11151577WA0217602176
B2027113929975N11151584WA0217602176
B2027123929976N11151590WA0217602176
B2027133929979N11151595WA0217702177
B2027143929983N11151599WA0217802178
B2027153929988N11151601WA0217902179
B2027163929993N11151602WA0218002180
B2027173929998N11151601WA0217902179
B2027183930002N11151599WA0218002180
B2027193930006N11151595WA0218102181
B2027203930009N11151590WA0218102181
B2027213930011N11151584WA0218002180
B2027223930012N11151577WA0217902179
B2027233930013N11151569WA0217902179
B2027243930014N11151560WA0217902179
B2027253930014N11151551WA0218002180
B2027263930015N11151544WA0218202182
B2027273930014N11151537WA0218402184
B2027283930014N11151531WA0218502185
B2027293930012N11151525WA0218502185
B2027303930010N11151518WA0218502185
B2027313930005N11151511WA0218502185
B2027323929999N11151505WA0218502185
B2027333929993N11151500WA0218602186
B2027343929988N11151495WA0218802188
B2027353929983N11151490WA0219102191
B2027363929979N11151484WA0219202192
B2027373929974N11151479WA0219302193
B2027383929967N11151474WA0219502195
B2027393929961N11151471WA0219602196
B2027403929954N11151469WA0219802198
B2027413929947N11151469WA0219902199
B2027423929942N11151471WA0220102201
B2027433929937N11151474WA0220402204
B2027443929933N11151478WA0220502205
B2027453929930N11151483WA0220602206
B2027463929928N11151488WA0220702207
B2027473929926N11151495WA0220702207
B2027483929924N11151502WA0220802208
B2027493929923N11151510WA0220902209
B2027503929923N11151518WA0221002210
B2027513929924N11151526WA0221302213
B2027523929923N11151534WA0221602216
B2027533929923N11151540WA0222202222
B2027543929923N11151545WA0222702227
B2027553929923N11151549WA0223002230
B2027563929923N11151555WA0223102231
B2027573929924N11151561WA0223202232
B2027583929924N11151568WA0223302233
B2027593929926N11151574WA0223402234
B2028003929929N11151579WA0223602236
B2028013929935N11151581WA0223702237
B2028023929940N11151582WA0223902239
B2028033929945N11151582WA0224002240
B2028043929950N11151579WA0224102241
B2028053929954N11151575WA0224202242
B2028063929957N11151569WA0224302243
B2028073929960N11151563WA0224302243
B2028083929962N11151556WA0224402244
B2028093929961N11151548WA0224602246
B2028103929958N11151541WA0224702247
B2028113929953N11151535WA0224902249
B2028123929948N11151531WA0225002250
B2028133929942N11151530WA0225302253
B2028143929938N11151530WA0225502255
B2028153929933N11151532WA0225702257
B2028163929930N11151536WA0225802258
B2028173929927N11151541WA0226002260
B2028183929925N11151547WA0226202262
B2028193929924N11151554WA0226302263
B2028203929925N11151560WA0226502265
B2028213929926N11151566WA0226702267
B2028223929928N11151571WA0226802268
B2028233929931N11151576WA0226902269
B2028243929935N11151580WA0227002270
B2028253929940N11151583WA0227102271
B2028263929946N11151584WA0227302273
B2028273929950N11151582WA0227402274
B2028283929954N11151579WA0227602276
B2028293929957N11151573WA0227802278
B2028303929959N11151567WA0227902279
B2028313929959N11151560WA0227902279
B2028323929958N11151553WA0228002280
B2028333929955N11151546WA0228102281
B2028343929952N11151541WA0228202282
B2028353929948N11151537WA0228402284
B2028363929942N11151535WA0228602286
B2028373929937N11151534WA0228702287
B2028383929932N11151536WA0228802288
B2028393929927N11151538WA0228902289
B2028403929923N11151541WA0229002290
B2028413929920N11151546WA0229102291
B2028423929917N11151553WA0229102291
B2028433929916N11151560WA0229202292
B2028443929916N11151566WA0229402294
B2028453929918N11151572WA0229602296
B2028463929919N11151576WA0229802298
B2028473929920N11151581WA0230002300
B2028483929921N11151586WA0229902299
B2028493929923N11151592WA0229802298
B2028503929926N11151597WA0229802298
B2028513929928N11151602WA0229902299
B2028523929932N11151606WA0230002300
B2028533929937N11151607WA0230102301
B2028543929943N11151606WA0230102301
B2028553929948N11151603WA0230202302
B2028563929953N11151599WA0230402304
B2028573929957N11151595WA0230602306
B2028583929961N11151592WA0230802308
B2028593929966N11151588WA0230902309
B2029003929970N11151585WA0230902309
B2029013929975N11151583WA0230702307
B2029023929981N11151582WA0230602306
B2029033929987N11151584WA0230502305
B2029043929992N11151588WA0230302303
B2029053929997N11151592WA0230402304
B2029063930001N11151596WA0230502305
B2029073930005N11151600WA0230602306
B2029083930008N11151604WA0230702307
B2029093930012N11151607WA0230602306
B2029103930016N11151611WA0230602306
B2029113930023N11151613WA0230602306
B2029123930029N11151614WA0230702307
B2029133930036N11151611WA0230802308
B2029143930041N11151605WA0230802308
B2029153930045N11151598WA0230902309
B2029163930047N11151589WA0231002310
B2029173930047N11151580WA0231002310
B2029183930046N11151570WA0231002310
B2029193930042N11151562WA0231002310
B2029203930039N11151555WA0231102311
B2029213930034N11151550WA0231202312
B2029223930028N11151547WA0231202312
B2029233930023N11151545WA0231302313
B2029243930019N11151545WA0231302313
B2029253930015N11151547WA0231302313
B2029263930012N11151551WA0231402314
B2029273930010N11151556WA0231302313
B2029283930009N11151563WA0231302313
B2029293930009N11151570WA0231302313
B2029303930009N11151576WA0231302313
B2029313930010N11151582WA0231402314
B2029323930012N11151587WA0231402314
B2029333930015N11151592WA0231402314
B2029343930018N11151597WA0231402314
B2029353930021N11151602WA0231302313
B2029363930025N11151608WA0231202312
B2029373930029N11151613WA0231202312
B2029383930033N11151617WA0231302313
B2029393930038N11151619WA0231302313
B2029403930044N11151619WA0231402314
B2029413930050N11151619WA0231402314
B2029423930056N11151618WA0231402314
B2029433930063N11151615WA0231402314
B2029443930069N11151613WA0231302313
B2029453930075N11151609WA0231402314
B2029463930079N11151603WA0231502315
B2029473930083N11151596WA0231502315
B2029483930085N11151588WA0231502315
B2029493930088N11151580WA0231402314
B2029503930088N11151570WA0231302313
B2029513930087N11151561WA0231202312
B2029523930086N11151552WA0231202312
B2029533930083N11151545WA0231202312
B2029543930078N11151539WA0231202312
B2029553930073N11151535WA0231302313
B2029563930067N11151533WA0231302313
B2029573930062N11151532WA0231302313
B2029583930058N11151533WA0231302313
B2029593930053N11151535WA0231302313
B2030003930050N11151538WA0231302313
B2030013930047N11151542WA0231302313
B2030023930045N11151546WA0231202312
B2030033930044N11151550WA0231202312
B2030043930043N11151556WA0231102311
B2030053930043N11151562WA0231102311
B2030063930044N11151568WA0231002310
B2030073930045N11151575WA0231102311
B2030083930046N11151580WA0231102311
B2030093930048N11151586WA0231202312
B2030103930050N11151591WA0231302313
B2030113930054N11151595WA0231402314
B2030123930059N11151599WA0231402314
B2030133930066N11151600WA0231502315
B2030143930072N11151599WA0231702317
B2030153930077N11151596WA0231702317
B2030163930082N11151591WA0231702317
B2030173930086N11151585WA0231702317
B2030183930089N11151577WA0231602316
B2030193930092N11151569WA0231502315
B2030203930093N11151561WA0231502315
B2030213930093N11151553WA0231502315
B2030223930091N11151545WA0231402314
B2030233930086N11151539WA0231402314
B2030243930082N11151535WA0231502315
B2030253930077N11151532WA0231502315
B2030263930073N11151531WA0231502315
B2030273930068N11151531WA0231502315
B2030283930064N11151532WA0231402314
B2030293930060N11151535WA0231402314
B2030303930057N11151538WA0231402314
B2030313930054N11151543WA0231302313
B2030323930053N11151548WA0231302313
B2030333930052N11151554WA0231302313
B2030343930053N11151559WA0231302313
B2030353930055N11151564WA0231202312
B2030363930059N11151569WA0231202312
B2030373930062N11151574WA0231202312
B2030383930065N11151579WA0231302313
B2030393930068N11151583WA0231402314
B2030403930070N11151587WA0231502315
B2030413930072N11151592WA0231502315
B2030423930075N11151597WA0231402314
B2030433930077N11151602WA0231402314
B2030443930080N11151607WA0231302313
B2030453930083N11151611WA0231302313
B2030463930086N11151615WA0231302313
B2030473930090N11151618WA0231202312
B2030483930095N11151621WA0231202312
B2030493930099N11151622WA0231102311
B2030503930105N11151623WA0231002310
B2030513930111N11151624WA0230802308
B2030523930117N11151624WA0230602306
B2030533930123N11151624WA0230502305
B2030543930129N11151622WA0230502305
B2030553930134N11151621WA0230302303
B2030563930139N11151619WA0230102301
B2030573930145N11151617WA0229902299
B2030583930151N11151615WA0229702297
B2030593930157N11151614WA0229502295
B2031003930163N11151611WA0229302293
B2031013930169N11151608WA0229202292
B2031023930174N11151605WA0229102291
B2031033930180N11151602WA0228902289
B2031043930185N11151600WA0228702287
B2031053930190N11151598WA0228402284
B2031063930196N11151596WA0228202282
B2031073930202N11151595WA0228002280
B2031083930207N11151595WA0227802278
B2031093930213N11151596WA0227502275
B2031103930219N11151596WA0227302273
B2031113930225N11151597WA0227102271
B2031123930231N11151597WA0226902269
B2031133930237N11151598WA0226702267
B2031143930243N11151598WA0226402264
B2031153930249N11151599WA0226102261
B2031163930254N11151600WA0225802258
B2031173930260N11151601WA0225502255
B2031183930265N11151601WA0225302253
B2031193930270N11151601WA0225002250
B2031203930275N11151602WA0224602246
B2031213930281N11151603WA0224202242
B2031223930286N11151604WA0223902239
B2031233930292N11151605WA0223502235
B2031243930298N11151606WA0223202232
B2031253930303N11151606WA0222902229
B2031263930309N11151607WA0222602226
B2031273930316N11151608WA0222302223
B2031283930322N11151610WA0222002220
B2031293930327N11151612WA0221802218
B2031303930333N11151614WA0221602216
B2031313930338N11151614WA0221402214
B2031323930343N11151614WA0221102211
B2031333930349N11151613WA0220902209
B2031343930355N11151612WA0220602206
B2031353930362N11151611WA0220302203
B2031363930368N11151611WA0220102201
B2031373930374N11151610WA0220102201
B2031383930379N11151611WA0220002200
B2031393930385N11151611WA0219802198
B2031403930390N11151612WA0219602196
B2031413930397N11151612WA0219302193
B2031423930404N11151613WA0219102191
B2031433930410N11151614WA0219002190
B2031443930414N11151616WA0219002190
B2031453930417N11151618WA0219002190
B2031463930421N11151620WA0218902189
B2031473930426N11151622WA0218702187
B2031483930432N11151624WA0218502185
B2031493930438N11151626WA0218402184
B2031503930445N11151629WA0218302183
B2031513930451N11151630WA0218202182
B2031523930457N11151632WA0218202182
B2031533930463N11151633WA0218202182
B2031543930469N11151634WA0218302183
B2031553930475N11151634WA0218302183
B2031563930482N11151633WA0218302183
B2031573930488N11151633WA0218502185
B2031583930494N11151634WA0218802188
B2031593930499N11151635WA0219202192
B2032003930504N11151636WA0219502195
B2032013930509N11151637WA0219802198
B2032023930515N11151638WA0219902199
B2032033930521N11151640WA0220102201
B2032043930527N11151642WA0220202202
B2032053930533N11151645WA0220402204
B2032063930538N11151648WA0220702207
B2032073930542N11151651WA0221002210
B2032083930546N11151654WA0221302213
B2032093930550N11151658WA0221502215
B2032103930554N11151661WA0221602216
B2032113930558N11151665WA0221702217
B2032123930561N11151669WA0221902219
B2032133930564N11151674WA0222002220
B2032143930567N11151679WA0222002220
B2032153930571N11151686WA0222002220
B2032163930574N11151693WA0222002220
B2032173930578N11151700WA0222002220
B2032183930581N11151706WA0222002220
B2032193930585N11151711WA0221902219
B2032203930588N11151716WA0221902219
B2032213930592N11151720WA0221902219
B2032223930595N11151723WA0221902219
B2032233930600N11151725WA0221902219
B2032243930604N11151725WA0221802218
B2032253930609N11151724WA0221602216
B2032263930613N11151722WA0221502215
B2032273930617N11151720WA0221402214
B2032283930621N11151719WA0221402214
B2032293930625N11151718WA0221302213
B2032303930629N11151716WA0221202212
B2032313930633N11151715WA0221002210
B2032323930637N11151714WA0220802208
B2032333930642N11151713WA0220702207
B2032343930647N11151711WA0220502205
B2032353930651N11151708WA0220402204
B2032363930656N11151705WA0220202202
B2032373930661N11151702WA0220002200
B2032383930666N11151700WA0219902199
B2032393930671N11151698WA0219802198
B2032403930676N11151697WA0219702197
B2032413930681N11151696WA0219602196
B2032423930686N11151694WA0219402194
B2032433930691N11151693WA0219202192
B2032443930697N11151692WA0219102191
B2032453930702N11151690WA0219002190
B2032463930707N11151688WA0218902189
B2032473930712N11151686WA0218802188
B2032483930717N11151685WA0218702187
B2032493930722N11151683WA0218602186
B2032503930727N11151681WA0218402184
B2032513930732N11151680WA0218202182
B2032523930737N11151679WA0218102181
B2032533930743N11151678WA0217902179
B2032543930748N11151677WA0217802178
B2032553930753N11151675WA0217702177
B2032563930758N11151674WA0217502175
B2032573930764N11151672WA0217402174
B2032583930769N11151671WA0217402174
B2032593930774N11151670WA0217402174
B2033003930778N11151669WA0217402174
B2033013930782N11151667WA0217302173
B2033023930787N11151664WA0217202172
B2033033930792N11151661WA0217202172
B2033043930797N11151658WA0217102171
B2033053930802N11151654WA0216902169
B2033063930807N11151650WA0216702167
B2033073930813N11151648WA0216602166
B2033083930818N11151645WA0216402164
B2033093930823N11151643WA0216202162
B2033103930828N11151640WA0216002160
B2033113930834N11151636WA0215902159
B2033123930840N11151634WA0215802158
B2033133930845N11151632WA0215702157
B2033143930850N11151632WA0215802158
B2033153930854N11151631WA0215802158
B2033163930859N11151632WA0215702157
B2033173930864N11151632WA0215602156
B2033183930870N11151633WA0215502155
B2033193930875N11151634WA0215402154
B2033203930881N11151634WA0215402154
B2033213930886N11151634WA0215302153
B2033223930891N11151633WA0215302153
B2033233930896N11151632WA0215202152
B2033243930901N11151630WA0215102151
B2033253930905N11151629WA0215002150
B2033263930910N11151628WA0214802148
B2033273930915N11151628WA0214602146
B2033283930920N11151627WA0214402144
B2033293930925N11151627WA0214302143
B2033303930930N11151626WA0214202142
B2033313930935N11151626WA0214002140
B2033323930940N11151626WA0213902139
B2033333930945N11151626WA0213702137
B2033343930950N11151626WA0213602136
B2033353930955N11151624WA0213402134
B2033363930961N11151622WA0213302133
B2033373930966N11151621WA0213202132
B2033383930970N11151621WA0213102131
B2033393930975N11151622WA0213002130
B2033403930979N11151622WA0212802128
B2033413930984N11151622WA0212602126
B2033423930989N11151622WA0212502125
B2033433930995N11151621WA0212302123
B2033443931000N11151621WA0212102121
B2033453931005N11151622WA0212002120
B2033463931010N11151622WA0211902119
B2033473931015N11151621WA0211802118
B2033483931021N11151621WA0211702117
B2033493931026N11151621WA0211602116
B2033503931031N11151621WA0211502115
B2033513931036N11151621WA0211502115
B2033523931039N11151621WA0211502115
B2033533931044N11151622WA0211502115
B2033543931048N11151622WA0211502115
B2033553931052N11151623WA0211402114
B2033563931057N11151625WA0211302113
B2033573931061N11151627WA0211202112
B2033583931065N11151629WA0211202112
B2033593931069N11151631WA0211202112
B2034003931073N11151633WA0211102111
B2034013931077N11151635WA0211102111
B2034023931081N11151636WA0211002110
B2034033931085N11151637WA0211002110
B2034043931089N11151638WA0210902109
B2034053931093N11151638WA0210802108
B2034063931097N11151639WA0210802108
B2034073931102N11151640WA0210702107
B2034083931107N11151640WA0210802108
B2034093931112N11151640WA0210702107
B2034103931118N11151640WA0210702107
B2034113931124N11151641WA0210702107
B2034123931129N11151641WA0210702107
B2034133931136N11151640WA0210702107
B2034143931141N11151639WA0210802108
B2034153931146N11151639WA0210802108
B2034163931150N11151637WA0210702107
B2034173931155N11151636WA0210502105
B2034183931160N11151635WA0210302103
B2034193931166N11151635WA0209902099
B2034203931172N11151636WA0209602096
B2034213931178N11151637WA0209402094
B2034223931184N11151638WA0209202092
B2034233931190N11151638WA0209002090
B2034243931196N11151638WA0208902089
B2034253931202N11151637WA0208702087
B2034263931208N11151635WA0208402084
B2034273931214N11151633WA0208202082
B2034283931219N11151630WA0208002080
B2034293931225N11151627WA0207702077
B2034303931231N11151623WA0207402074
B2034313931236N11151619WA0207202072
B2034323931242N11151615WA0207102071
B2034333931248N11151612WA0206802068
B2034343931253N11151608WA0206502065
B2034353931259N11151605WA0206202062
B2034363931266N11151602WA0205802058
B2034373931273N11151599WA0205502055
B2034383931279N11151597WA0205202052
B2034393931286N11151595WA0205002050
B2034403931292N11151594WA0204702047
B2034413931298N11151592WA0204402044
B2034423931305N11151590WA0204102041
B2034433931311N11151589WA0203902039
B2034443931317N11151588WA0203602036
B2034453931324N11151588WA0203302033
B2034463931330N11151586WA0203102031
B2034473931336N11151585WA0202802028
B2034483931343N11151584WA0202602026
B2034493931349N11151583WA0202302023
B2034503931355N11151582WA0202102021
B2034513931362N11151581WA0201802018
B2034523931368N11151580WA0201602016
B2034533931375N11151580WA0201302013
B2034543931381N11151580WA0201102011
B2034553931387N11151580WA0201002010
B2034563931393N11151580WA0200802008
B2034573931399N11151580WA0200702007
B2034583931405N11151579WA0200502005
B2034593931411N11151580WA0200302003
B2035003931417N11151580WA0200102001
B2035013931423N11151581WA0199901999
B2035023931429N11151582WA0199701997
B2035033931434N11151582WA0199601996
B2035043931440N11151583WA0199401994
B2035053931446N11151583WA0199201992
B2035063931452N11151582WA0199001990
B2035073931459N11151581WA0198801988
B2035083931465N11151579WA0198601986
B2035093931472N11151577WA0198401984
B2035103931478N11151574WA0198201982
B2035113931484N11151571WA0198101981
B2035123931490N11151568WA0198001980
B2035133931496N11151564WA0197901979
B2035143931500N11151560WA0197701977
B2035153931505N11151554WA0197501975
B2035163931510N11151548WA0197301973
B2035173931515N11151542WA0197001970
B2035183931521N11151536WA0196801968
B2035193931527N11151532WA0196701967
B2035203931532N11151528WA0196601966
B2035213931537N11151524WA0196501965
B2035223931542N11151521WA0196301963
B2035233931548N11151517WA0196001960
B2035243931554N11151513WA0195701957
B2035253931560N11151508WA0195501955
B2035263931565N11151504WA0195301953
B2035273931569N11151499WA0195201952
B2035283931573N11151493WA0195001950
B2035293931578N11151487WA0194801948
B2035303931583N11151482WA0194501945
B2035313931588N11151476WA0194301943
B2035323931593N11151469WA0194101941
B2035333931597N11151463WA0194001940
B2035343931602N11151456WA0193801938
B2035353931607N11151449WA0193601936
B2035363931613N11151444WA0193401934
B2035373931618N11151439WA0193401934
B2035383931623N11151435WA0193401934
B2035393931629N11151432WA0193401934
B2035403931634N11151429WA0193301933
B2035413931639N11151428WA0193201932
B2035423931644N11151428WA0193101931
B2035433931649N11151430WA0192901929
B2035443931653N11151434WA0192801928
B2035453931656N11151438WA0192701927
B2035463931659N11151443WA0192601926
B2035473931661N11151448WA0192401924
B2035483931662N11151454WA0192301923
B2035493931663N11151459WA0192201922
B2035503931665N11151464WA0192101921
B2035513931670N11151467WA0192001920
B2035523931674N11151471WA0191801918
B2035533931679N11151476WA0191701917
B2035543931683N11151480WA0191501915
B2035553931686N11151484WA0191401914
B2035563931690N11151488WA0191301913
B2035573931693N11151491WA0191201912
B2035583931698N11151493WA0191101911
B2035593931702N11151495WA0191001910
B2036003931707N11151496WA0190901909
B2036013931711N11151496WA0190701907
B2036023931717N11151496WA0190601906
B2036033931722N11151495WA0190401904
B2036043931727N11151493WA0190201902
B2036053931733N11151490WA0189901899
B2036063931739N11151486WA0189701897
B2036073931743N11151481WA0189501895
B2036083931748N11151477WA0189301893
B2036093931752N11151472WA0189001890
B2036103931757N11151466WA0188801888
B2036113931761N11151461WA0188501885
B2036123931766N11151455WA0188301883
B2036133931771N11151450WA0188001880
B2036143931776N11151444WA0187801878
B2036153931782N11151439WA0187601876
B2036163931787N11151435WA0187301873
B2036173931793N11151430WA0187201872
B2036183931798N11151426WA0186901869
B2036193931804N11151422WA0186701867
B2036203931809N11151418WA0186501865
B2036213931814N11151413WA0186301863
B2036223931820N11151408WA0186001860
B2036233931825N11151403WA0185701857
B2036243931831N11151399WA0185501855
B2036253931837N11151395WA0185301853
B2036263931844N11151392WA0185101851
B2036273931850N11151389WA0185001850
B2036283931856N11151387WA0184801848
B2036293931862N11151385WA0184701847
B2036303931867N11151384WA0184501845
B2036313931873N11151384WA0184201842
B2036323931879N11151384WA0184001840
B2036333931886N11151385WA0183801838
B2036343931892N11151385WA0183601836
B2036353931898N11151385WA0183401834
B2036363931904N11151385WA0183201832
B2036373931910N11151386WA0183001830
B2036383931916N11151385WA0182701827
B2036393931922N11151385WA0182501825
B2036403931928N11151383WA0182301823
B2036413931933N11151382WA0182201822
B2036423931937N11151380WA0181901819
B2036433931942N11151379WA0181601816
B2036443931947N11151377WA0181401814
B2036453931953N11151374WA0181101811
B2036463931958N11151371WA0180801808
B2036473931963N11151368WA0180601806
B2036483931968N11151364WA0180401804
B2036493931973N11151361WA0180101801
B2036503931979N11151358WA0179901799
B2036513931984N11151355WA0179501795
B2036523931990N11151352WA0179101791
B2036533931996N11151349WA0178901789
B2036543932002N11151345WA0178701787
B2036553932006N11151341WA0178501785
B2036563932011N11151336WA0178301783
B2036573932015N11151331WA0178001780
B2036583932020N11151324WA0177801778
B2036593932025N11151318WA0177501775
B2037003932029N11151313WA0177401774
B2037013932034N11151309WA0177301773
B2037023932039N11151306WA0177101771
B2037033932045N11151303WA0176901769
B2037043932051N11151301WA0176601766
B2037053932058N11151299WA0176301763
B2037063932064N11151299WA0176001760
B2037073932070N11151299WA0175701757
B2037083932076N11151301WA0175501755
B2037093932082N11151302WA0175301753
B2037103932087N11151304WA0175201752
B2037113932092N11151307WA0175001750
B2037123932097N11151309WA0174801748
B2037133932102N11151312WA0174501745
B2037143932106N11151316WA0174301743
B2037153932111N11151319WA0174101741
B2037163932116N11151323WA0173801738
B2037173932120N11151326WA0173601736
B2037183932125N11151329WA0173401734
B2037193932131N11151331WA0173201732
B2037203932136N11151333WA0173001730
B2037213932142N11151334WA0172801728
B2037223932148N11151334WA0172601726
B2037233932154N11151333WA0172501725
B2037243932159N11151330WA0172301723
B2037253932165N11151326WA0172101721
B2037263932170N11151322WA0171801718
B2037273932175N11151316WA0171601716
B2037283932179N11151310WA0171401714
B2037293932183N11151303WA0171201712
B2037303932187N11151296WA0170901709
B2037313932191N11151288WA0170701707
B2037323932195N11151281WA0170501705
B2037333932199N11151274WA0170501705
B2037343932204N11151267WA0170301703
B2037353932210N11151261WA0170101701
B2037363932217N11151258WA0170001700
B2037373932223N11151256WA0170101701
B2037383932228N11151255WA0170201702
B2037393932233N11151256WA0170101701
B2037403932238N11151257WA0169901699
B2037413932243N11151259WA0169601696
B2037423932250N11151261WA0169401694
B2037433932256N11151263WA0169101691
B2037443932261N11151265WA0168901689
B2037453932266N11151268WA0168701687
B2037463932271N11151272WA0168601686
B2037473932275N11151276WA0168501685
B2037483932280N11151279WA0168501685
B2037493932284N11151281WA0168401684
B2037503932288N11151284WA0168301683
B2037513932292N11151286WA0168101681
B2037523932296N11151290WA0167801678
B2037533932297N11151295WA0167501675
B2037543932296N11151300WA0167101671
B2037553932292N11151304WA0166701667
B2037563932287N11151306WA0166501665
B2037573932282N11151304WA0166501665
B2037583932277N11151300WA0166401664
B2037593932273N11151296WA0166301663
B2038003932270N11151292WA0166101661
B2038013932266N11151287WA0166001660
B2038023932261N11151283WA0165901659
B2038033932257N11151281WA0165701657
B2038043932252N11151281WA0165701657
B2038053932248N11151281WA0165601656
B2038063932245N11151282WA0165601656
B2038073932243N11151283WA0165501655
B2038083932240N11151284WA0165401654
B2038093932236N11151286WA0165301653
B2038103932234N11151289WA0165201652
B2038113932233N11151293WA0165101651
B2038123932233N11151299WA0165001650
B2038133932234N11151305WA0164901649
B2038143932235N11151310WA0164901649
B2038153932237N11151315WA0164801648
B2038163932240N11151321WA0164601646
B2038173932242N11151326WA0164501645
B2038183932243N11151332WA0164401644
B2038193932244N11151338WA0164301643
B2038203932244N11151343WA0164301643
B2038213932242N11151347WA0164501645
B2038223932238N11151350WA0164501645
B2038233932234N11151351WA0164501645
B2038243932230N11151352WA0164501645
B2038253932226N11151353WA0164401644
B2038263932223N11151355WA0164401644
B2038273932220N11151359WA0164401644
B2038283932219N11151364WA0164201642
B2038293932221N11151370WA0164101641
B2038303932224N11151375WA0163901639
B2038313932229N11151377WA0163901639
B2038323932233N11151378WA0163901639
B2038333932238N11151378WA0163801638
B2038343932243N11151379WA0163801638
B2038353932248N11151380WA0163801638
B2038363932252N11151382WA0163801638
B2038373932256N11151385WA0163401634
B2038383932259N11151389WA0163301633
B2038393932262N11151394WA0163201632
B2038403932264N11151399WA0163101631
B2038413932266N11151404WA0163001630
B2038423932267N11151408WA0162901629
B2038433932267N11151409WA0162901629
B2038443932267N11151410WA0162901629
B2038453932267N11151410WA0162901629
B2038463932267N11151410WA0162801628
B2038473932267N11151410WA0162801628
B2038483932267N11151410WA0162801628
B2038493932267N11151409WA0162901629
B2038503932267N11151409WA0163001630
B2038513932267N11151409WA0163001630
B2038523932267N11151409WA0163001630
B2038533932267N11151409WA0163101631
B2038543932267N11151409WA0163101631
B2038553932267N11151409WA0163101631
B2038563932267N11151409WA0163201632
B2038573932267N11151409WA0163201632
B2038583932267N11151409WA0163301633
B2038593932267N11151409WA0163301633
B2039003932268N11151409WA0163301633
B2039013932268N11151409WA0163301633
B2039023932268N11151409WA0163401634
B2039033932268N11151408WA0163401634
B2039043932268N11151408WA0163401634
B2039053932268N11151409WA0163401634
B2039063932268N11151409WA0163501635
B2039073932268N11151409WA0163501635
B2039083932268N11151408WA0163501635
B2039093932268N11151408WA0163501635
B2039103932268N11151408WA0163501635
